ShowName,ShowDate,ShowYear,ShowWebsite,SubmittedBy,ExhibitorName,BoothNumber,HallLocation,Website,Email,Phone,Fax,Address,Country,Categories,Manufacturers,Brands,Description
Sports Licensing and Tailgate Show,01/19/2022,2022,https://sportstailgateshow.com/,DM,Game Time,3001,,https://gametimewatch.com/,,,,"Tarrytown, NY United States",United States,Accessories | Apparel - Children's | Apparel - Men's | Apparel - Women's | Gifts & Novelties | Sports Equipment/Accessories - Licensed,,,GAME TIME - THE LEADER IN LICENSED SPORTS WATCHES!
Sports Licensing and Tailgate Show,01/19/2022,2022,https://sportstailgateshow.com/,DM,Changes,3132,,http://changesonline.com,,,,"Islandia, NY United States",United States,Accessories | Apparel - Men's | Apparel - Women's,,,"Changes is the official apparel licensee for the hit TV Show YELLOWSTONE, and the thrilling sport of PBR (PROFESSIONAL BULL RIDERS). We have lot's of other great licenses too, so please swing by and see us!"
Sports Licensing and Tailgate Show,01/19/2022,2022,https://sportstailgateshow.com/,DM,Cathay Sports,3023,,http://www.cathayhomesports.com,,,,"New York, NY United States",United States,Home Furnishings & Housewares,,,
Sports Licensing and Tailgate Show,01/19/2022,2022,https://sportstailgateshow.com/,DM,Camp David,5075,,http://www.campdavid.com,,,,"Overland Park, KS United States",United States,Apparel - Men's | Apparel - Women's | Headwear,,,
Sports Licensing and Tailgate Show,01/19/2022,2022,https://sportstailgateshow.com/,DM,Cards Plus,1034,,,,,,"Manalapan, NJ United States",United States,Accessories | Collectibles & Trading Cards | Gifts & Novelties | Imprinted/Embroidered Items | Sports Equipment/Accessories - Licensed,,,"We are full line Zippo distributors.  We carry the Complete Line Collection including NFL, MLB, NHL, Harley Davidson, Military, Patriotic, Music, Jack Daniels, Jim Beam,  etc.  Custom imprints can be made! Fluid, flint, wick, pouches and gift boxes available.  Free displays for qualifying purchases.  Stop by for the Show Specials we are offering!"
Sports Licensing and Tailgate Show,01/19/2022,2022,https://sportstailgateshow.com/,DM,Charles River Apparel,7113,,http://www.charlesriverapparel.com,,,,"Sharon, MA United States",United States,Apparel - Children's | Apparel - Men's | Apparel - Women's | Imprinted/Embroidered Items,,,Charles River Apparel is a 3rd generation family business with a focus on unique and exclusive apparel designed 100% in house. Come check out our booth and see our brand new spring line plus all of our best sellers!
Sports Licensing and Tailgate Show,01/19/2022,2022,https://sportstailgateshow.com/,DM,B-Unlimited,8103,,http://www.b-unlimited.com,,,,"FAYETTEVILLE, AR United States",United States,Accessories | Apparel - Children's | Apparel - Men's | Apparel - Women's | Headwear | Imprinted/Embroidered Items,,,B-Unlimited is a design and apparel company specializing in unique artwork and water based ink screen printing.  We hold various collegiate licenses and create unique designs with a hint of retro and vintage.
Sports Licensing and Tailgate Show,01/19/2022,2022,https://sportstailgateshow.com/,DM,Capri Designs,7097,,http://www.capridesigns.com,,,,"Lavonia, GA United States",United States,Accessories | Apparel - Women's | Gifts & Novelties | Imprinted/Embroidered Items | Stationery & School Supplies,,,Be in the Clear with Capri Designs licensed Game Day bags.
Sports Licensing and Tailgate Show,01/19/2022,2022,https://sportstailgateshow.com/,DM,BUMPBOXX,3117,,www.bumpboxx.com,,,,"Stockton, CA United States",United States,,,,
Sports Licensing and Tailgate Show,01/19/2022,2022,https://sportstailgateshow.com/,DM,Boxercraft/Russell Athletic,8019,,http://www.boxercraft.com,,,,"Mableton, GA United States",United States,Apparel - Children's | Apparel - Men's | Apparel - Women's | Imprinted/Embroidered Items,,,America's #1 Spiritwear Source
Sports Licensing and Tailgate Show,01/19/2022,2022,https://sportstailgateshow.com/,DM,"BSI Products, Inc.",8092,,http://www.bsiproducts.com,,,,"Columbia, MD United States",United States,Accessories | Automotive | Collectibles & Trading Cards | Gifts & Novelties | Home Furnishings & Housewares | Other | Picnic/Tailgating Products | Toys & Games,,,The Mark of Quality and Value in Licensed Sports Products.
Sports Licensing and Tailgate Show,01/19/2022,2022,https://sportstailgateshow.com/,DM,Big Ideas Marketing,5146,,http://www.bigideasmarketing.com,,,,"LINCOLN, RI United States",United States,,,,
Sports Licensing and Tailgate Show,01/19/2022,2022,https://sportstailgateshow.com/,DM,Blue 84,4035,,http://www.blue84.com,,,,"Detroit Lakes, MN United States",United States,Apparel - Children's | Apparel - Men's | Apparel - Women's | Imprinted/Embroidered Items,,,"Screenprint and embroidery company licensed with the NCAA. Licensed NCAA Championship provider of men's, women's and kids apparel."
Sports Licensing and Tailgate Show,01/19/2022,2022,https://sportstailgateshow.com/,DM,zoozatz,7069,,http://www.zoozatz.com,,,,"Plymouth, MN United States",United States,Accessories | Apparel - Children's | Apparel - Men's | Apparel - Women's | Headwear,,,Be Fierce. Stand Spirited. Love Your Team. #GamedayEveryday
Sports Licensing and Tailgate Show,01/19/2022,2022,https://sportstailgateshow.com/,DM,Blakeway Panoramas,3102,,http://www.panoramas.com,,,,"Minnetonka, MN United States",United States,Gifts & Novelties | Home Furnishings & Housewares,,,The best and best-selling sports panoramas you can find.
Sports Licensing and Tailgate Show,01/19/2022,2022,https://sportstailgateshow.com/,DM,Blue Sky Outdoor Living,4097,,http://www.blueskyoutdoorliving.com,,,,"Romeoville, IL United States",United States,Picnic/Tailgating Products,,,
Sports Licensing and Tailgate Show,01/19/2022,2022,https://sportstailgateshow.com/,DM,Zipmates,1107,,http://www.zipmates.com,,,,"Los Angeles, CA United States",United States,Accessories | Collectibles & Trading Cards | Gifts & Novelties | Sports Equipment/Accessories - Licensed,,,Zipmates - Goes on Everything!
Sports Licensing and Tailgate Show,01/19/2022,2022,https://sportstailgateshow.com/,DM,Zippo Manufacturing Co.,1038,,http://www.zippo.com,,,,"Bradford, PA United States",United States,Accessories | Gifts & Novelties | Picnic/Tailgating Products,,,"One of the most recognized brands in the world, Zippo was founded in the fall of 1932 by George G. Blaisdell in Bradford, PA, where it has manufactured over 500 million windproof lighters. With the exception of improvements to the flint wheel and modifications in case finishes, the product remains unchanged and is backed by the companys famous lifetime guarantee  ""It works, or we fix it free."" Zippos diverse product line includes lighter accessories; butane candle lighters; watches, fragrance, and lifestyle accessories for men; and a robust line of heat and flame products for outdoor enthusiasts."
Sports Licensing and Tailgate Show,01/19/2022,2022,https://sportstailgateshow.com/,DM,ZEP-PRO,2073,,http://www.zeppro.com,,,,"Pembroke Park, FL United States",United States,Accessories | Apparel - Men's | Footwear | Gifts & Novelties | Imprinted/Embroidered Items | Other | Pet Products,,,"Zep-Pro is a leading manufacturer of collegiate belts, wallets, pet products, flip flops and accessories. The product line includes leather and non-leather items embellished with metal concho emblems, embroidered, embossed and ribbon designs. The company also holds the Mossy Oak license for its hunting, fishing and outdoor product line."
Sports Licensing and Tailgate Show,01/19/2022,2022,https://sportstailgateshow.com/,DM,YouTheFan,4082,,http://www.youthefan.com,,,,"Warsaw, IN United States",United States,Gifts & Novelties | Home Furnishings & Housewares | Picnic/Tailgating Products | Toys & Games,,,Officially Licensed. Officially Awesome.
Sports Licensing and Tailgate Show,01/19/2022,2022,https://sportstailgateshow.com/,DM,Winning Streak Sports,5083,,http://www.winningstreaksports.com,,,,"Lenexa, KS United States",United States,Gifts & Novelties | Home Furnishings & Housewares | Imprinted/Embroidered Items,,,.
Sports Licensing and Tailgate Show,01/19/2022,2022,https://sportstailgateshow.com/,DM,Zephyr,3033,,http://www.zhats.com,,,,"Detroit Lakes, MN United States",United States,Accessories | Headwear | Imprinted/Embroidered Items,,,
Sports Licensing and Tailgate Show,01/19/2022,2022,https://sportstailgateshow.com/,DM,"Branded Custom Sportswear, Inc",8047,,http://www.bcsapparel.com,,,,"Overland Park, KS United States",United States,Apparel - Children's | Apparel - Men's | Apparel - Women's | Headwear,,,
Sports Licensing and Tailgate Show,01/19/2022,2022,https://sportstailgateshow.com/,DM,Westbrook Sports Classics,4132,,http://www.westbrooksportsclassics.com,,,,"Scottsdale , AZ United States",United States,Gifts & Novelties,,,.
Sports Licensing and Tailgate Show,01/19/2022,2022,https://sportstailgateshow.com/,DM,Wholesale Express Sports,8067,,http://www.wsesports.com,,,,"Runnemede, NJ United States",United States,,,,
Sports Licensing and Tailgate Show,01/19/2022,2022,https://sportstailgateshow.com/,DM,Wilson Sporting Goods,1032,,http://www.wilson.com,,,,"Chicago, IL United States",United States,Sports Equipment/Accessories - Licensed,,,
Sports Licensing and Tailgate Show,01/19/2022,2022,https://sportstailgateshow.com/,DM,Victory Tailgate,2009,,http://www.victorytailgate.com,,,,"Orlando, FL United States",United States,Accessories | Home Furnishings & Housewares | Picnic/Tailgating Products | Sports Equipment/Accessories - Licensed | Sports Equipment/Accessories - Non Licensed | Toys & Games,,,Building an American tradition.
Sports Licensing and Tailgate Show,01/19/2022,2022,https://sportstailgateshow.com/,DM,YouTheFan,4083,,http://www.youthefan.com,,,,"Warsaw, IN United States",United States,Gifts & Novelties | Home Furnishings & Housewares | Picnic/Tailgating Products | Toys & Games,,,Officially Licensed. Officially Awesome.
Sports Licensing and Tailgate Show,01/19/2022,2022,https://sportstailgateshow.com/,DM,Wendell August Forge,2110,,http://www.wendellaugust.com,,,,"Mercer, PA United States",United States,Gifts & Novelties | Home Furnishings & Housewares,,,"Handcrafting metal giftware since 1923, Wendell August Forge creates unique licensed gifts for homegating and the holidays."
Sports Licensing and Tailgate Show,01/19/2022,2022,https://sportstailgateshow.com/,DM,Vertical Athletics INC DBA Bani Bands Headbands DBA Sweatopause,3089,,http://www.VerticalAthletics.com,,,,"Carson City, NV United States",United States,Accessories | Apparel - Children's | Apparel - Men's | Apparel - Women's | Gifts & Novelties | Headwear | Imprinted/Embroidered Items | Other | Picnic/Tailgating Products | Sports Equipment/Accessories - Licensed | Sports Equipment/Accessories - Non Licensed,,,Performance cooling accessories for athletes and fans.
Sports Licensing and Tailgate Show,01/19/2022,2022,https://sportstailgateshow.com/,DM,Vera Bradley,7116,,http://www.verabradley.com,,,,"Roanoke, IN United States",United States,Accessories | Gifts & Novelties | Imprinted/Embroidered Items | Sports Equipment/Accessories - Licensed,,,Vera Bradley has built a 40 year heritage of supporting retailers.  Developing iconic products that drive traffic and build a profitable partnership.
Sports Licensing and Tailgate Show,01/19/2022,2022,https://sportstailgateshow.com/,DM,Vantage Apparel,7093,,http://www.vantage77.com,,,,"Avenel, NJ United States",United States,Apparel - Men's | Apparel - Women's | Headwear | Imprinted/Embroidered Items,,,
Sports Licensing and Tailgate Show,01/19/2022,2022,https://sportstailgateshow.com/,DM,"U-Stencil  dba of DVThompson & Associates, LLC",7110,,http://www.u-stencil.com,,,,"Arlington, TX United States",United States,Accessories | Business/ Retail Services | Consumables | Gifts & Novelties | Other | Picnic/Tailgating Products | Sports Equipment/Accessories - Licensed | Sports Equipment/Accessories - Non Licensed | Stationery & School Supplies,,,"All sizes of Stencils for DIY, Culinary and All Made in USA"
Sports Licensing and Tailgate Show,01/19/2022,2022,https://sportstailgateshow.com/,DM,USA Licensed Bows,3070,,http://www.sportsbows.com,,,,"Wentzville, MO United States",United States,Accessories | Apparel - Children's | Apparel - Women's | Gifts & Novelties | Headwear,,,"Leader in College, MLB & Custom Ribbon / Hair Accessories."
Sports Licensing and Tailgate Show,01/19/2022,2022,https://sportstailgateshow.com/,DM,Uscape Apparel,2061,,http://www.uscapeapparel.com,,,,"Irvine, CA United States",United States,Accessories | Apparel - Men's | Apparel - Women's | Headwear,,,Rep Your Skyline
Sports Licensing and Tailgate Show,01/19/2022,2022,https://sportstailgateshow.com/,DM,VIve La Fete,7114,,http://www.vivelafete.com,,,,"Miami, FL United States",United States,Accessories | Apparel - Children's | Apparel - Men's | Apparel - Women's | Gifts & Novelties | Imprinted/Embroidered Items | Other,,,Licensed Apparel - newborn to youth & private label company
Sports Licensing and Tailgate Show,01/19/2022,2022,https://sportstailgateshow.com/,DM,University Frames Inc,4123,,http://www.universityframes.com,,,,"Anaheim, CA United States",United States,Gifts & Novelties | Home Furnishings & Housewares | Imprinted/Embroidered Items | Other | Sports Equipment/Accessories - Licensed | Stationery & School Supplies,,,"University Frames manufactures officially licensed quality custom diploma and certificate frames for graduates of 100's of universities across the US,and all branches of the military (Patriot Frames). Our popular brand of online products, Campus Images, appeals to NCAA graduates and Alumni. Each frame is hand crafted using the finest materials."
Sports Licensing and Tailgate Show,01/19/2022,2022,https://sportstailgateshow.com/,DM,"UPI MARKETING, INC.",8093,,http://www.upimarketing.com,,,,"Hermosa Beach, CA United States",United States,Accessories | Automotive | Collectibles & Trading Cards | Footwear | Gifts & Novelties | Home Furnishings & Housewares | Other | Pet Products | Picnic/Tailgating Products | Toys & Games,,,"UPI Marketing 27 year veteran of NFL, NFLPA, MLB, NHL & NBA!"
Sports Licensing and Tailgate Show,01/19/2022,2022,https://sportstailgateshow.com/,DM,University Blanket & Flag Corporation,1077,,http://www.ubflag.com,,,,"Coronado, CA United States",United States,,,,
Sports Licensing and Tailgate Show,01/19/2022,2022,https://sportstailgateshow.com/,DM,Valiant Gifts,3108,,www.valiantgifts.com,,,,"Huntsville, AL United States",United States,,,,
Sports Licensing and Tailgate Show,01/19/2022,2022,https://sportstailgateshow.com/,DM,Wes and Willy,4029,,http://www.wesandwilly.com,,,,"Omaha, NE United States",United States,Apparel - Women's | Apparel - Children's | Apparel - Men's,,,
Sports Licensing and Tailgate Show,01/19/2022,2022,https://sportstailgateshow.com/,DM,vineyard vines,7092,,http://www.vineyardvines.com,,,,"Stamford, CT United States",United States,,,,
Sports Licensing and Tailgate Show,01/19/2022,2022,https://sportstailgateshow.com/,DM,Under Armour,4061,,http://www.gearforsports.com,,,,"Lenexa, KS United States",United States,Accessories | Apparel - Children's | Apparel - Men's | Apparel - Women's | Headwear,,,Under Armour Makes You Better
Sports Licensing and Tailgate Show,01/19/2022,2022,https://sportstailgateshow.com/,DM,United States Marine Corps,2123,,http://marines.mil/trademark,,,,"Las Vegas, NV United States",United States,Accessories | Apparel - Men's | Apparel - Women's | Gifts & Novelties | Headwear | Other,,,"USMC Trademark Licensing Office, Booth #2327. Semper Fi!"
Sports Licensing and Tailgate Show,01/19/2022,2022,https://sportstailgateshow.com/,DM,Ultra Game,5033,,http://www.icerbrands.com,,,,"New York, NY United States",United States,Apparel - Children's | Apparel - Men's | Apparel - Women's,,,NBA & NFL licensed team fashion apparel for men & women.
Sports Licensing and Tailgate Show,01/19/2022,2022,https://sportstailgateshow.com/,DM,Turner Licensing,2095,,http://thelangcompanies.com,,,,"Waukesha, WI United States",United States,Gifts & Novelties | Home Furnishings & Housewares | Sports Equipment/Accessories - Licensed | Stationery & School Supplies,,,
Sports Licensing and Tailgate Show,01/19/2022,2022,https://sportstailgateshow.com/,DM,Tudor Games,4142,,http://www.tudorgames.com,,,,"SAMMAMISH, WA United States",United States,Home Furnishings & Housewares | Picnic/Tailgating Products | Collectibles & Trading Cards | Gifts & Novelties | Sports Equipment/Accessories - Licensed | Toys & Games,,,The World's Favorite Football Game!
Sports Licensing and Tailgate Show,01/19/2022,2022,https://sportstailgateshow.com/,DM,Tommy Bahama,5110,,http://www.tommybahama.com,,,,"Seattle, WA United States",United States,Accessories | Apparel - Men's | Apparel - Women's | Footwear | Headwear | Sports Equipment/Accessories - Licensed,,,
Sports Licensing and Tailgate Show,01/19/2022,2022,https://sportstailgateshow.com/,DM,Tommy Hilfiger Sport,5039,,http://www.g-iii.com,,,,"New York, NY United States",United States,Apparel - Men's | Apparel - Women's | Headwear,,,"G-III Sports Consists of GIII4her By Carl Banks, G-III Sports by Carl Banks, Touch by Alyssa Milano, Starter and Hands High by Jimmy Fallon.    We hold licenses for the NFL, NHL, MLB, NCAA, and NBA.  Leader in Sports Fashion."
Sports Licensing and Tailgate Show,01/19/2022,2022,https://sportstailgateshow.com/,DM,Total Computing Solutions - Zumasys,3110,,http://www.total-computing.com,,,,"American Fork, UT United States",United States,Business/ Retail Services | Consumables | Other | Stationery & School Supplies,,,"Industry Leading POS, Webstore and Inventory Control System"
Sports Licensing and Tailgate Show,01/19/2022,2022,https://sportstailgateshow.com/,DM,Trends International,1109,,http://trendsinternational.com,,,,"Indianapolis, IN United States",United States,Accessories | Collectibles & Trading Cards | Gifts & Novelties | Other,,,"Trends International, LLC is the leading publisher and manufacturer of licensed posters, calendars, stickers and social stationery products. Our dedication to quality product, competitive pricing and outstanding customer service has been central in positioning the company as the foremost leader within these product categories."
Sports Licensing and Tailgate Show,01/19/2022,2022,https://sportstailgateshow.com/,DM,Tokens & Icons,2102,,http://www.tokens-icons.com,,,,"BERKELEY, CA United States",United States,Accessories | Gifts & Novelties,,,"Tokens & Icons is a Berkeley, CA based company that specializes in taking your authentic artifacts and repurposing them into functional, meaningful gifts."
Sports Licensing and Tailgate Show,01/19/2022,2022,https://sportstailgateshow.com/,DM,Timex Tribute Collection,2077,,http://www.timex.com/tribute,,,,"Middlebury, CT United States",United States,Accessories | Gifts & Novelties | Other | Sports Equipment/Accessories - Licensed,,,Quality Timepieces to Celebrate Your Favorite Team
Sports Licensing and Tailgate Show,01/19/2022,2022,https://sportstailgateshow.com/,DM,Tiny Turnip LLC,2094,,http://www.tinyturnip.com,,,,"San Clemente, CA United States",United States,Apparel - Children's | Apparel - Women's,,,"Cultivating art, fashion and imagination."
Sports Licensing and Tailgate Show,01/19/2022,2022,https://sportstailgateshow.com/,DM,Third Street Sportswear,7107,,http://www.thirdstreetsportswear.com,,,,"Ozark, MO United States",United States,Apparel - Children's | Imprinted/Embroidered Items | Jerseys | Other,,,"Infant, Toddler & Youth. 100% Made in USA since 1986."
Sports Licensing and Tailgate Show,01/19/2022,2022,https://sportstailgateshow.com/,DM,The Memory Company,5001,,http://www.memorycompany.com,,,,"Phenix City, AL United States",United States,Collectibles & Trading Cards | Gifts & Novelties | Home Furnishings & Housewares | Other | Picnic/Tailgating Products,,,"The Memory Company has distinguished itself as a premier designer and marketer of licensed sports related gifts, drink ware, collectibles, lighting and home decor products.  The Memory Company, LLC, is a privately held corporation based in Phenix City, Alabama.  Recognized for its creative product development."
Sports Licensing and Tailgate Show,01/19/2022,2022,https://sportstailgateshow.com/,DM,The Wild Collective,4111,,http://www.wearethewildco.com,,,,"Henderson, NV United States",United States,Accessories | Apparel - Children's | Apparel - Men's | Apparel - Women's | Headwear | Imprinted/Embroidered Items,,,Rep your team from the street to the stadium.
Sports Licensing and Tailgate Show,01/19/2022,2022,https://sportstailgateshow.com/,DM,The Emblem Source,5095,,http://www.theemblemsource.com,,,,"Addison, TX United States",United States,Collectibles & Trading Cards | Headwear | Imprinted/Embroidered Items | Sports Equipment/Accessories - Licensed,,,"The Emblem Source holds licenses for Major League Baseball, MiLB, MLBPA, NCAA Football and NBA for retail embroidered patches. TES assists Teams, organizations, associations, and businesses cost effectively build brand awareness with solutions, such as, commemorative products, promotional items, uniforms and workwear."
Sports Licensing and Tailgate Show,01/19/2022,2022,https://sportstailgateshow.com/,DM,Tervis,4071,,http://b2b.tervis.com,,,,"N. Venice, FL United States",United States,Gifts & Novelties | Home Furnishings & Housewares | Picnic/Tailgating Products,,,Made for a Better Life
Sports Licensing and Tailgate Show,01/19/2022,2022,https://sportstailgateshow.com/,DM,The Northwest Group,3044,,http://www.thenorthwest.com,,,,"Garden City, NY United States",United States,Accessories | Automotive | Gifts & Novelties | Home Furnishings & Housewares | Sports Equipment/Accessories - Licensed,,,Sports - Lifestyle - Entertainment
Sports Licensing and Tailgate Show,01/19/2022,2022,https://sportstailgateshow.com/,DM,The Fan-Brand,3128,,http://www.thefan-brand.com,,,,"Fairview, PA United States",United States,Gifts & Novelties | Home Furnishings & Housewares | Imprinted/Embroidered Items | Picnic/Tailgating Products,,,The brand made by fans for fans!
Sports Licensing and Tailgate Show,01/19/2022,2022,https://sportstailgateshow.com/,DM,The Fanatic Group,3105,,http://www.thefanaticgroup.com,,,,"Edison, NJ United States",United States,Gifts & Novelties | Imprinted/Embroidered Items | Stationery & School Supplies,,,"Industry leader in digitally printed gift and novelty products.  All items print in full color with no mimimum order requirements.  Products include: stainless steel tumblers/bottles, ceramic mugs, tritan water bottles, pens, key tags, various desk accessories and stationery."
Sports Licensing and Tailgate Show,01/19/2022,2022,https://sportstailgateshow.com/,DM,TELETIES,1095,,http://www.teleties.com,,,,"Maitland, FL United States",United States,Accessories,,,"TELETIES are the ultimate replacement to the traditional hair tie. While have a strong grip, they do not rip your hair and they give back to the FORCE foundation."
Sports Licensing and Tailgate Show,01/19/2022,2022,https://sportstailgateshow.com/,DM,Team Golf,3009,,http://www.teamgolfusa.com,,,,"Carrollton, TX United States",United States,Gifts & Novelties | Sports Equipment/Accessories - Licensed | Sports Equipment/Accessories - Non Licensed,,,"Team Golf is the largest supplier of NFL, NHL, MLB, and collegiate licensed golf accessories in the country, offering a wide variety of products for the most ardent and avid fans."
Sports Licensing and Tailgate Show,01/19/2022,2022,https://sportstailgateshow.com/,DM,"Team Treatz, Inc.",2106,,teamtreatz.com,,,,"Bonita, CA United States",United States,,,,
Sports Licensing and Tailgate Show,01/19/2022,2022,https://sportstailgateshow.com/,DM,Summit Sportswear,5122,,http://www.summitsportwearusa.com,,,,"Kansas City, MO United States",United States,Apparel - Children's | Apparel - Women's | Imprinted/Embroidered Items,,,"Summit Sportswear strives to fill a void in the market to produce apparel that both shows school spirit, as well as appeals to a customer's desire to have more fashionable pieces that can be incorporated into their every day wardrobe. We pride ourselves on our customer service and ability to produce custom designs and styles for our unique customers."
Sports Licensing and Tailgate Show,01/19/2022,2022,https://sportstailgateshow.com/,DM,TCK,1076,,http://www.tcksports.com,,,,"Conover, NC United States",United States,Accessories,,,From Field to Fan-Socks for every consumer.
Sports Licensing and Tailgate Show,01/19/2022,2022,https://sportstailgateshow.com/,DM,Suddora,8108,,http://www.suddora.com,,,,"Las Vegas, NV United States",United States,Accessories | Headwear | Imprinted/Embroidered Items | Sports Equipment/Accessories - Licensed | Sports Equipment/Accessories - Non Licensed,,,Elevated By Action
Sports Licensing and Tailgate Show,01/19/2022,2022,https://sportstailgateshow.com/,DM,Supersports by Super7,2097,,http://www.super7.com,,,,"San Francisco, CA United States",United States,Accessories | Apparel - Men's | Apparel - Women's | Collectibles & Trading Cards | Gifts & Novelties | Imprinted/Embroidered Items | Sports Equipment/Accessories - Licensed | Toys & Games,,,"Super7 - no one made what we wanted, so we made it ourselves"
Sports Licensing and Tailgate Show,01/19/2022,2022,https://sportstailgateshow.com/,DM,Storm Duds Raingear,2076,,http://www.stormduds.com,,,,"Attleboro, MA United States",United States,Accessories | Apparel - Men's | Apparel - Women's | Gifts & Novelties | Imprinted/Embroidered Items | Other | Picnic/Tailgating Products | Sports Equipment/Accessories - Licensed | Sports Equipment/Accessories - Non Licensed,,,Storm Duds NCAA and MLB Umbrellas and Ponchos in booth 3108
Sports Licensing and Tailgate Show,01/19/2022,2022,https://sportstailgateshow.com/,DM,Stuffed Animal House Ltd.,2119,,http://www.stuffedanimalhouse.com,,,,"Langley, BC Canada",Canada,Gifts & Novelties | Sports Equipment/Accessories - Licensed,,,NHL licensed PLUSH  MASCOTS/ FAN HANDS / JERSEY CRITTERS.
Sports Licensing and Tailgate Show,01/19/2022,2022,https://sportstailgateshow.com/,DM,Strideline,2039,,http://www.strideline.com,,,,"Seattle, WA United States",United States,Apparel - Men's | Footwear | Sports Equipment/Accessories - Licensed,,,The Most Comfortable Socks on Earth
Sports Licensing and Tailgate Show,01/19/2022,2022,https://sportstailgateshow.com/,DM,Strand Art Company,1103,,http://www.strandartcollegiate.com,,,,"Anaheim, CA United States",United States,Automotive | Gifts & Novelties,,,License Plate Frames - 100% Domestic - Metal & Plastic
Sports Licensing and Tailgate Show,01/19/2022,2022,https://sportstailgateshow.com/,DM,STAHLS',8096,,http://www.stahlsdfc.com,,,,"Sterling Heights, MI United States",United States,Imprinted/Embroidered Items | Jerseys | Other,,,IDENTITY START TO FINISH
Sports Licensing and Tailgate Show,01/19/2022,2022,https://sportstailgateshow.com/,DM,StadiumSpot,7102,,http://www.stadiumspot.com,,,,"Roswell, GA United States",United States,Pet Products,,,...
Sports Licensing and Tailgate Show,01/19/2022,2022,https://sportstailgateshow.com/,DM,STONEWORX SIGNS,4143,,stoneworxsigns.com,,,,"Manhattan, KS United States",United States,,,,
Sports Licensing and Tailgate Show,01/19/2022,2022,https://sportstailgateshow.com/,DM,"SportsScarf, LLC",4115,,http://www.sportsscarf.com,,,,"Mattapoisett, MA United States",United States,Sports Equipment/Accessories - Licensed | Apparel - Children's | Apparel - Men's | Apparel - Women's | Imprinted/Embroidered Items | Accessories | Sports Equipment/Accessories - Non Licensed,,,SportsScarf is the leading provider of sports scarves.
Sports Licensing and Tailgate Show,01/19/2022,2022,https://sportstailgateshow.com/,DM,Sports Licensing Solutions,1009,,http://www.fanmats.com,,,,"Suwanee, GA United States",United States,Accessories | Automotive | Gifts & Novelties | Home Furnishings & Housewares | Imprinted/Embroidered Items | Picnic/Tailgating Products | Sports Equipment/Accessories - Licensed,,,Ultimate Gear for the Ultimate Fan!
Sports Licensing and Tailgate Show,01/19/2022,2022,https://sportstailgateshow.com/,DM,SPORTICULTURE,5123,,http://www.sporticulture.com,,,,"Glenwood, MD United States",United States,Gifts & Novelties | Home Furnishings & Housewares | Picnic/Tailgating Products,,,For The Deep Rooted Fan!
Sports Licensing and Tailgate Show,01/19/2022,2022,https://sportstailgateshow.com/,DM,Spirit Products Ltd,3082,,http://www.spiritproducts.com,,,,"Haverhill, MA United States",United States,Gifts & Novelties | Imprinted/Embroidered Items | Pet Products | Picnic/Tailgating Products | Stationery & School Supplies | Toys & Games,,,"Premier supplier of custom insignia merchandise to the collegiate market in the United States and Canada, and a major supplier of custom insignia merchandise to corporations, organizations and events."
Sports Licensing and Tailgate Show,01/19/2022,2022,https://sportstailgateshow.com/,DM,Sport Design Sweden,3090,,http://www.sportdesignsweden.com,,,,"Billings, MT United States",United States,Apparel - Children's | Apparel - Men's | Apparel - Women's | Headwear | Imprinted/Embroidered Items,,,"Sport Design Sweden is building your brand through custom-made merchandise collections, we turn your fans into loyal brand ambassadors. We work with hundreds of sports teams, resorts, and events around the world. We know this sounds a bit cheesy, but we truly believe that great memories deserve great merchandise. Donʼt you?"
Sports Licensing and Tailgate Show,01/19/2022,2022,https://sportstailgateshow.com/,DM,SP Images Distribution,1012,,http://www.spimages.com,,,,"Franklin, MA United States",United States,Sports Equipment/Accessories - Non Licensed | Stationery & School Supplies | Toys & Games | Pet Products | Picnic/Tailgating Products | Sports Equipment/Accessories - Licensed | Jerseys | Accessories | Automotive | Business/ Retail Services | Collectibles & Trading Cards | Gifts & Novelties | Home Furnishings & Housewares | Imprinted/Embroidered Items,,,A Leader in Licensed Distribution and Marketing Since 1989
Sports Licensing and Tailgate Show,01/19/2022,2022,https://sportstailgateshow.com/,DM,Spirit Jersey®,8104,,http://www.spiritjersey.com,,,,"Los Angeles, CA United States",United States,Apparel - Men's | Apparel - Women's | Gifts & Novelties | Imprinted/Embroidered Items | Jerseys,,,Spirit Jersey® - Original and Authentic. Made in the USA.
Sports Licensing and Tailgate Show,01/19/2022,2022,https://sportstailgateshow.com/,DM,Skinit,4134,,http://www.skinit.com,,,,"San Diego, CA United States",United States,,,,
Sports Licensing and Tailgate Show,01/19/2022,2022,https://sportstailgateshow.com/,DM,Southern Tide,6110,,http://www.southerntide.com,,,,"Greenville, SC United States",United States,Accessories | Apparel - Children's | Apparel - Men's | Apparel - Women's | Footwear | Pet Products | Home Furnishings & Housewares | Imprinted/Embroidered Items | Gifts & Novelties | Headwear | Picnic/Tailgating Products,,,Classic. Coastal. Southern.
Sports Licensing and Tailgate Show,01/19/2022,2022,https://sportstailgateshow.com/,DM,Sideline Gear,8102,,www.sidelinegear.com,,,,"Woodstock, GA United States",United States,,,,
Sports Licensing and Tailgate Show,01/19/2022,2022,https://sportstailgateshow.com/,DM,Signables,3092,,https://www.signables.com,,,,"Longboat Key , FL United States",United States,Accessories | Collectibles & Trading Cards | Sports Equipment/Accessories - Licensed,,,Display Your Fanhood
Sports Licensing and Tailgate Show,01/19/2022,2022,https://sportstailgateshow.com/,DM,sewing concepts,6087,,http://www.scflagsorder.com,,,,"Omaha, NE United States",United States,Accessories | Automotive | Collectibles & Trading Cards | Gifts & Novelties | Picnic/Tailgating Products | Sports Equipment/Accessories - Licensed | Sports Equipment/Accessories - Non Licensed,,,Flags & banners of all sizes! Low minimums & custom items!
Sports Licensing and Tailgate Show,01/19/2022,2022,https://sportstailgateshow.com/,DM,"SCORE! Designs, LLC",1102,,http://www.ScoreGameDayBag.com,,,,"San Antonio, TX United States",United States,Accessories | Apparel - Women's | Picnic/Tailgating Products | Sports Equipment/Accessories - Non Licensed,,,CLEARLY get IN to the GAME!
Sports Licensing and Tailgate Show,01/19/2022,2022,https://sportstailgateshow.com/,DM,"Simran International, Inc.",2082,,http://www.simran-intl.com,,,,"Chino, CA United States",United States,Accessories | Apparel - Children's | Apparel - Men's | Apparel - Women's | Gifts & Novelties | Home Furnishings & Housewares | Imprinted/Embroidered Items | Picnic/Tailgating Products,,,Hottest designs in contemporary Fashion Jewelry and Flasks
Sports Licensing and Tailgate Show,01/19/2022,2022,https://sportstailgateshow.com/,DM,Silver Crystal Sports,1033,,http://www.fanzones.com,,,,"Toronto, ON Canada",Canada,Accessories | Apparel - Children's | Apparel - Men's | Apparel - Women's | Business/ Retail Services | Consumables | Imprinted/Embroidered Items | Jerseys | Other | Sports Equipment/Accessories - Licensed | Sports Equipment/Accessories - Non Licensed,,,Jersey Customization Solutions for Sports Teams & Retailers
Sports Licensing and Tailgate Show,01/19/2022,2022,https://sportstailgateshow.com/,DM,Rock 'Em Socks,5090,,http://rockemsocks.com,,,,"Orlando, FL United States",United States,Accessories | Apparel - Men's | Apparel - Women's | Footwear | Gifts & Novelties | Other | Sports Equipment/Accessories - Licensed,,,"Rock 'Em is the fan's choice for sports licensed socks. Authentic designs, passion for sport, and creative concepts give fans all over the world the most unique sock buying experience. Rock 'Em offers some of the fastest replenishment times in the sock category for retailers large and small. Shop over 3,000 licensed sock styles across hundreds of teams."
Sports Licensing and Tailgate Show,01/19/2022,2022,https://sportstailgateshow.com/,DM,Simple Modern,7117,,http://www.simplemodern.com,,,,"Oklahoma City, OK United States",United States,Home Furnishings & Housewares | Other,,,
Sports Licensing and Tailgate Show,01/19/2022,2022,https://sportstailgateshow.com/,DM,Schutt Sports,1099,,http://www.schuttsports.com,,,,"Litchfield, IL United States",United States,Collectibles & Trading Cards | Other | Sports Equipment/Accessories - Licensed,,,"Schutt Collectible Authentic, Replica, and Mini Football Helmets"
Sports Licensing and Tailgate Show,01/19/2022,2022,https://sportstailgateshow.com/,DM,"SDS Design Associates, Inc.",5094,,http://www.sdsdesign.com,,,,"Whitehall, PA United States",United States,Accessories | Automotive | Gifts & Novelties | Picnic/Tailgating Products,,,Proudly serving the Collegiate Market for 32 years.
Sports Licensing and Tailgate Show,01/19/2022,2022,https://sportstailgateshow.com/,DM,Rico Inc.,4001,,http://www.ricoinc.com,,,,"Heath Springs, SC United States",United States,Accessories | Automotive | Collectibles & Trading Cards | Gifts & Novelties | Home Furnishings & Housewares | Imprinted/Embroidered Items | Pet Products | Toys & Games,,,
Sports Licensing and Tailgate Show,01/19/2022,2022,https://sportstailgateshow.com/,DM,Rhythm-N-Roots DBA WYR Clothing,7109,,http://www.wearyourroots.com,,,,"Tempe, AZ United States",United States,Apparel - Men's | Apparel - Women's | Headwear | Accessories | Apparel - Children's,,,
Sports Licensing and Tailgate Show,01/19/2022,2022,https://sportstailgateshow.com/,DM,"RFSJ, Inc.",6083,,http://www.rfsj.com,,,,"Mt. Pleasant , PA United States",United States,Gifts & Novelties | Home Furnishings & Housewares | Imprinted/Embroidered Items | Picnic/Tailgating Products,,,R.F.S.J. INC. is your one stop shop for imprinted drinkware.
Sports Licensing and Tailgate Show,01/19/2022,2022,https://sportstailgateshow.com/,DM,Rawlings Sporting Goods,2025,,http://www.rawlings.com,,,,"St. Louis, MO United States",United States,Picnic/Tailgating Products | Sports Equipment/Accessories - Licensed | Sports Equipment/Accessories - Non Licensed,,,"Rawlings Sporting Goods Company, Inc. is a leading manufact."
Sports Licensing and Tailgate Show,01/19/2022,2022,https://sportstailgateshow.com/,DM,Riddell Sports,1028,,http://www.riddell.com,,,,"Des Plaines, IL United States",United States,Sports Equipment/Accessories - Licensed,,,We are football.  We are RIDDELL
Sports Licensing and Tailgate Show,01/19/2022,2022,https://sportstailgateshow.com/,DM,Profile ent BIG&TALL/PLUS WOMEN’s,3069,,http://www.profilenyc.com,,,,"New York, NY United States",United States,Apparel - Men's | Apparel - Women's | Imprinted/Embroidered Items | Jerseys,,,"Licenses include Men's Big and Tall - Plus Womens NCAA, NFL, MLB ,NHL and NBA -Current brand rights Mitchell & Ness , Champion and Fanatics"
Sports Licensing and Tailgate Show,01/19/2022,2022,https://sportstailgateshow.com/,DM,Pro Max,3076,,http://teamprostandard.com,,,,"New York, NY United States",United States,Headwear,,,PRO STANDARD caps - #freshneverfake.
Sports Licensing and Tailgate Show,01/19/2022,2022,https://sportstailgateshow.com/,DM,Pro Specialties Group Inc.,2083,,http://www.psginc.com,,,,"San Diego, CA United States",United States,Accessories | Gifts & Novelties | Home Furnishings & Housewares | Imprinted/Embroidered Items | Other | Picnic/Tailgating Products | Sports Equipment/Accessories - Licensed | Stationery & School Supplies | Toys & Games,,,"Pro Specialties Group, Inc. (PSG) has been a trusted supplier of premium, promotional, and NFL, MLB, NBA and College licensed products in the retail industry since 1997. We have solidified our position over the past 20 years by becoming the manufacturer of choice thanks to our strength as a design house, manufacturer, and quick-turn vendor."
Sports Licensing and Tailgate Show,01/19/2022,2022,https://sportstailgateshow.com/,DM,Potter Manufacturing Company Inc.,2093,,http://www.potterdecal.com,,,,"Eugene, OR United States",United States,,,,
Sports Licensing and Tailgate Show,01/19/2022,2022,https://sportstailgateshow.com/,DM,Pressbox,6095,,http://www.pressboxusa.com,,,,"Kannapolis, NC United States",United States,Apparel - Men's | Apparel - Women's | Apparel - Children's,,,
Sports Licensing and Tailgate Show,01/19/2022,2022,https://sportstailgateshow.com/,DM,Rustic Cuff,1097,,http://www.rusticcuff.com,,,,"Tulsa, OK United States",United States,Accessories,,,"Rustic Cuff offers bold, stylish bracelets for female sports fans with low minimums and quick turnaround times! Stop by to see our bright gameday colors and fabulous MLB and Collegiate collections. From stadium stores and players' wives to little league fields and soccer moms, Rustic Cuff is becoming a must-have gameday accessory for women everywhere!"
Sports Licensing and Tailgate Show,01/19/2022,2022,https://sportstailgateshow.com/,DM,Reyn Spooner,2096,,http://www.reynspooner.com,,,,"Honolulu, HI United States",United States,Apparel - Men's | Apparel - Children's,,,
Sports Licensing and Tailgate Show,01/19/2022,2022,https://sportstailgateshow.com/,DM,Playbook,5114,,https://www.playbookproducts.com,,,,"Menlo Park, CA United States",United States,Accessories | Gifts & Novelties | Home Furnishings & Housewares | Picnic/Tailgating Products,,,The greatest plays in sports.
Sports Licensing and Tailgate Show,01/19/2022,2022,https://sportstailgateshow.com/,DM,Ride FRSH,4129,,ridefrsh.com,,,,"Castro Valley, CA United States",United States,,,,
Sports Licensing and Tailgate Show,01/19/2022,2022,https://sportstailgateshow.com/,DM,Pillbox Bat Company,1112,,http://www.pillboxbatco.com,,,,"Winona, MN United States",United States,Gifts & Novelties | Home Furnishings & Housewares | Other,,,
Sports Licensing and Tailgate Show,01/19/2022,2022,https://sportstailgateshow.com/,DM,Prime Brands Group Inc.,1015,,http://www.primebrandsgroup.com,,,,"Brooklyn, NY United States",United States,Accessories | Gifts & Novelties | Other,,,www.primebrandsgroup.com
Sports Licensing and Tailgate Show,01/19/2022,2022,https://sportstailgateshow.com/,DM,Pennington Bear Company / Prizes!,7103,,http://www.penningtonbears.com,,,,"Los Angeles, CA United States",United States,Gifts & Novelties | Imprinted/Embroidered Items | Other | Toys & Games,,,COLLEGIATE and PRO LICENSED PLUSH
Sports Licensing and Tailgate Show,01/19/2022,2022,https://sportstailgateshow.com/,DM,Pegasus Sports,5045,,http://www.PegasusSportsShop.com,,,,"Belmar, NJ United States",United States,Home Furnishings & Housewares,,,PEGASUS SPORTS SHOP
Sports Licensing and Tailgate Show,01/19/2022,2022,https://sportstailgateshow.com/,DM,Pets First Inc,1008,,http://www.petsfirstcompany.com,,,,"Elizabeth, NJ United States",United States,Accessories | Gifts & Novelties | Jerseys | Pet Products | Toys & Games,,,The country's leading sports-licensed pet product company.
Sports Licensing and Tailgate Show,01/19/2022,2022,https://sportstailgateshow.com/,DM,Picnic Time Family of Brands,1117,,http://www.picnictime.com,,,,"Moorpark, CA United States",United States,Gifts & Novelties | Home Furnishings & Housewares | Imprinted/Embroidered Items | Other | Picnic/Tailgating Products | Sports Equipment/Accessories - Licensed | Sports Equipment/Accessories - Non Licensed | Toys & Games,,,Picnic✚Tailgating✚Entertaining✚Barware✚Wine✚Outdoor
Sports Licensing and Tailgate Show,01/19/2022,2022,https://sportstailgateshow.com/,DM,Panini America,3111,,https://www.paniniamerica.net,,,,"Irving, TX United States",United States,Collectibles & Trading Cards | Other,,,#WhoDoYouCollect
Sports Licensing and Tailgate Show,01/19/2022,2022,https://sportstailgateshow.com/,DM,"Party Animal, Inc.",5015,,http://www.partyanimalinc.com,,,,"WESTLAKE, OH United States",United States,Collectibles & Trading Cards | Gifts & Novelties | Imprinted/Embroidered Items | Other | Picnic/Tailgating Products | Toys & Games,,,"Premium Quality Licensed Toys, Flags, Decor & More"
Sports Licensing and Tailgate Show,01/19/2022,2022,https://sportstailgateshow.com/,DM,P. Graham Dunn,1098,,http://www.pgrahamdunn.com,,,,"Dalton, OH United States",United States,,,,
Sports Licensing and Tailgate Show,01/19/2022,2022,https://sportstailgateshow.com/,DM,Oxbay by Seasons Designs Int. LTD,6115,,www.seasonsdesigns.com,,,,"davidson, NC United States",United States,,,,
Sports Licensing and Tailgate Show,01/19/2022,2022,https://sportstailgateshow.com/,DM,Original Retro Brand,5061,,http://www.originalretrobrands.com,,,,"Greenwood, SC United States",United States,,,,
Sports Licensing and Tailgate Show,01/19/2022,2022,https://sportstailgateshow.com/,DM,Oventure,1096,,https://oventure.com/,,,,"Dallas, TX United States",United States,Accessories | Gifts & Novelties,,,Home Of The Original Big O Key Ring
Sports Licensing and Tailgate Show,01/19/2022,2022,https://sportstailgateshow.com/,DM,Ouray Sportswear/ Holloway / Locale Outdoor,5117,,http://www.ouraysportswear.com,,,,"Englewood, CO United States",United States,Apparel - Children's | Apparel - Men's | Apparel - Women's,,,YOUR WAY. EVERY DAY.
Sports Licensing and Tailgate Show,01/19/2022,2022,https://sportstailgateshow.com/,DM,"NuBoard Media, Inc.",2090,,http://www.nuboardmedia.com,,,,"Naples, FL United States",United States,Other,,,NuBoard:  a Leading Supplier of Retail Bags & Online Mailers
Sports Licensing and Tailgate Show,01/19/2022,2022,https://sportstailgateshow.com/,DM,OUTERSTUFF,6021,,,,,,"New York, NY United States",United States,Jerseys | Apparel - Children's,,,
Sports Licensing and Tailgate Show,01/19/2022,2022,https://sportstailgateshow.com/,DM,NO.1 DRAFT PICK / N1DP SPORTS WEAR,5126,,http://www.n1dp.com,,,,"Laurelton , NY United States",United States,Apparel - Men's | Apparel - Women's | Headwear,,,THE BEST DARN SPORTS GEAR PERIOD.
Sports Licensing and Tailgate Show,01/19/2022,2022,https://sportstailgateshow.com/,DM,Open Roads Brand,3123,,http://www.shop-orb.com,,,,"Kansas City, MO United States",United States,Gifts & Novelties,,,
Sports Licensing and Tailgate Show,01/19/2022,2022,https://sportstailgateshow.com/,DM,Neil Enterprises - Varsity Line,5105,,http://www.thevarsityline.com,,,,"Vernon Hills, IL United States",United States,Gifts & Novelties | Imprinted/Embroidered Items | Pet Products | Picnic/Tailgating Products | Stationery & School Supplies | Toys & Games,,,
Sports Licensing and Tailgate Show,01/19/2022,2022,https://sportstailgateshow.com/,DM,MV SPORT / THE GAME,8039,,http://www.mvsport.com,,,,"Bay Shore, NY United States",United States,Accessories | Apparel - Children's | Apparel - Men's | Apparel - Women's | Headwear | Imprinted/Embroidered Items,,,"We'll meet all your custom apparel, cap and accessory needs."
Sports Licensing and Tailgate Show,01/19/2022,2022,https://sportstailgateshow.com/,DM,Mojo Licensing LLC,1027,,http://mojolicensing.com,,,,"Irvine, CA United States",United States,,,,
Sports Licensing and Tailgate Show,01/19/2022,2022,https://sportstailgateshow.com/,DM,NFL Consumer Products,5143,,,,,,"New York, NY United States",United States,,,,
Sports Licensing and Tailgate Show,01/19/2022,2022,https://sportstailgateshow.com/,DM,Modern Hero,1111,,http://www.shopjerryleigh.com,,,,"Van Nuys , CA United States",United States,,,,
Sports Licensing and Tailgate Show,01/19/2022,2022,https://sportstailgateshow.com/,DM,"MPDirect, Inc.",8123,,http://www.suntime.com,,,,"clearwater, FL United States",United States,Accessories | Gifts & Novelties | Sports Equipment/Accessories - Licensed,,,"Quality NCAA logo'd watches, clocks and golf accessories."
Sports Licensing and Tailgate Show,01/19/2022,2022,https://sportstailgateshow.com/,DM,MCM Brands,2019,,http://MCMBrands.com,,,,"Fletcher, NC United States",United States,Accessories | Automotive | Gifts & Novelties | Home Furnishings & Housewares | Imprinted/Embroidered Items | Other | Picnic/Tailgating Products | Stationery & School Supplies | Toys & Games | Pet Products,,,Your number one stop for collegiate accessories!
Sports Licensing and Tailgate Show,01/19/2022,2022,https://sportstailgateshow.com/,DM,Mitchell & Ness,4015,,http://www.mitchellandness.com,,,,"Philadelphia, PA United States",United States,Apparel - Men's | Apparel - Women's | Headwear | Jerseys,,,"We Are Authentic, We Are Premium, We Are Legendary."
Sports Licensing and Tailgate Show,01/19/2022,2022,https://sportstailgateshow.com/,DM,MASTERPIECES INC.,3094,,http://www.masterpiecesinc.com,,,,"Oro Valley , AZ United States",United States,Collectibles & Trading Cards | Gifts & Novelties | Picnic/Tailgating Products | Toys & Games,,,"Licensed toys, games, puzzles, baby, and bake ware."
Sports Licensing and Tailgate Show,01/19/2022,2022,https://sportstailgateshow.com/,DM,MASTERPIECES INC.,3095,,http://www.masterpiecesinc.com,,,,"Oro Valley , AZ United States",United States,Collectibles & Trading Cards | Gifts & Novelties | Picnic/Tailgating Products | Toys & Games,,,"Licensed toys, games, puzzles, baby, and bake ware."
Sports Licensing and Tailgate Show,01/19/2022,2022,https://sportstailgateshow.com/,DM,Mascot Factory,3083,,http://www.mascotfactory.com,,,,"Poway, CA United States",United States,Gifts & Novelties | Toys & Games,,,"Gift items, mascots, souvenir/novelties, and youth products."
Sports Licensing and Tailgate Show,01/19/2022,2022,https://sportstailgateshow.com/,DM,"Makelean Co., Ltd.",3133,,http://makelean.co.kr/en/,,,,"Namyangju-si, Korea (South)",Korea (South),,,,
Sports Licensing and Tailgate Show,01/19/2022,2022,https://sportstailgateshow.com/,DM,Marketing Results Ltd.,4094,,,,,,"Columbus, OH United States",United States,Picnic/Tailgating Products,,,"NFL, College and Coke tailgate, party, picnic items."
Sports Licensing and Tailgate Show,01/19/2022,2022,https://sportstailgateshow.com/,DM,Malham USA,2109,,www.malhamusa.com,,,,"San Rafael, CA United States",United States,,,,
Sports Licensing and Tailgate Show,01/19/2022,2022,https://sportstailgateshow.com/,DM,Major League Socks,2115,,www.majorleaguesocks.com,,,,"Toronto, ON Canada",Canada,,,,
Sports Licensing and Tailgate Show,01/19/2022,2022,https://sportstailgateshow.com/,DM,MAJESTIC SPORTS BRANDS LLC,1104,,http://www.esportsitems.com,,,,"Philadelphia, PA United States",United States,Accessories | Collectibles & Trading Cards | Gifts & Novelties | Sports Equipment/Accessories - Licensed,,,www.licensedwholesalesportsgifts.com
Sports Licensing and Tailgate Show,01/19/2022,2022,https://sportstailgateshow.com/,DM,Magnolia Lane,2087,,http://www.magnolialanecollection.com,,,,"Trussville, AL United States",United States,Gifts & Novelties | Home Furnishings & Housewares | Picnic/Tailgating Products,,,Industry leader in home décor and tailgating products
Sports Licensing and Tailgate Show,01/19/2022,2022,https://sportstailgateshow.com/,DM,MACCABI ART,3061,,http://www.maccabiart.com,,,,"PARKLAND, FL United States",United States,Accessories | Collectibles & Trading Cards | Footwear | Gifts & Novelties | Headwear | Sports Equipment/Accessories - Licensed | Sports Equipment/Accessories - Non Licensed | Stationery & School Supplies | Toys & Games,,,"Based in Hollywood Florida, Maccabi Art is a global manufacturer of licensed Sports products with key licenses of the NBA and MLB as well as Soccer licences Barcelona, Real Madrid, Juventus  and over 8 other teams including the  USA Womans National Soccer team. We have an extended line of collectible figures a,nd sports activity games and fan products."
Sports Licensing and Tailgate Show,01/19/2022,2022,https://sportstailgateshow.com/,DM,Luxury Sports Rugs,4108,,http://www.luxurysportsrugs.com,,,,"Dalton, GA United States",United States,Home Furnishings & Housewares,,,"Crafted in USA, 4 sizes, retail display packages, 65 schools"
Sports Licensing and Tailgate Show,01/19/2022,2022,https://sportstailgateshow.com/,DM,Lusso,8097,,http://www.lussostyle.com,,,,"St Louis, MO United States",United States,Accessories | Apparel - Women's | Business/ Retail Services | Headwear | Imprinted/Embroidered Items | Other,,,Lusso. Fashion Forward. Female First.
Sports Licensing and Tailgate Show,01/19/2022,2022,https://sportstailgateshow.com/,DM,Lokai,6094,,http://www.mylokai.com,,,,"New York, NY United States",United States,Accessories | Gifts & Novelties | Picnic/Tailgating Products | Sports Equipment/Accessories - Licensed,,,Find Your Balance
Sports Licensing and Tailgate Show,01/19/2022,2022,https://sportstailgateshow.com/,DM,LogoFit,1071,,http://www.logofit.com,,,,"Flint, MI United States",United States,Accessories | Headwear | Imprinted/Embroidered Items,,,Spirit with Style
Sports Licensing and Tailgate Show,01/19/2022,2022,https://sportstailgateshow.com/,DM,Mascot-Grills.com,8118,,http://www.mascot-grills.com,,,,"Fredericksburg, VA United States",United States,Picnic/Tailgating Products,,,A tailgating necessity.
Sports Licensing and Tailgate Show,01/19/2022,2022,https://sportstailgateshow.com/,DM,Logo Brands,6001,,http://www.logobrands.com,,,,"Franklin, TN United States",United States,Accessories | Gifts & Novelties | Home Furnishings & Housewares | Imprinted/Embroidered Items | Picnic/Tailgating Products | Sports Equipment/Accessories - Licensed | Sports Equipment/Accessories - Non Licensed | Toys & Games,,,Don't Hold Back.
Sports Licensing and Tailgate Show,01/19/2022,2022,https://sportstailgateshow.com/,DM,Little King,4119,,http://www.littlekingapparel.com,,,,"Union Grove, AL United States",United States,Apparel - Children's | Imprinted/Embroidered Items | Jerseys,,,Collegiate Apparel for infants - youth XL
Sports Licensing and Tailgate Show,01/19/2022,2022,https://sportstailgateshow.com/,DM,Loyalty Brand Products by Wahconah Group,4093,,http://www.LoyaltyBrandProducts.com,,,,"Cleveland, OH United States",United States,,,,
Sports Licensing and Tailgate Show,01/19/2022,2022,https://sportstailgateshow.com/,DM,Levelwear,6061,,http://www.levelwear.com,,,,"Buffalo, NY United States",United States,Apparel - Children's | Apparel - Men's | Apparel - Women's,,,Make Your Move
Sports Licensing and Tailgate Show,01/19/2022,2022,https://sportstailgateshow.com/,DM,Little Birdie,2108,,http://www.littlebirdiearts.com,,,,"Calhoun City, MS United States",United States,,,,
Sports Licensing and Tailgate Show,01/19/2022,2022,https://sportstailgateshow.com/,DM,LivyLu,8114,,https://shoplivylu.myshopify.com/,,,,"tulsa, OK United States",United States,Apparel - Children's | Apparel - Men's | Apparel - Women's,,,"LivyLu offers vintage-inspired licensed collegiate apparel as well as licensed band apparel. We have options for all ages, LivyLu has something for everyone!"
Sports Licensing and Tailgate Show,01/19/2022,2022,https://sportstailgateshow.com/,DM,Little Earth Productions,5009,,http://www.littlearth.com,,,,"Pittsburgh, PA United States",United States,Accessories | Apparel - Men's | Apparel - Women's | Gifts & Novelties | Headwear | Imprinted/Embroidered Items | Jerseys | Other | Pet Products,,,
Sports Licensing and Tailgate Show,01/19/2022,2022,https://sportstailgateshow.com/,DM,Lands' End Outfitters,4117,,business.landsend.com,,,,"Dodgeville, WI United States",United States,,,,
Sports Licensing and Tailgate Show,01/19/2022,2022,https://sportstailgateshow.com/,DM,Kwik-Covers,5142,,http://www.kwikcovers.com,,,,"Webster, NY United States",United States,Accessories | Consumables | Gifts & Novelties | Home Furnishings & Housewares | Other | Picnic/Tailgating Products,,,Fitted elasticized pvc table covers-great for tailgating
Sports Licensing and Tailgate Show,01/19/2022,2022,https://sportstailgateshow.com/,DM,League - Legacy,8029,,http://www.legacy92.com,,,,"Hanover, PA United States",United States,Home Furnishings & Housewares | Apparel - Women's | Apparel - Men's,,,
Sports Licensing and Tailgate Show,01/19/2022,2022,https://sportstailgateshow.com/,DM,"LXG, INC",6104,,http://lxginc.com,,,,"Tempe, AZ United States",United States,Accessories | Automotive | Gifts & Novelties | Imprinted/Embroidered Items | Picnic/Tailgating Products | Sports Equipment/Accessories - Licensed,,,LASER ENGRAVED NCAA LICENSED PRODUCT YOU CAN BE PROUD OF
Sports Licensing and Tailgate Show,01/19/2022,2022,https://sportstailgateshow.com/,DM,Kitty Keller Designs,7108,,http://www.kittykeller.com,,,,"Seguin, TX United States",United States,Collectibles & Trading Cards | Gifts & Novelties,,,Custom Handcrafted Cloisonne & Glass Ornaments
Sports Licensing and Tailgate Show,01/19/2022,2022,https://sportstailgateshow.com/,DM,KYLE CAVAN Jewelry,1094,,www.kylecavan.com,,,,"New York , NY United States",United States,,,,
Sports Licensing and Tailgate Show,01/19/2022,2022,https://sportstailgateshow.com/,DM,"Korban Global, Inc.",1088,,https://www.korbanglobal.com/,,,,"Santa Ana, CA United States",United States,,,,
Sports Licensing and Tailgate Show,01/19/2022,2022,https://sportstailgateshow.com/,DM,Kendrick Home,2104,,https://www.kendrickhome.net/,,,,"Edgewood, IA United States",United States,,,,
Sports Licensing and Tailgate Show,01/19/2022,2022,https://sportstailgateshow.com/,DM,JUNK Headbands,2103,,http://www.junkbrands.com,,,,"Bentonville, AR United States",United States,Accessories | Headwear,,,MLB and NCAA made in the USA performance headbands.
Sports Licensing and Tailgate Show,01/19/2022,2022,https://sportstailgateshow.com/,DM,Kap-Bak,8112,,http://kap-bak.com,,,,"Myrtle Beach, SC United States",United States,Accessories | Apparel - Men's | Apparel - Women's | Headwear | Imprinted/Embroidered Items,,,Kustomize your Kap!
Sports Licensing and Tailgate Show,01/19/2022,2022,https://sportstailgateshow.com/,DM,"KH Sports Fan, Inc.",1070,,http://www.khsportsfan.com,,,,"PLAINFIELD, IL United States",United States,Accessories | Gifts & Novelties | Home Furnishings & Housewares | Picnic/Tailgating Products,,,
Sports Licensing and Tailgate Show,01/19/2022,2022,https://sportstailgateshow.com/,DM,JH Design Group,3066,,http://www.shopjh.com,,,,"Los Angeles, CA United States",United States,Apparel - Children's | Apparel - Men's | Apparel - Women's | Automotive | Imprinted/Embroidered Items,,,Leading licensed sports Jacket manufacturer
Sports Licensing and Tailgate Show,01/19/2022,2022,https://sportstailgateshow.com/,DM,LogoArt Licensed Jewelry,4091,,http://www.logoart.com,,,,"Erlanger, KY United States",United States,Accessories | Gifts & Novelties | Other,,,Officially Licensed Jewelry and Jewelry Accessories
Sports Licensing and Tailgate Show,01/19/2022,2022,https://sportstailgateshow.com/,DM,Jenkins Enterprises / From the Heart jewelry,1018,,http://www.jenkins-enterprises.com,,,,"North Little Rock, AR United States",United States,Accessories | Automotive | Gifts & Novelties | Picnic/Tailgating Products | Stationery & School Supplies | Toys & Games,,,Jenkins Enterprises is your source for Collegiate Product.
Sports Licensing and Tailgate Show,01/19/2022,2022,https://sportstailgateshow.com/,DM,Keyscaper,1083,,http://www.keyscaper.com,,,,"TUALATIN, OR United States",United States,Picnic/Tailgating Products | Gifts & Novelties | Accessories,,,
Sports Licensing and Tailgate Show,01/19/2022,2022,https://sportstailgateshow.com/,DM,Jawku,3116,,http://www.jawku.com,,,,"Tempe, AZ United States",United States,Business/ Retail Services | Other,,,A Sports performance company desgined to help athletes get faster and recover quicker
Sports Licensing and Tailgate Show,01/19/2022,2022,https://sportstailgateshow.com/,DM,Jardine Associates,1060,,http://www.jardineassociates.com,,,,"N. Kingstown, RI United States",United States,Accessories | Apparel - Children's | Apparel - Men's | Apparel - Women's | Automotive | Footwear | Gifts & Novelties | Imprinted/Embroidered Items | Pet Products | Stationery & School Supplies,,,"CamelBak, Fossil, High Sierra, POPSOCKETS name brands!"
Sports Licensing and Tailgate Show,01/19/2022,2022,https://sportstailgateshow.com/,DM,Innovative Concepts in Entertainment (ICE),1116,,http://www.icegame.com,,,,"Clarence, NY United States",United States,Toys & Games,,,"Manufacturer of Coin Operated amusement games including basketball, Super Chexx bubble hockey and Super Kixx soccer."
Sports Licensing and Tailgate Show,01/19/2022,2022,https://sportstailgateshow.com/,DM,ISlide,2107,,http://www.islideusa.com,,,,"Boston, MA United States",United States,Footwear | Imprinted/Embroidered Items | Sports Equipment/Accessories - Licensed | Sports Equipment/Accessories - Non Licensed,,,STAND IN WHAT YOU STAND FOR
Sports Licensing and Tailgate Show,01/19/2022,2022,https://sportstailgateshow.com/,DM,Indigo Falls,1021,,http://www.indigofalls.com,,,,"Cedarburg, WI United States",United States,Gifts & Novelties | Home Furnishings & Housewares | Other | Picnic/Tailgating Products,,,Indigo Falls - extraordinary texture-decorated drinkware
Sports Licensing and Tailgate Show,01/19/2022,2022,https://sportstailgateshow.com/,DM,Ivy Citizens,8125,,http://www.ivycitizens.com,,,,"Charlotte, NC United States",United States,Apparel - Men's | Apparel - Women's,,,Sophisticated Apparel - Men & Women. Made Responsibly.
Sports Licensing and Tailgate Show,01/19/2022,2022,https://sportstailgateshow.com/,DM,Inglasco Inc.,2116,,http://www.inglasco.com,,,,"Sherbrooke, QC Canada",Canada,Accessories | Collectibles & Trading Cards | Gifts & Novelties | Sports Equipment/Accessories - Licensed | Sports Equipment/Accessories - Non Licensed | Toys & Games,,,"Supplier of licensed, custom and accessory products."
Sports Licensing and Tailgate Show,01/19/2022,2022,https://sportstailgateshow.com/,DM,IMPORTS DRAGON,2117,,http://www.importsdragon.com,,,,"Boisbriand, QC Canada",Canada,Collectibles & Trading Cards | Gifts & Novelties | Toys & Games,,,MLB and NHL licensee supplying player replica figurines.
Sports Licensing and Tailgate Show,01/19/2022,2022,https://sportstailgateshow.com/,DM,Image One,3015,,http://www.imageonecollegiate.com,,,,"LITTLE ROCK, AR United States",United States,Apparel - Children's | Apparel - Men's | Apparel - Women's | Imprinted/Embroidered Items,,,Image one brings the highest quality in design and comfort as a licensee of collegiate apparel. Our low minimums and quick turn around are a great asset to companies of all sizes.  Image One creates graphic lifestyle apparel created for College fans by College fans.
Sports Licensing and Tailgate Show,01/19/2022,2022,https://sportstailgateshow.com/,DM,Hype Co,8130,,http://Hype-Company.com,,,,"Denver, CO United States",United States,Footwear,,,Boldly Empowering Passion.
Sports Licensing and Tailgate Show,01/19/2022,2022,https://sportstailgateshow.com/,DM,Hype and Vice INC.,6082,,http://www.hypeandvice.com/,,,,"Los Angeles, CA United States",United States,Apparel - Women's,,,
Sports Licensing and Tailgate Show,01/19/2022,2022,https://sportstailgateshow.com/,DM,HYFVE,8061,,,,,,"Huntington Park, CA United States",United States,,,,
Sports Licensing and Tailgate Show,01/19/2022,2022,https://sportstailgateshow.com/,DM,Horn Legend,6069,,http://www.skinsgameclothing.com,,,,"Frisco, TX United States",United States,,,,
Sports Licensing and Tailgate Show,01/19/2022,2022,https://sportstailgateshow.com/,DM,Imperial International,1000,,http://www.imperialusa.com,,,,"CARLSTADT, NJ United States",United States,Accessories | Gifts & Novelties | Home Furnishings & Housewares | Imprinted/Embroidered Items | Picnic/Tailgating Products | Sports Equipment/Accessories - Licensed | Sports Equipment/Accessories - Non Licensed | Toys & Games,,,Leading billiards & licensed game room furniture distributor
Sports Licensing and Tailgate Show,01/19/2022,2022,https://sportstailgateshow.com/,DM,Honors Graduation,1086,,http://www.honorsgraduation.com,,,,"American Fork, UT United States",United States,,,,
Sports Licensing and Tailgate Show,01/19/2022,2022,https://sportstailgateshow.com/,DM,Highland Mint (The),4077,,http://www.highlandmint.com,,,,"Melbourne, FL United States",United States,Accessories | Collectibles & Trading Cards | Gifts & Novelties | Home Furnishings & Housewares | Other,,,Minted Memories that last a lifetime!
Sports Licensing and Tailgate Show,01/19/2022,2022,https://sportstailgateshow.com/,DM,Huplay,6108,,http://www.huplay.com,,,,"Clinton, IA United States",United States,Picnic/Tailgating Products | Sports Equipment/Accessories - Licensed | Toys & Games,,,HUPLAY Basketball Set - It's never too early to be a fan!
Sports Licensing and Tailgate Show,01/19/2022,2022,https://sportstailgateshow.com/,DM,"Hidrate, Inc",8110,,https://hidratespark.com/,,,,"Minneapolis, MN United States",United States,,,,
Sports Licensing and Tailgate Show,01/19/2022,2022,https://sportstailgateshow.com/,DM,Hockey Sockey Inc.,2113,,http://www.hockeysockey.com,,,,"London, ON Canada",Canada,Apparel - Men's | Apparel - Women's | Gifts & Novelties | Imprinted/Embroidered Items | Jerseys | Other | Picnic/Tailgating Products,,,
Sports Licensing and Tailgate Show,01/19/2022,2022,https://sportstailgateshow.com/,DM,Hanna's Handiworks,2067,,http://www.hannashandiworks.com,,,,"Lee's Summit, MO United States",United States,Accessories | Gifts & Novelties | Home Furnishings & Housewares,,,Unique Collegiate Licensed Product® at affordable prices!
Sports Licensing and Tailgate Show,01/19/2022,2022,https://sportstailgateshow.com/,DM,Headbands Of Hope,4127,,http://headbandsofhope.com,,,,"Denver, NC United States",United States,Accessories | Gifts & Novelties | Headwear,,,One Purchased = One Donated
Sports Licensing and Tailgate Show,01/19/2022,2022,https://sportstailgateshow.com/,DM,Gridiron Metal Works,3109,,gridironmetal.com,,,,"Lafayette, IN United States",United States,,,,
Sports Licensing and Tailgate Show,01/19/2022,2022,https://sportstailgateshow.com/,DM,GrowlerWerks,2114,,https://www.growlerwerks.com/,,,,"PORTLAND, OR United States",United States,,,,
Sports Licensing and Tailgate Show,01/19/2022,2022,https://sportstailgateshow.com/,DM,Groove Life,4125,,http://www.groovelife.co,,,,"Spring Hill, TN United States",United States,Accessories,,,Groove Rings are the most comfortable ring on earth!
Sports Licensing and Tailgate Show,01/19/2022,2022,https://sportstailgateshow.com/,DM,Great American,2001,,http://www.gap1.com,,,,"New Braunfels, TX United States",United States,Accessories | Gifts & Novelties | Home Furnishings & Housewares | Picnic/Tailgating Products,,,We've GOT what fans WANT!
Sports Licensing and Tailgate Show,01/19/2022,2022,https://sportstailgateshow.com/,DM,"Gotta Have It Fan Foams, Corporation",2086,,http://www.gottahaveitfanfoams.com,,,,"Springfield, VA United States",United States,Gifts & Novelties,,,You Gotta Have It or you are not a fan!
Sports Licensing and Tailgate Show,01/19/2022,2022,https://sportstailgateshow.com/,DM,"Gloves International, Inc.",1087,,https://www.glovesinternational.com/,,,,"WILLIAMSVILLE, NY United States",United States,,,,
Sports Licensing and Tailgate Show,01/19/2022,2022,https://sportstailgateshow.com/,DM,G-III Sports by Carl Banks,6039,,http://www.g-iii.com,,,,"New York, NY United States",United States,Apparel - Men's | Apparel - Women's | Headwear,,,"G-III Sports Consists of GIII4her By Carl Banks, G-III Sports by Carl Banks, Touch by Alyssa Milano, Starter and Hands High by Jimmy Fallon.    We hold licenses for the NFL, NHL, MLB, NCAA, and NBA.  Leader in Sports Fashion."
Sports Licensing and Tailgate Show,01/19/2022,2022,https://sportstailgateshow.com/,DM,Go Fun Face,2091,,https://www.gofunface.com/,,,,"Duxbury, MA United States",United States,,,,
Sports Licensing and Tailgate Show,01/19/2022,2022,https://sportstailgateshow.com/,DM,Gells,1114,,www.gellsapparel.com,,,,"Southport, CT United States",United States,,,,
Sports Licensing and Tailgate Show,01/19/2022,2022,https://sportstailgateshow.com/,DM,gfxt3ch,3112,,http://gfx.tech,,,,"Dewitt, MI United States",United States,Apparel - Men's | Apparel - Women's,,,"GFXT3CH, an interactive, customizable SaaS platform with patented controls configured for every brand's needs. Unlock the massive creative potential for your consumers while giving your brand the comfort to scale customizable products."
Sports Licensing and Tailgate Show,01/19/2022,2022,https://sportstailgateshow.com/,DM,HanesBrands Inc/ Champion,1044,,http://www.hbilocator.com,,,,"Winston-Salem, NC United States",United States,Apparel - Children's | Apparel - Men's | Apparel - Women's,,,"HanesBrands is a socially responsible manufacturer and the market’s leading sports apparel licensee of over 700 colleges, universities and professional teams. Based in Winston-Salem, N.C. and founded in 1901, HBI is a member of the S&P 500 and is ranked No. 490 on the Fortune 500 list. HanesBrands holds some of the strongest brands in activewear apparel, including Champion, Alternative Apparel, Gear for Sports, ComfortWash, and Hanes. Our market-leading capabilities include basic apparel such as underwear, T-shirts, and socks among other categories. With product in 90% of U.S. households, Hanes focuses on driving innovation in the marketplace by revolutionizing the industry with product introductions like the sports bra. We take great pride in our strong reputation for ethical business practices and the success of our"
Sports Licensing and Tailgate Show,01/19/2022,2022,https://sportstailgateshow.com/,DM,Gamezies,2089,,http://www.gamezies.com,,,,"Nolensville, TN United States",United States,Accessories | Collectibles & Trading Cards | Gifts & Novelties | Other | Toys & Games,,,
Sports Licensing and Tailgate Show,01/19/2022,2022,https://sportstailgateshow.com/,DM,Gameday Ironworks LLC,3075,,http://www.gamedayironworks.com,,,,"Stillwater, OK United States",United States,Gifts & Novelties | Home Furnishings & Housewares | Picnic/Tailgating Products,,,
Sports Licensing and Tailgate Show,01/19/2022,2022,https://sportstailgateshow.com/,DM,Game Time,3001,,https://gametimewatch.com/,,,,"Tarrytown, NY United States",United States,Accessories | Apparel - Children's | Apparel - Men's | Apparel - Women's | Gifts & Novelties | Sports Equipment/Accessories - Licensed,,,GAME TIME - THE LEADER IN LICENSED SPORTS WATCHES!
Sports Licensing and Tailgate Show,01/19/2022,2022,https://sportstailgateshow.com/,DM,GAMEDAY COUTURE LLC,5132,,http://www.gamedaycouture.com,,,,"Tulsa, OK United States",United States,Accessories | Apparel - Women's,,,
Sports Licensing and Tailgate Show,01/19/2022,2022,https://sportstailgateshow.com/,DM,Game,6107,,http://www.gametimesidekicks.com,,,,"Powell, TN United States",United States,Gifts & Novelties | Home Furnishings & Housewares | Picnic/Tailgating Products,,,GameTime Sidekicks: Carry Your Team
Sports Licensing and Tailgate Show,01/19/2022,2022,https://sportstailgateshow.com/,DM,It’s A Wrap Clothing. JEF ENTERPRISES LLC,1089,,http://www.itsawrapclothing.com,,,,"Youngstown , OH United States",United States,,,,
Sports Licensing and Tailgate Show,01/19/2022,2022,https://sportstailgateshow.com/,DM,Frost Buddy,4131,,https://frostbuddy.com/,,,,"Newton, IL United States",United States,Gifts & Novelties | Other | Picnic/Tailgating Products | Sports Equipment/Accessories - Licensed | Sports Equipment/Accessories - Non Licensed,,,"Who is Frost Buddy? We are two brothers who created the World's First Universal Stainless Steel Can Cooler. It holds 12oz slim cans, 12oz regular cans, 12oz bottles, 16oz cans/bottles and more. Why buy 5 different can coolers when you can just buy one? Founded in 2020, we are bringing quality, creativity, and good times to the drinking world!"
Sports Licensing and Tailgate Show,01/19/2022,2022,https://sportstailgateshow.com/,DM,Founder Sport Group,7106,,http://www.foundersportgroup.com/,,,,"Statesville, NC United States",United States,Apparel - Children's | Apparel - Men's | Apparel - Women's | Business/ Retail Services | Imprinted/Embroidered Items | Jerseys | Picnic/Tailgating Products | Sports Equipment/Accessories - Licensed | Sports Equipment/Accessories - Non Licensed,,,AHEAD OF THE GAME
Sports Licensing and Tailgate Show,01/19/2022,2022,https://sportstailgateshow.com/,DM,For Bare Feet,5069,,http://www.shopFBF.com,,,,"Martinsville, IN United States",United States,Accessories | Footwear | Gifts & Novelties,,,Wear Your Passion
Sports Licensing and Tailgate Show,01/19/2022,2022,https://sportstailgateshow.com/,DM,Flying Colors Apparel,8111,,http://www.flyingcolorsapparel.com,,,,"Hanover, MD United States",United States,Accessories | Apparel - Women's | Imprinted/Embroidered Items,,,"Not Just Game Day, Everyday!"
Sports Licensing and Tailgate Show,01/19/2022,2022,https://sportstailgateshow.com/,DM,Franklin Sports,4023,,http://www.franklinsports.com,,,,"Stoughton, MA United States",United States,Picnic/Tailgating Products | Sports Equipment/Accessories - Licensed | Sports Equipment/Accessories - Non Licensed | Toys & Games,,,MLB NFL NHL MLS & Collegiate Sporting Goods & Youth Products
Sports Licensing and Tailgate Show,01/19/2022,2022,https://sportstailgateshow.com/,DM,FOCO,1001,,http://www.foco.com,,,,"Somerset, NJ United States",United States,Accessories | Apparel - Men's | Apparel - Women's | Collectibles & Trading Cards | Footwear | Gifts & Novelties | Headwear | Home Furnishings & Housewares | Other | Sports Equipment/Accessories - Licensed | Toys & Games,,,
Sports Licensing and Tailgate Show,01/19/2022,2022,https://sportstailgateshow.com/,DM,Flex NBA,5130,,flexnba.com,,,,"Yorba Linda, CA United States",United States,,,,
Sports Licensing and Tailgate Show,01/19/2022,2022,https://sportstailgateshow.com/,DM,Fight Face,8116,,https://www.fightface.com,,,,"Birmingham, AL United States",United States,Accessories | Gifts & Novelties,,,Bring Your Excitement
Sports Licensing and Tailgate Show,01/19/2022,2022,https://sportstailgateshow.com/,DM,FISLL MEDIA LLC,6075,,http://fisll.com,,,,"Troy, MI United States",United States,Accessories | Apparel - Men's | Apparel - Women's | Imprinted/Embroidered Items,,,Official NBA License Product - “Apparel with a Purpose”
Sports Licensing and Tailgate Show,01/19/2022,2022,https://sportstailgateshow.com/,DM,Field Fans,2088,,www.fieldfans.com,,,,"New Albany, OH United States",United States,,,,
Sports Licensing and Tailgate Show,01/19/2022,2022,https://sportstailgateshow.com/,DM,Fergo Apparel,1091,,www.collegiatesneaker.com,,,,"North Lauderdale, FL United States",United States,,,,
Sports Licensing and Tailgate Show,01/19/2022,2022,https://sportstailgateshow.com/,DM,Fan-A-Peel / Gamefaces,2071,,http://www.innovativeadhesives.com,,,,"Cary, NC United States",United States,Accessories | Gifts & Novelties | Picnic/Tailgating Products,,,
Sports Licensing and Tailgate Show,01/19/2022,2022,https://sportstailgateshow.com/,DM,Fanatics,6011,,https://www.fanatics.com/,,,,"Tampa, FL United States",United States,Apparel - Men's | Apparel - Women's | Headwear | Jerseys,,,Officially Licensed Everything
Sports Licensing and Tailgate Show,01/19/2022,2022,https://sportstailgateshow.com/,DM,Fan Ink,5025,,http://www.ficollection.com,,,,"MARKHAM, ON Canada",Canada,Gifts & Novelties | Headwear,,,We are Football Inspired
Sports Licensing and Tailgate Show,01/19/2022,2022,https://sportstailgateshow.com/,DM,"Game Bibs, Inc.",6093,,http://www.gamebibs.com,,,,"Saint Charles, IL United States",United States,Apparel - Children's | Apparel - Men's | Apparel - Women's,,,Game Bibs is one the most unique brands of spirit wear in the market today. Game Bibs patented line of spirit wear offers fans the ultimate game day apparel. Game Bibs adult unisex striped colored bib overalls in team colors are available in sizes XS through 3XL. Game Bibs also offers their unique patterns in kids bibs and cargo shorts. STAND OUT IN THE CROWD!
Sports Licensing and Tailgate Show,01/19/2022,2022,https://sportstailgateshow.com/,DM,Full Turn Custom Apparel,6117,,http://www.fullturndirect.com,,,,"San Leandro, CA United States",United States,Apparel - Children's | Apparel - Men's | Apparel - Women's,,,Full Turn is YOUR Brand Champion!
Sports Licensing and Tailgate Show,01/19/2022,2022,https://sportstailgateshow.com/,DM,Everything Comfy,4104,,http://www.collegecovers.com,,,,"Hartington, NE United States",United States,Accessories | Gifts & Novelties | Home Furnishings & Housewares | Picnic/Tailgating Products,,,"NCAA Bedding, Home and Patio Accessories.  Comforters, Sheet Sets, Pillows, Zero Gravity Chairs, Curtains, Throw Blankets, Patio Cushions."
Sports Licensing and Tailgate Show,01/19/2022,2022,https://sportstailgateshow.com/,DM,Evergreen Enterprises,4009,,http://www.myevergreen.com,,,,"Richmond, VA United States",United States,Accessories | Collectibles & Trading Cards | Gifts & Novelties | Home Furnishings & Housewares | Imprinted/Embroidered Items | Picnic/Tailgating Products | Sports Equipment/Accessories - Licensed,,,"Broad assortment of sports licensed goods for the home and garden. Over 100 different products from garden, patio, homegating, tailgating, holiday, mens and womens gifts, kitchen accessories, wine accessories, youth and fan cave."
Sports Licensing and Tailgate Show,01/19/2022,2022,https://sportstailgateshow.com/,DM,Factory Direct Wholesale LLC,1113,,http://www.factorydirectwholesales.com/,,,,"Duluth, GA United States",United States,,,,
Sports Licensing and Tailgate Show,01/19/2022,2022,https://sportstailgateshow.com/,DM,Emerson Street Clothing Co,6103,,http://www.emersonstreetclothing.com,,,,"Rochester, NY United States",United States,Accessories | Apparel - Women's | Imprinted/Embroidered Items,,,It's where you live.
Sports Licensing and Tailgate Show,01/19/2022,2022,https://sportstailgateshow.com/,DM,EastPoint Sports,7132,,http://www.wildsports.com,,,,"Succasunna, NJ United States",United States,Accessories | Gifts & Novelties | Home Furnishings & Housewares | Picnic/Tailgating Products | Sports Equipment/Accessories - Licensed | Toys & Games,,,The World's Leading Tailgating & Outdoors Games Company
Sports Licensing and Tailgate Show,01/19/2022,2022,https://sportstailgateshow.com/,DM,Dynasty Apparel Corp.,7083,,http://www.dynastyapparel.com,,,,"Miami, FL United States",United States,Apparel - Men's | Imprinted/Embroidered Items | Jerseys,,,...
Sports Licensing and Tailgate Show,01/19/2022,2022,https://sportstailgateshow.com/,DM,Fan Creations,4103,,http://www.fan-creations.com,,,,"Cumming, GA United States",United States,,,,
Sports Licensing and Tailgate Show,01/19/2022,2022,https://sportstailgateshow.com/,DM,Game On Foods,2112,,http://gameonfoods.com,,,,"Richmond, VA United States",United States,Consumables | Gifts & Novelties,,,"Game On Foods holds the confectionary license for MLB, NHL, and a growing number of the top universities across the United States. We offer a variety of products in an array of different layouts to fit the needs of all of our customers including themed gummies, customized chocolate bars, and personalized sweets."
Sports Licensing and Tailgate Show,01/19/2022,2022,https://sportstailgateshow.com/,DM,Dunbrooke Apparel,3074,,http://www.dunbrooke.com,,,,"Independence, MO United States",United States,Apparel - Men's | Apparel - Women's,,,"NFL team decorated outerwear including softshells, vests, jackets, windbreakers, and Realtree Camo."
Sports Licensing and Tailgate Show,01/19/2022,2022,https://sportstailgateshow.com/,DM,Eagles Wings,1082,,http://www.eagleswings.com,,,,"St. Cloud, FL United States",United States,Accessories | Apparel - Men's | Gifts & Novelties | Home Furnishings & Housewares,,,Leading provider of team licensed men's accessories.
Sports Licensing and Tailgate Show,01/19/2022,2022,https://sportstailgateshow.com/,DM,DreamSeat,6111,,http://www.dreamseat.com,,,,"Commack, NY United States",United States,Home Furnishings & Housewares,,,Commercial grade licensed furnishings with embroidered logos
Sports Licensing and Tailgate Show,01/19/2022,2022,https://sportstailgateshow.com/,DM,Dugout Mugs®,1108,,http://dugoutmugs.com,,,,"Winter Haven, FL United States",United States,Accessories | Collectibles & Trading Cards | Gifts & Novelties | Other,,,Dugout Mugs makes wooden baseball bat themed barware.
Sports Licensing and Tailgate Show,01/19/2022,2022,https://sportstailgateshow.com/,DM,Dona Bela Shreds,3118,,http://www.donabelashreds.com,,,,"Windsor Heights, IA United States",United States,Accessories | Apparel - Women's | Gifts & Novelties | Sports Equipment/Accessories - Non Licensed,,,Sustainable fashion accessories.
Sports Licensing and Tailgate Show,01/19/2022,2022,https://sportstailgateshow.com/,DM,Divine Creations,1014,,http://www.divinecreationsusa.com,,,,"Charlotte, NC United States",United States,Accessories | Gifts & Novelties | Imprinted/Embroidered Items | Pet Products | Toys & Games,,,Divine brings fashion for all ages to the collegiate market.
Sports Licensing and Tailgate Show,01/19/2022,2022,https://sportstailgateshow.com/,DM,Dormitory 101,6113,,http://www.dormitory101.com,,,,"Charlotte, NC United States",United States,Gifts & Novelties | Home Furnishings & Housewares | Imprinted/Embroidered Items | Sports Equipment/Accessories - Licensed,,,Luxurious. Reversible. Collegiate. Blankets.
Sports Licensing and Tailgate Show,01/19/2022,2022,https://sportstailgateshow.com/,DM,Desden,2070,,http://www.desden.com,,,,"Houston, TX United States",United States,Accessories | Apparel - Women's | Gifts & Novelties | Imprinted/Embroidered Items | Other | Picnic/Tailgating Products | Sports Equipment/Accessories - Licensed | Sports Equipment/Accessories - Non Licensed,,,"Collegiate licensed & on trend clear purses, aprons & more!"
Sports Licensing and Tailgate Show,01/19/2022,2022,https://sportstailgateshow.com/,DM,DGL Group LTD,1039,,http://dgltoys.com,,,,"Edison, NJ United States",United States,Collectibles & Trading Cards | Gifts & Novelties | Toys & Games,,,Innovation at affordable prices
Sports Licensing and Tailgate Show,01/19/2022,2022,https://sportstailgateshow.com/,DM,D.F. Sports Novelty Co.,3131,,http://www.dfsports.org,,,,"Parma, OH United States",United States,Gifts & Novelties,,,Home of the LIL' SPORTS BRAT®
Sports Licensing and Tailgate Show,01/19/2022,2022,https://sportstailgateshow.com/,DM,Creative Knitwear,4088,,http://www.creativeknitwear.com,,,,"Atlanta, GA United States",United States,Accessories | Apparel - Children's | Gifts & Novelties | Headwear | Imprinted/Embroidered Items,,,"Collegiate apparel and accessories, Newborn, to Youth"
Sports Licensing and Tailgate Show,01/19/2022,2022,https://sportstailgateshow.com/,DM,CultureFly,1115,,https://culturefly.com/,,,,"NEW YORK, NY United States",United States,,,,
Sports Licensing and Tailgate Show,01/19/2022,2022,https://sportstailgateshow.com/,DM,Craftique Manufacturing Company,6112,,http://www.craftiquemfg.com,,,,"Chattanooga, TN United States",United States,Accessories | Automotive | Gifts & Novelties,,,"Manufacturer and wholesaler of officially licensed collegiate automotive products including laser tags, license frames, decals, magnets, hitch covers, key chains, and more.  In business since 1969, we provide fast order delivery backed by excellent service - all with no minimums!  We offer more than 80 schools nationwide."
Sports Licensing and Tailgate Show,01/19/2022,2022,https://sportstailgateshow.com/,DM,Columbia/OCS,8060,,http://www.triformapparel.com,,,,"Overland Park, KS United States",United States,Accessories | Apparel - Men's | Apparel - Women's | Headwear | Jerseys,,,"“adidas has its roots in Germany but is a truly global company. Partnering in 2019, Triform Custom Apparel (TCA) brings adidas’ universal athletic brand into the Collegiate channel of distribution as an official apparel licensee."
Sports Licensing and Tailgate Show,01/19/2022,2022,https://sportstailgateshow.com/,DM,Colosseum Athletics,8009,,http://www.colosseumusa.com,,,,"Compton, CA United States",United States,Apparel - Children's | Apparel - Men's | Apparel - Women's,,,OWN THE STANDS
Sports Licensing and Tailgate Show,01/19/2022,2022,https://sportstailgateshow.com/,DM,Coopersburg Sports,1090,,http://www.coopersburgsports.com,,,,"Center Valley, PA United States",United States,Gifts & Novelties | Imprinted/Embroidered Items | Picnic/Tailgating Products | Toys & Games,,,
Sports Licensing and Tailgate Show,01/19/2022,2022,https://sportstailgateshow.com/,DM,Color Shock Licensed Products,7087,,http://www.colorshock.com,,,,"Chicago, IL United States",United States,Accessories | Automotive | Gifts & Novelties | Home Furnishings & Housewares | Imprinted/Embroidered Items | Picnic/Tailgating Products | Sports Equipment/Accessories - Licensed | Stationery & School Supplies,,,Made in the USA for fast turn and availability.
Sports Licensing and Tailgate Show,01/19/2022,2022,https://sportstailgateshow.com/,DM,Collegiate Pacific,7131,,http://www.collegiatepacific.com,,,,"Roanoke, VA United States",United States,Collectibles & Trading Cards | Gifts & Novelties | Imprinted/Embroidered Items,,,The one and only - Made in the USA
Sports Licensing and Tailgate Show,01/19/2022,2022,https://sportstailgateshow.com/,DM,Concepts Sport,8001,,http://www.conceptssport.com,,,,"Atlanta, GA United States",United States,Apparel - Men's | Apparel - Women's | Imprinted/Embroidered Items,,,We Bring The Passion Of The Game Into Your Home.
Sports Licensing and Tailgate Show,01/19/2022,2022,https://sportstailgateshow.com/,DM,College Wall Art,7096,,https://collegewallart.com,,,,"Oldsmar, FL United States",United States,Gifts & Novelties | Home Furnishings & Housewares | Picnic/Tailgating Products,,,Capturing EPIC Moments
Sports Licensing and Tailgate Show,01/19/2022,2022,https://sportstailgateshow.com/,DM,"CMC Design, LLC",4130,,www.cmcdesign.com,,,,"Scottsdale, AZ United States",United States,,,,
Sports Licensing and Tailgate Show,01/19/2022,2022,https://sportstailgateshow.com/,DM,chicka-d / UG Apparel,7075,,http://www.ugapparel.com,,,,"Charleston, WV United States",United States,Apparel - Women's,,,Fashionable Missy and Plus Size women's collegiate apparel. Licensed for all top NCAA teams. Stop by our booth and see what the buzz is all about!
Sports Licensing and Tailgate Show,01/19/2022,2022,https://sportstailgateshow.com/,DM,CI Sport,6123,,http://www.cisport.com,,,,"Fargo, ND United States",United States,Apparel - Children's | Apparel - Men's | Apparel - Women's | Imprinted/Embroidered Items,,,"CI Sport specializes in custom decorated collegiate apparel and has become a leader in the industry with 24 piece minimums, innovated designs, and quick turnaround times."
Sports Licensing and Tailgate Show,01/19/2022,2022,https://sportstailgateshow.com/,DM,Bathletix,5128,,http://www.bathletix.com,,,,"Los Angeles, CA United States",United States,Other,,,Bathletix is a supplier of specialty personal care products with licenses in the sports areana. The company provides unique and innovative offerings from SPF products to basic bath and body. These quality items packaged in one of a kind packaging coupled with eye-catching designs that bring the sports action to life.
Sports Licensing and Tailgate Show,01/19/2022,2022,https://sportstailgateshow.com/,DM,BBQ Shape N' Scrape,1105,,https://adjustablebbqscraper.com/,,,,"Whitby, ON Canada",Canada,,,,
Sports Licensing and Tailgate Show,01/19/2022,2022,https://sportstailgateshow.com/,DM,BaseballBBQ,3106,,http://www.baseballbbq.com,,,,"Philadelphia, PA United States",United States,Home Furnishings & Housewares | Picnic/Tailgating Products,,,Makers of Patented Bat-Handle BBQ tools and Accessories
Sports Licensing and Tailgate Show,01/19/2022,2022,https://sportstailgateshow.com/,DM,Barbarian / Bruzer,6086,,http://www.barbarian.com/,,,,"Toronto, ON Canada",Canada,Apparel - Men's | Apparel - Women's | Imprinted/Embroidered Items | Jerseys,,,Canadian manufacturer of authentic heritage rugby jerseys.
Sports Licensing and Tailgate Show,01/19/2022,2022,https://sportstailgateshow.com/,DM,Ball Corporation,4133,,https://www.ball.com/aluminumcups,,,,"Westminster, CO United States",United States,,,,
Sports Licensing and Tailgate Show,01/19/2022,2022,https://sportstailgateshow.com/,DM,Authentic Street Signs,5116,,http://www.authenticstreetsigns.com,,,,"St. Peter, IL United States",United States,Accessories | Gifts & Novelties | Home Furnishings & Housewares | Other,,,
Sports Licensing and Tailgate Show,01/19/2022,2022,https://sportstailgateshow.com/,DM,Artsman,7133,,http://www.artsmansport.com,,,,"Cincinnati, United States",United States,,,,
Sports Licensing and Tailgate Show,01/19/2022,2022,https://sportstailgateshow.com/,DM,AMINCO INTERNATIONAL (USA) INC,5082,,http://www.amincousa.com,,,,"Lake Forest, CA United States",United States,Accessories | Collectibles & Trading Cards | Gifts & Novelties,,,"Aminco International (USA) Inc. is one of the world's largest designer and manufacturer of emblematic jewelry and accessories.  Our full staff of creative artists and customer service reps excel at providing the best in product design and service.  We carry all the major licenses such as the NFL, MLB, NBA, NHL, and over 200 Colleges."
Sports Licensing and Tailgate Show,01/19/2022,2022,https://sportstailgateshow.com/,DM,Atlanta Hosiery/ Two Feet Ahead,2075,,http://www.twofeetahead.com,,,,"Atlanta, GA United States",United States,Headwear | Imprinted/Embroidered Items | Accessories | Apparel - Children's | Gifts & Novelties,,,"Infant Toddler and youth collegiate apparel, caps and socks"
Sports Licensing and Tailgate Show,01/19/2022,2022,https://sportstailgateshow.com/,DM,All Star Dogs,1024,,http://www.allstardogs.com,,,,"Marlboro, NJ United States",United States,Accessories | Automotive | Gifts & Novelties | Home Furnishings & Housewares | Imprinted/Embroidered Items | Other | Pet Products,,,Licensed pet gear. Over 500+ Teams Available. Custom Orders.
Sports Licensing and Tailgate Show,01/19/2022,2022,https://sportstailgateshow.com/,DM,Alef Custom Packaging Co.,3072,,http://www.alefcustom.com,,,,"Feasterville, PA United States",United States,Business/ Retail Services | Other,,,
Sports Licensing and Tailgate Show,01/19/2022,2022,https://sportstailgateshow.com/,DM,Antigua,2033,,http://www.antigua.com,,,,"Peoria, AZ United States",United States,Accessories | Apparel - Men's | Apparel - Women's | Headwear,,,APPAREL FOR YOUR GAME
Sports Licensing and Tailgate Show,01/19/2022,2022,https://sportstailgateshow.com/,DM,'47,6029,,http://www.47brand.com,,,,"Westwood, MA United States",United States,Apparel - Men's | Apparel - Women's | Headwear,,,"'47 is a sports lifestyle brand founded in Boston, by twin brothers, Arthur and Henry D'Angelo in 1947. '47 is a proud partner of the MLB, NFL, NHL, MLS, MLL and over 950 collegiate programs."
Sports Licensing and Tailgate Show,01/19/2022,2022,https://sportstailgateshow.com/,DM,NO.1 DRAFT PICK / N1DP SPORTS WEAR,5126,,http://www.n1dp.com,,,,"Laurelton , NY United States",United States,Apparel - Men's | Apparel - Women's | Headwear,,,THE BEST DARN SPORTS GEAR PERIOD.
Sports Licensing and Tailgate Show,01/19/2022,2022,https://sportstailgateshow.com/,DM,YouTheFan,4082,,http://www.youthefan.com,,,,"Warsaw, IN United States",United States,Gifts & Novelties | Home Furnishings & Housewares | Picnic/Tailgating Products | Toys & Games,,,Officially Licensed. Officially Awesome.
Sports Licensing and Tailgate Show,01/19/2022,2022,https://sportstailgateshow.com/,DM,A Fan For Life,2092,,http://www.afanforlife.com,,,,"Calgary, AB Canada",Canada,Gifts & Novelties | Toys & Games,,,Groundbreaking.
Sports Licensing and Tailgate Show,01/19/2022,2022,https://sportstailgateshow.com/,DM,19nine,7128,,http://www.19nine.com,,,,"Evansville, IN United States",United States,Apparel - Men's | Apparel - Women's | Jerseys,,,Premium fashion brand celebrating NCAA basketball history
Sports Licensing and Tailgate Show,01/19/2022,2022,https://sportstailgateshow.com/,DM,Pegasus Sports,5045,,http://www.PegasusSportsShop.com,,,,"Belmar, NJ United States",United States,Home Furnishings & Housewares,,,PEGASUS SPORTS SHOP
Sports Licensing and Tailgate Show,01/19/2022,2022,https://sportstailgateshow.com/,DM,Adidas/TCA,7061,,http://www.triformapparel.com,,,,"Overland Park, KS United States",United States,,,,
Sports Licensing and Tailgate Show,01/19/2022,2022,https://sportstailgateshow.com/,DM,ahead,4110,,https://www.aheadweb.com/catalogs,,,,"New Bedford, MA United States",United States,Apparel - Men's | Apparel - Women's | Headwear,,,So many ways to get ahead!
Sports Licensing and Tailgate Show,01/19/2022,2022,https://sportstailgateshow.com/,DM,YouTheFan,4083,,http://www.youthefan.com,,,,"Warsaw, IN United States",United States,Gifts & Novelties | Home Furnishings & Housewares | Picnic/Tailgating Products | Toys & Games,,,Officially Licensed. Officially Awesome.
