ShowName,ShowDate,ShowYear,ShowWebsite,SubmittedBy,ExhibitorName,BoothNumber,HallLocation,Website,Email,Phone,Fax,Address,Country,Categories,Manufacturers,Brands,Description
International Food & Resturant Show,03/06/2022,2022,https://www.internationalrestaurantny.com/,DM,7shifts,1126,,https://www.7shifts.com,,,,"Saskatoon, SK Canada",Canada,,,,
International Food & Resturant Show,03/06/2022,2022,https://www.internationalrestaurantny.com/,DM,Exact Payroll Inc,1802,,http://www.exactpayroll.com,,,,"Huntingdon Valley, PA United States",United States,,,,
International Food & Resturant Show,03/06/2022,2022,https://www.internationalrestaurantny.com/,DM,"EMI Industries, LLC",1303,,,,,,"Boonton, NJ United States",United States,,,,
International Food & Resturant Show,03/06/2022,2022,https://www.internationalrestaurantny.com/,DM,Distillery 291,1132,,,,,,"Colorado Springs, CO United States",United States,,,,
International Food & Resturant Show,03/06/2022,2022,https://www.internationalrestaurantny.com/,DM,diningedge,1512,,http://www.diningedge.com,,,,"Boca Raton, FL United States",United States,,,,
International Food & Resturant Show,03/06/2022,2022,https://www.internationalrestaurantny.com/,DM,Deliverect,1823,,,,,,"Gent, Gent Belgium",Belgium,,,,
International Food & Resturant Show,03/06/2022,2022,https://www.internationalrestaurantny.com/,DM,Degrenne North America,1400,,,,,,"Yardley, CA United States",United States,,,,
International Food & Resturant Show,03/06/2022,2022,https://www.internationalrestaurantny.com/,DM,David's Cookies,1446,,http://www.foodservice.davidscookies.com,,,,"Cedar Grove, NJ United States",United States,Food,,David's Cookies,David's® Cookies is a full-line dessert manufacturer.
International Food & Resturant Show,03/06/2022,2022,https://www.internationalrestaurantny.com/,DM,Culinary Depot,1908,,http://www.culinarydepotinc.com,,,,"Monsey, NY United States",United States,,,,
International Food & Resturant Show,03/06/2022,2022,https://www.internationalrestaurantny.com/,DM,ZT Packaging,1810,,http://www.ztpackaging.com,,,,"Rego Park, NY United States",United States,,,,
International Food & Resturant Show,03/06/2022,2022,https://www.internationalrestaurantny.com/,DM,Yanco China Inc.,1509,,,,,,"Piscataway, NJ United States",United States,,,,
International Food & Resturant Show,03/06/2022,2022,https://www.internationalrestaurantny.com/,DM,Ecolab Inc.,1809,,http://www.ecolab.com,,,,"St. Paul, MN United States",United States,,,,
International Food & Resturant Show,03/06/2022,2022,https://www.internationalrestaurantny.com/,DM,Drum Rock Products,1668,,http://www.drumrockproducts.com/,,,,"Warwick, RI United States",United States,,,,
International Food & Resturant Show,03/06/2022,2022,https://www.internationalrestaurantny.com/,DM,Workstream Technologies Inc.,2020,,https://workstream.us,,,,"San Francisco, CT United States",United States,Business Services | Technology,,"Burger King, McDonald's, Taco Bell, Dunkin', Firehouse Subs, Carl's Jr, Hardee's, and many other QSR brands use Workstream today.",How's hiring? We would love to help.
International Food & Resturant Show,03/06/2022,2022,https://www.internationalrestaurantny.com/,DM,Dynamic USA,1501,,http://www.dynamicmixersusa.com,,,,"Champlain, NY United States",United States,,,,
International Food & Resturant Show,03/06/2022,2022,https://www.internationalrestaurantny.com/,DM,Eco-Tek NY LLC,1240,,http://www.tekexpressny.com,,,,"Lynbrook, NY United States",United States,,,,
International Food & Resturant Show,03/06/2022,2022,https://www.internationalrestaurantny.com/,DM,World Centric,2011,,,,,,"Petaluma, CA United States",United States,,,,
International Food & Resturant Show,03/06/2022,2022,https://www.internationalrestaurantny.com/,DM,eatCleaner,1023,,,,,,"Agoura Hills, CA United States",United States,,,,
International Food & Resturant Show,03/06/2022,2022,https://www.internationalrestaurantny.com/,DM,EUROPE SHARES,1563,,,,,,"Orangeburg, NY United States",United States,,,,
International Food & Resturant Show,03/06/2022,2022,https://www.internationalrestaurantny.com/,DM,Waring Commercial Products,1325,,http://www.waringcommercialproducts.com,,,,"Torrington, CT United States",United States,,,,
International Food & Resturant Show,03/06/2022,2022,https://www.internationalrestaurantny.com/,DM,Vertex China,1212,,http://www.dexter1818.com,,,,"Pomona, CA United States",United States,,,,
International Food & Resturant Show,03/06/2022,2022,https://www.internationalrestaurantny.com/,DM,Wikki Stix Company,1031,,http://www.wikkistix.com,,,,"Phoenix, AZ United States",United States,,,,
International Food & Resturant Show,03/06/2022,2022,https://www.internationalrestaurantny.com/,DM,Electro Freeze,2018,,http://www.electrofreezetristate.com,,,,"Commack, NY United States",United States,Equipment,,,
International Food & Resturant Show,03/06/2022,2022,https://www.internationalrestaurantny.com/,DM,Venture Food Trucks,1506,,http://www.venturefoodtrucks.com,,,,"Napanee, ON Canada",Canada,,,,
International Food & Resturant Show,03/06/2022,2022,https://www.internationalrestaurantny.com/,DM,Up n' go,1970,,,,,,"San Diego, CA United States",United States,,,,
International Food & Resturant Show,03/06/2022,2022,https://www.internationalrestaurantny.com/,DM,UNIVERCLEAN LTD,1566,,,,,,"Hackensack, NJ United States",United States,,,,
International Food & Resturant Show,03/06/2022,2022,https://www.internationalrestaurantny.com/,DM,Toast,1544,,,,,,"Boston, MA United States",United States,,,,
International Food & Resturant Show,03/06/2022,2022,https://www.internationalrestaurantny.com/,DM,Timeless Natural Food,1003,,http://,,,,"Ulm , MT United States",United States,,,,
International Food & Resturant Show,03/06/2022,2022,https://www.internationalrestaurantny.com/,DM,Xiamen Jian An Feng Packing Co. Ltd,1919,,,,,,"Xiamen, Fujian China",China,,,,
International Food & Resturant Show,03/06/2022,2022,https://www.internationalrestaurantny.com/,DM,Tredsafe / Walmart (ES Originals),1749,,http://www.walmart.com,,,,"New York, NY United States",United States,,,,
International Food & Resturant Show,03/06/2022,2022,https://www.internationalrestaurantny.com/,DM,The Chair Market,1750,,,,,,"New York, NY United States",United States,,,,
International Food & Resturant Show,03/06/2022,2022,https://www.internationalrestaurantny.com/,DM,The Subtle Tea Company,1670,,,,,,"Ronkonkoma, NY United States",United States,,,,
International Food & Resturant Show,03/06/2022,2022,https://www.internationalrestaurantny.com/,DM,The Neil Jones Food Company,1425,,http://www.njfco.com,,,,"Vancouver, WA United States",United States,,,,
International Food & Resturant Show,03/06/2022,2022,https://www.internationalrestaurantny.com/,DM,The Brand Passport,2038,,,,,,"New York, NY United States",United States,,,,
International Food & Resturant Show,03/06/2022,2022,https://www.internationalrestaurantny.com/,DM,"Taylor Products, Inc.",1909,,http://www.taylorproducts.net,,,,"Edison, NJ United States",United States,,,,
International Food & Resturant Show,03/06/2022,2022,https://www.internationalrestaurantny.com/,DM,Suzumo International Corporation,1108,,,,,,"Torrance, CA United States",United States,,,,
International Food & Resturant Show,03/06/2022,2022,https://www.internationalrestaurantny.com/,DM,tsalon.com,1154,,,,,,"Middletown, NJ United States",United States,,,,
International Food & Resturant Show,03/06/2022,2022,https://www.internationalrestaurantny.com/,DM,WestRock (Fold-Pak),1412,,http://www.westrock.com,,,,"Atlanta, GA United States",United States,,,,
International Food & Resturant Show,03/06/2022,2022,https://www.internationalrestaurantny.com/,DM,Sunday App,2019,,,,,,"Atlanta, GA United States",United States,,,,
International Food & Resturant Show,03/06/2022,2022,https://www.internationalrestaurantny.com/,DM,Sunshine Supply Company,2037,,http://www.sunshinesupplyusa.com,,,,"Chicago, IL United States",United States,,,,
International Food & Resturant Show,03/06/2022,2022,https://www.internationalrestaurantny.com/,DM,Sprockets,1753,,,,,,"Folly Beach, SC United States",United States,,,,
International Food & Resturant Show,03/06/2022,2022,https://www.internationalrestaurantny.com/,DM,Spray Master Technologies,1113,,http://www.spraymastertech.com,,,,"Rogers, AR United States",United States,"Cleaning Supplies, Services & Safety | Equipment",,"Spray Master Technologies Power Clean 2.0, Power Clean Go and Power Clean 2.0 Central System",Let us show you how to POWER UP YOUR CLEAN with SMT
International Food & Resturant Show,03/06/2022,2022,https://www.internationalrestaurantny.com/,DM,SpotOn,1741,,,,,,"San Francisco, CA United States",United States,,,,
International Food & Resturant Show,03/06/2022,2022,https://www.internationalrestaurantny.com/,DM,Sound Stage Systems,1941,,,,,,"North Haven, CT United States",United States,,,,
International Food & Resturant Show,03/06/2022,2022,https://www.internationalrestaurantny.com/,DM,Social High Rise,1548,,,,,,"CHICO, CA United States",United States,,,,
International Food & Resturant Show,03/06/2022,2022,https://www.internationalrestaurantny.com/,DM,Smart Pack USA,2030,,http://www.smartpackusa.com,,,,"Hollbrook, NY United States",United States,,,,
International Food & Resturant Show,03/06/2022,2022,https://www.internationalrestaurantny.com/,DM,Steelite International,1520,,http://www.steelite.com,,,,"New Castle, PA United States",United States,,,,
International Food & Resturant Show,03/06/2022,2022,https://www.internationalrestaurantny.com/,DM,TerraSlate Waterproof Menus,1830,,http://www.terraslate.com,,,,"Denver, CO United States",United States,,,,
International Food & Resturant Show,03/06/2022,2022,https://www.internationalrestaurantny.com/,DM,Skechers,1448,,http://www.skechersdirect.com,,,,"Manhattan Beach, CA United States",United States,Apparel,,Skechers,Corporate Shoe Program
International Food & Resturant Show,03/06/2022,2022,https://www.internationalrestaurantny.com/,DM,Square Inc,1817,,http://www.squareup.com,,,,"San Francisco, CA United States",United States,,,,
International Food & Resturant Show,03/06/2022,2022,https://www.internationalrestaurantny.com/,DM,Senova Seating,1826,,http://www.senovaseating.com,,,,"San Diego, CA United States",United States,,,,
International Food & Resturant Show,03/06/2022,2022,https://www.internationalrestaurantny.com/,DM,Sempio Foods Company,1011,,,,,,"New York, NY United States",United States,,,,
International Food & Resturant Show,03/06/2022,2022,https://www.internationalrestaurantny.com/,DM,Signature International Foods US,1107,,,,,,"Wilmington, DE United States",United States,,,,
International Food & Resturant Show,03/06/2022,2022,https://www.internationalrestaurantny.com/,DM,SelectSpace Partitions,1244,,,,,,"Chicago, IL United States",United States,,,,
International Food & Resturant Show,03/06/2022,2022,https://www.internationalrestaurantny.com/,DM,Saratoga Spring Water Company,1472,,http://www.sswc.com,,,,"Saratoga Springs, NH United States",United States,,,,
International Food & Resturant Show,03/06/2022,2022,https://www.internationalrestaurantny.com/,DM,Sanyei Corporation,1423,,,,,,"Taito-ku, TOKYO Japan",Japan,,,,
International Food & Resturant Show,03/06/2022,2022,https://www.internationalrestaurantny.com/,DM,San Diego Farms LLC. dba Fresh Origins,1555,,http://www.freshorigins.com,,,,"San Marcos, CA United States",United States,,,,
International Food & Resturant Show,03/06/2022,2022,https://www.internationalrestaurantny.com/,DM,Sail Away,1473,,,,,,"Deer Park, NY United States",United States,,,,
International Food & Resturant Show,03/06/2022,2022,https://www.internationalrestaurantny.com/,DM,Sani Professional,1246,,,,,,"Laguna Niguel, CA United States",United States,,,,
International Food & Resturant Show,03/06/2022,2022,https://www.internationalrestaurantny.com/,DM,Sam Tell & Son Inc,1218,,http://www.samtell.com,,,,"Farmingdale, NY United States",United States,,,,
International Food & Resturant Show,03/06/2022,2022,https://www.internationalrestaurantny.com/,DM,RX Music,1449,,http://www.rxmusic.com,,,,"Hoffman Estates, IL United States",United States,,,,
International Food & Resturant Show,03/06/2022,2022,https://www.internationalrestaurantny.com/,DM,White Plains Linen,1760,,http://www.whiteplainslinen.com,,,,"Peekskill, NY United States",United States,,,,
International Food & Resturant Show,03/06/2022,2022,https://www.internationalrestaurantny.com/,DM,WILMAX USA,1103,,,,,,"Bensalem, PA United States",United States,,,,
International Food & Resturant Show,03/06/2022,2022,https://www.internationalrestaurantny.com/,DM,RATIONAL USA,1203,,http://www.rational-online.com,,,,"Rolling Meadows, IL United States",United States,,,,
International Food & Resturant Show,03/06/2022,2022,https://www.internationalrestaurantny.com/,DM,"RAK Porcelain, USA",1502,,http://,,,,"Oakdale, CA United States",United States,,,,
International Food & Resturant Show,03/06/2022,2022,https://www.internationalrestaurantny.com/,DM,Prime 6,1021,,http://www.prime-six.com,,,,"Hoboken, NJ United States",United States,Equipment | Lifestyle Food Products,,Prime 6 Charcoal   |   Prime 6 Firelogs   |   Prime 6 Fire Starters,
International Food & Resturant Show,03/06/2022,2022,https://www.internationalrestaurantny.com/,DM,PreGel America,1406,,http://www.pregelamerica.com,,,,"Concord, NC United States",United States,,,,
International Food & Resturant Show,03/06/2022,2022,https://www.internationalrestaurantny.com/,DM,POS Solutions,1343,,,,,,"Rockaway, NJ United States",United States,,,,
International Food & Resturant Show,03/06/2022,2022,https://www.internationalrestaurantny.com/,DM,Revel Systems,2009,,http://www.revelsystems.com,,,,"San Francisco, CA United States",United States,,,,
International Food & Resturant Show,03/06/2022,2022,https://www.internationalrestaurantny.com/,DM,Oumph!,1411,,http://oumph.us/,,,,"Lake Worth, FL United States",United States,,,,
International Food & Resturant Show,03/06/2022,2022,https://www.internationalrestaurantny.com/,DM,Route 66 International Inc,1349,,,,,,"Hackensack, NJ United States",United States,,,,
International Food & Resturant Show,03/06/2022,2022,https://www.internationalrestaurantny.com/,DM,Order Top Shelf,1152,,,,,,"Brooklyn, NY United States",United States,,,,
International Food & Resturant Show,03/06/2022,2022,https://www.internationalrestaurantny.com/,DM,"Omnipak Imports Ent., Inc.",1903,,http://www.omnipakimport.com,,,,"Flushing, NY United States",United States,,,,
International Food & Resturant Show,03/06/2022,2022,https://www.internationalrestaurantny.com/,DM,New York State Restaurant Association,1241,,http://www.nysra.org,,,,"New York, NY United States",United States,,,,
International Food & Resturant Show,03/06/2022,2022,https://www.internationalrestaurantny.com/,DM,"Ovation up, Inc",1862,,,,,,"Mapleton, UT United States",United States,,,,
International Food & Resturant Show,03/06/2022,2022,https://www.internationalrestaurantny.com/,DM,OiLChef,1873,,,,,,"Montreal, QC Canada",Canada,,,,
International Food & Resturant Show,03/06/2022,2022,https://www.internationalrestaurantny.com/,DM,National Checking Company,1871,,http://www.ncco.com,,,,"St. Paul, MN United States",United States,,,,
International Food & Resturant Show,03/06/2022,2022,https://www.internationalrestaurantny.com/,DM,WizKid Products,1818,,https://www.wizkidproducts.com,,,,"Dalton, GA United States",United States,"Cleaning Supplies, Services & Safety",,"WizKid Products
WizKid Antimicrobial Mats
Splash Hog Vertical Urinal Screens","Making your world a cleaner, better-smelling place."
International Food & Resturant Show,03/06/2022,2022,https://www.internationalrestaurantny.com/,DM,Miscela D’Oro USA Inc.,1925,,http://www.misceladoro.com,,,,"New York, NY United States",United States,,,,
International Food & Resturant Show,03/06/2022,2022,https://www.internationalrestaurantny.com/,DM,Menusifu Inc.,1921,,http://www.menusifu.com,,,,"Manhattan, NY United States",United States,,,,
International Food & Resturant Show,03/06/2022,2022,https://www.internationalrestaurantny.com/,DM,Nardi / S.I.T. Inc,1745,,http://www.nardioutdoor.com/en,,,,"Quincy, MA United States",United States,,,,
International Food & Resturant Show,03/06/2022,2022,https://www.internationalrestaurantny.com/,DM,Met Speed Label,2027,,,,,,"Levitown, PA United States",United States,,,,
International Food & Resturant Show,03/06/2022,2022,https://www.internationalrestaurantny.com/,DM,Melodic Productions,1419,,http://www.melodicproductions.com,,,,"Ronkonkoma, NY United States",United States,,,,
International Food & Resturant Show,03/06/2022,2022,https://www.internationalrestaurantny.com/,DM,Madbury Road,1469,,http://madburyroad.com,,,,"Scituate, RI United States",United States,,,,
International Food & Resturant Show,03/06/2022,2022,https://www.internationalrestaurantny.com/,DM,Rheon USA,1654,,http://www.rheon.com,,,,"Teterboro, NJ United States",United States,,,,
International Food & Resturant Show,03/06/2022,2022,https://www.internationalrestaurantny.com/,DM,"McGrinder Associates - Table Ventures, LLC.",1401,,http://www.mcgrinder.com,,,,"Hackensack, NJ United States",United States,,,,
International Food & Resturant Show,03/06/2022,2022,https://www.internationalrestaurantny.com/,DM,Marx Companies,1820,,http://www.nafood.com/,,,,"Atlantic Highlands, NJ United States",United States,,,,
International Food & Resturant Show,03/06/2022,2022,https://www.internationalrestaurantny.com/,DM,Micros Retail Systems,1803,,,,,,"Weehawken, NJ United States",United States,,,,
International Food & Resturant Show,03/06/2022,2022,https://www.internationalrestaurantny.com/,DM,Lion's Wood Banquet Furniture,1400,,,,,,"BALTIMORE, MD United States",United States,,,,
International Food & Resturant Show,03/06/2022,2022,https://www.internationalrestaurantny.com/,DM,Laser Medics,1130,,,,,,"Mary Esther, FL United States",United States,,,,
International Food & Resturant Show,03/06/2022,2022,https://www.internationalrestaurantny.com/,DM,Italcrust Wood Fired Pizza Crust,1518,,http://www.italcrust.com,,,,"Newton, MA United States",United States,,,,
International Food & Resturant Show,03/06/2022,2022,https://www.internationalrestaurantny.com/,DM,"Koppert Cress, USA",1569,,http://usa.koppertcress.com,,,,"Cutchogue, NY United States",United States,,,,
International Food & Resturant Show,03/06/2022,2022,https://www.internationalrestaurantny.com/,DM,Java Jacket Inc (CF),2031,,http://www.javajacket.com,,,,"Portland, OR United States",United States,,,,
International Food & Resturant Show,03/06/2022,2022,https://www.internationalrestaurantny.com/,DM,Jailhouse Spirits / Got Attitude Vodka/ SOUR G,1134,,http://www.gotattitude.vodka,,,,"Hamden, CT United States",United States,Beverage,,,"All Natural, Gluten Free, American Made Potato Vodka"
International Food & Resturant Show,03/06/2022,2022,https://www.internationalrestaurantny.com/,DM,Idaho Potato Commission,1410,,http://www.idahopotato.com,,,,"Eagle, ID United States",United States,,,,"The Idaho Potato Commission is the marketing arm for the entire Idaho potato Industry. The organization created the well-known â€œGrown in IdahoÂ®â€ seal, which symbolizes quality."
International Food & Resturant Show,03/06/2022,2022,https://www.internationalrestaurantny.com/,DM,Lloyds Pans,1806,,http://www.lloydpans.com,,,,"Spokane Valley, WA United States",United States,,,,
International Food & Resturant Show,03/06/2022,2022,https://www.internationalrestaurantny.com/,DM,Instantwhip NY Inc,2039,,http://www.flavorright.com,,,,"Woodside, NY United States",United States,,,,
International Food & Resturant Show,03/06/2022,2022,https://www.internationalrestaurantny.com/,DM,Hospitality Computer Solutions,933,,http://www.hcspos.com,,,,"Sussex, NJ United States",United States,,,,
International Food & Resturant Show,03/06/2022,2022,https://www.internationalrestaurantny.com/,DM,"Hollowick, Inc",1313,,http://www.hollowick.com,,,,"Manlius, NY United States",United States,,,,
International Food & Resturant Show,03/06/2022,2022,https://www.internationalrestaurantny.com/,DM,Itaberco,1911,,,,,,"Stevensville, MD United States",United States,,,,
International Food & Resturant Show,03/06/2022,2022,https://www.internationalrestaurantny.com/,DM,Roger & Sons,1831,,http://rogerandsons.net,,,,"New York, NY United States",United States,,,,
International Food & Resturant Show,03/06/2022,2022,https://www.internationalrestaurantny.com/,DM,Heartland Payment Systems,1418,,,,,,"Edmond, OK United States",United States,,,,
International Food & Resturant Show,03/06/2022,2022,https://www.internationalrestaurantny.com/,DM,Harbortouch/Opal Payment Solutions,1500,,http://www.oneharbortouch.com,,,,"New York, NY United States",United States,,,,
International Food & Resturant Show,03/06/2022,2022,https://www.internationalrestaurantny.com/,DM,The Amazing Flamesless Candle,1111,,http://www.flamelesscandles.com,,,,"Scottsdale, AZ United States",United States,,,,
International Food & Resturant Show,03/06/2022,2022,https://www.internationalrestaurantny.com/,DM,Glac Seat Bistro Furniture,1407,,http://www.glacseat.com,,,,"Ames, IA United States",United States,Coffee | Decor & Furnishings,,,French rattan bistro chairs and tables by Poitoux.
International Food & Resturant Show,03/06/2022,2022,https://www.internationalrestaurantny.com/,DM,Hayden Valley Foods Inc,1159,,http://www.haydenvalleyfoods.com,,,,"Urbancrest, OH United States",United States,,,,
International Food & Resturant Show,03/06/2022,2022,https://www.internationalrestaurantny.com/,DM,Fila,1363,,http://www.fila.com,,,,"Sparks, MD United States",United States,,,,
International Food & Resturant Show,03/06/2022,2022,https://www.internationalrestaurantny.com/,DM,Hoshizaki Northeastern,1307,,http://hoshizakiamerica.com,,,,"Plainview, NY United States",United States,,,,
International Food & Resturant Show,03/06/2022,2022,https://www.internationalrestaurantny.com/,DM,GMA Trading Corp,1135,,,,,,"Imperial Beach, CA United States",United States,,,,
International Food & Resturant Show,03/06/2022,2022,https://www.internationalrestaurantny.com/,DM,Focus POS,1844,,http://focuspos.com,,,,"Boerne, TX United States",United States,,,,
International Food & Resturant Show,03/06/2022,2022,https://www.internationalrestaurantny.com/,DM,FigBrew,905,,,,,,"Huntsville, AL United States",United States,,,,
International Food & Resturant Show,03/06/2022,2022,https://www.internationalrestaurantny.com/,DM,Crescent Duck Farm,1761,,http://www.crescentduck.com,,,,"Aquebogue, NY United States",United States,,,,
International Food & Resturant Show,03/06/2022,2022,https://www.internationalrestaurantny.com/,DM,Cooper Farms,1139,,,,,,"Fort Recovery, OH United States",United States,,,,
International Food & Resturant Show,03/06/2022,2022,https://www.internationalrestaurantny.com/,DM,Choco,1756,,,,,,"New York, NY United States",United States,,,,
International Food & Resturant Show,03/06/2022,2022,https://www.internationalrestaurantny.com/,DM,Gelato Giuliana,1471,,http://gelatogiuliana.com,,,,"New Haven, CT United States",United States,,,,
International Food & Resturant Show,03/06/2022,2022,https://www.internationalrestaurantny.com/,DM,Columbia Packaging Group,2040,,,,,,"Kansas City, MO United States",United States,,,,
International Food & Resturant Show,03/06/2022,2022,https://www.internationalrestaurantny.com/,DM,CELSIUS,1643,,,,,,"Boca Raton, FL United States",United States,,,,
International Food & Resturant Show,03/06/2022,2022,https://www.internationalrestaurantny.com/,DM,CCS Creative,1524,,http://www.ccscreative.com,,,,"Toronto, ON Canada",Canada,,,,
International Food & Resturant Show,03/06/2022,2022,https://www.internationalrestaurantny.com/,DM,"Conway Imports Co.,  Inc",1445,,http://www.conwaydressings.com,,,,"Franklin Park, IL United States",United States,,,,
International Food & Resturant Show,03/06/2022,2022,https://www.internationalrestaurantny.com/,DM,Robot Coupe USA,2007,,http://www.robotcoupeusa.com,,,,"Ridgeland, MS United States",United States,,,,
International Food & Resturant Show,03/06/2022,2022,https://www.internationalrestaurantny.com/,DM,Cash Discount Program by Smart Payment Solutions,1931,,,,,,"New York, NY United States",United States,,,,We will cover the POS system fees if you
International Food & Resturant Show,03/06/2022,2022,https://www.internationalrestaurantny.com/,DM,CAC China,1114,,http://www.cacchinausa.com,,,,"Maplewood, NJ United States",United States,,,,
International Food & Resturant Show,03/06/2022,2022,https://www.internationalrestaurantny.com/,DM,"Brooklyn Food & Beverage,LLC",1530,,http://www.drinkbrookylncrafted.com,,,,"Brooklyn, NY United States",United States,,,,
International Food & Resturant Show,03/06/2022,2022,https://www.internationalrestaurantny.com/,DM,Bronx River Bottling LLC,2044,,,,,,"Valley Cottage, NY United States",United States,,,,
International Food & Resturant Show,03/06/2022,2022,https://www.internationalrestaurantny.com/,DM,CAFE CADDIE,1409,,http://cafecaddie.com,,,,"Alamo, CA United States",United States,Coffee | Tableware/Smallwares,,"Most Efficient, Sanitary and Customer friendly Table-Top Organizer. with Coffee Pods and Recycle Bin.",See new One of a Kind-State of the Art TABLE-TOP organizers.
International Food & Resturant Show,03/06/2022,2022,https://www.internationalrestaurantny.com/,DM,Bridgford Foods Corp,1442,,http://www.bridgford.com/foodservice,,,,"Anaheim, CA United States",United States,,,,
International Food & Resturant Show,03/06/2022,2022,https://www.internationalrestaurantny.com/,DM,Beviva Foods,1017,,,,,,"Upland, CA United States",United States,,,,
International Food & Resturant Show,03/06/2022,2022,https://www.internationalrestaurantny.com/,DM,Betterearth,1534,,,,,,"Chicago, IL United States",United States,,,,
International Food & Resturant Show,03/06/2022,2022,https://www.internationalrestaurantny.com/,DM,BelGioioso Cheese,1431,,http://www.belgioioso.com,,,,"Green Bay, WI United States",United States,,,,
International Food & Resturant Show,03/06/2022,2022,https://www.internationalrestaurantny.com/,DM,CasaFina Living,1552,,http://www.casafinaliving.com,,,,"Brewster, NY United States",United States,,,,
International Food & Resturant Show,03/06/2022,2022,https://www.internationalrestaurantny.com/,DM,Chef's Fun Foods,1153,,,,,,"East Brunswick, NJ United States",United States,,,,
International Food & Resturant Show,03/06/2022,2022,https://www.internationalrestaurantny.com/,DM,Givex Corp. USA,1505,,,,,,"Toronto, ON Canada",Canada,,,,
International Food & Resturant Show,03/06/2022,2022,https://www.internationalrestaurantny.com/,DM,CE Northeast,1824,,,,,,"West Caldwell, NJ United States",United States,,,,
International Food & Resturant Show,03/06/2022,2022,https://www.internationalrestaurantny.com/,DM,Baci Gelato,1511,,,,,,"Norwood, NJ United States",United States,,,,
International Food & Resturant Show,03/06/2022,2022,https://www.internationalrestaurantny.com/,DM,IPos Inc - Intelligent Point of Sale,2100,,http://www.iposinc.com,,,,"New York, NY United States",United States,,,,
International Food & Resturant Show,03/06/2022,2022,https://www.internationalrestaurantny.com/,DM,Advanced Gourmet Equipment & Design,2003,,http://www.advancedgourmet.com,,,,"Greensboro, NC United States",United States,,,,
International Food & Resturant Show,03/06/2022,2022,https://www.internationalrestaurantny.com/,DM,Ace Natural,901,,http://www.acenatural.com,,,,"Mount Vernon, NY United States",United States,,,,
International Food & Resturant Show,03/06/2022,2022,https://www.internationalrestaurantny.com/,DM,Arc Cardinal,1430,,http://www.cardinalfoodservice.com,,,,"Pine Brook, NJ United States",United States,,,,
International Food & Resturant Show,03/06/2022,2022,https://www.internationalrestaurantny.com/,DM,Abbot's Butcher Inc.,1009,,,,,,"Costa Mesa, CA United States",United States,,,,
International Food & Resturant Show,03/06/2022,2022,https://www.internationalrestaurantny.com/,DM,"Botrista Technology, Inc.",2010,,,,,,"Redwood City, CA United States",United States,,,,
International Food & Resturant Show,03/06/2022,2022,https://www.internationalrestaurantny.com/,DM,Air Comfort Service Group,1838,,,,,,"Massapequa, NY United States",United States,,,,
International Food & Resturant Show,03/06/2022,2022,https://www.internationalrestaurantny.com/,DM,Con Edison and National Grid,1115,,,,,,"Boston, MA United States",United States,,,,
International Food & Resturant Show,03/06/2022,2022,https://www.internationalrestaurantny.com/,DM,Atmosphere TV,1731,,,,,,"Austin, TX United States",United States,,,,
