ShowName,ShowDate,ShowYear,ShowWebsite,SubmittedBy,ExhibitorName,BoothNumber,HallLocation,Website,Email,Phone,Fax,Address,Country,Categories,Manufacturers,Brands,Description
For Garden,03/31/2022,2022,https://for-garden.cz/en/,DM,Aludřevo s.r.o.,19,Hala 1,www.aludrevo.cz,info@aludrevo.cz,+420/ 603 183 651,,"Pražská 1808, Dobříš, 263 01, Czech Republic",Czech Republic,6.2. - Garden constructions,,,"Sales of maintenance-free aluminum boards - facade cladding with precise wood imitation or one-color decor, ideal cladding for ventilated facades, gables, cornices and roof lining, etc. Zero maintenance, low weight, long life."
For Garden,03/31/2022,2022,https://for-garden.cz/en/,DM,Acoustic solution s.r.o.,87,Hala 1,www.dewit.cz,info@dewit.cz,+420/ 604 942 146,,"Čaková 73, 793 16, Czech Republic",Czech Republic,"6.10. - Garden tools, utensils and instruments",,,We offer wide range of DeWit forged garden tools made from quality steel.
For Garden,03/31/2022,2022,https://for-garden.cz/en/,DM,"ALERTE, spol. s r.o.",68,Hala 3,www.alerte.cz,praha@alerte.cz,+420/ 603 547 334,,"Šlikova 403/16, Praha 6, 169 00, Czech Republic",Czech Republic,2.2. - Security,,,
For Garden,03/31/2022,2022,https://for-garden.cz/en/,DM,ACOND a.s.,25,Hala 3,www.acond.cz,prodej@acond.cz,+420/ 382 521 159,,"Štěrboholská 1434/102a, Praha 10, 102 00, Czech Republic",Czech Republic,3.6.3. - Heat pumps,,,
For Garden,03/31/2022,2022,https://for-garden.cz/en/,DM,"Agrospoj, s.r.o.",43,Hala 1,www.agrospoj.eu,info@agrospoj.eu,+420/ 225 278 104,,"Letohradská 754/48, Praha 7, 170 00, Czech Republic",Czech Republic,,,,
For Garden,03/31/2022,2022,https://for-garden.cz/en/,DM,Acoustic solution s.r.o.,09,Hala 1,www.acousticsolution.cz,info@acousticsolution.cz,+420/ 739 498 793,,"Čaková 73, 793 16, Czech Republic",Czech Republic,1.3.6. - Insulation materials and products,,,"Distribution of acoustic materials - insulation, absorption systems and thermal insulations."
For Garden,03/31/2022,2022,https://for-garden.cz/en/,DM,3VKOVO s.r.o.,35,Hala 3,www.sulcinox.cz,kovo@sulcinox.cz,,,"Káranice 79, 503 66, Czech Republic",Czech Republic,,,,
For Garden,03/31/2022,2022,https://for-garden.cz/en/,DM,AGROP NOVA a.s.,9 A 23,Vstupní hala II,www.novatop-system.cz,novatop@agrop.cz,+420/ 582 319 235,,"Ptenský Dvorek 99, Ptení, 798 43, Czech Republic",Czech Republic,7. - FOR CITY,,,
For Garden,03/31/2022,2022,https://for-garden.cz/en/,DM,"4networks SK&CZ, s.r.o.",,,,,,,"Lamačská cesta 45, Bratislava, 841 03, Slovakia",Slovakia,,,,
For Garden,03/31/2022,2022,https://for-garden.cz/en/,DM,2VV s.r.o.,47,Hala 3,www.2vv.cz,barbora.peskova@2vv.cz,+420/ 727 913 494,,"Fáblovka 568, Pardubice VII, 533 09, Czech Republic",Czech Republic,"3.2. - Other heat sources | 3.2.4. - Hot-air units | 3.8. - Air handling, ventilation, air conditioning systems, central exhaust systems | 3.8.3. - Equipment for air inlet and exhaust | 3.8.9. - Use of waste heat, recuperation | 3.8.11. - Air distribution systems",,,"Renowned producer of air curtains, ventilation, heat recovery and heating units, including control systems. A wide range of other air handling products."
For Garden,03/31/2022,2022,https://for-garden.cz/en/,DM,Asociace bazénů a saun ČR - ABAS ČR,20,Hala 2,www.abascr.cz,info@abascr.cz,+420/ 272 655 561,,"Jabloňová 2992/8, Budova Polikliniky Zahradní Město, Praha 10, 106 00, Czech Republic",Czech Republic,,,,
For Garden,03/31/2022,2022,https://for-garden.cz/en/,DM,Architektonický klub s.r.o.,16,Hala 3,,,,,"Ondříčkova 321/22, Praha 3, 130 00, Czech Republic",Czech Republic,,,,
For Garden,03/31/2022,2022,https://for-garden.cz/en/,DM,Architektonická kancelář Křivka s.r.o.,01,Hala 1,www.arch-krivka.cz,info@arch-krivka.cz,+420/ 602 309 514,,"Veronské nám. 377, Praha 10, 109 00, Czech Republic",Czech Republic,"1.1.2. - Architectonic activities, design",,,"The architectural office offers complete services in the field of architectural and design work, consulting and engineering activities."
For Garden,03/31/2022,2022,https://for-garden.cz/en/,DM,AQUASAR - Ondrej Sarvaš,22,Hala 3,www.aquasar.cz,info@aquasar.cz,+420/ 775 578 995,,"Čakov 19 E, Dubné-Čakov, 737 84, Czech Republic",Czech Republic,1.2.1.10. - Water supply buildings,,,Physical water treatment. Prevention of scale deposition.
For Garden,03/31/2022,2022,https://for-garden.cz/en/,DM,"Apis - zateplování oken, s.r.o.",5,Hala 3,www.zateplovanioken.cz,,+420/ 800 100 307,,"Bílany 107, Kroměříž, 767 01, Czech Republic",Czech Republic,,,,
For Garden,03/31/2022,2022,https://for-garden.cz/en/,DM,"Anos, s.r.o.",24,Hala 3,www.teplapodlaha.eu,obchod@teplapodlaha.eu,+420/ 774 711 526,,"Štefánikova 1089, Kúty, 908 01, Slovakia",Slovakia,3.3. - Heating systems,,,
For Garden,03/31/2022,2022,https://for-garden.cz/en/,DM,Andrew Solar Energy s.r.o.,37,Hala 3,www.solarynastrechy.cz,obchod@andrewsolar.cz,+420/ 606 447 374,,"Přístavní 321/14, Praha 7, 170 00, Czech Republic",Czech Republic,2.1.9.3. - Renewable energy resources | 2.1.9.5. - Batteries and accumulators | 3.6.1. - Solar collectors and relating technologies,,,"Andrew Solar Energy builds photovoltaic power plants for family houses, apartment buildings and companies. Obtain subsidies up to 155,000 CZK for your house."
For Garden,03/31/2022,2022,https://for-garden.cz/en/,DM,AMITY International spol. s r.o.,21,Hala 1,www.aquasloupky.cz,kapelova@amity.cz,+420/ 732 878 917,,"Smetáčkova 1485/4, Praha 13, 158 00, Czech Republic",Czech Republic,6.3.6. - Irrigation systems and accessories,,,
For Garden,03/31/2022,2022,https://for-garden.cz/en/,DM,AMBO - sdružení,,,www.ambo.cz,info@ambo.cz,+420/ 241 492 058,,"Vavřenova 1171/10, Praha 4, 142 00, Czech Republic",Czech Republic,,,,
For Garden,03/31/2022,2022,https://for-garden.cz/en/,DM,"Amazing Media, s.r.o.",,,www.reportazezprumyslu.cz,produkce@amazingmedia.cz,+420/ 774 448 332,,"Valová 2357/8, Zábřeh, 789 01, Czech Republic",Czech Republic,2.1.8.9. - Professional literature and magazines | 7. - FOR CITY,,,
For Garden,03/31/2022,2022,https://for-garden.cz/en/,DM,AWOCADO s.r.o.,1,Hala 6,www.lesnisvet.cz,info@awocado.cz,603 735 785,,"Collinova 421, Hradec Králové, 500 03, Czech Republic",Czech Republic,,,,
For Garden,03/31/2022,2022,https://for-garden.cz/en/,DM,Atmosan s.r.o.,110,Hala 1,www.atmosan.cz,obchod@atmosan.cz,+420/ 775 315 575,,"Pod Vodojemem 782, Horažďovice, 341 01, Czech Republic",Czech Republic,1.4.2.6. - Humid masonry maintenance,,,
For Garden,03/31/2022,2022,https://for-garden.cz/en/,DM,"Automa-časopis pro automatizační techniku, s.r.o.",,,www.automa.cz,,,,"Teplická 88, Děčín, 405 05, Czech Republic",Czech Republic,,,,
For Garden,03/31/2022,2022,https://for-garden.cz/en/,DM,Barbora Richterová - BOBA,131,Hala 1,,boba.richterova@gmail.com,+421/ 944 468 595,,"Družstevná 18, Sliač, 962 31, Slovakia",Slovakia,,,,
For Garden,03/31/2022,2022,https://for-garden.cz/en/,DM,"AZ Ekotherm, spol. s r.o.",125,Hala 1,www.azeko.cz,zimni.zahrady@azeko.cz,+420/ 267 712 893,,"Přátelství 207/100, Praha 10 - Uhříněves, 104 00, Czech Republic",Czech Republic,"6.2.1. - Garden rooms, summer houses, arbours | 6.2.2. - Pergolas, shelters | 6.2.8. - Winter gardens",,,Czech company AZ Ekotherm has been manufacturing and assembling wooden windows and winter gardens for more than 20 years. At present we are specializing on the casement windows and all year winter gardens. We put a great emphasis on quality of our products and services.
For Garden,03/31/2022,2022,https://for-garden.cz/en/,DM,Asociace technických bezpečnostních služeb Grémium Alarm z.s.,,,www.gremiumalarm.cz,info@gremiumalarm.cz,+420/ 266 721 540,,"Na Florenci 2116/15, Praha 1, 110 00, Czech Republic",Czech Republic,"1.8.2. - Building guilds, associations, chambers",,,
For Garden,03/31/2022,2022,https://for-garden.cz/en/,DM,Bamboodesign s.r.o.,23,Hala 2,www.bamboodesign.cz,ruzicka@bamboodesign.cz,+420/ 724 785 350,,"Borek 17, Jílové u Prahy, 254 01, Czech Republic",Czech Republic,1.3.4.5. - Concrete and mortar products | 5.4.7. - Bath programmes for spa operations and healthcare facilities,,,"Production of artificial rocks, trees, statues and decorations from shotcrete and fiberglass."
For Garden,03/31/2022,2022,https://for-garden.cz/en/,DM,"Asociace pro rozvoj infrastruktury, z.s.",,,www.ceskainfrastruktura.cz,,,,"Na příkopě 583/15, Praha 1, 110 00, Czech Republic",Czech Republic,,,,
For Garden,03/31/2022,2022,https://for-garden.cz/en/,DM,Asociace bezpečná škola z.s.,9 A 26,Vstupní hala II,,,,,"Hory 106, 360 01, Czech Republic",Czech Republic,7. - FOR CITY,,,
For Garden,03/31/2022,2022,https://for-garden.cz/en/,DM,"Asociace dodavatelů montovaných domů, z.s.",81,Hala 1,www.admd.cz,admd@admd.cz,+420/ 733 506 525,,"Výstaviště 405/1, Brno-střed, 647 00, Czech Republic",Czech Republic,"1.8.2. - Building guilds, associations, chambers",,,
For Garden,03/31/2022,2022,https://for-garden.cz/en/,DM,"BeF Home, s.r.o.",54,Hala 3,www.krby-bef.cz,info@bef.cz,+420/ 516 428 240,,"Kotvrdovice 277, 679 07, Czech Republic",Czech Republic,,,,
For Garden,03/31/2022,2022,https://for-garden.cz/en/,DM,BFF Česká republika s.r.o.,9 A 29,Vstupní hala II,cz.bffgroup.com/cs/home,info-cz@bffgroup.com,+420/ 233 931 678,,"Roztylská 1860/1, Praha 11, 148 00, Czech Republic",Czech Republic,7. - FOR CITY,,,
For Garden,03/31/2022,2022,https://for-garden.cz/en/,DM,BENEKOVterm s.r.o.,9 A 21,Vstupní hala II,www.benekov.cz,info@benekov.com,+420/ 554 748 008,,"Masarykova 402, Horní Benešov, 793 12, Czech Republic",Czech Republic,7. - FOR CITY,,,
For Garden,03/31/2022,2022,https://for-garden.cz/en/,DM,BERNDORF BÄDERBAU s.r.o.,12,Hala 2,www.berndorf-bazeny.cz,info@berndorf-bazeny.cz,+420/ 558 362 389,,"Bystřice 1312, 739 95, Czech Republic",Czech Republic,"5.1. - Aquaparks, public swimming pools, spa and hotel swimming pools | 5.1.1.1. - Swimming pool structures | 5.1.1.5. - Swimming pool equipment | 5.2. - Private swimming pools | 5.2.1. - Swimming pools for surface assembly | 5.2.2. - Embedded outdoor swimming pools | 5.4. - Wellness & spa | 5.4.1. - Massage pools, whirlpools, swim spa | 5.4.1.1. - For private zones | 5.4.1.2. - For commercial zones",,,"Construction, reconstruction and modernization of swimming pools or public swimming pools. Swimming pools, titanium pools, waterparks, rehabilitation pools, public or family swimming pools, stainless whirlpools, pool attractions and accessories, wellness & spa."
For Garden,03/31/2022,2022,https://for-garden.cz/en/,DM,BENCOMP SRL - WPC ROMANIA,100,Hala 1,www.wpcromania.ro,office@wpcromania.ro,+40/ 238 411 187,,"Principala 69A, Osorhei Bihor, 417360, Romania",Romania,1.3.4. - Building materials,,,Romanian producer - hollow solid co-extruded WPC profiles for deck fence cladding.
For Garden,03/31/2022,2022,https://for-garden.cz/en/,DM,Beautiful Houses Press,,,www.houses.ru,avk@weg.ru,+7/ 495 730 55 92,,"Prospect Mira 101, build. 1, office 408, Moscow, 129085, Russia",Russia,,,,
For Garden,03/31/2022,2022,https://for-garden.cz/en/,DM,"BAUMIT, spol. s r.o.",45,Hala 1,www.baumit.cz,l.sheiko@baumit.cz,+420/ 721 973 967,,"Průmyslová 1841, Brandýs nad Labem-Stará Boleslav, 250 01, Czech Republic",Czech Republic,1.3.4. - Building materials | 1.12. - Building chemicals | Baumit IonitColor - Interior paint making healthy living indoor environment,,,"We offer a complete assortment of construction mixtures and chemicals - concrete mixtures, masonry mortars, floor screeds, adhesives for wall and floor tiles, facade plasters and paints, systems for thermal insulation, renovation and remediation, interior plasters, screeds and coatings."
For Garden,03/31/2022,2022,https://for-garden.cz/en/,DM,"Bau Styl Design, s.r.o.",54,Hala 3,www.bio-krby-design.cz,info@bs-design.cz,+420/ 728 547 406,,"Pičín 106, 262 25, Czech Republic",Czech Republic,,,,
For Garden,03/31/2022,2022,https://for-garden.cz/en/,DM,Be Fresh s.r.o.,17a,Hala 1,,david.benes@me.com,+420/ 606 201 026,,"Moskevská 449/40, Praha 10, 101 00, Czech Republic",Czech Republic,,,,
For Garden,03/31/2022,2022,https://for-garden.cz/en/,DM,"BÁRTEK ROZHLASY, s.r.o.",9 A 24,Vstupní hala II,www.rozhlasybartek.cz,asistentka@rozhlasybartek.cz,+420/ 721 913 503,,"Vyšehradská 1349/2, Praha 2, 128 00, Czech Republic",Czech Republic,"2.1.2.9. - Lighting towers, pillars, public lighting | 2.1.5. - Telecommunication and radio communication technology | 2.2.1.4. - Audible warning systems, evacuation announcement devices | 2.2.2.1. - Flood control systems | 7. - FOR CITY",,,"Development, production, installation, service of wireless and wired radio, warning devices and flood control measures, including connection to IZS for cities and municipalities, digital official boards, STEORA solar bench enabling solar energy charging of mobile phones, iPads via cable or wireless, it can also transmit high-speed 4G LTE internet. Sound system for schools, halls and other premises with static and portable sound systems. Wide range of information radars for speed measurement, uniform time and ringing systems, camera systems, public LED lighting."
For Garden,03/31/2022,2022,https://for-garden.cz/en/,DM,"CADservis, s.r.o.",112,Hala 1,www.cadservis.com,info@cadservis.com,+420/ 553 730 029,,"Technologická 373/4, Ostrava-Pustkovec, 708 00, Czech Republic",Czech Republic,1.1.3.2. - Software | 1.1.3.2.1. - CAD systems | ZWCAD - CAD software,,,Complete CAD/CAM/BIM software solutions.
For Garden,03/31/2022,2022,https://for-garden.cz/en/,DM,BURG-WÄCHTER KG,53a,Hala 3,www.burg.biz,,,,"Altenhofer Weg 15, Wetter, 583 00, Germany",Germany,,,,
For Garden,03/31/2022,2022,https://for-garden.cz/en/,DM,Burda International CZ s.r.o.,24,Hala 1,www.burda.cz,,+420/ 221 589 123,,"Přemyslovská 2845/43, Praha 3, 130 00, Czech Republic",Czech Republic,,,,
For Garden,03/31/2022,2022,https://for-garden.cz/en/,DM,BRIGO AB,76b,Hala 1,www.brigo.com,info@brigo.se,,,"Kryptongatan 20, Mölndal, 431 53, Sweden",Sweden,,,,
For Garden,03/31/2022,2022,https://for-garden.cz/en/,DM,Businesscom a.s.,67,Hala 3,www.businesscom.cz,lumir.kulda@businesscom.cz,+420/ 702 161 281,,"Dobrušská 1797/1, Praha 4, 147 00, Czech Republic",Czech Republic,2.1.5. - Telecommunication and radio communication technology | 2.1.12. - Home automation | 2.2.1. - Security technologies and fire protection systems | 2.2.2. - Rescue systems,,,"Czech company providing a wide range of IS/IT services. We deliver comprehensive solutions for voice, data and converged technologies, contact centers and security systems."
For Garden,03/31/2022,2022,https://for-garden.cz/en/,DM,BOHEMIA PARKET s.r.o.,27,Hala 2,www.bohemia-parket.cz,info@bohemia-parket.cz,+420/ 608 262 818,,"Lázeňská 479, Sadská, 289 12, Czech Republic",Czech Republic,1.3.4.2.1. - Wood and wooden products,,,
For Garden,03/31/2022,2022,https://for-garden.cz/en/,DM,BORGIS a.s.,131,Hala 1,www.pravo.cz,tereza.mannova@pravo.cz,+420/ 221 001 467,,"Slezská 2127/13, Praha 2, 120 00, Czech Republic",Czech Republic,,,,
For Garden,03/31/2022,2022,https://for-garden.cz/en/,DM,BitterMan s.r.o.,23,Hala 1,,bradac@bradackv.cz,+420/ 608 980 677,,"Křenova 438/7, Praha 6, 162 00, Czech Republic",Czech Republic,,,,
For Garden,03/31/2022,2022,https://for-garden.cz/en/,DM,"BHT, s.r.o.",33,Hala 3,www.bht-klima.cz,bht-klima@bht-klima.cz,,,"Hroznová 495/6, Praha, 118 00, Czech Republic",Czech Republic,,,,
For Garden,03/31/2022,2022,https://for-garden.cz/en/,DM,časopis STAVEBNICTVÍ,21,Hala 2,www.casopisstavebnictvi.cz,info@ic-ckait.cz,+420/ 737 085 800,,"Sokolská 1498/15, Praha 2, 120 00, Czech Republic",Czech Republic,2.1.8.9. - Professional literature and magazines,,,
For Garden,03/31/2022,2022,https://for-garden.cz/en/,DM,Biosuntec CZ s.r.o.,34,Hala 3,www.biosuntec.cz,biosuntec@biosuntec.cz,+420/ 703 824 471,,"Gočárova třída 227/50, Hradec Králové, 500 02, Czech Republic",Czech Republic,"1.2.8. - Environment-friendly and energy saving construction systems | 1.2.8.8. - Energy audits and consultancy | 1.3.5. - Technical equipment of buildings | 3.6. - Renewable and alternative energy resources | 3.8. - Air handling, ventilation, air conditioning systems, central exhaust systems",,,"Complex new buildings energy processing, incl. consultancy in the field of passive construction, design and supply of a comprehensive energy system Biosuntec Home, comprehensive provision of subsidies with a money reservation guarantee."
For Garden,03/31/2022,2022,https://for-garden.cz/en/,DM,CONSTRUCTII EXCAVATII DVF SRL,4,Hala 3,www.constructiidvf.ro,office@constructiidvf.ro,+40/ 745 465 374,,"Com. Balan no. 264, Chendrea, 457027, Romania",Romania,,,,
For Garden,03/31/2022,2022,https://for-garden.cz/en/,DM,CZ PLAST s.r.o.,55,Hala 1,www.czplast.com,obchod@czplast.cz,+420/ 466 768 640,,"Kostěnice 173, Pardubice, 530 02, Czech Republic",Czech Republic,"1.3.5.1. - Sewerage systems | 1.3.5.2. - Water mains, water plumbing installations and water tanks",,,"We manufacture self-supporting water meter shafts, rainwater tanks, pumping shafts and covers using the method of rotational molding."
For Garden,03/31/2022,2022,https://for-garden.cz/en/,DM,"Centrum pasivního domu, z.s.",9 A 27,Vstupní hala II,www.pasivnidomy.cz,info@pasivnidomy.cz,+420/ 608 923 329,,"Údolní 33, Brno, 602 00, Czech Republic",Czech Republic,7. - FOR CITY,,,
For Garden,03/31/2022,2022,https://for-garden.cz/en/,DM,"Ceiba, s.r.o.",8,Hala 3,www.ceiba.cz,info@ceiba.cz,+420/ 326 911 044,,"Jana Opletala 1265, Brandýs nad Labem-Stará Boleslav, 250 01, Czech Republic",Czech Republic,Decorative films,,,
For Garden,03/31/2022,2022,https://for-garden.cz/en/,DM,"Cech topenářů a instalatérů České republiky, z.s.",55,Hala 3,www.cechtop.cz,,,,"Hudcova 424/56b, Brno-Medlánky, 621 00, Czech Republic",Czech Republic,"1.8.2. - Building guilds, associations, chambers",,,Advisory Center of the Heating Engineers and Plumbers Guild of the Czech Republic.
For Garden,03/31/2022,2022,https://for-garden.cz/en/,DM,"Cech Mechanických Zámkových Systémů ČR, z.s.",53,Hala 3,www.cmzs.cz,cmzs@cmzs.cz,+420/ 602 305 217,,"Na vršku 67, Klecany, 250 67, Czech Republic",Czech Republic,,,,
For Garden,03/31/2022,2022,https://for-garden.cz/en/,DM,CENTRUM CHYTRÝCH FASÁD s.r.o.,51,Hala 1,www.lifebrick.cz,info@chytrefasady.cz,+420/ 461 312 795,,"T. G. Masaryka 1009, Litomyšl, 570 01, Czech Republic",Czech Republic,1.3.9.2.8. - Thermal insulation systems,,,Producer and supplier of actively ventilated and thermal insulating facades Lifebrick.
For Garden,03/31/2022,2022,https://for-garden.cz/en/,DM,Café Letohrádek,20,Hala 3,www.facebook.com/cafeletohradek,cafeletohradek@seznam.cz,,,"Obora Hvězda 445, Praha 6, 162 00, Czech Republic",Czech Republic,,,,
For Garden,03/31/2022,2022,https://for-garden.cz/en/,DM,"Cech kamnářů České republiky, z.s.",14,Hala 3,www.cechkamnaru.cz,info@cechkamnaru.cz,+420/ 601 572 619,,"Učňovská 100/1, Praha 9, 190 00, Czech Republic",Czech Republic,"1.8.2. - Building guilds, associations, chambers | 3. - Heating",,,"The Guild of Stove Fitters of the Czech Republic is a professional association of experts in the stove fitting sector, i.e. designing, implementation and servicing of interior fireplaces, tile stoves and ovens. The guild holds professional seminars, creates legislation and cooperates in educational as well as research activities."
For Garden,03/31/2022,2022,https://for-garden.cz/en/,DM,"D.A.S. Rechtsschutz AG, pobočka pro ČR",111,Hala 1,www.das.cz,dragounova@das.cz,+420/ 267 990 890,,"Vyskočilova 1481/4, Praha 4, 140 00, Czech Republic",Czech Republic,1.8.12. - Insurance companies,,,
For Garden,03/31/2022,2022,https://for-garden.cz/en/,DM,"ČEZ, a. s.",77,Hala 1,www.cez.cz,cez@cez.cz,+420/ 211 041 111,,"Duhová 1444/2, Praha 4, 140 53, Czech Republic",Czech Republic,1.2.8. - Environment-friendly and energy saving construction systems | 3.6. - Renewable and alternative energy resources,,,"ČEZ is the largest energy corporation in Czechia as well as in the whole of Central and Southeast Europe. ČEZ is Czechia’s largest producer of electricity, also delivering gas, heat, and decentral energy solutions to its customers. ČEZ is the core of CEZ Group, a large group of businesses whose varied activities range from the extraction of raw materials to generation, distribution, and trading to telecommunications, information technology, nuclear research, the design, construction, and maintenance of energy facilities, or the processing of coal combustion products. CEZ Group is also involved in other activities related to electricity generation. Being active in science and innovation, it is the region’s leader in the development of smart grids and electric vehicles."
For Garden,03/31/2022,2022,https://for-garden.cz/en/,DM,"Český zahrádkářský svaz, z. s.",29,Hala 1,www.zahradkar.org,redakce@zahradkari.cz,+420/ 602 201 520,,"Rokycanova 318/15, Praha 3, 130 00, Czech Republic",Czech Republic,,,,
For Garden,03/31/2022,2022,https://for-garden.cz/en/,DM,David Šlambor - WPC centrum,64,Hala 1,www.wpccentrum.cz,info@wpccentrum.cz,+420/ 604 169 624,,"Heřmanice v Podještědí 135, Jablonné v Podještědí, 471 25, Czech Republic",Czech Republic,6.2.9. - Terraces,,,
For Garden,03/31/2022,2022,https://for-garden.cz/en/,DM,"České nakladatelství technické literatury, spol. s r.o.",,,www.cntl.cz,elektroinstalater@cntl.cz,+420/ 222 721 200,,"Písecká 5, Praha 3, 130 00, Czech Republic",Czech Republic,,,,
For Garden,03/31/2022,2022,https://for-garden.cz/en/,DM,Český Internet s.r.o.,115,Hala 1,www.ci.cz,info@ceskyinternet.cz,+420/ 731 501 507,,"Kostelní 942/46, České Budějovice, 370 04, Czech Republic",Czech Republic,1.10.4. - Internet servers,,,
For Garden,03/31/2022,2022,https://for-garden.cz/en/,DM,Česká zemědělská univerzita v Praze Školní lesní podnik,35,Hala 1,www.slp.czu.cz,zelen@slp.czu.cz,+420/ 321 610 371-3,,"Nám. Smiřických 1, Kostelec nad Černými lesy, 281 63, Czech Republic, V Lánech 214, Jevany, 281 66, Czech Republic",Czech Republic,6.7. - Plants and preparations for their growing | 6.7.2. - Decorative trees and shrubs,,,"We provide wide assortment of decorative, forest and fruit plants, planted on more than 30 hectares, including gardening materials. Store in Jevany, 7 000 m2."
For Garden,03/31/2022,2022,https://for-garden.cz/en/,DM,Česká agentura na podporu obchodu/CzechTrade,118,Hala 1,www.czechtrade.cz,info@czechtrade.cz,+420/ 224 907 576,,"Dittrichova 1968/21, Praha 2, 120 00, Czech Republic",Czech Republic,1.10.6.6. - Consulting and advisory activities,,,"We help Czech exporters succeed in foreign markets through a network of 58 foreign offices. The companies appreciate the expertise, the contribution of the information obtained and the maximization of saved costs and time. We provide a wide portfolio of services, the advantage of which is their interconnectedness and complexity. Until the end of the year, we provide all assistance services FREE OF CHARGE."
For Garden,03/31/2022,2022,https://for-garden.cz/en/,DM,Časopisy pro volný čas s.r.o.,10,Hala 3,www.provolnycas.cz,casopisy@provolnycas.cz,+420/ 226 517 913,,"Táborská 5/979, Praha 4, 140 00, Czech Republic",Czech Republic,,,,
For Garden,03/31/2022,2022,https://for-garden.cz/en/,DM,Česká komora autorizovaných inženýrů a techniků činných ve výstavbě/ Stavební poradenské centrum ČKAIT,58,Hala 1,www.ckait.cz,ckait@ckait.cz,+420/ 227 090 111,,"Sokolská 1498/15, Praha 2, 120 00, Czech Republic",Czech Republic,"1.8.2. - Building guilds, associations, chambers",,,Public professional organization established by Authorization Act (no. 360/1992 Coll.). Organizes the process of authorization and associates certified engineers and technicians engaged in construction.
For Garden,03/31/2022,2022,https://for-garden.cz/en/,DM,"DŘEVO&stavby, sruby&roubenky",79,Hala 1,www.drevoastavby.cz,info@provobis.cz,+420/ 223 008 120,,"Kladenská 107, Praha 6, 160 00, Czech Republic",Czech Republic,1.10.3. - Publishing activities | LIST OF WOODEN BUILDING SUPPLIERS AND PROJECTS 2020,,,
For Garden,03/31/2022,2022,https://for-garden.cz/en/,DM,DYNTAR spol. s r.o.,14,Hala 2,www.dyntar.cz,info@dyntar.cz,+420/ 493 555 568,,"Vitiněves 132, Jičín, 506 01, Czech Republic",Czech Republic,"5.4. - Wellness & spa | 5.4.2. - Saunas, infrared saunas, cryosaunas, cryo chambers | 5.4.7. - Bath programmes for spa operations and healthcare facilities",,,"A leading manufacturer of sauna cabins, infrared cabins and steam bath cabins. Supplier of sauna heating elements, complementary elements, equipment of restrooms and wellness facilities."
For Garden,03/31/2022,2022,https://for-garden.cz/en/,DM,Dřevařský magazín,,,,,,,"Velká Dlážka 2848/40, Přerov 2, 750 02, Czech Republic",Czech Republic,,,,
For Garden,03/31/2022,2022,https://for-garden.cz/en/,DM,Dominik Suchý - Údržba zeleně,90,Hala 1,www.sesecemeposeceme.cz,sesecemeposeceme@email.cz,+420/ 602 737 502,,"Řisuty 75, 273 78, Czech Republic",Czech Republic,6.1. - Garden architecture,,,
For Garden,03/31/2022,2022,https://for-garden.cz/en/,DM,Domanský s.r.o.,121,Hala 1,www.domansky.cz,,,,"Českobrodská 566, Praha 9, 198 00, Czech Republic",Czech Republic,,,,
For Garden,03/31/2022,2022,https://for-garden.cz/en/,DM,"Dobiáš spol., s.r.o.",38,Hala 1,www.dobias-knezmost.cz,,+420/ 326 784 092-4,,"Kněžmost 237, 294 02, Czech Republic",Czech Republic,,,,
For Garden,03/31/2022,2022,https://for-garden.cz/en/,DM,DRAGON JH s.r.o.,V 5,Venkovní plocha 1,www.vanellus.cz,info@vanellus.cz,+420/ 384 320 232,,"Jarošovská 840/II, Jindřichův Hradec, 377 01, Czech Republic",Czech Republic,3. - Heating,,,
For Garden,03/31/2022,2022,https://for-garden.cz/en/,DM,Dešťovka.eu,74,Hala 1,www.destovka.eu,info@destovka.eu,+420/ 214 214 722,,"Na Struze 227/1, Praha 1, 110 00, Czech Republic",Czech Republic,"1.2.1.2. - Water management facility constructions | 1.3.5.2. - Water mains, water plumbing installations and water tanks | Underground rainwater tanks Atlantis - Nautilus Wassersysteme",,,"We offer complete settlement of the grant Dešťovka and OPŽP for the use of rainwater. Preparation of expert opinions, projects and applications."
For Garden,03/31/2022,2022,https://for-garden.cz/en/,DM,"DG TIP, spol. s r.o.",88,Hala 1,www.nextwood.cz,obchod7@nextwood.cz,+420/ 777 734 847,,"K Terminálu 687/2, Brno, 619 00, Czech Republic",Czech Republic,"6.2. - Garden constructions | 6.2.9. - Terraces | 6.2.10. - Fences, holding, gates",,,"Maintenance-free wood-plastic terraces, fences and tiles under 20 years warranty."
For Garden,03/31/2022,2022,https://for-garden.cz/en/,DM,DESIGN home&garden (FrontMedia.cz s.r.o.),17,Hala 1,www.designhg.cz,info@designhg.cz,,,"Jabloňová 16, Poděbrady, 290 01, Czech Republic",Czech Republic,,,,
For Garden,03/31/2022,2022,https://for-garden.cz/en/,DM,EVROPSKÁ AGENTURA PRO BEZPEČNOST A OCHRANU ZDRAVÍ PŘI PRÁCI,117,Hala 1,www.osha.europa.eu,information@osha.europa.eu,+34/ 944 358 400,,"12 Santiago de Compostela, Bilbao, E-48003, Spain",Spain,1.11.4. - Occupational health and safety,,,
For Garden,03/31/2022,2022,https://for-garden.cz/en/,DM,EUROtest s.r.o.,29,Hala 2,www.spacisystemy.cz,info@spacisystemy.cz,+420/ 777 913 932,,"Na Návsi 84, Staré Hodějovice, 370 08, Czech Republic",Czech Republic,1.3.4.2.1. - Wood and wooden products | 1.3.8.7. - Furniture | 4.3.1. - Solid wood,,,"Sleeping systems for healthy sleep, high-quality beds from solid wood."
For Garden,03/31/2022,2022,https://for-garden.cz/en/,DM,"EUROSYSTEMY GROUP, s.r.o.",9,Hala 3,www.eurosystemy.cz,,,,"Masarykovo náměstí 72, Hranice, 753 01, Czech Republic",Czech Republic,,,,
For Garden,03/31/2022,2022,https://for-garden.cz/en/,DM,"Ernst & Young, s.r.o.",,,www.ey.com/cz,,,,"Karlovo náměstí 10, Praha 2, 120 00, Czech Republic",Czech Republic,,,,
For Garden,03/31/2022,2022,https://for-garden.cz/en/,DM,ESTAV.cz,76,Hala 1,www.estav.cz,kontakt@estav.cz,+420/ 233 081 104,,"Křenova 438/3, Praha 6, 162 00, Czech Republic",Czech Republic,,,,"ESTAV.cz provides daily news about the building industry. We follow the latest trends in design, architecture and technology. ESTAV.cz publishes Homebuyers guide. Sister portal to TZB-info, the biggest construction site in the Czech Republic."
For Garden,03/31/2022,2022,https://for-garden.cz/en/,DM,"ERA Média, s.r.o.",,,www.era21.cz,redakce@eramedia.cz,+420/ 530 500 801,,"Chleborádova 69/22, Brno, 619 00, Czech Republic",Czech Republic,1.12.3. - Acrylates,,,
For Garden,03/31/2022,2022,https://for-garden.cz/en/,DM,EKONOMICKÉ STAVBY s.r.o.,70,Hala 1,www.ekonomicke-stavby.cz,info@ekonomicke-stavby.cz,+420/ 377 825 782,,"Chotíkov 479, 330 17, Czech Republic",Czech Republic,1.2.2.2. - Family houses | 1.2.8. - Environment-friendly and energy saving construction systems | 1.2.8.2. - Low-energy consumption houses | 1.3. - Construction implementation | 1.3.7. - Final completion,,,Leading Czech builder of low-energy family houses.
For Garden,03/31/2022,2022,https://for-garden.cz/en/,DM,"EKOCIS, spol. s r.o.",16,Hala 1,www.ekocis.cz,objednavky@ekocis.cz,+420/ 311 672 513,,"Bubovice 61, Karlštejn, 267 18, Czech Republic",Czech Republic,"1.3.5. - Technical equipment of buildings | 1.3.5.3. - Cleaning, treatment and processing of water | 1.3.5.4. - Cleaning, treatment and processing of waste water",,,"Wastewater treatment plants, pumping stations, water gauge manholes, tanks, rain programmes, garden pools with accessories, cesspits, barges and other PP products."
For Garden,03/31/2022,2022,https://for-garden.cz/en/,DM,"EKO-KOM, a.s.",22,Hala 2,www.ekokom.cz,info@ekokom.cz,+420/ 261 176 230,,"Na Pankráci 1685/17, Praha 4, 140 00, Czech Republic",Czech Republic,,,,
For Garden,03/31/2022,2022,https://for-garden.cz/en/,DM,ENERGY-HUB s.r.o.,69,Hala 3,www.energy-hub.cz,office@energy-hub.cz,+420/ 777 953 539,,"Drtinova 557/10, Praha 5, 150 00, Czech Republic",Czech Republic,1.1.3.4.1. - Specialised portals,,,
For Garden,03/31/2022,2022,https://for-garden.cz/en/,DM,Fincentrum & Swiss Life Select a.s.,105,Hala 1,www.fincentrum.cz,info@fincentrum.com,+420/ 224 832 622,,"Ruská 669, Kostelec nad Černými lesy, 281 63, Czech Republic",Czech Republic,1.8.15. - Financial institutions,,,
For Garden,03/31/2022,2022,https://for-garden.cz/en/,DM,Filtryeshop.cz,31,Hala 2,www.filtryeshop.cz,filtryeshop.cz@atlas.cz,,,"Janského 2510/99, Praha 5, 155 00, Czech Republic",Czech Republic,,,,
For Garden,03/31/2022,2022,https://for-garden.cz/en/,DM,"FENESTRA střešní okna, s.r.o.",1,Hala 3,www.fenestra.cz,fenestra@fenestra.cz,+420/ 377 969 060,,"Šťáhlavice 1, Nezvěstice, 332 04, Czech Republic",Czech Republic,1.3.7.1.5. - Roof windows,,,
For Garden,03/31/2022,2022,https://for-garden.cz/en/,DM,Favi online s.r.o.,,,,,,,"Vodičkova 710/31, Praha 1, 110 00, Czech Republic",Czech Republic,,,,
For Garden,03/31/2022,2022,https://for-garden.cz/en/,DM,FAREGA s.r.o.,10,Hala 2,,farega@seznam.cz,,,"Varšavská 715/36, Praha 2, 120 00, Czech Republic",Czech Republic,,,,
For Garden,03/31/2022,2022,https://for-garden.cz/en/,DM,FenStar s.r.o.,56,Hala 3,www.fenstar.cz,obchod@fenstar.com,+420/ 544 146 111,,"Fenstarová 1, Hodějice, 684 01, Czech Republic",Czech Republic,1.3.7.1. - Windows | 1.3.7.2. - Windows and gate doors,,,"Production, sales, installation of PVC and ALU windows and doors. Large selection of colours and wooden decors."
For Garden,03/31/2022,2022,https://for-garden.cz/en/,DM,EZMO - Jiří Bečan,13,Hala 3,www.ezmo.cz,info@ezmo.cz,+420/ 602 651 654,,"Na Sídlišti 535, Libáň, 507 23, Czech Republic",Czech Republic,,,,
For Garden,03/31/2022,2022,https://for-garden.cz/en/,DM,FaKOPA s.r.o.,18,Hala 2,www.fakopa.cz,kopa@fakopa.cz,+420/ 412 545 092,,"Ústecká 1918/95, Děčín 5, 405 02, Czech Republic",Czech Republic,6.4. - Garden furniture,,,
For Garden,03/31/2022,2022,https://for-garden.cz/en/,DM,EXPOSALE - CZ s.r.o.,65,Hala 1,www.exposale.cz,info@exposale.cz,+420/ 281962262,,"Školská 33/3, Šestajovice, 250 92, Czech Republic",Czech Republic,,,,
For Garden,03/31/2022,2022,https://for-garden.cz/en/,DM,"GMF AQUAPARK PRAGUE, a.s.",,,www.aquapalace.cz,info@aquapalace.cz,+420/ 271 104 111,,"Masarykovo nábřeží 235/28, Praha 1, 110 00, Czech Republic",Czech Republic,,,,
For Garden,03/31/2022,2022,https://for-garden.cz/en/,DM,GEBERIT spol. s r.o.,3,Hala 2,www.geberit.cz,karolina.otcovska@geberit.com,+420/ 284 689 670,,"Sokolovská 2408/222, Praha 9, 190 00, Czech Republic",Czech Republic,"1.3.4.1.2.6. - Sanitary ceramics | 5.8.1. - Bath and shower tubs | 5.8.2. - Shower enclosures, curtains | 5.8.3. - WC bowls | 5.8.4. - WC accessories | 5.8.5. - Washbasins, sinks | 5.8.7. - Bathroom furniture | 5.8.8. - Bathroom accessories",,,
For Garden,03/31/2022,2022,https://for-garden.cz/en/,DM,Expo LED s.r.o.,13,Hala 1,,info@expoled.cz,+420/ 241 430 421,,"Sinkulova 79/31, Praha 4, 147 00, Czech Republic",Czech Republic,,,,
For Garden,03/31/2022,2022,https://for-garden.cz/en/,DM,GABASOL,83,Hala 1,www.gabasol.cz,info@gabasol.cz,+420/ 774 735 566,,"Okružní 757, České Budějovice, 370 01, Czech Republic",Czech Republic,"6.2.7. - Garden fireplaces, smokehouses, barbecue grills, hearths",,,
For Garden,03/31/2022,2022,https://for-garden.cz/en/,DM,"GAPA MB, s.r.o.",60,Hala 3,www.gapa.cz,vyroba@gapa.cz,+420/ 326 735 428,,"Svatovítská 217, Mladá Boleslav, 293 01, Czech Republic",Czech Republic,1.3.8.2. - Entrance area equipment | ARTWELL mats according to your own design,,,Production and sale of mats and cleaning entrance zones.
For Garden,03/31/2022,2022,https://for-garden.cz/en/,DM,"G SERVIS CZ, s.r.o.",,,www.gservis.cz,gservis@gservis.cz,+420/ 234 054 326,,"Tiskařská 257/10, Praha 10, 108 00, Czech Republic",Czech Republic,,,,
For Garden,03/31/2022,2022,https://for-garden.cz/en/,DM,FORTING s.r.o.,52,Hala 1,www.forting.cz,stavba@forting.cz,+420/ 519 322 192,,"Králova 279/9, Brno-Žabovřesky, 616 00, Czech Republic",Czech Republic,1.3.6.1. - Thermal insulation systems,,,
For Garden,03/31/2022,2022,https://for-garden.cz/en/,DM,"FORD MOTOR COMPANY, s. r. o.",30,Hala 2,www.ford.cz,mheld4@ford.com,+420/ 774 476 793,,"Karolinská 654/2, Praha 8, 186 00, Czech Republic",Czech Republic,,,,
For Garden,03/31/2022,2022,https://for-garden.cz/en/,DM,"FLORAVIL, s.r.o.",126,Hala 1,www.floravil.cz,info@floravil.cz,+420/ 296 411 474,,"Počernická 272/96, Praha 10, 108 00, Czech Republic",Czech Republic,"6.3.1. - Paving, matting, grids | 6.6.6. - Flowerpots, flower boxes | 6.7. - Plants and preparations for their growing | 6.11. - Municipal mobiliary, architectonical elements | 6.11.10. - Paving, matting, fire grates, rocks | 6.11.11. - Decorative flower pots, flower boxes, pendent vases | 7. - FOR CITY",,,"Flower movables for cities and towns, custom-made flower pots, vertical gardens and others, both for interior and exterior. Flower seeds and bulbs mixtures. Mats by Nidagravel."
For Garden,03/31/2022,2022,https://for-garden.cz/en/,DM,"Friends Forever Reality, s.r.o.",109,Hala 1,www.friends4e.cz,,,,"Žitná 1575/49, Praha 1, 110 00, Czech Republic",Czech Republic,,,,
For Garden,03/31/2022,2022,https://for-garden.cz/en/,DM,FLORA URBANICA s.r.o.,16,Hala 2,www.floraurbanica.com,info@floraurbanica.com,+420/ 773 105 056,,"Rybná 716/24, Praha 1, 110 00, Czech Republic",Czech Republic,,,,
For Garden,03/31/2022,2022,https://for-garden.cz/en/,DM,HDL Automation s.r.o.,38,Hala 3,www.hdl-automation.cz,info@hdla.cz,+420/ 227 201 763,,"Italská 1800/35, Praha 2, 120 00, Czech Republic",Czech Republic,2.1.1.9. - Intellingent electrical installations and EIB systems | 2.1.12. - Home automation | 2.1.13. - Smart cities | 7. - FOR CITY | Wireless System of Zone Heating Control IQRC,,,"HDL Automation s.r.o. represents HDL, IQRC, MyMight, smart:)things, Hoteza, Raysgem, Matrix brands. It delivers a range of products from individual modules to complete building automation systems. During its more than 30-year history, HDL has implemented many building automation solutions in the public, commercial, residential and hospitality areas. HDL Automation products are on top of lighting, heating, air conditioning, shading, security control and power metering. KNX, Buspro, DALI, and DMX standards can be used. A novelty is the wireless zone control of heating IQRC suitable for classic hot water radiators."
For Garden,03/31/2022,2022,https://for-garden.cz/en/,DM,"HANSCRAFT, s.r.o.",2,Hala 2,www.hanscraft.cz,jiri.palivec@hanscraft.com,+420/ 212 283 212,,"Bečovská 939, Praha 10, 104 00, Czech Republic",Czech Republic,"5.1.2.4. - Pumps | 5.2.3. - Technologies of private swimming pools | 5.2.6. - Accessories | 5.4.1. - Massage pools, whirlpools, swim spa | 5.4.2. - Saunas, infrared saunas, cryosaunas, cryo chambers",,,"Hanscraft, the quality producer of whirlpools in the Czech Republic! Czech whirlpools, acrylic USA whirlpools, NetSpa mobile whirlpools, Swim Spa pools with countercurrent. Visit the largest manufacturer and distributor of whirlpools in the Czech Republic!"
For Garden,03/31/2022,2022,https://for-garden.cz/en/,DM,Hana Marková,20,Hala 3,,hanamarkova1@gmail.com,,,"Nad Šárkou 1764/14, Praha 6, 160 00, Czech Republic",Czech Republic,,,,
For Garden,03/31/2022,2022,https://for-garden.cz/en/,DM,HABILIS spol. s r.o. (Stolaři-Truhláři.cz),,,www.stolari-truhlari.cz,info@stolari-truhlari.cz,+420/ 603 503 566,,"Hořelická 1271/50, Rudná, 252 19, Czech Republic",Czech Republic,1.10.4. - Internet servers,,,
For Garden,03/31/2022,2022,https://for-garden.cz/en/,DM,Happy Retail s.r.o.,82,Hala 1,,marek@happydistribution.eu,+421/ 948 000 050,,"Karadžičova 47, Bratislava, 811 07, Slovakia",Slovakia,"6.2.6. - Greenhouses, glasshouse technique",,,
For Garden,03/31/2022,2022,https://for-garden.cz/en/,DM,GROUP CONSTRUCT BUCOVINA SRL,4a,Hala 3,www.groupcb.ro,office@groupcb.ro,+40/ 230 529 959,,"Palagheni, Plopeni Suceava, 727477, Romania",Romania,,,,
For Garden,03/31/2022,2022,https://for-garden.cz/en/,DM,GTS dřevosklady s.r.o.,80,Hala 1,www.drevosklady.cz,obchod@drevosklady.cz,+420/ 773 334 221,,"Vlastina 23, Praha 6, 161 00, Czech Republic",Czech Republic,6.2.9. - Terraces,,,"We are wooden floors, terraces, facades, firewood specialists."
For Garden,03/31/2022,2022,https://for-garden.cz/en/,DM,Gospodarstwo Rolne Ji M Mrowiec LILIE,30,Hala 1,,jarekmrowiec@gmail.com,+48/ 888 012 540,,"Lipowa 10, Pruchna, Poland",Poland,,,,
For Garden,03/31/2022,2022,https://for-garden.cz/en/,DM,GOOPAN BUILDING s.r.o.,78,Hala 1,www.goopan.cz,info@goopan.cz,,,"Za Pazdernou 1498, Písek, 397 01, Czech Republic",Czech Republic,,,,
For Garden,03/31/2022,2022,https://for-garden.cz/en/,DM,Icyizol s.r.o.,08,Hala 1,www.icyizol.cz,info@icyizol.cz,+420/ 734 315 071,,"Smetanova 955, Smržovka, 468 51, Czech Republic",Czech Republic,1.3.6.1. - Thermal insulation systems,,,Thermal insulation - sprayed foam.
For Garden,03/31/2022,2022,https://for-garden.cz/en/,DM,GOSPODARSTWO Rolne 'EDEN',20,Hala 1,,,+48/ 509 448 959,,"Dlugie 5C, Strzelce kraj., Poland",Poland,,,,
For Garden,03/31/2022,2022,https://for-garden.cz/en/,DM,Charita dětem z.s.,,,,jana.pletnevova@charitadetem.cz,731 808 042,,"Počernická 3226/2g, Praha 10, 110 00, Czech Republic",Czech Republic,,,,
For Garden,03/31/2022,2022,https://for-garden.cz/en/,DM,"Chlebný, s.r.o.",65,Hala 3,www.chlebny.cz,info@chlebny.cz,+420/ 466 634 170,,"Havlíčkova 175, Častolovice, 517 50, Czech Republic",Czech Republic,"1.3.4.1.4. - Glass, glass fibres and products of these materials",,,
For Garden,03/31/2022,2022,https://for-garden.cz/en/,DM,"HYDROSYS, s.r.o.",05,Hala 1,www.hydrosyscr.cz,hydrosys@volny.cz,,,"Československé armády 282/15, Hradec Králové, 500 03, Czech Republic",Czech Republic,,,,
For Garden,03/31/2022,2022,https://for-garden.cz/en/,DM,"HOLAS Lighting, s.r.o.",26,Hala 1,,info@led-zahrada.cz,+420/ 774 700 078,,"Dr. Janského 953, Černošice, 252 28, Czech Republic",Czech Republic,6.3.8. - Garden illumination,,,
For Garden,03/31/2022,2022,https://for-garden.cz/en/,DM,Hobbytec CZ s.r.o.,85,Hala 1,www.hobbytec.cz,zeleny@hobbytec.cz,+420/ 604 698 697,,"U Remízku 187, Tehovec, 251 62, Czech Republic",Czech Republic,6.2. - Garden constructions,,,"We are a leading Czech manufacturer of aluminum conservatories, pergolas and carports. We supply and install mobile homes, concrete and wooden garages. You can find all the equipment for the house and garden in our on-line store. More at www.hobbytec.cz or in the largest showrooms of its kind in the Czech Republic (Říčany u Prahy, Holubice u Brna)."
For Garden,03/31/2022,2022,https://for-garden.cz/en/,DM,Hobbytec CZ s.r.o.,85,Hala 1,www.hobbytec.cz,zeleny@hobbytec.cz,+420/ 604 698 697,,"U Remízku 187, Tehovec, 251 62, Czech Republic",Czech Republic,6.2. - Garden constructions,,,"We are a leading Czech manufacturer of aluminum conservatories, pergolas and carports. We supply and install mobile homes, concrete and wooden garages. You can find all the equipment for the house and garden in our on-line store. More at www.hobbytec.cz or in the largest showrooms of its kind in the Czech Republic (Říčany u Prahy, Holubice u Brna)."
For Garden,03/31/2022,2022,https://for-garden.cz/en/,DM,HW - PANTY spol. s r.o.,7b,Hala 1,www.hwpanty.cz,hw@hwpanty.cz,+420/ 546 427 644,,"Veverské Knínice 2, Ostrovačice, 664 81, Czech Republic",Czech Republic,,,,
For Garden,03/31/2022,2022,https://for-garden.cz/en/,DM,HDT impex s.r.o.,9 A 25,Vstupní hala II,www.hdt.cz,info@hdt.cz,+420/ 353 222 267,,"Botanická 238/3, Dalovice, 362 63, Czech Republic",Czech Republic,7. - FOR CITY,,,
For Garden,03/31/2022,2022,https://for-garden.cz/en/,DM,HELUZ cihlářský průmysl v.o.s.,48,Hala 1,www.heluz.cz,info@heluz.cz,+420/ 800 212 213,,"U Cihelny 295, Dolní Bukovsko, 373 65, Czech Republic",Czech Republic,"1.3.4. - Building materials | 1.3.4.1.2.1. - Bricks | 3.7. - Chimney systems, flue gas exhaust systems",,,"Bricks, ceilings, lintels, mortar materials, chimneys, bands and pavings."
For Garden,03/31/2022,2022,https://for-garden.cz/en/,DM,"Institut pro testování a certifikaci, a.s.",101,Hala 1,www.itczlin.cz,itc@itczlin.cz,+420/ 572 779 922,,"třída Tomáše Bati 299, Zlín, 763 02, Czech Republic",Czech Republic,1.7. - Technical branches | 1.8.3. - Engineering activities | 1.8.6. - Valuation | 1.8.7. - Diagnostic activities | 1.8.8. - Standardisation activities,,,"Institute for Testing and Certification, is a testing, certification, calibration and inspection company providing professional services in the field of testing, certification and conformity assessment of materials, products and services in the area of civil engineering. Division CSI - Centre of Building Construction Engineering offers following specialised services in the field of preparing of the energy certification process, preparing of proposals to minimize the energy performance of buildings, including their diagnostics, preparing documents for grants including projects for all levels of engineering and construction supervision."
For Garden,03/31/2022,2022,https://for-garden.cz/en/,DM,"Ing. Václav Vaňkát, VYDAVATELSTVÍ PRESS AGENCY",44,Hala 1,www.povrchoveupravy.cz,pressagency@povrchoveupravy.cz,+420/ 604 208 951,,"Strašínská 1185/3, Praha 10 - Strašnice, 100 00, Czech Republic",Czech Republic,,,,A specialised magazine focused on the issues of surface treatment.
For Garden,03/31/2022,2022,https://for-garden.cz/en/,DM,Ing. Jiří Baroch - projektování zeleně,90,Hala 1,,info@atelier-gw.cz,+420/ 739 416 178,,"Stanislava Oplta 1434, Kladno-Švermov, 273 09, Czech Republic",Czech Republic,6.1. - Garden architecture,,,
For Garden,03/31/2022,2022,https://for-garden.cz/en/,DM,"IP IZOLACE POLNÁ, s.r.o.",93,Hala 1,www.ippolna.cz,firma@ippolna.cz,+420/ 567 225 445,,"Tyršova 405, Polná, 588 13, Czech Republic",Czech Republic,1.3.6. - Insulation materials and products | 1.3.6.1. - Thermal insulation systems,,,Exclusive inland supplier of MAGMARELAX® - the blow-in insulation system. Performing of heat insulation and energy economy measures of buildings.
For Garden,03/31/2022,2022,https://for-garden.cz/en/,DM,Ing. arch. Daniela Vranová,25,Hala 2,www.ateliervranova.cz,atelier@vranova.eu,+420/ 776 812 550,,"Čichnova 385/16, Brno, 624 00, Czech Republic",Czech Republic,"1.1.2. - Architectonic activities, design",,,
For Garden,03/31/2022,2022,https://for-garden.cz/en/,DM,"Ing. Jakub Slavík, MBA - Consulting Services",,,www.proelektrotechniky.cz,info@proelektrotechniky.cz,+420/ 323 631 119,,"K podjezdu 596/18, Říčany u Prahy, 251 01, Czech Republic",Czech Republic,7. - FOR CITY,,,
For Garden,03/31/2022,2022,https://for-garden.cz/en/,DM,"Industry EU, s.r.o.",,,www.industry-eu.cz,janecka@industry-eu.cz,+420/ 605 777 111,,"Náměstí Jurije Gagarina 1230/3, Slezská Ostrava, 710 00, Czech Republic",Czech Republic,,,,
For Garden,03/31/2022,2022,https://for-garden.cz/en/,DM,IMEDIUM s.r.o.,,,www.rodicum.cz,olga.mudrova@imedium.cz,+420/ 774 544 244,,"Emy Destinové 2731/24, Ústí nad Labem, 400 01, Czech Republic",Czech Republic,,,,
For Garden,03/31/2022,2022,https://for-garden.cz/en/,DM,IDOL SPAS s.r.o.,19,Hala 2,www.idol.cz,office@idol.cz,+420/ 739 668 850,,"Československé armády 659, Jílové u Prahy, 254 01, Czech Republic",Czech Republic,"5. - BAZÉNY, SAUNY & SPA",,,
For Garden,03/31/2022,2022,https://for-garden.cz/en/,DM,IN publishing group s.r.o.,,,www.inpg.cz,redakce@icemagazin.cz,+420/ 775 776 690,,"Boleslavská 1588, Brandýs nad Labem-Stará Boleslav, 250 01, Czech Republic",Czech Republic,,,,
For Garden,03/31/2022,2022,https://for-garden.cz/en/,DM,"JIŘÍ ŠTĚPÁNEK - INDEVA ČR, SK",113,Hala 1,www.indevagroup.cz,jurastepanek@seznam.cz,+420/ 602 304 871,,"Záveská 840/14, Praha 10, 102 00, Czech Republic",Czech Republic,1.11.1.2. - Material handling machinery,,,"Industrial manipulators, intelligent balancers suitable for all industries. Balancers are systems of constant weighing weight to zero weight and allow for easy manipulation with the use of minimal human effort."
For Garden,03/31/2022,2022,https://for-garden.cz/en/,DM,Josef Drdlík,04,Hala 1,www.strecha-je-hra.cz,josef.drdlik@seznam.cz,+420/ 602 831 949,,"Poděbradovo náměstí 283, Hlinsko, 539 01, Czech Republic",Czech Republic,1.3.9.6. - Roof covering systems,,,
For Garden,03/31/2022,2022,https://for-garden.cz/en/,DM,Jiří Myškovský - JIMI,V 6,Venkovní plocha 1,www.umeleskaly.cz,umeleskaly@gmail.com,,,"Choratická 2734/6, Praha 4, 141 00, Czech Republic",Czech Republic,,,,
For Garden,03/31/2022,2022,https://for-garden.cz/en/,DM,"Jaga Media, s.r.o.",92,Hala 1,www.jagamedia.cz,jagamedia@jagamedia.cz,+420/ 903 736 035,,"Pražská 1279/18, Praha 10, 102 00, Czech Republic",Czech Republic,,,,
For Garden,03/31/2022,2022,https://for-garden.cz/en/,DM,JABLOTRON LIVING TECHNOLOGY CZ s.r.o.,50,Hala 3,www.jablotronlt.com,info@jablotronlt.com,+420/ 775 587 595,,"Holešovská 1692, Holešov, 769 01, Czech Republic",Czech Republic,"3.8. - Air handling, ventilation, air conditioning systems, central exhaust systems | Jablotron System 21",,,"We are a Czech manufacturer of energy recovery ventilation systems, cooling and heating systems. We develop top technologies for healthier and more comfortable indoor environment in our homes."
For Garden,03/31/2022,2022,https://for-garden.cz/en/,DM,IZOTRADE s.r.o.,104,Hala 1,www.izolace-izotrade.cz,info@izolace-izotrade.cz,+420/ 773 597 670,,"Křenova 438/7, Praha 6, 162 00, Czech Republic",Czech Republic,,,,
For Garden,03/31/2022,2022,https://for-garden.cz/en/,DM,Jaroslav Zika - PROZI,,,www.prozi.cz,info@prozi.cz,+420/ 777 102 872,,"Na Jarově 2424/2, Praha 3, 130 00, Czech Republic",Czech Republic,,,,
For Garden,03/31/2022,2022,https://for-garden.cz/en/,DM,ITADECO s.r.o.,50,Hala 1,www.itadeco.cz,prodej@itadeco.cz,+420/ 499 522 300,,"L. Mašínové 1397, Nová Paka, 509 01, Czech Republic",Czech Republic,1.3.7. - Final completion,,,Supports under terrace tiles or under wooden and WPC terraces. Accessories for flat roofs and drainage.
For Garden,03/31/2022,2022,https://for-garden.cz/en/,DM,ITMS plast s.r.o.,124,Hala 1,www.plastove-sklepy.cz,raseta@itms-plast.cz,+420/ 723 259 586,,"Příkop 843/4, Brno-střed, 602 00, Czech Republic",Czech Republic,6.2. - Garden constructions,,,We offer manufacture of fully-functional underground plastic cellars in both square or round designs.
For Garden,03/31/2022,2022,https://for-garden.cz/en/,DM,"Isolit-Bravo, spol. s r.o.",V 7,Venkovní plocha 1,www.isolit-bravo.cz,,+420/ 465 616 111,,"Jablonské nábřeží 305, Jablonné nad Orlicí, 561 64, Czech Republic",Czech Republic,,,,
For Garden,03/31/2022,2022,https://for-garden.cz/en/,DM,"Komínová asociace - asociace pro optimalizaci komínů a spalování, z.s.",042,Hala 1,www.kominy-komin.cz,,,,"Olivová 1412, Kamenice, 251 68, Czech Republic",Czech Republic,,,,
For Garden,03/31/2022,2022,https://for-garden.cz/en/,DM,Kolomaki s.r.o.,98,Hala 1,,info@kolomaki.com,+420/ 777 072 100,,"Komenského 576, Zlonice, 273 71, Czech Republic",Czech Republic,4.2. - Timber structures,,,
For Garden,03/31/2022,2022,https://for-garden.cz/en/,DM,"KLVAŇA-NÁBYTEK, s.r.o.",28,Hala 2,www.klvana-nabytek.cz,m.blumaier@klvana-nabytek.cz,+420/ 775 940 398,,"Bubeníčkova 4363/38, Brno-Židenice, 602 00, Czech Republic",Czech Republic,,,,
For Garden,03/31/2022,2022,https://for-garden.cz/en/,DM,Klimatizace bez hadice,12,Hala 3,www.klimabezhadice.cz,info@klimabezhadice.cz,+420/ 608 326 192,,"Vojenova 2481/7, Praha, 180 00, Czech Republic",Czech Republic,,,,
For Garden,03/31/2022,2022,https://for-garden.cz/en/,DM,KLINKER CENTRUM s.r.o.,46,Hala 1,www.klinkercentrum.cz,info@klinkercentrum.cz,+420/ 494 620 157,,"Procházkova 202, Kostelec nad Orlicí, 517 41, Czech Republic, Průmyslová 2241, Brandýs nad Labem, 250 01, Czech Republic",Czech Republic,1.3.4.1.2.3. - Roof tiles | 1.3.9. - Surfaces | 1.3.9.2.1. - Face bricks,,,"Facing bricks, Brick Slips, Pavers, Klinker, Roof tiles, Mortar."
For Garden,03/31/2022,2022,https://for-garden.cz/en/,DM,KF GROUP s.r.o.,47a,Hala 3,,,,,"Otín 7, Jindřichův Hradec, 377 01, Czech Republic",Czech Republic,,,,
For Garden,03/31/2022,2022,https://for-garden.cz/en/,DM,Kaveo s.r.o.,42,Hala 3,www.kaveo.cz,kaveo@kaveo.cz,+420/ 725 751 234,,"Sídliště 598, Krupka, 417 41, Czech Republic",Czech Republic,1.3.7.1. - Windows | 1.3.7.9. - Large-area glazing,,,"Glassed balconies, loggias and terraces of the world quality."
For Garden,03/31/2022,2022,https://for-garden.cz/en/,DM,KAVÁRNA/ grandepoint s.r.o.,76a,Hala 1,,macku.roman@post.cz,+420/ 608 755 755,,"Kaprova 42/14, Praha 1, 110 00, Czech Republic",Czech Republic,,,,
For Garden,03/31/2022,2022,https://for-garden.cz/en/,DM,"Kámen Becke Moravia, s.r.o.",96,Hala 1,www.kbmoravia.cz,info@kbmoravia.cz,+420/ 737 211 142,,"Lipovská 633, Jeseník, 790 01, Czech Republic",Czech Republic,,,,
For Garden,03/31/2022,2022,https://for-garden.cz/en/,DM,Kenitra s.r.o.,33,Hala 1,,sofkovak@ibcc.cz,+420/ 607 587 625,,"Štěpánská 1742/27, Praha 1, 110 00, Czech Republic",Czech Republic,,,,
For Garden,03/31/2022,2022,https://for-garden.cz/en/,DM,MADONA IMPEX SRL,99a,Hala 1,,madonaproiectiti@yahoo.com,+40/ 728 308 977,,"Aleea Stinjenelului U6-B, Tulcea, 820215, Romania",Romania,1.3.4. - Building materials,,,
For Garden,03/31/2022,2022,https://for-garden.cz/en/,DM,"LUSIEN, s.r.o.",26,Hala 2,www.nabytek-amadeus.cz,dina@dina.cz,+420/ 731 008 007,,"Petřvald 441, 742 60, Czech Republic",Czech Republic,1.3.8.7. - Furniture,,,"Furniture that grows with you - desks and chairs for children. Ergonomic office equipment, suitable also for disabled."
For Garden,03/31/2022,2022,https://for-garden.cz/en/,DM,Lumiart soft s.r.o.,39,Hala 1,www.lumion3d.cz,info@lumion3d.cz,,,"Skryjova 1606/8, Brno-sever, 614 00, Czech Republic",Czech Republic,,,,
For Garden,03/31/2022,2022,https://for-garden.cz/en/,DM,LK Studio s.r.o.,9,Hala 2,www.lkstudio.cz,info@lkstudio.cz,,,"U Výstaviště 138/3, Praha 7, 170 00, Czech Republic",Czech Republic,,,,
For Garden,03/31/2022,2022,https://for-garden.cz/en/,DM,"Lias Vintířov, lehký stavební materiál k.s.",69,Hala 1,www.dumjednimtahem.cz,ullmann@liapor.cz,+420/ 352 324 457,,"Vintířov 176, 357 35, Czech Republic",Czech Republic,1.2.2.2. - Family houses | 1.2.8.2. - Low-energy consumption houses | 1.2.8.3. - Passive houses,,,Prefabricated family houses made of large-area ceramic Liapor-concrete. Modular technology. Selection from 25 types of projects with the possibility of project adjustments.
For Garden,03/31/2022,2022,https://for-garden.cz/en/,DM,LuminarS.cz s.r.o.,128,Hala 1,www.zahradnihadicenavodu.cz,info@luminars.cz,+420/ 777 806 252,,"Nový Malín 150, 788 03, Czech Republic",Czech Republic,6.3. - Functional garden equipment,,,
For Garden,03/31/2022,2022,https://for-garden.cz/en/,DM,KUFI INT s.r.o.,48,Hala 3,www.ac-heating.cz,info@ac-heating.cz,+420/ 775 640 374,,"Staroplzenecká 177, Plzeň-Letkov, 326 00, Czech Republic",Czech Republic,3.6.3. - Heat pumps | 3.6.4. - Accessories to heat pumps,,,"AC Heating heat pumps, 7 years warranty, Eco label A+++. All types of building."
For Garden,03/31/2022,2022,https://for-garden.cz/en/,DM,Li-Go Light s.r.o.,11,Hala 3,www.li-go.cz,info@li-go.cz,+420/ 773 773 440,,"Davídková 642/37, Praha 8, 180 00, Czech Republic",Czech Republic,2.1.2.6. - Indoor lighting - residences and venues,,,
For Garden,03/31/2022,2022,https://for-garden.cz/en/,DM,KOPŘIVA PRAHA s.r.o.,71,Hala 3,www.kopriva.cz,kopriva@kopriva.cz,+420/ 286 850 987,,"Borovnická 359/31, Praha, 197 00, Czech Republic",Czech Republic,3. - Heating | 3.1.7. - Boilers with electrical heating | 3.2.8. - Radiation panels,,,Production and sale of electrical boilers and radiation panels from natural materials.
For Garden,03/31/2022,2022,https://for-garden.cz/en/,DM,Meesenburg s.r.o.,29,Hala 3,www.meesenburg.cz,info@meesenburg.cz,+420/ 312 285 615,,"Vrapická 402, Kladno, 272 03, Czech Republic",Czech Republic,1.3.7.1. - Windows | 1.3.7.2. - Windows and gate doors | Blaugelb Triotherm+ suspended assembly system,,,We are an international wholesale company established in Germany in 1758. We supply components for the production and installation of windows and doors and ventilation technology.
For Garden,03/31/2022,2022,https://for-garden.cz/en/,DM,Médijko group s.r.o.,,,,,,,"Náměstí 14. října 1307/2, Praha 5, 150 00, Czech Republic",Czech Republic,,,,
For Garden,03/31/2022,2022,https://for-garden.cz/en/,DM,KONTAKT - SIMON CZ s.r.o.,51,Hala 3,www.kontakt-simon.cz,m.dufek@kontakt-simon.cz,+420/ 493 394 145,,"Hlavní 986, Smržovka, 468 41, Czech Republic",Czech Republic,"2.1.1.1. - Switches, sockets, forks | 2.1.1.9. - Intellingent electrical installations and EIB systems | 2.1.12. - Home automation",,,"Thanks to tight cooperation with customers, KONTAKT - SIMON is one of the fastest growing companies in the field of home installation systems. Customer needs fast implementation and excellently processed products are the main engine of the growth."
For Garden,03/31/2022,2022,https://for-garden.cz/en/,DM,"MEDIA/ST, s.r.o.",,,www.mediast.cz,sekretariat@mediast.sk,+421/ 415 640 370,,"Jeseniova 50, Praha, 130 00, Czech Republic",Czech Republic,Publishing house with more than 24 years of experience,,,
For Garden,03/31/2022,2022,https://for-garden.cz/en/,DM,MediaMax s.r.o. (StreamTech.tv),,,www.streamtech.tv,streamtech.tv@ccb.cz,+420/ 553 810 130,,"Brandlova 1685/9, Moravská Ostrava a Přívoz, 702 00, Czech Republic",Czech Republic,,,,
For Garden,03/31/2022,2022,https://for-garden.cz/en/,DM,Meandr AZS s.r.o.,25,Hala 1,www.meandr.cz,info@meandr.cz,+420/ 235 301 140,,"K Šancím 50, Praha 6, 163 00, Czech Republic",Czech Republic,6.3.6. - Irrigation systems and accessories,,,"Automatic watering systems, self-irrigating green walls and flowerpots."
For Garden,03/31/2022,2022,https://for-garden.cz/en/,DM,Masonite CZ spol. s r.o.,17,Hala 2,,czechinfo@masonite.com,+420/ 567 121 411,,"Hruškové Dvory 82, Jihlava, 586 01, Czech Republic",Czech Republic,1.3.7.2. - Windows and gate doors,,,
For Garden,03/31/2022,2022,https://for-garden.cz/en/,DM,Martin Kašparovský,135,Hala 1,,,+420/ 603 314 519,,"Pratecká 72, Blažovice, 664 08, Czech Republic",Czech Republic,"6.10. - Garden tools, utensils and instruments",,,
For Garden,03/31/2022,2022,https://for-garden.cz/en/,DM,MARELL s.r.o.,57,Hala 3,www.nejlepsipodlahy.eu,olsak@marell.cz,+420/ 604 125 575,,"Herčíkova 246/1a, Brno-Královo Pole, 612 00, Czech Republic",Czech Republic,,,,
For Garden,03/31/2022,2022,https://for-garden.cz/en/,DM,McBerg s.r.o.,127,Hala 1,www.woodblocx.cz,info@woodblocx.cz,+420/ 606 642 404,,"Horní Chrášťany 42, Lhenice, 384 11, Czech Republic",Czech Republic,6.2. - Garden constructions,,,"Elevated flower beds, window boxes, benches. Double pressure impregnation ensures a service life of over 20 years."
For Garden,03/31/2022,2022,https://for-garden.cz/en/,DM,Marakar s.r.o.,15,Hala 2,www.mkaurum.com,,+420/ 737 059 006,,"Radniční 1241, Frýdek-Místek, 738 01, Czech Republic",Czech Republic,5.4. - Wellness & spa,,,
For Garden,03/31/2022,2022,https://for-garden.cz/en/,DM,NADACE DŘEVO PRO ŽIVOT,,,www.drevoprozivot.cz,,,,"U Uranie 18, Praha 7 - Holešovice, 170 00, Czech Republic",Czech Republic,,,,
For Garden,03/31/2022,2022,https://for-garden.cz/en/,DM,"MISE MÉDIA, s.r.o.",,,www.mise.cz,mise@mise.cz,,,"Prokopa Velikého 30, Ostrava, 703 00, Czech Republic",Czech Republic,,,,
For Garden,03/31/2022,2022,https://for-garden.cz/en/,DM,MINISTERSTVO VNITRA,53,Hala 3,www.mvcr.cz,posta@mvcr.cz,+420/ 974 811 111,,"Nad Štolou 936/3, Praha, 170 00, Czech Republic",Czech Republic,1.8.1. - State administration,,,
For Garden,03/31/2022,2022,https://for-garden.cz/en/,DM,Ministerstvo pro místní rozvoj,97,Hala 1,,,+420/ 224 861 282,,"Staroměstské náměstí 6, Praha 1, 110 15, Czech Republic",Czech Republic,1.8.1. - State administration,,,
For Garden,03/31/2022,2022,https://for-garden.cz/en/,DM,"MultiSport Benefit, s.r.o.",,,,,,,"Lomnického 1705/9, Praha 4, 140 00, Czech Republic",Czech Republic,,,,
For Garden,03/31/2022,2022,https://for-garden.cz/en/,DM,Mgr. Markéta Rigová - Nejkrásnější dárek.cz,122,Hala 1,www.nejkrasnejsidarek.cz,marketa.rigova@post.cz,+420/ 775 147 207,,"Chlum 165, Křemže, 382 03, Czech Republic",Czech Republic,6.6.7. - Other accessories,,,"Utility wooden products - cutlery and kitchen tools, bowls, basins, toys."
For Garden,03/31/2022,2022,https://for-garden.cz/en/,DM,MINISTERSTVO PRÁCE A SOCIÁLNÍCH VĚCÍ,117,Hala 1,www.mpsv.cz,focalpoint@mpsv.cz,+420/ 221 922 344,,"Na Poříčním právu 1/376, Praha 2, 128 01, Czech Republic",Czech Republic,1.11.4. - Occupational health and safety,,,
For Garden,03/31/2022,2022,https://for-garden.cz/en/,DM,Mgr. Markéta Aubrechtová,129,Hala 1,,amarkysek@seznam.cz,+420/ 777 583 924,,"Pod Lesem 185, Borek, 373 67, Czech Republic",Czech Republic,,,,
For Garden,03/31/2022,2022,https://for-garden.cz/en/,DM,Městská část Praha 18,,,www.praha18.cz,listy@letnany.cz,,,"Bechyňská 639, Praha 9 - Letňany, 190 00, Czech Republic",Czech Republic,,,,
For Garden,03/31/2022,2022,https://for-garden.cz/en/,DM,"NUDE Juice and Smoothie co., s.r.o.",27,Hala 1,www.drinkfresh.cz,info@drinkfresh.cz,+420/ 724 907 089,,"U Zahradního města 3190/2a, Praha 10, 106 00, Czech Republic",Czech Republic,,,,
For Garden,03/31/2022,2022,https://for-garden.cz/en/,DM,MEVA a.s.,86,Hala 1,www.mevagasproducts.com,kindermann.lubos@meva.eu,+420/ 602 302 586,,"Na Urbance 632, Roudnice nad Labem, 413 01, Czech Republic",Czech Republic,6.3. - Functional garden equipment | 6.3.7. - Incandescent radiators,,,"Camping cookers, burners, lamps, heaters, space heaters, grills."
For Garden,03/31/2022,2022,https://for-garden.cz/en/,DM,No Limits Design a.s.,7,Hala 2,www.nolimitsdesign.cz,info@nolimitsdesign.cz,+420/ 739 248 700,,"Na struze 227/1, Praha 1, 110 00, Czech Republic",Czech Republic,,,,
For Garden,03/31/2022,2022,https://for-garden.cz/en/,DM,NOKOV s.r.o.,63,Hala 3,www.nokov.cz,info@nokov.cz,+420/ 315 725 555,,"Nosálov 53, 277 35, Czech Republic",Czech Republic,1.3.7.6.1. - Fencing,,,
For Garden,03/31/2022,2022,https://for-garden.cz/en/,DM,"Nicoll Česká republika, s.r.o.",73,Hala 1,www.nicoll.cz,info.cz@aliaxis.com,+420/ 272 084 611,,"Průmyslová 367, Vestec, 252 50, Czech Republic",Czech Republic,1.2.1.2.4. - Drainage and irrigation systems,,,
For Garden,03/31/2022,2022,https://for-garden.cz/en/,DM,NEWAG spol. s r.o. - centrální vysavače Husky,30,Hala 3,www.husky.cz,info@husky.cz,+420/ 261 221 528,,"Vestecká 104, Zlatníky-Hodkovice, 252 41, Czech Republic",Czech Republic,3.8.12. - Central vacuum cleaners,,,"Central vacuum cleaners HUSKY for houses, flats and offices. Unique lifetime warranty - 25 years!"
For Garden,03/31/2022,2022,https://for-garden.cz/en/,DM,NetWebs s.r.o.,,,www.netwebs.cz,veronika@netwebs.cz,+420/ 724 979 740,,"U Třešňovky 1839/9, Praha 8, 182 00, Czech Republic",Czech Republic,,,,
For Garden,03/31/2022,2022,https://for-garden.cz/en/,DM,"NETION, s.r.o.",91,Hala 1,www.drevostavitel.cz,info@drevostavitel.cz,+420/ 723 773 658,,"Křižíkova 2697/70, Brno-Královo Pole, 612 00, Czech Republic",Czech Republic,,,,
For Garden,03/31/2022,2022,https://for-garden.cz/en/,DM,NEXT COMFORT a.s.,26,Hala 3,www.ferove-cerpadlo.cz,info@ferove-cerpadlo.cz,+420/ 778 448 521,,"Štěrboholská 1434/102a, Praha 10, 102 00, Czech Republic",Czech Republic,3.6.3. - Heat pumps,,,
For Garden,03/31/2022,2022,https://for-garden.cz/en/,DM,Nanobala s.r.o.,11,Hala 1,www.nanobala.cz,info@nanobala.cz,+420/ 774 399 343,,"Na Bečvě 533/37, Lipník nad Bečvou, 751 31, Czech Republic",Czech Republic,1.3.4.3.3.6. - Impregnation means,,,"Development, manufacture and sales of hydrophobic and oilphobic impregnations and hydrophobic fixers of stone and concrete, surface finishes of construction materials."
For Garden,03/31/2022,2022,https://for-garden.cz/en/,DM,Národní síť Zdravých měst České republiky,,,,,,,"Na poříčí 1041/12, Praha 1, 110 00, Czech Republic",Czech Republic,7. - FOR CITY,,,
For Garden,03/31/2022,2022,https://for-garden.cz/en/,DM,"PAVUS, a.s.",103,Hala 1,www.pavus.cz,mail@pavus.cz,+420/ 286 019 587,,"Prosecká 412/74, Praha 9, 190 00, Czech Republic",Czech Republic,,,,
For Garden,03/31/2022,2022,https://for-garden.cz/en/,DM,"Partners Financial Services, a.s.",41,Hala 1,www.partners.cz,patrik.grygera@partners.cz,+420/ 723 642 688,,"Zborovská 10, Praha 5, 150 00, Czech Republic",Czech Republic,1.8.15. - Financial institutions | 2.2.1.15. - Insurance,,,Professional financial expert by your side!
For Garden,03/31/2022,2022,https://for-garden.cz/en/,DM,Parket&pandomo s.r.o.,19,Hala 3,www.parket-pandomo.cz,toman@parket-pandomo.cz,+420/ 773 111 162,,"Hrusice 123, 251 66, Czech Republic",Czech Republic,,,,
For Garden,03/31/2022,2022,https://for-garden.cz/en/,DM,PEDOTHERM Moravia spol. s r.o.,2,Hala 3,www.pedotherm.cz,pedotherm@pedotherm.cz,+420/ 602 513 955,,"Poštovní 108, Bohuslavice, 747 19, Czech Republic",Czech Republic,"3.3.1. - Hot-water floor heating systems | 3.8.9. - Use of waste heat, recuperation",,,"Floor heating system PEDOTHERM including pouring of floors, material and installation of environment-friendly and energy-efficient heat sources, ZEHNDER heat recuperation system."
For Garden,03/31/2022,2022,https://for-garden.cz/en/,DM,P.M.H.- INVEST & TRADE spol. s r. o.,11,Hala 2,www.pmh-co.cz,info@pmh-co.cz,+420/ 380 711 237,,"Přísečná 556, Český Krumlov, 381 01, Czech Republic",Czech Republic,3.3.6. - Radiators | 5.8.8. - Bathroom accessories,,,PMH bathroom radiators - Czech production.
For Garden,03/31/2022,2022,https://for-garden.cz/en/,DM,PANEL PLUS PRESS s.r.o.,,,www.panelplus.cz,j.chara@panelplus.cz,+420/ 296 180 199,,"Koněvova 2660/141, Praha, 130 00, Czech Republic",Czech Republic,,,,
For Garden,03/31/2022,2022,https://for-garden.cz/en/,DM,OVEX TRANS SRL,1a,Hala 1,,ovex_trans@yahoo.com,+40/ 760 026 883,,"Chimiei, Turnu Magurele Teleorman, 145200, Romania",Romania,1.2. - Buildings,,,
For Garden,03/31/2022,2022,https://for-garden.cz/en/,DM,OPTIM SERV 2005 SRL,99,Hala 1,www.vreau-utilaje.ro,optimserv05@yahoo.com,+40/ 754 530 373,,"3 Aviatorilor St., Galati, 800283, Romania",Romania,1.2.1.2. - Water management facility constructions,,,"Our company owns performant equipment for any works regarding: unclogging swampy area, unclogging irrigation channels, unclogging channels to let water flow, dredging works, roads works."
For Garden,03/31/2022,2022,https://for-garden.cz/en/,DM,Ondřej Šlechtický,109a,Hala 1,,,,,"Lípová 1287, Dobříš, 263 01, Czech Republic",Czech Republic,,,,
For Garden,03/31/2022,2022,https://for-garden.cz/en/,DM,"OSMONT, s.r.o.",39,Hala 3,www.osmont.cz,osmont@osmont.cz,+420/ 567 210 023,,"Hybrálec 129, Jihlava, 586 01, Czech Republic",Czech Republic,2.1.2. - Lighting equipment and systems | 2.1.2.5. - Outdoor lighting | 2.1.2.6. - Indoor lighting - residences and venues | 2.1.2.7. - Workplace lighting | 2.1.2.8. - Emergency and safety lighting,,,"Company OSMONT is Czech lighting producer. Company traditionally produces lightings with handmade three-layer opal glass shades and luminaires with plastic shades. Product range consists of surface mounted, recessed, pendant, industrial lamps and table lamps. All the products can be equipped with LED modules of company's own construction."
For Garden,03/31/2022,2022,https://for-garden.cz/en/,DM,"Pražská energetika, a.s.",36,Hala 3,www.pre.cz,pre@pre.cz,+420/ 800 550 055,,"Na Hroudě 1492/4, Praha 10, 100 05, Czech Republic",Czech Republic,"3.10.1. - Servicing, assemblies and inspections of heating systems",,,
For Garden,03/31/2022,2022,https://for-garden.cz/en/,DM,PREFA Aluminiumprodukte s.r.o.,V 2,Venkovní plocha 1,cz.prefa.com,office.cz@prefa.com,+420/ 234 496 512,,"K Zelenči 2883/14, Praha 9 - Horní Počernice, 193 00, Czech Republic",Czech Republic,"1.3.4.1.3.7. - Aluminium products | 1.3.7.5.1. - Membrane roofing systems for inclined roofs | 1.3.7.5.5. - Drainage, lining and ventilation of roofs | 1.3.9.6. - Roof covering systems | 1.5.1.5. - Flood protection | 4.4.2. - Facade systems and elements",,,"Manufacturer and supplier of roof, facade and drainage systems of aluminum."
For Garden,03/31/2022,2022,https://for-garden.cz/en/,DM,Pražská čokoláda s.r.o.,24,Hala 2,www.prazskacokolada.cz,,+420/ 777 809 335,,"K Sadu 754/2b, Praha 8, 182 00, Czech Republic",Czech Republic,,,,
For Garden,03/31/2022,2022,https://for-garden.cz/en/,DM,PRAHA TV s.r.o.,,,www.prahatv.eu,redakce@prahatv.eu,,,"Vinohradská 1597/174, Praha 3, 130 00, Czech Republic",Czech Republic,,,,
For Garden,03/31/2022,2022,https://for-garden.cz/en/,DM,"PostScriptum, s. r. o. - vydavatel Build Info, časopis podnikatelů ve stavebnictví",,,www.buildinfo.cz,info@buildinfo.cz,+420/ 284 818 881,,"Sokolovská 172, Praha 8, 180 00, Czech Republic",Czech Republic,,,,
For Garden,03/31/2022,2022,https://for-garden.cz/en/,DM,Policejní prezidium České republiky,53,Hala 3,,,,,"Strojnická 935/27, Praha 7, 170 89, Czech Republic",Czech Republic,,,,
For Garden,03/31/2022,2022,https://for-garden.cz/en/,DM,PRAŽÁK s.r.o.,61,Hala 3,www.prazak.cz,prazak@prazak.cz,+420/ 518 619 583,,"Školní 77, Milotice u Kyjova, 696 05, Czech Republic",Czech Republic,1.3.7.1. - Windows | 1.3.7.1.1. - Wooden windows | 1.3.7.2. - Windows and gate doors | 1.3.7.2.1. - Wooden doors,,,"Our products are wooden and wood/aluminium windows, winter gardens, sliding doors HS portal and SKB, entrance doors for low-energy and passive houses."
For Garden,03/31/2022,2022,https://for-garden.cz/en/,DM,Petr Baďura,V 1,Venkovní plocha 1,,mikuskatka@seznam.cz,+420/ 603 714 697,,"Na Lapači 1009, Vsetín, 755 01, Czech Republic",Czech Republic,6.7. - Plants and preparations for their growing,,,
For Garden,03/31/2022,2022,https://for-garden.cz/en/,DM,PhDr. Bořivoj Kleník - METROLOGIE,,,,klenik@q-art.cz,+420/ 603 846 527,,"Bezdědice 19, Bělá pod Bezdězem, 294 25, Czech Republic",Czech Republic,,,,
For Garden,03/31/2022,2022,https://for-garden.cz/en/,DM,PEFC Česká republika,,,,,,,"Bělohorská 274/9, Praha 6, 169 00, Czech Republic",Czech Republic,,,,
For Garden,03/31/2022,2022,https://for-garden.cz/en/,DM,REGRA PLAST spol. s r.o.,04,Hala 1,www.eureko.org,info@regraplast.cz,+420/ 774 707 040,,"Obora 197, 440 01, Czech Republic",Czech Republic,1.3.9.6. - Roof covering systems,,,"Roofing system EUREKO, faithful imitation of natural materials, but not only them."
For Garden,03/31/2022,2022,https://for-garden.cz/en/,DM,"Realsan Group, SE",15,Hala 1,www.realsan.cz,realsan@realsan.cz,+420/ 485 246 501,,"Ruprechtická 732/8, Liberec, 460 01, Czech Republic",Czech Republic,1.4.3.6. - Surface treatment work,,,Decorative plastering Decopierre - natural stone look for both interiors and façades.
For Garden,03/31/2022,2022,https://for-garden.cz/en/,DM,Ratanovýsvět.cz,37,Hala 1,www.ratanovysvet.cz,info@ratanovysvet.cz,+420/ 739 300 033,,Czech Republic,Czech Republic,6.4. - Garden furniture,,,Online store specialized in luxury garden furniture made of artificial rattan.
For Garden,03/31/2022,2022,https://for-garden.cz/en/,DM,PUR IZOLACE s.r.o.,108,Hala 1,www.pur.cz,pur@pur.cz,+420/ 416 731 111,,"Křižíkova 713/3, Litoměřice, 412 01, Czech Republic",Czech Republic,"1.3.6.1. - Thermal insulation systems | 1.3.6.1.5. - Sprayings, coatings, screeding | 1.3.7.5.1. - Membrane roofing systems for inclined roofs | 1.3.7.5.2. - Membrane roofing systems for flat roofs | 1.3.7.5.7. - Thermal insulation of roofs | 1.3.9.2.8. - Thermal insulation systems",,,Thermal and waterproof insulation systems for flat roofs. Thermal insulation systems for attics.
For Garden,03/31/2022,2022,https://for-garden.cz/en/,DM,"QUALIFORM, a.s.",103,Hala 1,www.qualiform.cz,,,,"Mlaty 672/8, Brno, 642 00, Czech Republic",Czech Republic,,,,
For Garden,03/31/2022,2022,https://for-garden.cz/en/,DM,"Ptáček - velkoobchod, a.s.",5,Hala 2,www.koupelny-ptacek.cz,,+420/ 220 800 000,,"Tyršova 647, Modřice, 664 42, Czech Republic",Czech Republic,5.8. - SANITARY AND BATHROOM EQUIPMENT,,,Bathroom studios in the whole Czech Republic and Slovakia. Complete assortment of bathroom equipment.
For Garden,03/31/2022,2022,https://for-garden.cz/en/,DM,PROFI ART PUBLISHING s.r.o.,,,www.realestatepraha.cz,strohmaierova@realestatepraha.cz,+420/ 777 745 645,,"Kolínská 1754/9, Praha 3, 130 00, Czech Republic",Czech Republic,1.10.3. - Publishing activities,,,
For Garden,03/31/2022,2022,https://for-garden.cz/en/,DM,"Prima DOMA MEDIA, s.r.o.",,,www.primanapady.cz,informace@iprima.cz,,,"Divišovská 2306/18, Praha 11, 149 00, Czech Republic",Czech Republic,1.3.12. - Mediums supplied,,,
For Garden,03/31/2022,2022,https://for-garden.cz/en/,DM,"PRESSKAN system, a.s.",55,Hala 1,www.presskansystem.cz,presskan@presskansystem.cz,+420/ 582 344 291,,"Vápenice 2974/13, Prostějov, 796 01, Czech Republic",Czech Republic,1.3.5.1. - Sewerage systems,,,Delivery of a pressure sewerage system protected by the PRESSKAN® trademark.
For Garden,03/31/2022,2022,https://for-garden.cz/en/,DM,Profi Press s.r.o.,,,www.profipress.cz,profipress@profipress.cz,+420/ 737 273 712,,"Jana Masaryka 2559/56b, Praha 2, 120 00, Czech Republic",Czech Republic,"6.14.1. - Professional literature, magazines | 7. - FOR CITY",,,
For Garden,03/31/2022,2022,https://for-garden.cz/en/,DM,"S.O.K. stavební, s.r.o.",106,Hala 1,www.domy.sok.cz,marketing@sok.cz,+420/ 770 120 244,,"Hrotovická - průmyslová zóna 162, Třebíč-Střítež, 674 01, Czech Republic",Czech Republic,1.2.2.1. - Residential buildings | 1.2.2.2. - Family houses,,,Construction of assembled family houses of prefabricated parts.
For Garden,03/31/2022,2022,https://for-garden.cz/en/,DM,RUBIVIA a.s.,,,www.rubivia.cz,lukas.bedrna@rubivia.cz,,,"K metru 186/4, Praha-Zličín, 155 21, Czech Republic",Czech Republic,,,,
For Garden,03/31/2022,2022,https://for-garden.cz/en/,DM,ROLUX žaluzie s.r.o.,59,Hala 1,www.ploty-rolux.cz,rolux@rolux.cz,+420/ 585 389 120,,"Pila 678, Bohuňovice, 783 14, Czech Republic",Czech Republic,6.2. - Garden constructions,,,"Manufacturer of aluminum fence systems, aluminum pergolas ROLUX."
For Garden,03/31/2022,2022,https://for-garden.cz/en/,DM,ROJEK dřevoobráběcí stroje a.s.,7,Hala 3,www.rojek.cz,,+420/ 494 339 122,,"Masarykova 16, Častolovice, 517 50, Czech Republic",Czech Republic,,,,
For Garden,03/31/2022,2022,https://for-garden.cz/en/,DM,RICHTER - Pizarras,40,Hala 1,www.bridlice.cz,info@bridlice.cz,+420/ 602 544 547,,"Krátká 603, Vítkov, 749 01, Czech Republic, Rumunská 1, Praha 2, 120 00, Czech Republic",Czech Republic,1.3.4.1.1.6. - Shale | 1.3.9.6.2. - Board-based roof coverings,,,"Manufacture of roofing, tiling and pavements of natural slate. Advice to architects, designers, investors in project preparation and implementation. Complete supply of slate roofs, including assembly etc."
For Garden,03/31/2022,2022,https://for-garden.cz/en/,DM,ROVEX ENGINEERING s.r.o.,43,Hala 3,www.rovex.cz,info@rovex.cz,+420/ 775 681 274,,"Škrovád 189, Slatiňany, 538 21, Czech Republic",Czech Republic,1.3.7.1.4. - Aluminium windows | 1.3.7.2.4. - Aluminium doors | 1.3.7.3.2.5. - Pergolas | 1.3.7.7. - Railing system and handrails | 1.3.7.10. - Automatic door systems | Sliding glazing system CLEARLUX,,,"Aluminum glazing systems - loggias, railings, pergolas, winter gardens."
For Garden,03/31/2022,2022,https://for-garden.cz/en/,DM,REX spol.s r.o.,47b,Hala 3,www.rex-reklama.cz,,+420/ 603 443 841,,"Na Návsi 88, Družec, 273 62, Czech Republic",Czech Republic,,,,
For Garden,03/31/2022,2022,https://for-garden.cz/en/,DM,REYKOKEYKO s.r.o.,53,Hala 1,,,,,"Klíšská 977/77, Ústí nad Labem, 400 01, Czech Republic",Czech Republic,,,,
For Garden,03/31/2022,2022,https://for-garden.cz/en/,DM,René Hejna,31,Hala 1,www.renier.cz,renehejna@seznam.cz,+420/ 777 779 128,,"Za Sokolovnou 589, Velké Poříčí, 549 32, Czech Republic",Czech Republic,6.10.5. - Work instruments and garments,,,
For Garden,03/31/2022,2022,https://for-garden.cz/en/,DM,Stanley Black & Decker Czech Republic s.r.o. - divize DEWALT,V 3,Venkovní plocha 1,,,,,"Türkova 2319/5b, Praha 4, 149 00, Czech Republic",Czech Republic,,,,
For Garden,03/31/2022,2022,https://for-garden.cz/en/,DM,Společnost pro techniku prostředí,,,www.stpcr.cz,stp@stpcr.cz,+420/ 221 082 353,,"Novotného lávka 200/5, Praha 1, 116 68, Czech Republic",Czech Republic,,,,
For Garden,03/31/2022,2022,https://for-garden.cz/en/,DM,REMONDIS TULCEA SRL,5a,Hala 1,www.remondistulcea.ro,remondis.tulcea@yahoo.com,+40/ 747 584 787,,"Isaccei Street no. 84A, Tulcea, 820228, Romania",Romania,1.3.4. - Building materials,,,
For Garden,03/31/2022,2022,https://for-garden.cz/en/,DM,Sokol-okna-dveře-vrata s.r.o.,27,Hala 3,www.sokolokna.cz,info@sokolokna.cz,+420/ 608 703 905,,"Břetislavova 1b, Břeclav, 690 02, Czech Republic",Czech Republic,,,,
For Garden,03/31/2022,2022,https://for-garden.cz/en/,DM,Spa & Wellness s.r.o.,4,Hala 2,www.virivkysauny.cz,,+420/ 603 583 621,,"Křemenáčova 174/4, Praha 10 - Pitkovice, 104 00, Czech Republic",Czech Republic,5.4. - Wellness & spa,,,
For Garden,03/31/2022,2022,https://for-garden.cz/en/,DM,Sni s.r.o.,119,Hala 1,www.tvstav.cz,redakce@stanovin.cz,+420/ 577 431 775,,"Horní Vršava 4475, Zlín, 760 01, Czech Republic",Czech Republic,1.10. - Press and promotion,,,
For Garden,03/31/2022,2022,https://for-garden.cz/en/,DM,SIEGL s.r.o.,V 4,Venkovní plocha 1,www.siegl.cz,info@siegl.cz,,,"Zenklova 12/60, Praha 8, 180 00, Czech Republic",Czech Republic,1.6. - Waste disposal and recycling | Siegel´s presentation services,,,"Specialist for removal of rubble, soil and waste. Container delivery in 60 minutes."
For Garden,03/31/2022,2022,https://for-garden.cz/en/,DM,SEMIN CZ a.s.,75,Hala 1,www.semin-cz.cz,obchod@semin-cz.cz,+420/ 602 484 057,,"Ponávka 185/2, Brno-střed, 602 00, Czech Republic",Czech Republic,1.3.4.3.3.10. - Putties,,,
For Garden,03/31/2022,2022,https://for-garden.cz/en/,DM,"Sdružení vlastníků a správců lesních majetků ČR, z.s.p.o.",,,,,,,"Bělohorská 274/9, Praha 6, 169 00, Czech Republic",Czech Republic,,,,
For Garden,03/31/2022,2022,https://for-garden.cz/en/,DM,"Smartiple, s.r.o.",9 A 28,Vstupní hala II,www.smartiple.com,info@smartiple.com,+420/ 605 852 932,,"Rybná 716/24, Praha 1, 110 00, Czech Republic",Czech Republic,7. - FOR CITY,,,
For Garden,03/31/2022,2022,https://for-garden.cz/en/,DM,"SCANROC, SE",71,Hala 1,www.scanroc.eu,paleckova@scanroc.cz,+420/ 601 202 459,,"Hybernská 1271/32, Praha, 110 00, Czech Republic",Czech Republic,1.2.8.6. - Lagging for environment-friendly and energy-efficient building | 1.3.4.1.2.2. - Ceramic pieces and boards | Ventilated facades with ceramic or concrete tiles,,,"Production, engineering and installation of ventilated facades SCANROC."
For Garden,03/31/2022,2022,https://for-garden.cz/en/,DM,"Svaz zkušeben pro výstavbu, z.s.",102,Hala 1,www.szv.cz,futerova@csi.cz,+420/ 281 017 382,,"Pražská 16, Praha 10, 102 00, Czech Republic",Czech Republic,"1.8.2. - Building guilds, associations, chambers | 1.8.6.2. - Testing engineering",,,"Association of Testing Laboratories for Construction is an autonomous interest association of laboratories and testing plants dealing with testing lines and taking care of quality in the field of construction. It cooperates with state and other professional organizations in the building industry. As the owner of the ""Certified for Construction"" mark which was accepted in the Czech Quality Program it is the administrator of this voluntary certification system which certifies suitability of building products for the use in construction."
For Garden,03/31/2022,2022,https://for-garden.cz/en/,DM,"STUDIO P+P, s.r.o.",,,www.casopisczechindustry.cz,,+420/ 605 463 150,,"Semilská 389/40, Praha 9 - Kbely, 197 00, Czech Republic",Czech Republic,1.10.2. - Promotional activities,,,
For Garden,03/31/2022,2022,https://for-garden.cz/en/,DM,STONE CITY s.r.o.,84,Hala 1,www.stonecity.cz,candova@stonecity.cz,+420/ 770 156 627,,"Politických vězňů 1986, Slaný, 274 01, Czech Republic",Czech Republic,6.2.9. - Terraces,,,
For Garden,03/31/2022,2022,https://for-garden.cz/en/,DM,"STAVSI, s.r.o.",107,Hala 1,www.stavsi.cz,info@stavsi.cz,+420/ 602 234 107,,"Boudova 590, Praha 5 - Lipence, 155 31, Czech Republic",Czech Republic,1.3.4. - Building materials,,,
For Garden,03/31/2022,2022,https://for-garden.cz/en/,DM,SVAZ PODNIKATELŮ VE STÍNICÍ TECHNICE,6,Hala 3,www.svst.cz,info@svst.cz,+420/ 241 405 258,,"Novodvorská 1062/12, Praha 4, 142 00, Czech Republic",Czech Republic,"1.3.7.3. - Shading technology | 1.8.2. - Building guilds, associations, chambers",,,Czech Solar-Shading Association - An independent partner for communication about the field of shading technology and its benefits.
For Garden,03/31/2022,2022,https://for-garden.cz/en/,DM,Stavební bytové družstvo Praha,70,Hala 3,www.sbdpraha.cz,jaksova@sbdpraha.cz,+420/ 733 395 906,,"Střelničná 1861/8a, Praha 8, 182 00, Czech Republic",Czech Republic,1.8. - Services,,,We offer complete management of residential buildings.
For Garden,03/31/2022,2022,https://for-garden.cz/en/,DM,Stavokonzult Eduk s.r.o.,6,Hala 3,,,,,"Rudé armády 99, Dolní Zálezly, 403 01, Czech Republic",Czech Republic,,,,
For Garden,03/31/2022,2022,https://for-garden.cz/en/,DM,STÁTNÍ ÚŘAD INSPEKCE PRÁCE,117,Hala 1,www.suip.cz,opava@suip.cz,+420/ 950 179 101,,"Kolářská 451/13, Opava, 746 01, Czech Republic",Czech Republic,1.11.4. - Occupational health and safety,,,
For Garden,03/31/2022,2022,https://for-garden.cz/en/,DM,Státní fond podpory investic,97,Hala 1,www.sfpi.cz,,+420/ 221 771 612,,"Vinohradská 1896/46, Praha 2, 120 00, Czech Republic",Czech Republic,,,,
For Garden,03/31/2022,2022,https://for-garden.cz/en/,DM,TZB-info,76,Hala 1,www.tzb-info.cz,kontakt@tzb-info.cz,+420/ 233 081 104,,"Křenova 438/3, Praha 6, 162 00, Czech Republic",Czech Republic,,,,"Leading online magazine for HVAC, energy efficient building and construction. TZB-info is primarily intended for professionals, technicians, facility management and investors. Sister portal to ESTAV.cz for general public."
For Garden,03/31/2022,2022,https://for-garden.cz/en/,DM,Státní fond životního prostředí České republiky,47,Hala 1,www.sfzp.cz,dotazy@sfzp.cz,+420/ 267 994 300,,"Kaplanova 1931/1, Praha 11, 148 00, Czech Republic",Czech Republic,1.8. - Services,,,
For Garden,03/31/2022,2022,https://for-garden.cz/en/,DM,"TopolWater, s.r.o.",95,Hala 1,www.topolwater.com,topas@topolwater.com,+420/ 327 313 001-3,,"Nad Rezkovcem 1114, Čáslav, 286 01, Czech Republic",Czech Republic,"1.3.5.4. - Cleaning, treatment and processing of waste water",,,"Container wastewater treatment plants for 5-800 PE. Manufacture, sale, installation and service. Municipal and industrial wastewater treatment plants up to 20,000 PE. Design, implementation, operation."
For Garden,03/31/2022,2022,https://for-garden.cz/en/,DM,TOPSET s.r.o.,21,Hala 3,www.topset.cz,,,,"K Mlýnům 80, Velká Bíteš, 595 01, Czech Republic",Czech Republic,,,,
For Garden,03/31/2022,2022,https://for-garden.cz/en/,DM,Tomáš Gajdoš,53,Hala 1,,,,,"Na sídlišti 267, Čížkovice, 411 12, Czech Republic",Czech Republic,,,,
For Garden,03/31/2022,2022,https://for-garden.cz/en/,DM,Tepelná čerpadla Spirála,18,Hala 3,www.tcspirala.cz,stuchlik.josef@seznam.cz,+420/ 739 218 630,,"Hronětice 3, Kostomlaty nad Labem, 289 21, Czech Republic",Czech Republic,3.6.3. - Heat pumps,,,"Heating pumps water-water specialist. The lowest operation cost for heating, the smallest required flow, work without filtration, quiet, long service life."
For Garden,03/31/2022,2022,https://for-garden.cz/en/,DM,Teco a.s.,9 A 30,Vstupní hala II,www.tecomat.cz,info@tecomat.cz,+420/ 321 737 611,,"Průmyslová zóna Šťáralka 984, Kolín, 280 02, Czech Republic",Czech Republic,7. - FOR CITY,,,
For Garden,03/31/2022,2022,https://for-garden.cz/en/,DM,Šimbera s.r.o.,8,Hala 2,www.dvere-simbera.cz,p.simbera@simbera.cz,+420/ 546 421 464,,"Mělčany 12, Dolní Kounice, 664 64, Czech Republic",Czech Republic,,,,
For Garden,03/31/2022,2022,https://for-garden.cz/en/,DM,ThermWet s.r.o.,23,Hala 3,www.thermwet.cz,info@thermwet.cz,+420/ 775 973 717,,"Vlárská 1454/1, Praha, 104 00, Czech Republic",Czech Republic,"3.8.9. - Use of waste heat, recuperation",,,ThermWet s.r.o. - Czech manufacturer and supplier of ventilation system with heat recovery.
For Garden,03/31/2022,2022,https://for-garden.cz/en/,DM,Svépomocí.cz s.r.o.,,,www.svepomoci.cz,,+420/ 739 619 857,,"Podnikatelská 558, Praha-Běchovice, 190 11, Czech Republic",Czech Republic,,,,
For Garden,03/31/2022,2022,https://for-garden.cz/en/,DM,"SVĚTLO, vydavatel FCC PUBLIC s. r. o.",17,Hala 3,www.odbornecasopisy.cz,svetlo@fccgroup.cz,+420/ 286 583 011-12,,"Pod Vodárenskou věží 1143/4, Praha 8, 182 08, Czech Republic",Czech Republic,,,,
For Garden,03/31/2022,2022,https://for-garden.cz/en/,DM,VIKI FRUIT s.r.o.,30,Hala 1,www.zdraveplody.cz,info@zdraveplody.cz,724 794 104,,"Husitská 116, Nové Město nad Metují, 549 01, Czech Republic",Czech Republic,,,,
For Garden,03/31/2022,2022,https://for-garden.cz/en/,DM,"VEGA, společnost s ručením omezeným",94,Hala 1,www.vega.cz,si@vega.cz,+420/ 495 518 802,,"U Náhona 529/17, Hradec Králové, 503 01, Czech Republic",Czech Republic,1.10.3. - Publishing activities,,,
For Garden,03/31/2022,2022,https://for-garden.cz/en/,DM,Ústecký kraj,053,Hala 1,www.kr-ustecky.cz,urad@kr-ustecky.cz,+420/ 475 657 111,,"Velká Hradební 3118/48, Ústí nad Labem, 400 02, Czech Republic",Czech Republic,1.8.1. - State administration,,,
For Garden,03/31/2022,2022,https://for-garden.cz/en/,DM,VIPA CZ s.r.o.,66,Hala 3,www.vipa.cz,vipa@vipa.cz,+420/ 488 723 300,,"Kadlická 20, Liberec, 460 15, Czech Republic",Czech Republic,3.5.4. - Heat consumption meters and meters for heating cost invoicing,,,VIPA CZ s.r.o. is a leading provider of services in the area of measurement and billing of heating costs and budgeting of cold and hot service water supply.
For Garden,03/31/2022,2022,https://for-garden.cz/en/,DM,UNIVERSUM s.r.o.,12,Hala 1,www.universum-lepidla.cz,kontakt@universum-lepidla.cz,+420/ 547 223 600,,"Humenná 38, Brno, 625 00, Czech Republic",Czech Republic,,,,
For Garden,03/31/2022,2022,https://for-garden.cz/en/,DM,ÚRS CZ a.s.,72,Hala 1,www.urs.cz,obchod@urs.cz,+420/ 735 768 768,,"Tiskařská 257/10, Praha 10 - Malešice, 108 00, Czech Republic",Czech Republic,1.1.1.2.6. - Budgeting | 1.1.3.2. - Software | 1.1.3.3. - Database and information systems,,,"Comprehensive services for budgeting, calculations and building operations control: guide prices, software, consultancy, courses."
For Garden,03/31/2022,2022,https://for-garden.cz/en/,DM,UNIFORM PRAHA spol. s r.o.,,,www.uniform.cz,uniform@uniform.cz,,,"Novákových 6, Praha 8, 180 00, Czech Republic",Czech Republic,,,,
For Garden,03/31/2022,2022,https://for-garden.cz/en/,DM,UBUD INTERIER s.r.o.,61,Hala 1,www.ubud.cz,p.berndsen@seznam.cz,+420/ 736 187 238,,"Slovenská 1867, Černošice, 252 28, Czech Republic",Czech Republic,6.4. - Garden furniture,,,
For Garden,03/31/2022,2022,https://for-garden.cz/en/,DM,TZÚS GROUP,103,Hala 1,www.tzusgroup.cz,info@tzus.cz,+420/ 286 019 422,,"Prosecká 811/76a, Praha 9 - Prosek, 190 00, Czech Republic",Czech Republic,"1.8.6.2. - Testing engineering | 2.1.8.4. - Analyses, testing, calibration",,,"TZÚS GROUP is an association of legal entities of the three testing and certification organizations interconnected by property: Technical and Test Institute for Construction Prague, SOE, QUALIFORM, Inc., PAVUS, Inc."
For Garden,03/31/2022,2022,https://for-garden.cz/en/,DM,UNICS Fair s.r.o.,22,Hala 1,,,+420/ 774 145 327,,"Kaprova 42/14, Praha 1, 110 00, Czech Republic",Czech Republic,6.12.4. - Portable equipment,,,
For Garden,03/31/2022,2022,https://for-garden.cz/en/,DM,WindowStar s.r.o.,31,Hala 3,www.windowstar.cz,office@windowstar.eu,+420/ 800 733 733,,"Strkovská 297, Planá nad Lužnicí, 391 11, Czech Republic",Czech Republic,1.2.8.3. - Passive houses | 1.3.7.1. - Windows | 1.3.7.1.1. - Wooden windows | 1.3.7.1.3. - Plastic windows | 1.3.7.2.1. - Wooden doors | 1.3.7.2.3. - Plastic doors,,,WindowStar s.r.o. is a traditional Czech manufacturer of wooden and plastic windows and entrance doors for standard and passive houses. We have been manufacturing windows since 1989.
For Garden,03/31/2022,2022,https://for-garden.cz/en/,DM,WIPPRO GmbH,40,Hala 3,www.wippro.com,vojtech.tybitancl@wippro.at,+420/ 608 048 528,,"Gewerbestrasse 2, Vorderweissenbach, 4191, Austria",Austria,1.3.3.6.1. - Wooden staircase,,,
For Garden,03/31/2022,2022,https://for-garden.cz/en/,DM,Wienerberger s.r.o.,66,Hala 1,www.wienerberger.cz,info@wienerberger.cz,+420/ 383 826 111,,"Plachého 388/28, České Budějovice 1, 370 01, Czech Republic",Czech Republic,1.2.2.1. - Residential buildings | 1.2.2.2. - Family houses | 1.2.8.2. - Low-energy consumption houses | 1.2.8.3. - Passive houses | 1.2.8.4. - Zero energy houses | 1.2.8.5. - Materials for environment-friendly and energy-efficient building | 1.3.3.2. - Building systems | 1.3.3.3. - External walls | 1.3.3.4. - Internal walls and partitions | 1.3.3.5. - Upper floor structures | 1.3.3.8. - Roofs and roof trusses | 1.3.4.1.2. - Burnt building products | 1.3.4.1.2.1. - Bricks | 1.3.4.1.2.3. - Roof tiles | 1.3.7.5.1. - Membrane roofing systems for inclined roofs | 1.3.7.5.7. - Thermal insulation of roofs | 1.3.9.3.1. - Face bricks | 1.3.9.6. - Roof covering systems,,,Complete ceramic building materials for rough construction of family houses. Brick masonry system Porotherm. Bricks filled with mineral wool Porotherm T Profi for passive and low-energy buildings. Acoustic bricks. Single layer masonry without additional insulation. The time saving technology of dry masonry with mason foam. Ceramic lintels. Ceiling construction. Facade facing bricks/tapes Terca and brick paving Penter. e4 House - healthy ceramic tailor-made family house. Solution for self-builded construction.
For Garden,03/31/2022,2022,https://for-garden.cz/en/,DM,VVD stavinvest s.r.o.,98a,Hala 1,www.ekocihly.cz,summer8@email.cz,,,"Argentinská 194/12, Praha 7, 170 00, Czech Republic",Czech Republic,,,,
For Garden,03/31/2022,2022,https://for-garden.cz/en/,DM,Vratový H-servis s.r.o.,58,Hala 3,www.plotymax.cz,plotymax@plotymax.cz,+420/ 737 258 682,,"V Zátiší 810/1, Ostrava-Mariánské Hory, 709 00, Czech Republic",Czech Republic,"1.3.4.5.4. - Concrete moulded bricks, masonry units, fences | 1.3.7.2.9. - Gate doors | 1.3.7.6.2. - Gates | 1.3.8.1.1. - Equipment for gardens",,,Plotymax.cz - maintenance-free fences. Wide offer of design. Shutter fences.
For Garden,03/31/2022,2022,https://for-garden.cz/en/,DM,VONEKL s.r.o.,60,Hala 1,www.vonekl.cz,jiri.klist@vonekl.cz,,,"Kšírova 669/261, Brno-jih, 619 00, Czech Republic",Czech Republic,"6.4.6. - Other garden furniture | 6.6.6. - Flowerpots, flower boxes | 6.11.11. - Decorative flower pots, flower boxes, pendent vases",,,"We offer assortment for florists, decorators and designers. The widest assortment of large capacity flowerpots suitable both for gardens and interiors."
For Garden,03/31/2022,2022,https://for-garden.cz/en/,DM,"VÝZKUMNÝ ÚSTAV BEZPEČNOSTI PRÁCE, v. v. i.",117,Hala 1,www.vubp.cz,vubp@vubp-praha.cz,+420/ 221 015 344,,"Jeruzalémská 1283/9, Praha 1, 110 00, Czech Republic",Czech Republic,1.11.4. - Occupational health and safety,,,
For Garden,03/31/2022,2022,https://for-garden.cz/en/,DM,"VIZIT.EU, s.r.o.",59,Hala 3,www.vizit.eu,vizit@vizit.eu,+420/ 606 060 328,,"Pešova 1086/2, Praha 8 - Dolní Chabry, 180 00, Czech Republic, Osvobození 3548, Chomutov, 430 03, Czech Republic",Czech Republic,1.3.7.2.2. - Steel doors | 1.3.7.2.6. - Security doors | 2.2.1.7. - Communication devices,,,"Steel safety doors VIZIT for residential buildings, designed both for entrances and basement premises. Certified system antivandal."
For Garden,03/31/2022,2022,https://for-garden.cz/en/,DM,VLTAVA LABE MEDIA a.s.,03,Hala 1,www.vlmedia.cz,dita.zarembova@vlmedia.cz,+420/ 606 069 135,,"U Trezorky 921/2, Praha 5, 158 00, Czech Republic",Czech Republic,House &Garden Magazine | The Recipe Book,,,
For Garden,03/31/2022,2022,https://for-garden.cz/en/,DM,VITAL TREND s.r.o.,13,Hala 2,www.sauny-vital.cz,praha@vital-trend.cz,+420/ 596 121 191,,"Šalounova 470/38, Ostrava-Vítkovice, 703 00, Czech Republic, Poděbradská 88/85, Praha 9, 198 00, Czech Republic",Czech Republic,"5.4.2. - Saunas, infrared saunas, cryosaunas, cryo chambers",,,"Saunas, infrared saunas, combined saunas, salt saunas. Production, sale and assembly."
For Garden,03/31/2022,2022,https://for-garden.cz/en/,DM,ZEMI BUILDING MACHINES a.s.,34,Hala 1,www.solis.cz,havel@solis.cz,+420/ 733 713 004,,"U Cihelny 199, Otín, 377 01, Czech Republic",Czech Republic,"6.9. - Garden and municipal technology, mechanization",,,
For Garden,03/31/2022,2022,https://for-garden.cz/en/,DM,Zehnder Group ČR s.r.o.,46,Hala 3,www.zehnder.cz,info@zehnder.cz,+420/ 731 414 443,,"Pionýrů 641, Sezimovo Ústí 2, 391 02, Czech Republic",Czech Republic,"3.3.6. - Radiators | 3.8.3. - Equipment for air inlet and exhaust | 3.8.9. - Use of waste heat, recuperation",,,"Designer radiators for bathrooms and living rooms, comfort ventilation with heat recovery."
For Garden,03/31/2022,2022,https://for-garden.cz/en/,DM,Zahradní technika STIHL - Vlastimil Pejcha,57,Hala 1,www.gardenia.cz,info@gardenia.cz,+420/ 272 740 707,,"Vršovická 70, Praha 10, 100 00, Czech Republic",Czech Republic,,,,
For Garden,03/31/2022,2022,https://for-garden.cz/en/,DM,XPLO Sp- z o. o.,02,Hala 1,www.xplo-trade.pl,marketing@x-plo.pl,+48/ 884 884 744,,"Wschodnia 23/27-28, Bydgoszcz, 85779, Poland",Poland,1.1.3.2. - Software,,,
For Garden,03/31/2022,2022,https://for-garden.cz/en/,DM,Young Architect Award 2020,07,Hala 1,www.yaa.cz,,,,"Beranových 667, Praha 18, 199 00, Czech Republic",Czech Republic,,,,
For Garden,03/31/2022,2022,https://for-garden.cz/en/,DM,WT-WINDOWS TOMORROW s.r.o.,62,Hala 3,www.solatube.cz,info@solatube.cz,+420/ 608 918 484,,"Spojovací 136, Horoměřice, 252 62, Czech Republic",Czech Republic,"1.3.7.1. - Windows | 1.3.7.1.6. - Tube windows, light guiding systems | 3.6.1. - Solar collectors and relating technologies",,,We provide professional services from a draft to an implementation of light tubes and we are exclusive representation on the trademark Solatube in the Czech Republic.
For Garden,03/31/2022,2022,https://for-garden.cz/en/,DM,WPC - WOODPLASTIC a.s.,82,Hala 1,www.woodplastic.cz,arias@woodplastic.eu,+420/ 321 001 525,,"Na Folimance 2154/17, Praha 2, 128 00, Czech Republic",Czech Republic,,,,
For Garden,03/31/2022,2022,https://for-garden.cz/en/,DM,WOHACONCEPT s.r.o.,4,Hala 3,www.woha.cz,,+420/ 773 788 850,,"Vojtěšská 211/6, Praha 1, 110 00, Czech Republic",Czech Republic,,,,
For Garden,03/31/2022,2022,https://for-garden.cz/en/,DM,"WPremium event, s.r.o.",,,,redakce@wpevent.cz,,,"Jana Masaryka 281/28, Praha 2, 120 00, Czech Republic",Czech Republic,,,,
For Garden,03/31/2022,2022,https://for-garden.cz/en/,DM,WM Profi s.r.o.,17a,Hala 2,www.greenbike.cz,mittner.cz@volny.cz,+420/ 775 730 412,,"Veslařská 170/142, Brno-Jundrov, 637 00, Czech Republic",Czech Republic,,,,
For Garden,03/31/2022,2022,https://for-garden.cz/en/,DM,ZH PlastForm,36,Hala 1,www.zhplastform.cz,zamecnictvi.holanek.ml@seznam.cz,+420/ 737 261 569,,"Okružní 142, Loučeň, 289 37, Czech Republic",Czech Republic,,,,
