ShowName,ShowDate,ShowYear,ShowWebsite,SubmittedBy,ExhibitorName,BoothNumber,HallLocation,Website,Email,Phone,Fax,Address,Country,Categories,Manufacturers,Brands,Description
New York Now Winter,02/06/2022,2022,https://nynow.com/future-market/,DM,ANHAD,1531,,http://www.anhadcraft.com,,,,"NEW DELHI, DELHI India",India,Apparel/Clothing | Environmentally Friendly/Natural/Recycled Products | Handmade/Craft | Home Textiles,,,"Anhad is a story of sustainability. Identified with Khadi, hand spun, hand woven, hand block printed and hand stitched home textiles, Anhad integrates ancient techniques and sustainable practices to create contemporary products."
New York Now Winter,02/06/2022,2022,https://nynow.com/future-market/,DM,and the moon will rise design studio,2974,,andthemoonwillrise.com,,,,"Encinitas, CA United States",United States,,,,
New York Now Winter,02/06/2022,2022,https://nynow.com/future-market/,DM,Art by any Means Jewelry,1149,,https://www.facebook.com/artbyanymeansjewelry,,,,"Rockport, MA United States",United States,Jewelry - Fashion,,,
New York Now Winter,02/06/2022,2022,https://nynow.com/future-market/,DM,Andrews McMeel Publishing,2640,,http://www.andrewsmcmeel.com,,,,"Kansas City, MO United States",United States,Books/Publications/Media,,,"Andrews McMeel is a home for world-class comic creators, artists and innovative thinkers who entertain and connect with audiences through humorous and inspirational content."
New York Now Winter,02/06/2022,2022,https://nynow.com/future-market/,DM,"Anatoli Jewelry, LLC",1237,,http://anatolijewelry.com,,,,"Woodstock, NY United States",United States,Jewelry - Fashion,,,"Inspired by art, travel and architecture, Cathleen and Kostas created Anatoli Jewelry.  Each piece is meticulously hand crafted, featuring sterling silver with vermeil and karat gold accents.  Intricate weaves in metal are complemented by hand selected pearls and semi-precious stones."
New York Now Winter,02/06/2022,2022,https://nynow.com/future-market/,DM,Angel Dear,2901,,http://www.angeldear.net,,,,"Union City, CA United States",United States,Children's/Baby Items,,,At Angel Dear we create classic baby clothing
New York Now Winter,02/06/2022,2022,https://nynow.com/future-market/,DM,Anna Whitham Co.,2871,,www.annawhitham.com,,,,"Somerville, MA United States",United States,,,,
New York Now Winter,02/06/2022,2022,https://nynow.com/future-market/,DM,Amy Kahn Russell,849,,http://www.amykahnrussell.com,,,,"Ridgefield, CT United States",United States,Jewelry - Fashion,,,Amy Kahn Russell is a forerunner in the world of jewelry design. Each design combines the brilliant hues of semi precious stones with mixed metals including sterling silver and 18kt gold telling a story of world travels while creating stunning bold designs transcending seasons and time.
New York Now Winter,02/06/2022,2022,https://nynow.com/future-market/,DM,2021co,3058,,http://2021co.com,,,,"Fall River, MA United States",United States,Apparel/Clothing | Stationery/Invitations/Greeting Cards,,,
New York Now Winter,02/06/2022,2022,https://nynow.com/future-market/,DM,Alixx,2224,,http://www.alixx.com,,,,"Key Largo, FL United States",United States,,,,"Alixx and Demilune- European inspired Fragranced Candles and Diffusers.  Using artisanal mouth blown glass and fabulous complex fragrances, these candles are made in US with a premium soy blended wax and all cotton wicks.  Our reusable vessels provide lasting beatiful to your home."
New York Now Winter,02/06/2022,2022,https://nynow.com/future-market/,DM,Alicia Niles,1023,,http://alicianiles.com,,,,"Hamilton, ON Canada",Canada,,,,
New York Now Winter,02/06/2022,2022,https://nynow.com/future-market/,DM,American Design Club,2019,,http://www.americandesignclub.com,,,,"Brooklyn, NY United States",United States,Candles | Jewelry - Fashion | Stationery/Invitations/Greeting Cards,,,Unique Designer Gifts
New York Now Winter,02/06/2022,2022,https://nynow.com/future-market/,DM,Amarah LLC,1352,,http://amaraxpressions.com,,,,"Tenafly, NJ United States",United States,Children's/Baby Items | Decorative Accessories | Outdoor Living/Garden,,,
New York Now Winter,02/06/2022,2022,https://nynow.com/future-market/,DM,Alice Sturzinger LLC,935,,http://www.alicesturzinger.com,,,,"Montclair, NJ United States",United States,Holiday/Seasonal | Religious/Inspirational | Wall Coverings,,,"Alice Sturzinger has been importing fine music boxes since 1963.  We are specialized in European quality MUSIC BOXES from Swizerland, Germany and Italy."
New York Now Winter,02/06/2022,2022,https://nynow.com/future-market/,DM,All Across Africa,2322,,http://www.kazigoods.com,,,,"National City, CA United States",United States,Decorative Accessories | Handmade/Craft | Tabletop,,,Craftsmanship that weaves a story.
New York Now Winter,02/06/2022,2022,https://nynow.com/future-market/,DM,ZPOTS,1218,,http://www.zpotsandvnoelle.com,,,,"Brookline, VT United States",United States,Collectibles | Environmentally Friendly/Natural/Recycled Products | Made in the USA | Stationery/Invitations/Greeting Cards | Tabletop,,,
New York Now Winter,02/06/2022,2022,https://nynow.com/future-market/,DM,Zootility Co.,2635,,http://www.zootility.com,,,,"Portland, ME United States",United States,Jewelry - Fashion | Made in the USA | Private Label | Promotional Items,,,
New York Now Winter,02/06/2022,2022,https://nynow.com/future-market/,DM,Zig Zag Asian Collection,1653,,http://www.zigzagasiancollection.com,,,,"Felton, CA United States",United States,Apparel/Clothing,,,
New York Now Winter,02/06/2022,2022,https://nynow.com/future-market/,DM,Zafferano America,2417,,http://www.zafferanoamerica.com/,,,,"Hillside, NJ United States",United States,Outdoor Living/Garden | Tabletop,,,"Collections include decorative tableware and lighting, designed by Federico de Majo of Venice, Italy.  Our product lines are especially fun and colorful, so join us and we'll take you to the party!"
New York Now Winter,02/06/2022,2022,https://nynow.com/future-market/,DM,YND Group LLC,1254,,http://www.yndgroup.com,,,,"Brooklyn, NY United States",United States,Handmade/Craft | Made in the USA,,,We are YND Group the designers and makers of
New York Now Winter,02/06/2022,2022,https://nynow.com/future-market/,DM,Alexia Viola Napa Valley,1125,,http://www.alexiaviola.com,,,,"Calistoga, CA United States",United States,Jewelry - Fashion | Made in the USA,,,
New York Now Winter,02/06/2022,2022,https://nynow.com/future-market/,DM,Xoopar,2029,,http://www.lafab.us/brand/Xoopar,,,,"Paris, France",France,Environmentally Friendly/Natural/Recycled Products | Home Furnishings | Luggage & Travel Accessories | Promotional Items | Tech Products,,,"Xoopar passionately designs, distributes and markets innovative IT Electronics."
New York Now Winter,02/06/2022,2022,https://nynow.com/future-market/,DM,XOX! Share the Love®,2343,,www.xox-game.com,,,,"Kingston, NY United States",United States,,,,
New York Now Winter,02/06/2022,2022,https://nynow.com/future-market/,DM,WoodCutts Inc,2957,,Www.WoodCutts.com,,,,"Englewood, CO United States",United States,,,,
New York Now Winter,02/06/2022,2022,https://nynow.com/future-market/,DM,Whole Harmony,2518,,http://www.wholeharmony.com,,,,"Centerbrook, CT United States",United States,Food & Beverage | Handmade/Craft | Made in the USA,,,
New York Now Winter,02/06/2022,2022,https://nynow.com/future-market/,DM,Windhorse Trading Inc,948,,http://www.shopwindhorse.com,,,,"Jacksonheights, NY United States",United States,,,,
New York Now Winter,02/06/2022,2022,https://nynow.com/future-market/,DM,WonderSip,2508,,http://www.wondersip.com,,,,"El Monte, CA United States",United States,Kitchenware/Kitchen Accessories,,,
New York Now Winter,02/06/2022,2022,https://nynow.com/future-market/,DM,WorldFinds,1434,,http://wholesale.worldfinds.com/,,,,"Westmont, IL United States",United States,Environmentally Friendly/Natural/Recycled Products | Jewelry - Fashion,,,WorldFinds is a design-driven brand of jewelry & accessories that helps empower women through fair trade. Our colorful styles are made from upcycled Sari textiles - so they're one-of-a-kind as well as kind to the Earth. These designs create dignified work for our artisan partners in India.
New York Now Winter,02/06/2022,2022,https://nynow.com/future-market/,DM,"Whitney Designs, Inc.",1225,,http://www.whitneysarasota.com/,,,,"Sarasota, FL United States",United States,Handmade/Craft | Jewelry - Fashion | Made in the USA,,,Since the early 1970's John and Linda Whitney have been using the traditional methods of metalsmithing to present their own interpretations of objects of adornment. Also on display will be original objects of fine art by John Whitney.  Come and view something really different.
New York Now Winter,02/06/2022,2022,https://nynow.com/future-market/,DM,Wee the People,3004,,http://www.weethepeople.shop,,,,"NEW YORK, NY United States",United States,Apparel/Clothing | Children's/Baby Items,,,"Wee the People is a kid’s graphic t-shirt brand with cool designs and upbeat messages that reflect a child’s imaginative spin on the world. Our shirts inspire social change, are super-soft shirts are ethically made and environmentally friendly.  Kids love them because they’re cool-looking and capture their youthful optimism, and parents love them because their progressive messages spark engaging conversations about the world and how to care for it."
New York Now Winter,02/06/2022,2022,https://nynow.com/future-market/,DM,Whitney Howard Designs,749,,http://www.whitneyhoward.com,,,,"Calabasas, CA United States",United States,Environmentally Friendly/Natural/Recycled Products | Made in the USA | Pet Products | Private Label,,,"Whitney Howard Designs, Proudly American Made"
New York Now Winter,02/06/2022,2022,https://nynow.com/future-market/,DM,Viverano,3031,,http://www.Viverano.com,,,,"Las Vegas, NV United States",United States,Children's/Baby Items,,,
New York Now Winter,02/06/2022,2022,https://nynow.com/future-market/,DM,vireChic,1354,,https://virechic.com/,,,,"Rio de Janeiro, Rio de Janeiro Brazil",Brazil,Environmentally Friendly/Natural/Recycled Products,,,We want fashiion to be a force of GOOD that spreads socual consciuouses and
New York Now Winter,02/06/2022,2022,https://nynow.com/future-market/,DM,Up With Paper,2624,,http://www.upwithpaper.com,,,,"Mason, OH United States",United States,Books/Publications/Media | Children's/Baby Items | Craft & Hobby supplies | Games/Puzzles/Toys | Stationery/Invitations/Greeting Cards,,,
New York Now Winter,02/06/2022,2022,https://nynow.com/future-market/,DM,United International,1263,,www.todaystelegram.com,,,,"Kathmandu, Bagmati Nepal",Nepal,,,,
New York Now Winter,02/06/2022,2022,https://nynow.com/future-market/,DM,Uniforms and location LA - NY,1153,,http://www.ericsilva.com,,,,"Whittier, CA United States",United States,,,,
New York Now Winter,02/06/2022,2022,https://nynow.com/future-market/,DM,Untitled Union,2776,,http://www.untitled-union.com,,,,"Rutherford  , NJ United States",United States,,,,
New York Now Winter,02/06/2022,2022,https://nynow.com/future-market/,DM,Uncommon Artwear,941,,https://www.robinlennon.com,,,,"Newton, NJ United States",United States,,,,
New York Now Winter,02/06/2022,2022,https://nynow.com/future-market/,DM,Ty Inc,2825,,http://www.ty.com,,,,"OAK BROOK, IL United States",United States,Children's/Baby Items | Collectibles | Novelties/Souvenirs,,,"Ty is the largest plush manufacturer in the world and we make the plush kids love!! Come see our brand new line of Flippables, Ty Fashion and our ever popular Beanie Boo's!!"
New York Now Winter,02/06/2022,2022,https://nynow.com/future-market/,DM,TWEE,3020,,www.tweemade.com,,,,"Philadelphia, PA United States",United States,,,,
New York Now Winter,02/06/2022,2022,https://nynow.com/future-market/,DM,Tuuwa Inc.,1728,,,,,,"Memphis, TN United States",United States,,,,
New York Now Winter,02/06/2022,2022,https://nynow.com/future-market/,DM,Twentysome Design LLC,2853,,http://twentysome.design,,,,"Chicago, IL United States",United States,Decorative Accessories | Giftwrap & Accessories | Handmade/Craft | Holiday/Seasonal | Novelties/Souvenirs | Office Supplies | Stationery/Invitations/Greeting Cards,,,
New York Now Winter,02/06/2022,2022,https://nynow.com/future-market/,DM,TRVL Design,721,,http://www.trvldesign.com,,,,"Wilton, CT United States",United States,,,,
New York Now Winter,02/06/2022,2022,https://nynow.com/future-market/,DM,Trovelore,1322,,http://www.trovelore.com,,,,"Chandler, AZ United States",United States,Handmade/Craft | Holiday/Seasonal | Jewelry - Fashion | Wall Coverings,,,"Hand embroidered & embellished  BROOCHES  and ART WORK -Trovelore is an embroidery atelier showcasing needlecraft to create collections inspired by nature. Handpicked materials combine to give matte & shine, rough & polish, layered & an organic life-like look that is the signature of the label."
New York Now Winter,02/06/2022,2022,https://nynow.com/future-market/,DM,TRECY BLEICH jewelry,1123,,http://www.vellamode.com,,,,"Sugar Hill, GA United States",United States,Environmentally Friendly/Natural/Recycled Products | Ethnic | Jewelry - Fashion | Wall Coverings,,,
New York Now Winter,02/06/2022,2022,https://nynow.com/future-market/,DM,Trades by Haim Shahar,125,,http://www.tradesbyhaimshahar.com,,,,"Westlake, CA United States",United States,Candles | Jewelry - Fashion,,,"features the new recycled, reclaimed"
New York Now Winter,02/06/2022,2022,https://nynow.com/future-market/,DM,Tori Artis Planners,2873,,Www.toriartisplanners.com,,,,"Baytown, TX United States",United States,,,,
New York Now Winter,02/06/2022,2022,https://nynow.com/future-market/,DM,Today Is Art Day,2639,,http://www.todayisartday.com,,,,"Quebec City, QC Canada",Canada,Collectibles | Games/Puzzles/Toys | Novelties/Souvenirs,,,"Today Is Art Day wants to make art history more fun with a line of collectible figurines, pins, pop-up cards, scratch posters and board game!"
New York Now Winter,02/06/2022,2022,https://nynow.com/future-market/,DM,Tip-To-Toe,1120,,http://www.tip-to-toe.com,,,,"Portland, ME United States",United States,Jewelry - Fashion,,,
New York Now Winter,02/06/2022,2022,https://nynow.com/future-market/,DM,Tiana Designs LLC,725,,http://www.shoptiana.com,,,,"Hoboken, NJ United States",United States,,,,"At TIANA we stand by the pillars of intricate carftsmanship, attention to detail and only the highest standards in quality. Our passion and creativity shines through in each of our designs. We hope our customers enjoy using our bags as mush as we enjoy making them."
New York Now Winter,02/06/2022,2022,https://nynow.com/future-market/,DM,Thumbprint Artifacts,1349,,http://www.thumbprintartifacts.com,,,,"Sylvan Lake, MI United States",United States,Handmade/Craft,,,"Thumbprint Artifacts offers unique and distinctive home decor items that are handcrafted in South Africa. Fair Trade Federation member. Product assortment includes: Kapula Candles and Ceramics, SoyLites Candles, Godfrey's Beaded Animals and Zizamele Ceramics!"
New York Now Winter,02/06/2022,2022,https://nynow.com/future-market/,DM,Three Hearts Modern Teething Accessories,3027,,www.threeheartsapparel.com,,,,"HOUSTON, TX United States",United States,,,,
New York Now Winter,02/06/2022,2022,https://nynow.com/future-market/,DM,Theia Jewelry,825,,http://www.theiajewelrywholesale.com,,,,"Los Altos, CA United States",United States,Jewelry - Fashion,,,
New York Now Winter,02/06/2022,2022,https://nynow.com/future-market/,DM,Yardia,2952,,https://yardia.co/,,,,"Seattle, WA United States",United States,Environmentally Friendly/Natural/Recycled Products | Fine Art/Photography | Made in the USA | Stationery/Invitations/Greeting Cards,,,"Yardia is a Seattle-based stationery and gift company owned and operated by multiracial Chamoru artist Brigida Swanson. Yardia's mission is to help you express your intersectional identities and love the place you live through nature-inspired watercolor stationery, gifts and home décor."
New York Now Winter,02/06/2022,2022,https://nynow.com/future-market/,DM,The Unemployed Philosophers Guild,2745,,http://www.upguild.com,,,,"Brooklyn, NY United States",United States,Novelties/Souvenirs,,,Smart gifts for funny people and funny gifts for smart people!
New York Now Winter,02/06/2022,2022,https://nynow.com/future-market/,DM,The Sarut Group,2666,,http://www.loqi.com,,,,"Brooklyn, NY United States",United States,Luggage & Travel Accessories | Private Label,,,"LOQI collaborates with artists from every corner of the earth for our ever-expanding collection of super strong, extra-loveable bags, backpacks, weekenders, zip pockets and luggage covers."
New York Now Winter,02/06/2022,2022,https://nynow.com/future-market/,DM,The Van Cleve Collection,2234,,http://thevanclevecollection.com,,,,"Jacksonville, FL United States",United States,,,,"We specialize in beautiful home accessories and unique accent pieces including our natural mineral glazed garden stools/tables and vases in both traditional and contemporary styles. We also have antique jars and one of a kind items, including antique elmwood with stainless steel furniture."
New York Now Winter,02/06/2022,2022,https://nynow.com/future-market/,DM,The Paper Curator,3055,,https://www.thepapercurator.com/,,,,"Rego Park, NY United States",United States,,,,
New York Now Winter,02/06/2022,2022,https://nynow.com/future-market/,DM,ZOMI GEMS,2911,,www.zomigems.com,,,,"Glendale, CA United States",United States,,,,
New York Now Winter,02/06/2022,2022,https://nynow.com/future-market/,DM,The Handmade Soap Company,1738,,www.thehandmadesoapcompany.ie,,,,"Slane, Co. Meath Ireland",Ireland,,,,
New York Now Winter,02/06/2022,2022,https://nynow.com/future-market/,DM,The Lino,2452,,www.thelino.com,,,,"Bilbao, Spain",Spain,,,,
New York Now Winter,02/06/2022,2022,https://nynow.com/future-market/,DM,The Fabulous Planner,3064,,http://www.thefabulousplanner.com,,,,"Inglewood, CA United States",United States,,,,
New York Now Winter,02/06/2022,2022,https://nynow.com/future-market/,DM,The Craftshop Vienna,1137,,http://WWW.THECRAFTSHOP.AT,,,,"Vienna, Austria",Austria,,,,
New York Now Winter,02/06/2022,2022,https://nynow.com/future-market/,DM,The Darling Effect,919,,,,,,"Grand Rapids, MI United States",United States,,,,
New York Now Winter,02/06/2022,2022,https://nynow.com/future-market/,DM,The Brown Girl Paper Company,2970,,The Brown Girl Paper Company,,,,"Cincinnati, OH United States",United States,,,,
New York Now Winter,02/06/2022,2022,https://nynow.com/future-market/,DM,The artisanry,2237,,http://theartisanry.com/,,,,"Boerne, TX United States",United States,,,,
New York Now Winter,02/06/2022,2022,https://nynow.com/future-market/,DM,"Tey-Art, Inc.",1635,,http://www.teyartinc.com/,,,,"North Oaks, MN United States",United States,Apparel/Clothing | Floral | Handmade/Craft,,,"Tey-Art features women's apparel, socks and accessories, crafted in Peru.  We specialize in alpaca and wool fibers.  We are Fair Trade Compliant.  Designed in the USA by Mary Ann Weerts."
New York Now Winter,02/06/2022,2022,https://nynow.com/future-market/,DM,The Pathz,925,,http://www.slumberparty.ca,,,,"Concord, ON Canada",Canada,Children's/Baby Items | Apparel/Clothing,,,"Slumber Party is all about ""What Girls Like"". Fashion accessoreis and gift items from tween girls to young women. Flip Flops, PJ's, Hair accessories, jewellery, bags and bathrobes"
New York Now Winter,02/06/2022,2022,https://nynow.com/future-market/,DM,Uchida of America Corporation,2863,,www.uchida.com,,,,"Torrance, CA United States",United States,,,,
New York Now Winter,02/06/2022,2022,https://nynow.com/future-market/,DM,ternPaks,3028,,http://ternpaks.com,,,,"Austin, TX United States",United States,,,,
New York Now Winter,02/06/2022,2022,https://nynow.com/future-market/,DM,Terra Glassworks,1057,,terraglassworks.com,,,,"PORTLAND, OR United States",United States,,,,
New York Now Winter,02/06/2022,2022,https://nynow.com/future-market/,DM,TUNES COMPANY,1041,,WWW.TUNESCOMPANY.COM,,,,"PALM BEACH GARDENS, FL United States",United States,,,,
New York Now Winter,02/06/2022,2022,https://nynow.com/future-market/,DM,Tease Wellness Blends,1855,,http://www.teasetea.com,,,,"Orleans, ON Canada",Canada,,,,
New York Now Winter,02/06/2022,2022,https://nynow.com/future-market/,DM,Sweet Wink,3001,,https://www.shopsweetwink.com,,,,"New York, NY United States",United States,Children's/Baby Items | Party Supplies,,,
New York Now Winter,02/06/2022,2022,https://nynow.com/future-market/,DM,Susan Rodgers Designs,1230,,http://www.susanrodgersdesigns.com,,,,"Port Jefferson, NY United States",United States,Made in the USA | Handmade/Craft | Jewelry - Fashion,,,
New York Now Winter,02/06/2022,2022,https://nynow.com/future-market/,DM,Sustain & Heal Eco and Fair Trade Papers,2963,,http://www.demilodesign.com,,,,"South Pasadena, CA United States",United States,,,,
New York Now Winter,02/06/2022,2022,https://nynow.com/future-market/,DM,Sun Set Beads and Prints,1274,,,,,,"Accra, Ghana",Ghana,,,,
New York Now Winter,02/06/2022,2022,https://nynow.com/future-market/,DM,Tai Jewelry,820,,http://tai-rittichai.com,,,,"New York, NY United States",United States,Jewelry - Fashion,,,
New York Now Winter,02/06/2022,2022,https://nynow.com/future-market/,DM,Sun Jellies,301,,http://sunjellies.com,,,,"Tunbridge Wells, Kent United Kingdom",United Kingdom,Craft & Hobby supplies | Decorative Accessories | Luggage & Travel Accessories | Outdoor Living/Garden,,,
New York Now Winter,02/06/2022,2022,https://nynow.com/future-market/,DM,Tony International Co.,2454,,http://www.promisingco.com,,,,"San Francisco, CA United States",United States,,,,
New York Now Winter,02/06/2022,2022,https://nynow.com/future-market/,DM,Sublime & Co.,2952,,https://sublimenco.com/,,,,"Murrieta, CA United States",United States,,,,
New York Now Winter,02/06/2022,2022,https://nynow.com/future-market/,DM,Sunday Citizen,2223,,http://sundaycitizen.co,,,,"North Miami Beach, FL United States",United States,Children's/Baby Items | Home Textiles,,,We are curators of soft. Seekers of chill. We believe in comfort over everything.
New York Now Winter,02/06/2022,2022,https://nynow.com/future-market/,DM,Studio Maeve,1253,,https://www.studiomaeve.net/,,,,"New York, NY United States",United States,Handmade/Craft | Home Textiles,,,
New York Now Winter,02/06/2022,2022,https://nynow.com/future-market/,DM,Stylish Girl,1020,,http://www.stylishgirl.com,,,,"Chicago, IL United States",United States,Environmentally Friendly/Natural/Recycled Products | Handmade/Craft | Jewelry - Fashion | Made in the USA,,,"Stylish Girl is lovingly handmade in my Chicago studio with a trio of dovetail collections. All collections begin with recycled sterling silver, goldfill, rose-goldfill, & steel chain & wire, gemstones, pearl & crystals."
New York Now Winter,02/06/2022,2022,https://nynow.com/future-market/,DM,sukker & sweet,2672,,www.sukkerandsweet.com,,,,"Abington, MA United States",United States,,,,
New York Now Winter,02/06/2022,2022,https://nynow.com/future-market/,DM,Stonewall Kitchen,2529,,http://www.stonewallkitchen.com,,,,"York, ME United States",United States,,,,
New York Now Winter,02/06/2022,2022,https://nynow.com/future-market/,DM,Studio Caleidoscope,1423,,http://www.studiosalvagecrafts.com,,,,"East Windsor, NJ United States",United States,,,,
New York Now Winter,02/06/2022,2022,https://nynow.com/future-market/,DM,Stephen Wilson Studio,2318,,https://stephenwilsonstudio.com/,,,,"Mint Hill, NC United States",United States,,,,
New York Now Winter,02/06/2022,2022,https://nynow.com/future-market/,DM,Steve Parkes,1429,,,,,,"Paris, KY United States",United States,,,,
New York Now Winter,02/06/2022,2022,https://nynow.com/future-market/,DM,Spaghetti & Meatballs,3061,,https://www.etsy.com/shop/spaghettimeatballs,,,,"Lewiston, NY United States",United States,,,,
New York Now Winter,02/06/2022,2022,https://nynow.com/future-market/,DM,steel petal press,2722,,http://steelpetalpress.com,,,,"Chicago, IL United States",United States,Handmade/Craft | Holiday/Seasonal | Made in the USA | Stationery/Invitations/Greeting Cards,,,We believe laughter and beauty brings joy to the world.  We create unique letterpress greeting cards and gift items that help people connect and celebrate through life's important moments.
New York Now Winter,02/06/2022,2022,https://nynow.com/future-market/,DM,Spacepig Press,2853,,https://www.spacepigpress.com/,,,,"Sacramento, CA United States",United States,Stationery/Invitations/Greeting Cards,,,
New York Now Winter,02/06/2022,2022,https://nynow.com/future-market/,DM,SOGE DÉCOR,2220,,http://www.sogestudio.com,,,,"Brooklyn, NY United States",United States,,,,
New York Now Winter,02/06/2022,2022,https://nynow.com/future-market/,DM,SM Wardrobe,524,,www.smwardrobe.com,,,,"Richmond Hill, NY United States",United States,,,,
New York Now Winter,02/06/2022,2022,https://nynow.com/future-market/,DM,Sojourner Sage LLC,2625,,https://sojournersage.com,,,,"Westerville, OH United States",United States,,,,
New York Now Winter,02/06/2022,2022,https://nynow.com/future-market/,DM,Slightly Stationery,2953,,https://slightlystationery.com,,,,"Oceanside, CA United States",United States,,,,
New York Now Winter,02/06/2022,2022,https://nynow.com/future-market/,DM,Sixth & Twelfth,1760,,www.sixthandtwelfth.com,,,,"Salisbury, MD United States",United States,,,,
New York Now Winter,02/06/2022,2022,https://nynow.com/future-market/,DM,Silk Wool and Bijoux,1539,,http://www.silkwoolandbijoux.com/,,,,"Philadelphia, PA United States",United States,Apparel/Clothing | Jewelry - Fashion,,,"Importer of jewelry towels and scarves from Turkey, Vietnam, and Ireland. Cotton and crochet scarves, Irish lambs wool scarves, handknit hats, water buffalo horn jewelry and Turkish bath towels are shown. Turkish bronze, silver plate jewelry and hand crocheted jewelry with many new pieces."
New York Now Winter,02/06/2022,2022,https://nynow.com/future-market/,DM,ShoreBags,205,,http://www.shorebags.com,,,,"Chesterton, IN United States",United States,Environmentally Friendly/Natural/Recycled Products | Holiday/Seasonal | Luggage & Travel Accessories | Novelties/Souvenirs | Promotional Items,,,ShoreBags manufactures stylish & functional cotton canvas totes & bags.  Our environmentally friendly and 100% biodegradable bags make perfect monogrammed & imprinted gifts & giveaways. The canvas used contains up to 30% post-industrial cotton waste making our bags truly sustainable.
New York Now Winter,02/06/2022,2022,https://nynow.com/future-market/,DM,Simon & Schuster,2663,,http://www.simonandschuster.com,,,,"New York, NY United States",United States,Books/Publications/Media,,,
New York Now Winter,02/06/2022,2022,https://nynow.com/future-market/,DM,Shihreen Inc.,621,,http://www.shihreenaccessories.com,,,,"Plainville, MA United States",United States,Apparel/Clothing | Private Label,,,"Shihreen's mission is to contineously providing our value retailers with latest new deisgns, quality and price point."
New York Now Winter,02/06/2022,2022,https://nynow.com/future-market/,DM,Shana Gulati Jewelry,2145,,http://www.shanagulati.com,,,,"New York, NY United States",United States,,,,
New York Now Winter,02/06/2022,2022,https://nynow.com/future-market/,DM,Secret Language,1420,,www.secret-language.com,,,,"Los Angeles, CA United States",United States,,,,"Callie Maxi Dress is just the kind of easy, no-fuss piece you'll want to pack for vacations. It's suspended from narrow straps and has coordinating ones with tassels at the waist to cinch the relaxed silhouette. Wear it to poolside lunches or while browsing local markets."
New York Now Winter,02/06/2022,2022,https://nynow.com/future-market/,DM,Shannon Martin Design,2860,,https://shannonmartindesign.com,,,,"Seattle, WA United States",United States,Luggage & Travel Accessories | Party Supplies | Stationery/Invitations/Greeting Cards | Tabletop,,,"A top-selling greeting card and gift line, Shannon Martin Design features warm and witty products showcasing family photos, hilarious sayings, and sweet sentiments.  Come see our vast collection of greeting cards, cocktail napkins, social stationery, and take advantage of show specials!"
New York Now Winter,02/06/2022,2022,https://nynow.com/future-market/,DM,Savannah Bee Company,2201,,https://savannahbee.com,,,,"Savannah, GA United States",United States,,,,
New York Now Winter,02/06/2022,2022,https://nynow.com/future-market/,DM,Sea Lily,535,,www.sea-lily.com,,,,"Atlanta, GA United States",United States,,,,
New York Now Winter,02/06/2022,2022,https://nynow.com/future-market/,DM,The Good Patch,1837,,http://www.thegoodpatch.com,,,,"Nashville, TN United States",United States,Made in the USA,,,"The Good Patch offers elite hemp and plant-infused patches that help alleviate common ailments, from sleepless nights to groggy mornings and everything in between. Our patches are made with the highest quality, organically-farmed hemp as well as tried-and-true plant extracts."
New York Now Winter,02/06/2022,2022,https://nynow.com/future-market/,DM,Savanna Baskets,1272,,http://www.savannabaskets.com,,,,"Bolgatanga - Upper East Region, Upper East Region Ghana",Ghana,Craft & Hobby supplies,,,"Rural based handicraft producer who works directly with the local artisans to produce handmade baskets of different colours and patterns. New baskets include Dog  Beds, Cat beds, Baby Cote baskets as well as bicycle baskets. Shipping from Ghana as well as Kutztown, Philadelphia in the U.S."
New York Now Winter,02/06/2022,2022,https://nynow.com/future-market/,DM,Satya Jewelry,819,,http://www.satyajewelry.com,,,,"NEW YORK, NY United States",United States,Jewelry - Fashion,,,
New York Now Winter,02/06/2022,2022,https://nynow.com/future-market/,DM,Sammy Gorin LLC,3051,,Sammygorinart.com,,,,"MELVILLE, NY United States",United States,,,,
New York Now Winter,02/06/2022,2022,https://nynow.com/future-market/,DM,Safari Ltd.,2931,,http://www.safariltd.com,,,,"Miami Lakes, FL United States",United States,Children's/Baby Items | Collectibles | Games/Puzzles/Toys | Novelties/Souvenirs | Party Supplies,,,"Safari Ltd® is an American owned, family operated manufacturer and distributor of educational Toys That Teach®. For over 35 years, these authentic, hand-painted figures have inspired endless play in children and adults around the globe. We're launching brand new products in mid-2019!"
New York Now Winter,02/06/2022,2022,https://nynow.com/future-market/,DM,Sabyloo,2641,,https://www.sabyloo.com,,,,"New York, NY United States",United States,Collectibles | Apparel/Clothing | Made in the USA | Novelties/Souvenirs | Pet Products,,,
New York Now Winter,02/06/2022,2022,https://nynow.com/future-market/,DM,Ryan Simkhai Eyeshop,209,,www.ryansimkhaieyeshop.com,,,,"Los Angeles, CA United States",United States,,,,
New York Now Winter,02/06/2022,2022,https://nynow.com/future-market/,DM,SALAHEDDIN FAIRTRADE,1170,,http://www.salaheddin.net,,,,"Treffrin, France",France,Handmade/Craft,,,"Founded in 2004, Salaheddin is a Syrian Handcraft Fair Trade created to build a lasting relationship with Syrians artisans. Today after loosing contact with most of them  because of the war, Salaheddin hopes that eventually will find all those that started the project."
New York Now Winter,02/06/2022,2022,https://nynow.com/future-market/,DM,Rubyzaar,1323,,http://www.rubyzaar.com,,,,"Brooklyn, NY United States",United States,,,,Fair trade and sustainable practices start from the bottom up. That is why Rubyzaar pays a liveable wage to the folks who contribute to the creation of our goods. Each bag and shawl is designed by us and hand crafted by artisans in our own collectives that we began over 18 ago. Sweatshop free & fabulous
New York Now Winter,02/06/2022,2022,https://nynow.com/future-market/,DM,Rust Belt Love,2853,,http://www.rustbeltlove.com,,,,"Buffalo, NY United States",United States,,,,
New York Now Winter,02/06/2022,2022,https://nynow.com/future-market/,DM,Robin Reed International Ltd.,2658,,http://www.RobinReed.com,,,,"Alta Loma, CA United States",United States,Decorative Accessories | Holiday/Seasonal | Novelties/Souvenirs | Party Supplies | Tabletop,,,
New York Now Winter,02/06/2022,2022,https://nynow.com/future-market/,DM,Ryan Porter,1841,,www.shopryanporter.com,,,,"Columbus, OH United States",United States,,,,
New York Now Winter,02/06/2022,2022,https://nynow.com/future-market/,DM,Sarah Richardson Jewelry,1029,,http://jewelrysarah.com,,,,"San Rafael, CA United States",United States,Handmade/Craft | Jewelry - Fashion | Made in the USA,,,"Organic handmade jewelry, 18K gold vermeil, sterling"
New York Now Winter,02/06/2022,2022,https://nynow.com/future-market/,DM,Rhino Parade,3059,,http://rhinoparade.nyc,,,,"Brooklyn, NY United States",United States,,,,
New York Now Winter,02/06/2022,2022,https://nynow.com/future-market/,DM,Revy Fair Trade Products,1447,,http://www.revydirect.com,,,,"Cleveland, OH United States",United States,,,,
New York Now Winter,02/06/2022,2022,https://nynow.com/future-market/,DM,Retrospect Group,2535,,http://www.retrospectgroup.com,,,,"Danbury, CT United States",United States,Holiday/Seasonal | Made in the USA | Novelties/Souvenirs | Stationery/Invitations/Greeting Cards,,,"The Retrospect Collection encompesses some of the finest art and images in calendars, cards, boxed notecard sets, tote bags, mugs, tumblers, water bottles and more. All while using environmentally friendly materials, such as 100% Natural Cotton Canvas Eco-Totes, Ceramic Mugs and FSC Papers."
New York Now Winter,02/06/2022,2022,https://nynow.com/future-market/,DM,Ramona Enterprises,635,,http://www.crossroadsjewelry.com,,,,"MARBLEHEAD, MA United States",United States,Jewelry - Fashion | Made in the USA | Private Label,,,Ramona Presents a Collective of like minded brands showcasing their latest designs and collections.  Please join us and see what a differnece working together can make when searching for the best products for the new season.  We will have many show specials and look forward to visiting with you!
New York Now Winter,02/06/2022,2022,https://nynow.com/future-market/,DM,Relaxus Products Ltd.,1729,,http://www.relaxus.com/wholesaleusa         password:  wellbeing,,,,"Vancouver, BC Canada",Canada,Private Label,,,"Established in 1992, Relaxus Products Ltd is a manufacturer&distributor of beauty and health products.See unique items for retail and health/beauty practitioners.Our warehouses are in WA&UT. Private label available.  relaxus.com/wholesaleusa  password:wellbeing  sc@relaxus.com"
New York Now Winter,02/06/2022,2022,https://nynow.com/future-market/,DM,R. Expo/Song of India,1770,,http://www.songofindia.com,,,,"Auburn, WA United States",United States,Environmentally Friendly/Natural/Recycled Products | Games/Puzzles/Toys | Religious/Inspirational,,,
New York Now Winter,02/06/2022,2022,https://nynow.com/future-market/,DM,Quick Brown Fox Letterpress,3063,,http://www.quickbrownfoxletterpress.com,,,,"Saugerties, NY United States",United States,,,,
New York Now Winter,02/06/2022,2022,https://nynow.com/future-market/,DM,Romero & Olivo,2355,,https://www.romeroyolivo.com/,,,,"Medellin, Colombia",Colombia,,,,
New York Now Winter,02/06/2022,2022,https://nynow.com/future-market/,DM,Pyrrha Design Inc.,2143,,http://www.pyrrha.com,,,,"Vancouver, BC Canada",Canada,Handmade/Craft | Jewelry - Fashion,,,"Handcrafted using authentic wax seals and imagery from the Victorian era, each Pyrrha talisman is designed to inspire the wearer with its symbolic meaning culled from heraldry.  Cast in reclaimed precious metals using time honored, old world techniques since 1995 in Vancouver, Canada."
New York Now Winter,02/06/2022,2022,https://nynow.com/future-market/,DM,"Quilted Koala, Ltd.",316,,http://shop.quiltedkoala.com,,,,"New York, NY United States",United States,Luggage & Travel Accessories,,,
New York Now Winter,02/06/2022,2022,https://nynow.com/future-market/,DM,RS eyeshop,317,,http://www.RSeyeshop.com,,,,"Astoria, NY United States",United States,,,,
New York Now Winter,02/06/2022,2022,https://nynow.com/future-market/,DM,Pura Vida Bracelets,835,,http://www.puravidabracelets.com,,,,"La Jolla, CA United States",United States,Jewelry - Fashion,,,
New York Now Winter,02/06/2022,2022,https://nynow.com/future-market/,DM,Province Apothecary,1857,,https://provinceapothecary.com/,,,,"Chatsworth, ON Canada",Canada,,,,
New York Now Winter,02/06/2022,2022,https://nynow.com/future-market/,DM,"que Factory, LLC",2524,,http://www.quebottle.com,,,,"Dallas, TX United States",United States,Children's/Baby Items | Food & Beverage | Luggage & Travel Accessories | Novelties/Souvenirs,,,
New York Now Winter,02/06/2022,2022,https://nynow.com/future-market/,DM,PureNY,404,,http://www.pureny.us,,,,"brooklyn, NY United States",United States,Jewelry - Fashion | Made in the USA | Private Label,,,"PureNY is your NEW go-to resource for Fashion and Semi-precious handmade jewelry. A wide variety of collections and bread-and-butter items for retailers from fashion to gift giving. Five great jewelry collections in one place! Kate Carr, ElleGemz, Holly Yashi, Alicia Van Fleteren and East Wind Silver."
New York Now Winter,02/06/2022,2022,https://nynow.com/future-market/,DM,Provence Platters,2405,,http://provenceplatters.com/,,,,"New York, NY United States",United States,Food & Beverage | Holiday/Seasonal | Made in the USA | Private Label | Tabletop,,,
New York Now Winter,02/06/2022,2022,https://nynow.com/future-market/,DM,Primitive Twig,1145,,http://www.primitivetwig.com,,,,"CATSKILL, NY United States",United States,,,,
New York Now Winter,02/06/2022,2022,https://nynow.com/future-market/,DM,Pretty Valley USA,1830,,https://www.prettyvalleyusa.com/,,,,"Brooklyn, NY United States",United States,Home Furnishings,,,"Pretty Valley offers natural, enjoyable elements to promote and maintain a healthy lifestyle and a pleasant home."
New York Now Winter,02/06/2022,2022,https://nynow.com/future-market/,DM,Pride Candle Company,3537,,www.pridecandle.com,,,,"Chicago, IL United States",United States,,,,
New York Now Winter,02/06/2022,2022,https://nynow.com/future-market/,DM,Pursuits,1121,,http://www.pur-suits.com,,,,"Toronto, ON Canada",Canada,Handmade/Craft | Jewelry - Fashion,,,
New York Now Winter,02/06/2022,2022,https://nynow.com/future-market/,DM,Rachel Atherley,2134,,http://www.RachelAtherley.com,,,,"Kingston, NY United States",United States,Environmentally Friendly/Natural/Recycled Products | Handmade/Craft | Jewelry - Fashion | Made in the USA,,,"Rachel's collection is inspired by nature with respect for nature. She uses recycled and fair-mined gold along with ethically sourced gemstones when possible. Her collection reinterprets shapes, patterns and forms found in nature to bring a new playful spin to contemporary fine jewelry."
New York Now Winter,02/06/2022,2022,https://nynow.com/future-market/,DM,Powder Design,817,,WWW.POWDER-UK.COM,,,,"Edinburgh, United Kingdom",United Kingdom,,,,
New York Now Winter,02/06/2022,2022,https://nynow.com/future-market/,DM,Popcorn Custom Products,2671,,http://www.popcornposters.com,,,,"East Hartford, CT United States",United States,,,,
New York Now Winter,02/06/2022,2022,https://nynow.com/future-market/,DM,Pomegranate Moon,1327,,http://www.pomegranatemoon.com,,,,"Wauwatosa, WI United States",United States,Apparel/Clothing | Handmade/Craft,,,"Pomegranate Moon is a fair trade, socially responsible company dedicated to providing quality handmade felted accessories for our customers while increasing benefits for our artisans in Nepal. Most of our scarves are created using the nuno felting process."
New York Now Winter,02/06/2022,2022,https://nynow.com/future-market/,DM,Pixie Mood Inc.,617,,http://www.pixiemood.com,,,,"Markham, ON Canada",Canada,Luggage & Travel Accessories,,,"At Pixie Mood, we beleive that style doesn't need compromise. Styles can be trendy, functional and socially responsible, all at the same time. We obsess over making great bags, including the little details that make them awesome, and design with our customers' needs first and foremost."
New York Now Winter,02/06/2022,2022,https://nynow.com/future-market/,DM,PlumeNova,1339,,http://plumenova.com,,,,"Jaipur, Rajasthan India",India,Apparel/Clothing | Ethnic | Handmade/Craft | Holiday/Seasonal,,,"Plume Nova creates and manufactures unique high quality hand crafted scarves stoles and shawls.Our scarves are made of ultra fine cashmere silk and fine wool fabrics and are so unique that people call it ""WEARABLE ART""."
New York Now Winter,02/06/2022,2022,https://nynow.com/future-market/,DM,Pretty Alright Goods,1030,,http://www.themattbutler.com,,,,"Raleigh, NC United States",United States,Giftwrap & Accessories | Made in the USA | Stationery/Invitations/Greeting Cards,,,
New York Now Winter,02/06/2022,2022,https://nynow.com/future-market/,DM,Pioneer Photo Albums,2662,,http://www.pioneerphotoalbums.com,,,,"Chatsworth, CA United States",United States,Craft & Hobby supplies,,,"Pioneer® is the largest U.S. source of photo albums & memory scrapbooks offering hundreds of different styles with inventory on both the East & West Coasts.  Our photo albums & memory scrapbooks come in most popular sizes, trend setting cover designs & classic solids."
New York Now Winter,02/06/2022,2022,https://nynow.com/future-market/,DM,Pinnacle Colors LLC,2757,,http://www.pinnaclecolors.com,,,,"Nashville, TN United States",United States,,,,
New York Now Winter,02/06/2022,2022,https://nynow.com/future-market/,DM,Pink Lemonade LLC,2347,,http://www.pinklemonade.us,,,,"Mountain view, CA United States",United States,Children's/Baby Items | Decorative Accessories | Home Furnishings | Private Label,,,
New York Now Winter,02/06/2022,2022,https://nynow.com/future-market/,DM,Piffany Copenhagen ApS,2218,,www.piffany.eu,,,,"Helsinge, Denmark",Denmark,,,,
New York Now Winter,02/06/2022,2022,https://nynow.com/future-market/,DM,Pinch Me Therapy Dough,1847,,http://www.pinchmedough.com,,,,"Lewes, DE United States",United States,Handmade/Craft | Made in the USA,,,Pinch Me Therapy Dough is an aromatherpay infused molable clay sress reliever
New York Now Winter,02/06/2022,2022,https://nynow.com/future-market/,DM,PhunkeeTree,3070,,http://www.phunkeetree.com,,,,"Deer Park, NY United States",United States,,,,
New York Now Winter,02/06/2022,2022,https://nynow.com/future-market/,DM,Philippa Roberts,1219,,http://www.philipparoberts.com,,,,"Oakland, CA United States",United States,Jewelry - Fashion,,,"Clean, simple, organic jewelry.  Handmade in Oakland, CA using sterling silver, vermeil and semi-precious stones."
New York Now Winter,02/06/2022,2022,https://nynow.com/future-market/,DM,Phil Luan Grath / P & F,2317,,http://www.phil-luangrath.com,,,,"MIAMI, FL United States",United States,Jewelry - Fashion,,,": EARRINGS, RINGS, BANGLES/BRACELETS/CUFFS, PENDANTS AND NECKLACES.  PRECIOUS AND SEMI PRECIOUS COLOR GEMSTONES SET IN VERMEIL, 9K - 18K GOLD."
New York Now Winter,02/06/2022,2022,https://nynow.com/future-market/,DM,Petite Baleine Jewelry,2125,,http://www.petitebaleinejewelry.com,,,,"KATONAH, NY United States",United States,Jewelry - Fashion | Made in the USA,,,
New York Now Winter,02/06/2022,2022,https://nynow.com/future-market/,DM,Perfect Holiday,2261,,,,,,"El Monte, CA United States",United States,,,,
New York Now Winter,02/06/2022,2022,https://nynow.com/future-market/,DM,Peruvian Imports,1325,,,,,,"Freeport, NY United States",United States,Handmade/Craft,,,"Peruvian Imports presents the finest of Perus craftsmen. Fine textiles in wool and alpaca, ceramics from Ayacucho and Chulucanas, retablos in old and new styles, peruvian musical instruments, arpillera textiles and a variety of indiginous items from the rain forest, the coast and the Andes."
New York Now Winter,02/06/2022,2022,https://nynow.com/future-market/,DM,"Peruvian Trading Co., LLC.",746,,http://www.peruviantradingcompany.com,,,,"Monroe, NY United States",United States,Apparel/Clothing,,,All hand made in Peru.
New York Now Winter,02/06/2022,2022,https://nynow.com/future-market/,DM,Peter Pauper Press,2835,,http://www.peterpauper.com,,,,"White Plains, NY United States",United States,Books/Publications/Media | Craft & Hobby supplies | Games/Puzzles/Toys,,,"In 1928 our founder began printing books on a press in the basement of his parents’ home in Larchmont, NY. He sought to create fine books that sold at “prices even a pauper could afford.” Today, still family owned and operated, we continue to honor our founders’ legacy of beauty, quality, and value."
New York Now Winter,02/06/2022,2022,https://nynow.com/future-market/,DM,Peepers by PeeperSpecs,117,,http://peepers.com,,,,"Michigan City, IN United States",United States,Apparel/Clothing | Environmentally Friendly/Natural/Recycled Products | Jewelry - Fashion,,,
New York Now Winter,02/06/2022,2022,https://nynow.com/future-market/,DM,Pendleton Woolen Mills,2243,,https://pwmwhsl.com/,,,,"Portland, OR United States",United States,Environmentally Friendly/Natural/Recycled Products | Home Textiles | Made in the USA | Tabletop,,,"Pendleton Woolen Mills is a family-owned and opperated business for over 150 years, and for 104 of those years we've been weaving world class woolens in our Northwest Mills. You can see the passion for quality in the intricate patterns of blankets inspired by Native American designs and legends."
New York Now Winter,02/06/2022,2022,https://nynow.com/future-market/,DM,Peleman Retail LLC,2862,,http://www.pelemanusa.com,,,,"Alpharetta, GA United States",United States,,,,
New York Now Winter,02/06/2022,2022,https://nynow.com/future-market/,DM,Paper and Stuff,2952,,https://www.paperandstuff.shop/,,,,"Jersey City, NJ United States",United States,Stationery/Invitations/Greeting Cards,,,
New York Now Winter,02/06/2022,2022,https://nynow.com/future-market/,DM,Pancake Paperie,2970,,www.pancakepaperie.com,,,,"San Diego, CA United States",United States,,,,
New York Now Winter,02/06/2022,2022,https://nynow.com/future-market/,DM,Packaging Specialties,2856,,http://www.pack-spec.com,,,,"Newburyport, MA United States",United States,Environmentally Friendly/Natural/Recycled Products | Giftwrap & Accessories | Made in the USA | Promotional Items,,,"Packaging Specialties is a box manufacturer&wholesale distributor of on-trend, quality retail packaging supplies. Let us help you with your brand packaging from bags to boxes, tissue,  ribbon & more! Call our sales team at 800-722-7732 or reach out via email at marketing@pack-spec.com!"
New York Now Winter,02/06/2022,2022,https://nynow.com/future-market/,DM,On The Road Reps,2934,,http://www.ontheroadreps.com,,,,"Floral Park, NY United States",United States,Children's/Baby Items | Games/Puzzles/Toys | Jewelry - Fashion | Novelties/Souvenirs | Party Supplies,,,"ON THE ROAD REPS INC HAS A LINE PACKAGE THAT SERVICES ALL TYPES OF TRADE INCLUDING GENERAL GIFT,"
New York Now Winter,02/06/2022,2022,https://nynow.com/future-market/,DM,On The Road Reps,2935,,http://www.ontheroadreps.com,,,,"Floral Park, NY United States",United States,Children's/Baby Items | Games/Puzzles/Toys | Jewelry - Fashion | Novelties/Souvenirs | Party Supplies,,,"ON THE ROAD REPS INC HAS A LINE PACKAGE THAT SERVICES ALL TYPES OF TRADE INCLUDING GENERAL GIFT,"
New York Now Winter,02/06/2022,2022,https://nynow.com/future-market/,DM,OOLY,2821,,http://wholesale.ooly.com,,,,"Oceanside, CA United States",United States,Craft & Hobby supplies | Games/Puzzles/Toys,,,"We love creating products that help people of all ages smile, explore their imaginations and express themselves."
New York Now Winter,02/06/2022,2022,https://nynow.com/future-market/,DM,Olivia Shih,1055,,http://www.oliviashih.com,,,,"Oakland, CA United States",United States,Handmade/Craft | Jewelry - Fashion | Made in the USA,,,
New York Now Winter,02/06/2022,2022,https://nynow.com/future-market/,DM,Oddball Press,3056,,http://www.oddballpress.com,,,,"Cleveland Heights, OH United States",United States,,,,
New York Now Winter,02/06/2022,2022,https://nynow.com/future-market/,DM,Original Sin Jewelry,1037,,http://www.originalsinjewelry.com,,,,"Tucson, AZ United States",United States,,,,
New York Now Winter,02/06/2022,2022,https://nynow.com/future-market/,DM,"Ocean Sole Africa, Inc.",1356,,http://www.oceansoleonline.com,,,,"Ponte Vedra Beach, FL United States",United States,,,,
New York Now Winter,02/06/2022,2022,https://nynow.com/future-market/,DM,Notabag,2035,,http://www.notabag.com,,,,"New York, NY United States",United States,Luggage & Travel Accessories | Outdoor Living/Garden | Promotional Items,,,
New York Now Winter,02/06/2022,2022,https://nynow.com/future-market/,DM,Odd Sox Distribution,2844,,http://www.oddsoxofficial.com,,,,"Largo, FL United States",United States,Collectibles | Apparel/Clothing | Novelties/Souvenirs | Private Label,,,https://www.brandboom.com/app/a/045EE14AA88
New York Now Winter,02/06/2022,2022,https://nynow.com/future-market/,DM,Occo,2573,,eatocco.com,,,,"Brooklyn, NY United States",United States,,,,
New York Now Winter,02/06/2022,2022,https://nynow.com/future-market/,DM,"Nirvanna Designs, Inc.",647,,http://www.shopnirvanna.com,,,,"Long Island City, NY United States",United States,Candles | Private Label,,,"Handknit Wool Goods such as hats, gloves, scarves, neckwarmers, snoods and hoods made lovingly in the heart of the Himalayas by the local craftswomen who perpetuate their craft by making these beautiful pieces we get to enjoy in times of cold!"
New York Now Winter,02/06/2022,2022,https://nynow.com/future-market/,DM,Opal Road,2236,,http://www.opalroadhome.com,,,,"Lauguna Niguel, CA United States",United States,Candles,,,"OPAL ROAD is a luxury candle brand showcasing 100% all natural Coconut Apricot wax, essential oil infused fragrance oils, and 100% cotton wicks. Designed and hand-poured in California, our containers are unique to Opal Road and are meant to be repurposed as home decor when the candle is gone."
New York Now Winter,02/06/2022,2022,https://nynow.com/future-market/,DM,NuOp Design,2677,,http://www.nuopinc.com,,,,"New York, NY United States",United States,,,,
New York Now Winter,02/06/2022,2022,https://nynow.com/future-market/,DM,Nippon Kodo,4120,,https://www.nipponkodo.com/,,,,"Torrance, CA United States",United States,Decorative Accessories | Holiday/Seasonal,,,"The brand's concept is based on the teachings from the ""Five Elements of Theory"" of Chinese philosophy and the ""Ten Virtues of Koh"". When lit, ""elemense"" is designed to encite the experience that enlightens all 5 senses and hints that the invisible fragrance starts to take on a visible form. incense"
New York Now Winter,02/06/2022,2022,https://nynow.com/future-market/,DM,Ornatem,1035,,http://www.ornatem.com,,,,"Westport, CT United States",United States,Handmade/Craft | Jewelry - Fashion | Made in the USA | Private Label,,,"Handmade jewelry.Using semipresious stones, sterling silver , goldfilled and 14k wire. Made in USA."
New York Now Winter,02/06/2022,2022,https://nynow.com/future-market/,DM,New York Puzzle Company,2647,,http://www.newyorkpuzzlecompany.com,,,,"New York, NY United States",United States,Games/Puzzles/Toys | Made in the USA | Novelties/Souvenirs | Tabletop,,,"New York Puzzle Company focuses on licensing classic illustrations from vintage media to create high end nostalgic gifts. Originally focusing on jigsaw puzzles as our medium, we have now expanded into additional gift items including coffee mugs, canvas bags, memory games and playing cards."
New York Now Winter,02/06/2022,2022,https://nynow.com/future-market/,DM,Nikaia,1245,,http://www.nikaia.com,,,,"Frederick, MD United States",United States,Jewelry - Fashion | Wall Coverings,,,"NIKAIA has been in business 23 years, bringing from Europe several carefully selected and gorgeously handcrafted jewelry lines into the USA.   We ship out of Maryland, all duties and taxes already handled."
New York Now Winter,02/06/2022,2022,https://nynow.com/future-market/,DM,Nest Pretty Things Inc.,731,,http://www.nestprettythings.com,,,,"Burlington, VT United States",United States,Decorative Accessories | Jewelry - Fashion | Made in the USA,,,Nest Pretty Things is a Vermont-based jewelry company specializing in a variety of modern and affordable jewelry for every day. Our jewelry is easy to wear using the highest quality components.
New York Now Winter,02/06/2022,2022,https://nynow.com/future-market/,DM,Near Modern Disaster,2724,,http://www.nearmoderndisaster.com,,,,"Jacksonville, FL United States",United States,,,,
New York Now Winter,02/06/2022,2022,https://nynow.com/future-market/,DM,Nature Bag,1543,,http://www.naturebag.org/,,,,"Des Moines, IA United States",United States,Environmentally Friendly/Natural/Recycled Products | Handmade/Craft | Private Label,,,"We connect remote indigenous tribes with the global marketplace by promoting their JungleVine® handicrafts.  Khmu artisans use fiber from a vine that’s environmentally Better than Hemp™ to create beautiful, durable, 100% sustainable products."
New York Now Winter,02/06/2022,2022,https://nynow.com/future-market/,DM,Narrative Material,2874,,https://www.narrativematerial.com/,,,,"Chicago, IL United States",United States,,,,
New York Now Winter,02/06/2022,2022,https://nynow.com/future-market/,DM,Natures Collection,2324,,http://www.naturescollection.dk,,,,"Hedensted, Denmark",Denmark,,,,
New York Now Winter,02/06/2022,2022,https://nynow.com/future-market/,DM,Nakamol Designs LLC,630,,http://www.nakamol.com,,,,"Chicago, IL United States",United States,Jewelry - Fashion | Private Label,,,Nakamol Chicago - Handcrafted Jewelry Semiprecious Stone and Natural Materials.
New York Now Winter,02/06/2022,2022,https://nynow.com/future-market/,DM,Moonglow LLC,631,,http://moonglow.com,,,,"Miami, FL United States",United States,Jewelry - Fashion,,,
New York Now Winter,02/06/2022,2022,https://nynow.com/future-market/,DM,NANU Studio,2952,,http://www.nanuillustration.com,,,,"Hoboken, NJ United States",United States,,,,
New York Now Winter,02/06/2022,2022,https://nynow.com/future-market/,DM,Modus Rio by Basically Brazil,927,,http://www.modusrio.com,,,,"Forest Hills, NY United States",United States,,,,"Modus Rio is a Brazilian linen and leather handbag line from the country that invented effortless glamour. Every single material, from the linen to the leather, comes from Brazil, and a small team of talented artisans make each and every handbag in Rio."
New York Now Winter,02/06/2022,2022,https://nynow.com/future-market/,DM,MON AMI,2905,,http://www.monami-designs.com,,,,"Atlanta, GA United States",United States,Apparel/Clothing | Children's/Baby Items | Decorative Accessories | Games/Puzzles/Toys | Holiday/Seasonal | Home Textiles | Religious/Inspirational,,,"Meet Princess Violette, the latest friend to join the castle. Stunning in silver lace bodice,  flowing lavender skirt, and long flowing jet black hair, topped with a silver crown. A beautiful heirloom collectable."
New York Now Winter,02/06/2022,2022,https://nynow.com/future-market/,DM,Mobius Keramikk,1048,,http://www.mobiuskeramikk.com/,,,,"Brentwood, MD United States",United States,Handmade/Craft | Tabletop,,,
New York Now Winter,02/06/2022,2022,https://nynow.com/future-market/,DM,MisHMasH Merchants and Imports,1259,,www.mishmashimports.com,,,,"North Vancouver, BC Canada",Canada,,,,
New York Now Winter,02/06/2022,2022,https://nynow.com/future-market/,DM,Mode Living,2419,,http://www.mode-living.com,,,,"Houston, TX United States",United States,Holiday/Seasonal | Home Textiles | Tabletop,,,"Mode Living is a collection of stylish and easycare table linens, pillows and accessories. We offer a large selection of styles, sizes, and price points for everyday and special occasions. Inspired by runway trends we bring fashion for table with extra long sizes, as well as spill proof options."
New York Now Winter,02/06/2022,2022,https://nynow.com/future-market/,DM,mirasa design,3025,,https://mirasadesign.com/,,,,"Washington, DC United States",United States,Children's/Baby Items | Environmentally Friendly/Natural/Recycled Products | Apparel/Clothing,,,mirasa is a baby basics brand specializing in organic clothing for infants & toddlers. Our GOTS cotton is soft & our clothing designed for everyday wear. Designing bold & unisex is part of my creative process bec. a child's world is unique and limitless. Mirasa gives back to education in India.
New York Now Winter,02/06/2022,2022,https://nynow.com/future-market/,DM,Paper Baristas,2853,,www.paperbaristas.com,,,,"Ankeny, IA United States",United States,,,,
New York Now Winter,02/06/2022,2022,https://nynow.com/future-market/,DM,Milk Reclamation Barn,1223,,https://milkbarncandles.com,,,,"Phoenix, MD United States",United States,,,,
New York Now Winter,02/06/2022,2022,https://nynow.com/future-market/,DM,Misco,2239,,http://www.miscohomeandgarden.com,,,,"Edison, NJ United States",United States,,,,
New York Now Winter,02/06/2022,2022,https://nynow.com/future-market/,DM,Mierco Fine European Linens,2413,,http://www.mierco.com,,,,"Cannon Falls, MN United States",United States,Giftwrap & Accessories | Home Textiles | Kitchenware/Kitchen Accessories | Private Label | Tabletop,,,
New York Now Winter,02/06/2022,2022,https://nynow.com/future-market/,DM,Michael Wainwright USA,2406,,http://www.michaelwainwright.com/,,,,"Great Barrington, MA United States",United States,Tabletop,,,"Michael Wainwright designs Wabi Sabi inspired tabletop items, such as dinnerware, gift, barware and flatware.  Michael combines a handmade aesthetic with 24k gold and platinum to make products that bridge the gap between formal and informal, like wearing a jacket with jeans."
New York Now Winter,02/06/2022,2022,https://nynow.com/future-market/,DM,MIA PERU,1370,,http://www.miaperu.com,,,,"Miraflores, LIMA Peru",Peru,Apparel/Clothing | Handmade/Craft,,,
New York Now Winter,02/06/2022,2022,https://nynow.com/future-market/,DM,Ozone Socks,307,,http://www.ozonesocks.com,,,,"New York, NY United States",United States,Apparel/Clothing,,,Designer socks for women and men that are truly a
New York Now Winter,02/06/2022,2022,https://nynow.com/future-market/,DM,Mellowworks,3067,,www.shopmellowworks.com,,,,"Montclair, NJ United States",United States,,,,
New York Now Winter,02/06/2022,2022,https://nynow.com/future-market/,DM,MetaLace Jewelry,1166,,http://www.metalace.net,,,,"Monroeville, PA United States",United States,,,,"MetaLace Jewelry Bangles, Earrings, Necklaces, Pendants, and Rings, available in fine and sterling silver, 14kgf, rose gold filled, copper or oxidized sterling."
New York Now Winter,02/06/2022,2022,https://nynow.com/future-market/,DM,Melange Collection,1353,,http://www.melangecollection.com,,,,"Arvada, CO United States",United States,Children's/Baby Items | Decorative Accessories | Holiday/Seasonal,,,"In each one of our products, you can see our story: unique design blended with artisan craftsmanship.  With a commitment to uphold fair trade practices our collection is created by hand in small workshops around the globe where skilled artisans bring our whimsical designs to life. Come and see us!"
New York Now Winter,02/06/2022,2022,https://nynow.com/future-market/,DM,Medusa's Heirlooms,929,,http://www.medusasheirlooms.com,,,,"New York, NY United States",United States,,,,"Medusa's Heirlooms is a 45 year old company, wholesaling high end French hair accessories and costume jewelry. Our selection includes French acetate jaw clips, barrettes, head bands, pony tails, yoga clips and bobbies. Our jewelry line features Swarovski crystal bracelets and necklaces."
New York Now Winter,02/06/2022,2022,https://nynow.com/future-market/,DM,MICHAEL MICHAUD DESIGN,1128,,http://www.fourseasonsdesigngroup.com,,,,"Bellmore, NY United States",United States,Jewelry - Fashion | Made in the USA,,,"MICHAEL MICHAUD'S LOVE OF NATURE AND FAHSION JOIN IN THE SILVER SEASONS AND TABLE ART COLLECTIONS. CAST IN BRONZE AND HAND PATINAED, USING FRESHWATER PEARLS, ENAMELING & SEMI PRECIOUS STONES , THE DESIGNS CAPTURE THE BEAUTY & EXQUISITE DETAIL OF NATURE IN METAL"
New York Now Winter,02/06/2022,2022,https://nynow.com/future-market/,DM,MC OASIS,926,,,,,,"Hillsboro, OR United States",United States,,,,
New York Now Winter,02/06/2022,2022,https://nynow.com/future-market/,DM,mayul studio,2873,,http://www.mayul-studio.com,,,,"raanana, Israel",Israel,Stationery/Invitations/Greeting Cards,,,"Mayul Studio is a fun, young, original stationery brand."
New York Now Winter,02/06/2022,2022,https://nynow.com/future-market/,DM,May You Know Joy,3052,,http://www.mayyouknowjoy.com,,,,"Toronto, ON Canada",Canada,Books/Publications/Media | Stationery/Invitations/Greeting Cards | Wellness/Personal Care,,,"May You Know Joy's mission is to inspire our most joyful and intentional daily living.  Our gorgeous line of intention card decks are the perfect daily reminder.  Infuse your days with joy, love, gratitude, intention and greater self-care.  Our deluxe sets offer a gorgeous ritual in a bag."
New York Now Winter,02/06/2022,2022,https://nynow.com/future-market/,DM,Matr Boomie,1328,,http://wholesale.matrboomie.com,,,,"Austin, TX United States",United States,Jewelry - Fashion | Giftwrap & Accessories | Handmade/Craft | Home Textiles,,,
New York Now Winter,02/06/2022,2022,https://nynow.com/future-market/,DM,MATT & NAT,201,,http://www.mattandnat.com,,,,"Montreal, QC Canada",Canada,,,,"MATT & NAT is a Vegan brand, no animals were hurt produding our bags and footwear !"
New York Now Winter,02/06/2022,2022,https://nynow.com/future-market/,DM,MASTRO RAPHAEL Srl,2219,,http://www.mastroraphael.com,,,,"Spoleto, Italy",Italy,Home Furnishings | Home Textiles,,,"Mastro Raphael is a leading Italian manufacturer of  decorative soft furnishings including elegant bedlinens, towels, bathrobes as well as upholstery farbics and window treatments catering the high end luxury market. Inovation, creativity and flexibility Made in Italy."
New York Now Winter,02/06/2022,2022,https://nynow.com/future-market/,DM,Mata Traders,1335,,http://www.matatraders.com,,,,"Chicago, IL United States",United States,Apparel/Clothing | Jewelry - Fashion,,,
New York Now Winter,02/06/2022,2022,https://nynow.com/future-market/,DM,Maya J Jewelry,320,,http://www.mayajnyc.com,,,,"Hawthorne, NY United States",United States,,,,
New York Now Winter,02/06/2022,2022,https://nynow.com/future-market/,DM,Martell Studio,1122,,,,,,"MALIBU, CA United States",United States,Jewelry - Fashion,,,"Malibu based designer Dana Martell & her team of gifted artisans bring together a keen eye for color, an ecletic mix of materials, the timeless art of peyote stitching, crochet & wire work while using gemstones, Japanese seeds beads, metal, crystals & leather in each piece of handcrafted jewelry."
New York Now Winter,02/06/2022,2022,https://nynow.com/future-market/,DM,Marcia Moran,207,,http://www.marciamoran.com,,,,"Los Angeles, CA United States",United States,Jewelry - Fashion,,,Marcia Moran Jewelry is a brand that combines Brazilian bright style and California's modern aesthtic.
New York Now Winter,02/06/2022,2022,https://nynow.com/future-market/,DM,Maptote,2623,,http://www.maptote.com,,,,"Brooklyn, NY United States",United States,Apparel/Clothing | Environmentally Friendly/Natural/Recycled Products | Made in the USA | Novelties/Souvenirs | Promotional Items,,,
New York Now Winter,02/06/2022,2022,https://nynow.com/future-market/,DM,Mary Frances,539,,http://sfieldingaccessories.com  (sydneylovebags.com and maryfrances.com),,,,"New York, NY United States",United States,,,,
New York Now Winter,02/06/2022,2022,https://nynow.com/future-market/,DM,Maple Landmark Woodcraft,3015,,http://www.maplelandmark.com,,,,"Middlebury, VT United States",United States,Environmentally Friendly/Natural/Recycled Products | Games/Puzzles/Toys | Holiday/Seasonal | Made in the USA | Novelties/Souvenirs | Outdoor Living/Garden | Tabletop,,,"American made high-quality wooden products for any occasion or none at all. Award winning toys & games. Introducing new table top and home decor lines. Great product variety and price points for gift shops, toy stores, and museums. Also extensive line of customizable and namedropped products."
New York Now Winter,02/06/2022,2022,https://nynow.com/future-market/,DM,marlyn schiff,304,,http://www.marlynschiff.com,,,,"Haverford, PA United States",United States,Jewelry - Fashion,,,"marlyn schiff jewelry consists of hundreds of styles, from semi-precious pieces to casted metals. On trend, Marlyn designs fashionable ​jewelry with a unique and distinctive mix of textures, materials and stones."
New York Now Winter,02/06/2022,2022,https://nynow.com/future-market/,DM,Lynn & Liana Designs,2435,,http://Lynnliana.com,,,,"Steinbach, MB Canada",Canada,Tabletop,,,We create one of a kind serveware using Canadian maple cheeseboards and an Eco-friendly epoxy. We care about adding beautiful statement pieces to your home while having sustainability in mind. Come by our booth (3447) and see what we are all about!
New York Now Winter,02/06/2022,2022,https://nynow.com/future-market/,DM,Mabel Chong,408,,http://www.mabelchong.com,,,,"San Francisco, CA United States",United States,,,,
New York Now Winter,02/06/2022,2022,https://nynow.com/future-market/,DM,Lumily,1319,,http://www.shoplumily.com,,,,"San Diego, CA United States",United States,Ethnic,,,
New York Now Winter,02/06/2022,2022,https://nynow.com/future-market/,DM,Luxe Dominoes,2335,,http://luxedominoes.com,,,,"Miami, FL United States",United States,Home Furnishings | Made in the USA | Promotional Items | Games/Puzzles/Toys | Decorative Accessories,,,
New York Now Winter,02/06/2022,2022,https://nynow.com/future-market/,DM,LUKA,309,,www.lukatyourself.com,,,,"Tel Aviv-Yafo, Israel",Israel,,,,
New York Now Winter,02/06/2022,2022,https://nynow.com/future-market/,DM,Luangisa African Gallery,1452,,http://luangisa.com,,,,"Mount Vernon, NY United States",United States,Tabletop,,,"Luangisa African Gallery was debuted in 1996 in Mount Vernon New York by members of the Luangisa Clan.  The Luangisa Clan is from Bukoba, Tanzania.  The Gallery is currently open by appointment only."
New York Now Winter,02/06/2022,2022,https://nynow.com/future-market/,DM,Lowercase Toys,3024,,http://www.driftandrow.com,,,,"Wauwatosa, WI United States",United States,,,,
New York Now Winter,02/06/2022,2022,https://nynow.com/future-market/,DM,Love Is Project,917,,http://www.loveisproject.co,,,,"San Francisco, CA United States",United States,Holiday/Seasonal | Jewelry - Fashion | Novelties/Souvenirs | Pet Products,,,
New York Now Winter,02/06/2022,2022,https://nynow.com/future-market/,DM,Lubin Paris,2316,,http://www.lubin.eu,,,,"New York, NY United States",United States,,,,"Founded in 1798, Lubin is the oldest Parisian fragrance house still in operation. The favorite perfumer of 19th century royals, Lubin continues to immortalize its founder's ideals, creating perfumes of the highest creativity and quality that will enchante generations to come."
New York Now Winter,02/06/2022,2022,https://nynow.com/future-market/,DM,Love Bubby,3003,,http://shoplovebubby.com,,,,"Brooklyn, NY United States",United States,Children's/Baby Items,,,
New York Now Winter,02/06/2022,2022,https://nynow.com/future-market/,DM,MAAKO,1172,,http://www.casamaako.com,,,,"Torreon, Coahuila Mexico",Mexico,Tabletop | Environmentally Friendly/Natural/Recycled Products,,,"Maako is a mexican based, handcrafted tableware brand in which artisans and designers colaborate in creating unique pieces that will help you create a home of your own style."
New York Now Winter,02/06/2022,2022,https://nynow.com/future-market/,DM,Nikki Nation Jewelry,1036,,http://www.nikkinationjewelry.com/,,,,"Denver, CO United States",United States,,,,"Handmade contemporary jewelry with a industrial, yet organic feel. Everything is made in our Denver, CO studio."
New York Now Winter,02/06/2022,2022,https://nynow.com/future-market/,DM,Logevy Firenze 1965,2418,,http://www.logevy.com,,,,"Florence, Italy",Italy,,,,
New York Now Winter,02/06/2022,2022,https://nynow.com/future-market/,DM,Lulu Designs,2156,,http://www.luludesignsjewelry.com,,,,"Mill Valley, CA United States",United States,Jewelry - Fashion | Made in the USA,,,"Artisan and fine jewelry collection created by designer Stacy King and her team of women jewelers.  Together, they create original castings using the finest of sustainable metals fitting them together with gemstones resulting in contemporary heirloom jewelry."
New York Now Winter,02/06/2022,2022,https://nynow.com/future-market/,DM,Liven Company,717,,http://www.livenco.com,,,,"Los Angeles, CA United States",United States,Handmade/Craft | Jewelry - Fashion,,,
New York Now Winter,02/06/2022,2022,https://nynow.com/future-market/,DM,Little Words Project,816,,http://www.littlewordsproject.com,,,,"Caldwell, NJ United States",United States,Jewelry - Fashion,,,"Little Words Project® unites females of all ages to spread kindness. Handcrafted in the USA, Little Words Project® bracelets are made with fine-cut crystals and interwoven with a unique, inspirational word."
New York Now Winter,02/06/2022,2022,https://nynow.com/future-market/,DM,"Maginating, LLC",2853,,http://www.maginating.com,,,,"Kirkwood, MO United States",United States,,,,
New York Now Winter,02/06/2022,2022,https://nynow.com/future-market/,DM,Lina's Shop,532,,http://www.linashop.com,,,,"Little Neck, NY United States",United States,,,,
New York Now Winter,02/06/2022,2022,https://nynow.com/future-market/,DM,Letterpress Jess,3054,,http://www.letterpressjess.com,,,,"Canton, OH United States",United States,Stationery/Invitations/Greeting Cards,,,
New York Now Winter,02/06/2022,2022,https://nynow.com/future-market/,DM,Lighthouse Publications Inc. (LEUCHTTURM1917 / SEMIKOLON),2517,,http://www.leuchtturm1917.us,,,,"Fairfield, NJ United States",United States,Craft & Hobby supplies | Office Supplies | Stationery/Invitations/Greeting Cards,,,"Founded in 1917, Leuchtturm can look back on over 100 years of experience in the production of high-quality stationery."
New York Now Winter,02/06/2022,2022,https://nynow.com/future-market/,DM,Little Journeys Chicago,1444,,,,,,"Skokie, IL United States",United States,,,,
New York Now Winter,02/06/2022,2022,https://nynow.com/future-market/,DM,Living Royal Socks,2620,,http://www.livingroyalwholesale.com,,,,"Wheeling, IL United States",United States,Made in the USA | Novelties/Souvenirs,,,
New York Now Winter,02/06/2022,2022,https://nynow.com/future-market/,DM,Liamolly,1052,,https://liamolly.com/,,,,"Shandaken, NY United States",United States,,,,
New York Now Winter,02/06/2022,2022,https://nynow.com/future-market/,DM,Leia Zumbro Jewelry,1058,,http://www.leiazumbro.com,,,,"Saint Louis, MO United States",United States,Jewelry - Fashion,,,Handmade jewelry patterned after nature. Made from recycled sterling and gold.
New York Now Winter,02/06/2022,2022,https://nynow.com/future-market/,DM,Lazyjack Press,305,,http://www.lazyjackpress.com,,,,"Tiburon, CA United States",United States,Apparel/Clothing | Holiday/Seasonal,,,"I started Lazyjack Press in 2012 after just having graduated from law school to create a better quality prep brand. The company is founded on the idea of a luxurious, irreverent take on the traditional European motif tie made on the finest silk available in Italy and each design has a cheeky name."
New York Now Winter,02/06/2022,2022,https://nynow.com/future-market/,DM,little miss Zoe,2742,,https://littlemisszoe.com,,,,"Irvine, CA United States",United States,Children's/Baby Items | Handmade/Craft | Jewelry - Fashion | Made in the USA | Private Label,,,"Little Miss Zoe is a fun, colorful jewelry, handmade in the USA. Designed for the budding fashionista and modeled after today's latest trends, we encourage young ladies to show off their uniqueness and express themselves through accessories. Each piece offers a variety of styles and options."
New York Now Winter,02/06/2022,2022,https://nynow.com/future-market/,DM,Latico Leather,204,,http://www.laticoleathers.com,,,,"Denville, NJ United States",United States,Luggage & Travel Accessories,,,Latico Leathers is a basics-inspired luxury accessories brand for those who crave fashion without fuss.
New York Now Winter,02/06/2022,2022,https://nynow.com/future-market/,DM,Laurence King Publishing,2734,,http://www.laurenceking.com/,,,,"London, United Kingdom",United Kingdom,Books/Publications/Media | Games/Puzzles/Toys,,,
New York Now Winter,02/06/2022,2022,https://nynow.com/future-market/,DM,Kui Co.,1022,,http://www.kuiboutique.com/,,,,"New York, NY United States",United States,Handmade/Craft | Jewelry - Fashion,,,Our brand is inspired by artistry and refined craftsmanship of ancient Japan and the modern chic of NY. We hand-pick rare semi-precious stones and incorporate high quality Japanese cylinder seed beads to create pieces with patterns and colors like no other.
New York Now Winter,02/06/2022,2022,https://nynow.com/future-market/,DM,Legacy /Copa Judaica,2567,,http://www.legacyjudaica.com  www.copajudaica.com,,,,"Brooklyn, NY United States",United States,Pet Products | Tabletop,,,"We have everyting Jewish in all styles.Chanukah Candles,Candlesticks,Candelabras, Challah Covers,Fountains,Games,Havdallah Sets,Honey Jars, Kiddush Cups,Mah Jongg,LED Memeriols, Menorah's,Mezuzas, Funny Jewish Pet Toys,Seder & Matzah Paltes,Trays,Tzedakah Boxes,Wash Cups"
New York Now Winter,02/06/2022,2022,https://nynow.com/future-market/,DM,Kole Design,531,,http://kolejewelry.com,,,,"Freehold, NJ United States",United States,Jewelry - Fashion | Private Label,,,
New York Now Winter,02/06/2022,2022,https://nynow.com/future-market/,DM,KOZAKH,1136,,http://www.kozakh.com,,,,"Tampa, FL United States",United States,Jewelry - Fashion,,,"KOZAKH is an emerging leader in the demi-fine fashion jewelry industry, specializing in elegant, sophisticated and minimalist women's jewelry that is hadmade in California. They are known for their uniquely stunning designs made from gold filled, sterling silver, and semi precious stones."
New York Now Winter,02/06/2022,2022,https://nynow.com/future-market/,DM,Kimberly House Ltd,1845,,http://www.kimberlyhouse.com,,,,"Pleasantville, NY United States",United States,,,,
New York Now Winter,02/06/2022,2022,https://nynow.com/future-market/,DM,KOFF,2226,,http://www.tmrw-studio.com,,,,"New York, NY United States",United States,,,,
New York Now Winter,02/06/2022,2022,https://nynow.com/future-market/,DM,Kim Schalk,1118,,http://kimschalk.com,,,,"Alexandria, VA United States",United States,Apparel/Clothing | Made in the USA,,,.
New York Now Winter,02/06/2022,2022,https://nynow.com/future-market/,DM,Kiss That Frog,2553,,http://www.kissthatfrog.com,,,,"Berkeley, CA United States",United States,Candles | Collectibles | Decorative Accessories | Environmentally Friendly/Natural/Recycled Products | Food & Beverage | Handmade/Craft | Home Textiles | Kitchenware/Kitchen Accessories | Novelties/Souvenirs | Tabletop,,,
New York Now Winter,02/06/2022,2022,https://nynow.com/future-market/,DM,Kiku Handmade,1156,,http://www.kikuhandmade.com,,,,"Oak Park, IL United States",United States,Handmade/Craft | Made in the USA | Tabletop,,,"Kiku Handmade creates screen printed, fused glass home goods. Colorful, contemporary glass coasters, platters, bowls + more are printed by hand with bold graphics, botanical drawings, pop-culture icons + quintessential city landmarks. Fun gifts, sophisticated serveware, custom designs."
New York Now Winter,02/06/2022,2022,https://nynow.com/future-market/,DM,"Kikkerland Design, Inc.",1919,,http://www.kikkerland.com,,,,"New York, NY United States",United States,Games/Puzzles/Toys | Luggage & Travel Accessories,,,"Welcome to Kikkerland Design, where creativity runs rampant and even the most utilitarian gadget becomes a delightful discovery. Since 1992, the folks at Kikkerland Design have traveled the world in search of original designs for things that can make life more enjoyable. Today, Kikkerland Design continues to offer the largest global collection of ingenious items combining form, function and delight in equal parts."
New York Now Winter,02/06/2022,2022,https://nynow.com/future-market/,DM,KHJ STUDIO,1922,,http://www.khjstudio.com,,,,"Gangseo-gu, Seoul Korea (South)",Korea (South),Handmade/Craft | Party Supplies | Promotional Items,,,
New York Now Winter,02/06/2022,2022,https://nynow.com/future-market/,DM,Kathryn McCoy,2209,,http://www.kathrynmccoy.co,,,,"San Diego, CA United States",United States,Candles | Collectibles | Home Furnishings | Made in the USA,,,"Kathryn McCoy, a pioneer in design, utilizing only natural stone, started with an innovative idea 26 years ago. The collection today is an evolution from that first design idea, which now encompasses multiple home decor catagories. All designs are proudly made in the USA."
New York Now Winter,02/06/2022,2022,https://nynow.com/future-market/,DM,Kaweco/Elite Accessories Ltd.,2545,,,,,,"Cincinnati, OH United States",United States,Luggage & Travel Accessories,,,"The U.S. distributor for Kaweco Writing Instruments, B+D Reading Eyewear, Collins Notebooks, El Casco Desk Acc., Otto Hutt Fine Writing, IWI Fine Writing, X17 Notebooks & Time Management Books, Zequenz Journals, Diamine, 3 Oysters, Kyoto Writing Inks, Ballograf, Tusting Fine Leather Goods."
New York Now Winter,02/06/2022,2022,https://nynow.com/future-market/,DM,Kent Stetson Handbags,1220,,http://kentstetson.com,,,,"Providence, RI United States",United States,Collectibles | Handmade/Craft | Made in the USA,,,"I believe that a great handbag can engage people in the same way as art.  In 2003, as a framing experiment, I formed one of my two dimensional pieces into a handbag.  Since then, handbags have become my medium.  When you acquire a bag that I have made, you become a patron of an unusual kind of art."
New York Now Winter,02/06/2022,2022,https://nynow.com/future-market/,DM,Larissa Loden,416,,http://www.larissaloden.com,,,,"Minneapolis, MN United States",United States,Jewelry - Fashion,,,
New York Now Winter,02/06/2022,2022,https://nynow.com/future-market/,DM,Kate Maller Jewelry,2129,,http://katemaller.com,,,,"Denver, CO United States",United States,Environmentally Friendly/Natural/Recycled Products | Jewelry - Fashion | Made in the USA,,,
New York Now Winter,02/06/2022,2022,https://nynow.com/future-market/,DM,Kamaria Jewelry,400,,http://www.kamaria.com,,,,"Vienna, VA United States",United States,Jewelry - Fashion,,,
New York Now Winter,02/06/2022,2022,https://nynow.com/future-market/,DM,k.Patricia Designs,2955,,kpatricia.com,,,,"Sherborn, MA United States",United States,,,,
New York Now Winter,02/06/2022,2022,https://nynow.com/future-market/,DM,Kaos Kapital Co.,3428,,http://www.fydelitybags.com,,,,"Rochester, NY United States",United States,Pet Products | Promotional Items,,,
New York Now Winter,02/06/2022,2022,https://nynow.com/future-market/,DM,Karin Jacobson,1019,,www.karinjacobson.com,,,,"MINNEAPOLIS, MN United States",United States,,,,
New York Now Winter,02/06/2022,2022,https://nynow.com/future-market/,DM,K Lawrence Collection,2230,,www.klawrencecollection.com,,,,"Carlsbad, CA United States",United States,,,,
New York Now Winter,02/06/2022,2022,https://nynow.com/future-market/,DM,Julie Nolan Jewelry,2149,,http://www.julienolanjewelry.com,,,,"PELHAM, MA United States",United States,Decorative Accessories | Home Furnishings | Jewelry - Fashion | Made in the USA,,,"Contemporary handmade jewelry and home decor by Julie Nolan of Pelham, MA.  Design focused using traditional metalsmithing and lost wax casting techniques.  Made by hand in the U.S.A."
New York Now Winter,02/06/2022,2022,https://nynow.com/future-market/,DM,Julie Vos,210,,http://www.julievos.com,,,,"New York, NY United States",United States,Jewelry - Fashion,,,
New York Now Winter,02/06/2022,2022,https://nynow.com/future-market/,DM,Julie Cohn Design,2124,,http://www.juliecohndesign.com,,,,"Dallas, TX United States",United States,Handmade/Craft | Jewelry - Fashion,,,
New York Now Winter,02/06/2022,2022,https://nynow.com/future-market/,DM,Just Dutch US,3008,,http://www.justdutch.us,,,,"New York, NY United States",United States,,,,
New York Now Winter,02/06/2022,2022,https://nynow.com/future-market/,DM,Joya,934,,http://www.collectionsbyjoya.com,,,,"Saint Louis, MO United States",United States,Jewelry - Fashion,,,"An exclusive collection of jewelry crafted by artisan communities around the world. Joya was founded on a by women, for women platform. Proceeds from every purchase are donated to women's charities around the world."
New York Now Winter,02/06/2022,2022,https://nynow.com/future-market/,DM,"JPT AMERICA, INC.",2761,,https://shop.jptamerica.com,,,,"GARDENA, CA United States",United States,Stationery/Invitations/Greeting Cards,,,"DESIGN PHIL : MD NOTES, BRASS ITEMS, CLIPS ETC"
New York Now Winter,02/06/2022,2022,https://nynow.com/future-market/,DM,Jo-Liza International Corp,3335,,http://www.joliza.com,,,,"Fort Myers, FL United States",United States,,,,
New York Now Winter,02/06/2022,2022,https://nynow.com/future-market/,DM,Joy Accessories,735,,http://www.joysusanwholesale.com,,,,"New Britain, CT United States",United States,Jewelry - Fashion,,,"Joy Susan is a leading wholesaler of vegan leather handbags, jewelry and accessories.We are a family-run company that was founded in 1972. Today, consumers from mom and pop boutiques to multi-national stores are carrying the Joy Susan brand."
New York Now Winter,02/06/2022,2022,https://nynow.com/future-market/,DM,JANIS SAVITT,625,,http://www.janissavitt.com,,,,"New York, NY United States",United States,Jewelry - Fashion,,,
New York Now Winter,02/06/2022,2022,https://nynow.com/future-market/,DM,J & I Jewelry,1235,,http://www.jandijewelry.com,,,,"Philadelphia, PA United States",United States,Jewelry - Fashion,,,We create trend mindful sterling and gold jewelry by hand in the heart of Philadelphia
New York Now Winter,02/06/2022,2022,https://nynow.com/future-market/,DM,John Cole Collections,525,,http://www.johncolecollections.com,,,,"Havre de Grace, MD United States",United States,Luggage & Travel Accessories | Private Label,,,For over 25 years J. P. Ourse and John Cole Collections have manufactured classic bags and accessories in top grain leather and exotic skins.  All products are handcrafted with an attention to quality and detail.  Most products are stocked in Maryland for immediate shipping.
New York Now Winter,02/06/2022,2022,https://nynow.com/future-market/,DM,JENNY WALKER JEWELRY,1155,,https://jennywalkerjewelry.com/,,,,"St. Louis, MO United States",United States,,,,
New York Now Winter,02/06/2022,2022,https://nynow.com/future-market/,DM,Island - Designs by Harry Haslett,622,,http://www.islandimportinc.com,,,,"Hawthorne, NY United States",United States,Jewelry - Fashion,,,"Harry Haslett left the country and took 6 years to travel the world with only a backpack and a surfboard 30 yrs ago. At the end of his journey he brought back some beautiful jewelry from a small village in Bali, selling to surf shops in the USA. From these modest roots the business has developed for 30 yrs."
New York Now Winter,02/06/2022,2022,https://nynow.com/future-market/,DM,Jewelry by Aris,1119,,byaris.com,,,,"Fresh Meadows, NY United States",United States,,,,
New York Now Winter,02/06/2022,2022,https://nynow.com/future-market/,DM,Inteplei,1034,,http://www.inteplei.com,,,,"Boone, IA United States",United States,,,,
New York Now Winter,02/06/2022,2022,https://nynow.com/future-market/,DM,"JAPAN COLLECTION, TAKENAKA BENTO BOX / KING JIM / NAKABAYASHI",1935,,https://www.bous.co/our-brands,,,,"Irvine, CA United States",United States,Children's/Baby Items | Decorative Accessories | Environmentally Friendly/Natural/Recycled Products | Food & Beverage | Games/Puzzles/Toys | Kitchenware/Kitchen Accessories | Office Supplies | Private Label | Stationery/Invitations/Greeting Cards | Tabletop,,,Dinosaur
New York Now Winter,02/06/2022,2022,https://nynow.com/future-market/,DM,Ingram Publisher Services,2845,,https://gregorydanielsfinearts.com/,,,,"Los Angeles, CA United States",United States,Books/Publications/Media | Craft & Hobby supplies,,,
New York Now Winter,02/06/2022,2022,https://nynow.com/future-market/,DM,Indigo Handloom,1537,,http://www.indigohandloom.com,,,,"Lahaina, HI United States",United States,Apparel/Clothing | Environmentally Friendly/Natural/Recycled Products | Handmade/Craft | Private Label,,,"Bespoke, handwoven scarves and clothing all made in an eco-friendly way off-the-grid on ancient looms. Indigo Handloom sells to upscale boutiques, museum stores and luxury private labels. A social enterprise, we have been working and supporting over 500 weavers and their families for 15 years."
New York Now Winter,02/06/2022,2022,https://nynow.com/future-market/,DM,India Handicrafts Inc,2434,,http://www.ihionline.com,,,,"Roseville, MN United States",United States,Decorative Accessories | Environmentally Friendly/Natural/Recycled Products | Tabletop,,,"Designers, manufacturers, distributors of tabletop and home accessories."
New York Now Winter,02/06/2022,2022,https://nynow.com/future-market/,DM,Jack Rabbit Creations,3016,,http://www.jackrabbitcreations.com,,,,"Atlanta, GA United States",United States,Children's/Baby Items | Environmentally Friendly/Natural/Recycled Products | Games/Puzzles/Toys,,,Unique heirloom quality toys and gifts for young children!
New York Now Winter,02/06/2022,2022,https://nynow.com/future-market/,DM,InStitches,2972,,https://linktr.ee/futurestitch,,,,"San Clemente, CA United States",United States,,,,
New York Now Winter,02/06/2022,2022,https://nynow.com/future-market/,DM,Isabelle Gougenheim Designs,418,,http://www.isabellegougenheimdesigns.com,,,,"Chicago, IL United States",United States,Apparel/Clothing | Collectibles | Private Label,,,"Employing the world as her muse and a blank canvas, French American artist"
New York Now Winter,02/06/2022,2022,https://nynow.com/future-market/,DM,iliNewYork,640,,http://www.ilinewyork.com,,,,"New York, NY United States",United States,Luggage & Travel Accessories | Private Label,,,"Over the course of the last 30 years, ili New York has become the premier source for quality leather goods available in a wide range of styles and colors. Our superior craftsmanship and customer service instill confidence for retailers and customers who purchase our products."
New York Now Winter,02/06/2022,2022,https://nynow.com/future-market/,DM,Hualle,1131,,https://hualle.cl/,,,,"Santiago, Chile",Chile,,,,
New York Now Winter,02/06/2022,2022,https://nynow.com/future-market/,DM,Independent Publishers Group,2738,,http://www.ipgbook.com,,,,"Chicago, IL United States",United States,Books/Publications/Media,,,"IPG, the original independent book sales & distribution company, represents the best in independent publishing. We have a variety of books for adults and children, journals by leading graphic designers, and gift merchandise featuring unique designs inspired by classic works of literature."
New York Now Winter,02/06/2022,2022,https://nynow.com/future-market/,DM,in2 design,1135,,http://www.in2designing.com,,,,"Southport, CT United States",United States,Handmade/Craft | Jewelry - Fashion,,,"In2 design creates handmade jewelry with a Scandinvian simplicity.  We use only the highest quality stones, pearls, precious metals as well as unexpected materials such as leather, linen and suede to make jewelry that is modern and classic, unique and yet highly wearable.  Handmade in the USA."
New York Now Winter,02/06/2022,2022,https://nynow.com/future-market/,DM,Honour Essentials,2670,,http://www.honouressentials.com,,,,"Minneapolis, MN United States",United States,Environmentally Friendly/Natural/Recycled Products | Food & Beverage,,,
New York Now Winter,02/06/2022,2022,https://nynow.com/future-market/,DM,Ithil Metal Works,1144,,http://www.ithilmetalworks.com,,,,"Tel Aviv, Israel",Israel,Handmade/Craft | Jewelry - Fashion,,,Handcrafted Silver & Gold Jewelry Designer & Manufactur since 1998. Handmade in ISRAEL
New York Now Winter,02/06/2022,2022,https://nynow.com/future-market/,DM,Honeyberry Studios,2952,,https://honeyberrystudios.com,,,,"Arlington, WA United States",United States,,,,
New York Now Winter,02/06/2022,2022,https://nynow.com/future-market/,DM,Holiball Inc,2629,,http://www.theholiball.com,,,,"Houston, TX United States",United States,,,,
New York Now Winter,02/06/2022,2022,https://nynow.com/future-market/,DM,IsArt,1124,,http://www.isartonline.com,,,,"Denver, CO United States",United States,Handmade/Craft | Jewelry - Fashion,,,"imports and distributes handmade jewelry from artisans around the world, representing"
New York Now Winter,02/06/2022,2022,https://nynow.com/future-market/,DM,HOT GIRLS PEARLS,938,,http://www.hotgirlspearls.com,,,,"New York, NY United States",United States,Holiday/Seasonal | Jewelry - Fashion | Novelties/Souvenirs,,,"A unique one-of-a-kind product that helps women look great and feel better at the same time. Hot Girls Pearls are freezable cooling jewelry that offers the perfect combination of fashion and function. Perfect for all kinds of women for all kinds of reasons including Menopause/Perimenopause, pregnancy, certain health conditions, after a great workout, or just going about a busy life.  Discreet and pretty, no one will know you have a cold pack around your neck and wrist."
New York Now Winter,02/06/2022,2022,https://nynow.com/future-market/,DM,Hitomi Jacobs Designs,1024,,http://www.hitomijacobsdesigns.com,,,,"San Rafael, CA United States",United States,Handmade/Craft,,,"Sales and Design of Jewelry.  Specializing in unique, hand-made items."
New York Now Winter,02/06/2022,2022,https://nynow.com/future-market/,DM,Hitchcock Paper Co.,2952,,www.hitchcockpaper.com,,,,"Occoquan, VA United States",United States,,,,
New York Now Winter,02/06/2022,2022,https://nynow.com/future-market/,DM,HK Holbein Artist Materials,2962,,http://www.holbeinartistmaterials.com,,,,"Williston, VT United States",United States,,,,
New York Now Winter,02/06/2022,2022,https://nynow.com/future-market/,DM,Harper Group,2803,,http://www.harpergroup.com,,,,"New York, NY United States",United States,,,,
New York Now Winter,02/06/2022,2022,https://nynow.com/future-market/,DM,Harper Group,2703,,http://www.harpergroup.com,,,,"New York, NY United States",United States,,,,
New York Now Winter,02/06/2022,2022,https://nynow.com/future-market/,DM,Harper Group,2501,,http://www.harpergroup.com,,,,"New York, NY United States",United States,,,,
New York Now Winter,02/06/2022,2022,https://nynow.com/future-market/,DM,Hester van Eeghen,1227,,http://www.hestervaneeghen.com,,,,"Amsterdam, Netherlands",Netherlands,,,,"Hester van Eeghen has been making leather bags and accessories since 1987. All items are designed in Amsterdam and hand-crafted in Italy. Her designs are highlighted by geometric shapes and a variety of colors, but its their mix of non-traditional elements and sly sense of humor that seduces."
New York Now Winter,02/06/2022,2022,https://nynow.com/future-market/,DM,Harper Group,2601,,http://www.harpergroup.com,,,,"New York, NY United States",United States,,,,
New York Now Winter,02/06/2022,2022,https://nynow.com/future-market/,DM,Harkiss Designs,1529,,http://www.harkissdesigns.com,,,,"West New York, NJ United States",United States,Handmade/Craft | Jewelry - Fashion | Tabletop,,,
New York Now Winter,02/06/2022,2022,https://nynow.com/future-market/,DM,HARLOW + BENTLEY,2254,,Www.harlowandbentley.com,,,,"Dix Hills, NY United States",United States,,,,
New York Now Winter,02/06/2022,2022,https://nynow.com/future-market/,DM,Gryph & IvyRose,1838,,http://gryphandivyrose.com,,,,"Miami, FL United States",United States,Children's/Baby Items | Food & Beverage | Made in the USA,,,Our mission is to cultivate a lifetime of wellness through natural products whose design on the outside reflects the uncompromising quality inside.
New York Now Winter,02/06/2022,2022,https://nynow.com/future-market/,DM,HARMONY - LINHOME,2361,,http://www.harmony-textile.com/usa,,,,"Pessac, France",France,,,,
New York Now Winter,02/06/2022,2022,https://nynow.com/future-market/,DM,GURHAN & John Varvatos Jewelry,2130,,http://www.gurhan.com,,,,"New York, NY United States",United States,Collectibles | Decorative Accessories | Handmade/Craft | Jewelry - Fashion,,,
New York Now Winter,02/06/2022,2022,https://nynow.com/future-market/,DM,Grey Street Paper,3062,,http://Www.greystreetpaper.com,,,,"Greenlawn, NY United States",United States,Holiday/Seasonal | Made in the USA | Office Supplies | Stationery/Invitations/Greeting Cards,,,
New York Now Winter,02/06/2022,2022,https://nynow.com/future-market/,DM,Graziani Inc,2221,,http://www.graziani.net,,,,"Lorenzana, Pisa Italy",Italy,,,,
New York Now Winter,02/06/2022,2022,https://nynow.com/future-market/,DM,Grey Matter,943,,https://shop441261770.taobao.com,,,,"New York, NY United States",United States,,,,
New York Now Winter,02/06/2022,2022,https://nynow.com/future-market/,DM,Greeting Life America,2645,,http://www.gl-america.com,,,,"ELMWOOD PARK, NJ United States",United States,Handmade/Craft | Holiday/Seasonal | Stationery/Invitations/Greeting Cards,,,"Greeting Life America IGS, inc. is Wholesaler & Online Wholesaler in Canada and United States since 2000"
New York Now Winter,02/06/2022,2022,https://nynow.com/future-market/,DM,Global Mamas,1448,,http://www.globalmamas.org/Wholesale,,,,"Minneapolis, MN United States",United States,Children's/Baby Items,,,
New York Now Winter,02/06/2022,2022,https://nynow.com/future-market/,DM,Golden Gems,2728,,https://shopgoldengems.com/,,,,"Saint Louis, MO United States",United States,,,,
New York Now Winter,02/06/2022,2022,https://nynow.com/future-market/,DM,Good & Well Supply Co.,2539,,http://goodandwellsupplyco.com,,,,"Seattle, WA United States",United States,Candles | Handmade/Craft | Made in the USA,,,"Good & Well Supply Co. is committed to using ethically sourced materials as much as possible. We believe that the best way to do this is to source our materials from the USA: it gives us the ability to ensure good labor practices and to support our local farmers, craftsmen, and manufacturers. All of our candle materials come from the USA, including wax made from soy grown in America, balsa wicks made from balsa trees grown in America, and oils made in America. Most of our packaging is made here too, and we’re continuously looking to increase that percentage."
New York Now Winter,02/06/2022,2022,https://nynow.com/future-market/,DM,Giftsland,2843,,http://www.lotkapaper.com,,,,"Forest Hills, NY United States",United States,,,,
New York Now Winter,02/06/2022,2022,https://nynow.com/future-market/,DM,Glenda Cast,2875,,https://glendacast.com/en/,,,,"Montréal, QC Canada",Canada,Stationery/Invitations/Greeting Cards,,,
New York Now Winter,02/06/2022,2022,https://nynow.com/future-market/,DM,Gift Republic,2619,,http://www.giftrepublic.com,,,,"London, United Kingdom",United Kingdom,Games/Puzzles/Toys | Kitchenware/Kitchen Accessories | Novelties/Souvenirs | Tech Products,,,Welcome to the home of quality gifts. Here at Gift Republic we have a passion for two things design and having fun! Our creative team are dedicated to bringing you the most unique and enjoyable gifts imaginable.
New York Now Winter,02/06/2022,2022,https://nynow.com/future-market/,DM,GeoCentral,1735,,http://www.geocentral.com,,,,"Mason, OH United States",United States,Candles | Decorative Accessories | Home Furnishings | Jewelry - Fashion | Made in the USA | Tabletop,,,
New York Now Winter,02/06/2022,2022,https://nynow.com/future-market/,DM,Gala Deluxe Corporation,2958,,http://www.galadeluxe.com,,,,"Alhambra, CA United States",United States,Giftwrap & Accessories | Candles | Craft & Hobby supplies,,,"Gala Deluxe, a Luxury & design packagaing service.  We can help create a unique experience to your packaging, whether it'll be to emulate visual elements and details of your brand and logo, or to symbolize your brand image through box and material selection."
New York Now Winter,02/06/2022,2022,https://nynow.com/future-market/,DM,French Atelier,620,,http://www.thefrenchatelier.com,,,,"Edgewater, NJ United States",United States,Private Label,,,High quality Tortoise Shell (resin) hair accessories made in France.  Resin jewelry with large selection of earrings.  Private label/Custom orders also available.
New York Now Winter,02/06/2022,2022,https://nynow.com/future-market/,DM,Friendlily Press,2510,,https://friendlilypress.com/,,,,"Maitland, FL United States",United States,,,,
New York Now Winter,02/06/2022,2022,https://nynow.com/future-market/,DM,Fred & Friends,2817,,http://www.genuinefred.com,,,,"Pawtucket, RI United States",United States,Children's/Baby Items | Games/Puzzles/Toys | Kitchenware/Kitchen Accessories | Novelties/Souvenirs | Party Supplies | Pet Products | Tabletop,,,
New York Now Winter,02/06/2022,2022,https://nynow.com/future-market/,DM,Fornash Inc.,616,,http://www.fornash.com,,,,"Falls Church, VA United States",United States,Candles | Decorative Accessories | Jewelry - Fashion | Luggage & Travel Accessories | Private Label,,,"FORNASH is an American lifestyle brand that represents the personal style and love for fashion of it's CEO, Stephanie Kennedy. Whether you are a trend setter or a classic prepster, you will fall in love with the FORNASH brand."
New York Now Winter,02/06/2022,2022,https://nynow.com/future-market/,DM,Forest Life Creations,1143,,http://www.etsy.com/shop/forestlifecreations,,,,"Lynnwood, WA United States",United States,,,,
New York Now Winter,02/06/2022,2022,https://nynow.com/future-market/,DM,Flora Bunda Inc,2420,,http://www.florabundaus.com,,,,"Chino, CA United States",United States,Novelties/Souvenirs | Home Furnishings | Holiday/Seasonal | Craft & Hobby supplies,,,
New York Now Winter,02/06/2022,2022,https://nynow.com/future-market/,DM,Flipboku,2774,,https://flipboku.com/,,,,"Palma, Spain",Spain,,,,
New York Now Winter,02/06/2022,2022,https://nynow.com/future-market/,DM,Foot Traffic Socks,2826,,http://foottraffic.com,,,,"KANSAS CITY, MO United States",United States,Children's/Baby Items | Apparel/Clothing | Holiday/Seasonal | Novelties/Souvenirs,,,
New York Now Winter,02/06/2022,2022,https://nynow.com/future-market/,DM,Fine Moments,2952,,https://finemoments.com/,,,,"Wilmette, IL United States",United States,Stationery/Invitations/Greeting Cards,,,
New York Now Winter,02/06/2022,2022,https://nynow.com/future-market/,DM,Flensted Mobiles,1947,,http://www.flensted-mobiles.com,,,,"Highland Village, TX United States",United States,Children's/Baby Items | Decorative Accessories | Handmade/Craft | Holiday/Seasonal,,,
New York Now Winter,02/06/2022,2022,https://nynow.com/future-market/,DM,Fabulous Furs,2325,,http://www.fabulousfurs.com/wholesale,,,,"Covington, KY United States",United States,Apparel/Clothing | Home Textiles,,,"Donna Salyers Fabulous Furs carries an international reputation as the leader in high quality faux furs. We use superior fabrics sourced from around the world, delivering unique products, excellent workmanship, and exceptional service."
New York Now Winter,02/06/2022,2022,https://nynow.com/future-market/,DM,Everyday Artifact,1053,,http://www.everydayartifact.com,,,,"Santa Fe, NM United States",United States,Handmade/Craft | Jewelry - Fashion | Made in the USA,,,Thoughtful... Poetic... Personal
New York Now Winter,02/06/2022,2022,https://nynow.com/future-market/,DM,FELIX Z DESIGNS,129,,http://www.felixz.com,,,,"New York, NY United States",United States,Jewelry - Fashion,,,Hand Crafted One of Kind Jewelry with Natural Gemstones and Sterling Silver.
New York Now Winter,02/06/2022,2022,https://nynow.com/future-market/,DM,f.y.b jewelry,727,,https://www.fybjewelry.com,,,,"Brooklyn, NY United States",United States,Jewelry - Fashion,,,Meaningful boho gemstone & charm jewelry with a mission to empower young women to follow their bliss. Every piece supports female entrepeneurship. Handmade with love in NYC.
New York Now Winter,02/06/2022,2022,https://nynow.com/future-market/,DM,Eve & Nico Gifts & Home Decor,1441,,http://www.eveandnico.com,,,,"Edgewater, NJ United States",United States,Collectibles | Environmentally Friendly/Natural/Recycled Products,,,Eve & Nico showcases beautifully handcrafted baskets and jewelry from indigenous tribes of Africa in line with Fair trade policies. Eve & Nico encourages the preservation of traditional weaving skills and empowerment of global communities and we are members of The Museum Store Association.
New York Now Winter,02/06/2022,2022,https://nynow.com/future-market/,DM,Fair Anita,1338,,http://www.fairanita.com,,,,"Woodbury, MN United States",United States,Apparel/Clothing | Environmentally Friendly/Natural/Recycled Products | Jewelry - Fashion,,,"*No minimum orders, ever. Show special free shipping orders $150+*"
New York Now Winter,02/06/2022,2022,https://nynow.com/future-market/,DM,Etymology Jewelry,726,,http://www.etymologyjewelry.shop,,,,"Brooklyn, NY United States",United States,,,,
New York Now Winter,02/06/2022,2022,https://nynow.com/future-market/,DM,Ethic Goods,1430,,http://www.ethicgoods.com,,,,"Washington, DC United States",United States,Jewelry - Fashion,,,"We employ women impacted by human trafficking and those living below the poverty line in Thailand, Ethiopia, and China."
New York Now Winter,02/06/2022,2022,https://nynow.com/future-market/,DM,Essence of Harris,1749,,https://essenceofharris.co.uk/,,,,"Isle of Harris, Scotland United Kingdom",United Kingdom,Candles | Decorative Accessories | Holiday/Seasonal | Home Furnishings | Home Textiles | Wellness/Personal Care,,,Essence of Harris is a luxury Scottish candle and home living company who capture the rugged beauty and provenance of Scotland in each highly scented product. The team hand pour each product using natural soy wax and the finest ingredients and aim to create calm for every Essence of Harris customer.
New York Now Winter,02/06/2022,2022,https://nynow.com/future-market/,DM,Evelyne Prelonge,2235,,http://www.evelyneprelonge.com,,,,"Paris, France",France,Decorative Accessories | Apparel/Clothing | Home Textiles,,,"The company Evelyne Prélonge is specialized to Luxury Faux Furs, with exceptional sense of touch."
New York Now Winter,02/06/2022,2022,https://nynow.com/future-market/,DM,Evu jewelry,1257,,evujewelry.com,,,,"Oakton, VA United States",United States,,,,
New York Now Winter,02/06/2022,2022,https://nynow.com/future-market/,DM,Ellen Walsh Designs,3057,,https://ellenwalshdesigns.com.au/,,,,"Brunswick West, Victoria Australia",Australia,,,,
New York Now Winter,02/06/2022,2022,https://nynow.com/future-market/,DM,Elemense,1949,,https://www.nipponkodo.com/,,,,"Torrance, CA United States",United States,Decorative Accessories | Holiday/Seasonal,,,"The brand's concept is based on the teachings from the ""Five Elements of Theory"" of Chinese philosophy and the ""Ten Virtues of Koh"". When lit, ""elemense"" is designed to encite the experience that enlightens all 5 senses and hints that the invisible fragrance starts to take on a visible form. incense"
New York Now Winter,02/06/2022,2022,https://nynow.com/future-market/,DM,Evergreen Guardian Imports,1454,,,,,,"Seattle, WA United States",United States,Ethnic | Apparel/Clothing,,,We sell fashion apparel and accessories from Nepal and Thailand.
New York Now Winter,02/06/2022,2022,https://nynow.com/future-market/,DM,eeBoo,2913,,http://www.eeboo.com,,,,"New York, NY United States",United States,Children's/Baby Items | Environmentally Friendly/Natural/Recycled Products | Games/Puzzles/Toys,,,
New York Now Winter,02/06/2022,2022,https://nynow.com/future-market/,DM,Elegant Additions Inc,541,,http://www.elegantadditionsinc.com,,,,"Newark, DE United States",United States,Environmentally Friendly/Natural/Recycled Products | Apparel/Clothing | Handmade/Craft,,,"HAND MADE,  HAND EMBROIDERED, HAND CRAFTED SILK SCARFS & SILK RUGS & SILK PILLOWS & SILK BAGS"
New York Now Winter,02/06/2022,2022,https://nynow.com/future-market/,DM,Eden Presley Fine Jewelry,2136,,http://www.edenpresley.com,,,,"New York, NY United States",United States,Jewelry - Fashion,,,
New York Now Winter,02/06/2022,2022,https://nynow.com/future-market/,DM,EDC Publishing/Usborne/Kane Miller,2929,,http://www.edcpub.com,,,,"Tulsa, OK United States",United States,Children's/Baby Items | Games/Puzzles/Toys | Books/Publications/Media,,,"Usborne and Kane Miller books that are lavishly illustrated and written with humor, surprise and drama.  Children of all ages will enjoy reading and playing with wind up and pull back books or snuggling with the cuddle bear plush toy.  EDC Publishing has just the thing to make reading fun."
New York Now Winter,02/06/2022,2022,https://nynow.com/future-market/,DM,dZi Handmade,1346,,http://www.dzi.com,,,,"Easthampton, MA United States",United States,Children's/Baby Items | Decorative Accessories | Environmentally Friendly/Natural/Recycled Products,,,"Visit dZi Handmade  #1862 to see our newest eco-friendly artisan-made and Fair Trade jewelry & decor for home and garden. We have something fresh, unique and fun for everyone in our 5 great lines: Fair Trade Holiday,  Fair Trade Home & Garden,Lunar Revoltuion, Tibet Collection and Wild Woolies!"
New York Now Winter,02/06/2022,2022,https://nynow.com/future-market/,DM,Dreamer & CO,1358,,https://www.dreamerandco.com/,,,,"Alexandria, VA United States",United States,Handmade/Craft | Jewelry - Fashion,,,Dreamer & Co is a social impact jewelry company whose mission is to empower women through business and inspire conscious consumption. We partner with a group of talented artisans in the Horn of Africa who handmake our jewelry and earn a living wage.
New York Now Winter,02/06/2022,2022,https://nynow.com/future-market/,DM,DUPATTA DESIGNS / ASIAN EYE,1439,,http://www.dupattadesigns.com,,,,"West Chester, PA United States",United States,Apparel/Clothing | Private Label,,,"Dupatta Designs offers an exceptional collection of high quality accessories for women, including finely crafted scarves, hats & gloves that reflect traditional textile techniques, embrace digital technology and celebrate the artisan craft/fair trade. Made in India."
New York Now Winter,02/06/2022,2022,https://nynow.com/future-market/,DM,Global Solutions,2961,,http://www.globalsolutionsonline.com,,,,"Seattle, WA United States",United States,,,,
New York Now Winter,02/06/2022,2022,https://nynow.com/future-market/,DM,Diamond Veneer Travel Jewelry and Zirconmania Fashion Jewelry,514,,WWW.DIAMONDVENEER.COM,,,,"Los Angeles, CA United States",United States,,,,
New York Now Winter,02/06/2022,2022,https://nynow.com/future-market/,DM,Designer Greetings,2753,,http://www.designergreetings.com,,,,"Edison, NJ United States",United States,Holiday/Seasonal | Stationery/Invitations/Greeting Cards,,,"NEW for 2020 - see the latest designs from Madison Park Greetings, Palm Press Greetings and Northern Exposure. With over 23,000 designs, Designer Greetings offers the perfect choice for every occasion – and the perfect choice for retailers and consumers alike."
New York Now Winter,02/06/2022,2022,https://nynow.com/future-market/,DM,"Dolma, Inc.",1634,,http://www.dolmaimports.com,,,,"Menlo Park, CA United States",United States,,,,"Hi,"
New York Now Winter,02/06/2022,2022,https://nynow.com/future-market/,DM,Delisch,1056,,http://www.delisch.com,,,,"Santa Cruz, CA United States",United States,,,,
New York Now Winter,02/06/2022,2022,https://nynow.com/future-market/,DM,Deepa Gurnani,918,,http://www.deepagurnani.com,,,,"New York, NY United States",United States,,,,
New York Now Winter,02/06/2022,2022,https://nynow.com/future-market/,DM,"Gena Accessories, Inc.",829,,http://www.genaaccessories.com,,,,"New York, NY United States",United States,,,,
New York Now Winter,02/06/2022,2022,https://nynow.com/future-market/,DM,Deigo,3011,,http://www.deigo-us.com,,,,"Chiba, Japan",Japan,Children's/Baby Items,,,
New York Now Winter,02/06/2022,2022,https://nynow.com/future-market/,DM,Debbie Fisher Inc.,1240,,http://www.debbiefisher.com,,,,"Brooklyn, NY United States",United States,,,,
New York Now Winter,02/06/2022,2022,https://nynow.com/future-market/,DM,Dean Davidson,312,,http://www.deandavidson.ca,,,,"Toronto, ON Canada",Canada,Jewelry - Fashion,,,
New York Now Winter,02/06/2022,2022,https://nynow.com/future-market/,DM,David Changar,1252,,http://www.davidchangar.com,,,,"Bronx, NY United States",United States,Handmade/Craft | Made in the USA | Tabletop,,,Hand thrown decorative ceramic sculptures
New York Now Winter,02/06/2022,2022,https://nynow.com/future-market/,DM,DaVan Co.,545,,http://www.davandesigns.com,,,,"Markham, ON Canada",Canada,Decorative Accessories | Apparel/Clothing | Luggage & Travel Accessories,,,
New York Now Winter,02/06/2022,2022,https://nynow.com/future-market/,DM,Daphnew Design,1060,,http://Www.Daphnew.com,,,,"Ridgefield Park, NJ United States",United States,,,,
New York Now Winter,02/06/2022,2022,https://nynow.com/future-market/,DM,daisyd and friends,1234,,http://www.daisydandfriends.com,,,,"New York, NY United States",United States,Environmentally Friendly/Natural/Recycled Products | Giftwrap & Accessories | Holiday/Seasonal | Stationery/Invitations/Greeting Cards,,,
New York Now Winter,02/06/2022,2022,https://nynow.com/future-market/,DM,CREA stationery and more,3049,,@creastationery,,,,"Mexico, Mexico",Mexico,,,,
New York Now Winter,02/06/2022,2022,https://nynow.com/future-market/,DM,Conscious Step,624,,http://consciousstep.com/,,,,"Brooklyn, NY United States",United States,Apparel/Clothing | Environmentally Friendly/Natural/Recycled Products | Holiday/Seasonal,,,"Thoughtfully made socks that fight for global causes. For every pair you buy, a quantified impact goes to our nonprofit partners. Our socks are vegan, organic, FairTrade Certified, meet Oeko-tex standards and really comfortable. Partners include Oxfam, UN Aids, Oceana, Global Citizen & more."
New York Now Winter,02/06/2022,2022,https://nynow.com/future-market/,DM,"Cody Foster and Co, Inc.",2334,,http://www.codyfoster.com,,,,"Valentine, NE United States",United States,Holiday/Seasonal | Home Furnishings,,,We specialize in handcrafted vintage style Christmas decor and ornaments.
New York Now Winter,02/06/2022,2022,https://nynow.com/future-market/,DM,CoCo XO Artisan Soap,1759,,Www.cocoxos.com,,,,"Upper Marlboro, MD United States",United States,,,,
New York Now Winter,02/06/2022,2022,https://nynow.com/future-market/,DM,DANI Naturals,1730,,http://www.daninaturals.com,,,,"Bend, OR United States",United States,,,,
New York Now Winter,02/06/2022,2022,https://nynow.com/future-market/,DM,Colorfull Plates,2870,,https://www.colorfullplates.com,,,,"Friendswood, TX United States",United States,,,,
New York Now Winter,02/06/2022,2022,https://nynow.com/future-market/,DM,Close 2 UR Heart,931,,http://www.feifish.com,,,,"Glens Falls, NY United States",United States,,,,
New York Now Winter,02/06/2022,2022,https://nynow.com/future-market/,DM,Claudia Vallejo Jewelry,1026,,http://www.claudiavallejo.com,,,,"Bogota, Colombia",Colombia,,,,Claudia Vallejo Jewelery
New York Now Winter,02/06/2022,2022,https://nynow.com/future-market/,DM,Claudia Fajardo,1222,,http://claudiafajardo.com,,,,"Bogotá, Cundinamarca Colombia",Colombia,Jewelry - Fashion,,,"My jewelry pieces are the product of a handmade work that does not involve molds or standards, but the imagination and skillfull metalwork combined with handwoven glass beads and semiprecious stones."
New York Now Winter,02/06/2022,2022,https://nynow.com/future-market/,DM,Chronicle Books,2735,,http://www.chroniclebooks.com,,,,"San Francisco, CA United States",United States,Books/Publications/Media | Games/Puzzles/Toys,,,"Chronicle Books is a San Francisco-based publisher of distinctive books, gifts, and stationery. Inspired by the enduring magic and importance of books, our objective is to create and distribute exceptional publishing that's instantly recognizable for its spirit, creativity, and value."
New York Now Winter,02/06/2022,2022,https://nynow.com/future-market/,DM,Christophe Poly / Crono Design,1148,,http://christophepoly.com,,,,"Montreal, QC Canada",Canada,Handmade/Craft | Jewelry - Fashion,,,"The artist Christophe Poly has been designing a contemporary handmade jewelry collection for over 30 years. In his work he uses only quality materials such aluminium, brass, stainless, rubber and leather. The work is quite distinct due to a three dimentional architectural assembling process."
New York Now Winter,02/06/2022,2022,https://nynow.com/future-market/,DM,ClearBags,2965,,http://www.clearbags.com,,,,"El Dorado Hills, CA United States",United States,Craft & Hobby supplies | Environmentally Friendly/Natural/Recycled Products | Party Supplies | Private Label,,,"ClearBags has risen in the past 25 years to the top in packaging. Offering a diverse product line -  Crystal Clear® Bags and Boxes, Poly and Zip Bags, Envelopes, and unique packaging for the Gift, Event Planning, Stationery, and Food Industries, among others – we are excited to work with you!"
New York Now Winter,02/06/2022,2022,https://nynow.com/future-market/,DM,DesignWorks Collective,2717,,https://www.dw-collective.com/,,,,"Nashville, TN United States",United States,,,,
New York Now Winter,02/06/2022,2022,https://nynow.com/future-market/,DM,Fire & Pine,1025,,http://www.fireandpine.com,,,,"Ridgeland, SC United States",United States,Handmade/Craft | Home Furnishings | Made in the USA,,,"Fire & Pine offers 100% American made home decor artwork. Specifically, we specialize in one-of-a-kind bunt wooden maps uniquely designed by our team, as well as historical maps from all over the country. We use high quality Sherwin Williams paint coatings and sealers on eastern white pinewood."
New York Now Winter,02/06/2022,2022,https://nynow.com/future-market/,DM,Christine Jewelry,217,,http://www.christinejewelry.com,,,,"San Francisco, CA United States",United States,Jewelry - Fashion,,,We cannot change the listing .
New York Now Winter,02/06/2022,2022,https://nynow.com/future-market/,DM,Cherapy,1061,,www.cherapy.com,,,,"Columbia, MD United States",United States,,,,
New York Now Winter,02/06/2022,2022,https://nynow.com/future-market/,DM,Cheemeno,1049,,http://www.cheemeno.com,,,,"Baltimore, MD United States",United States,Environmentally Friendly/Natural/Recycled Products | Handmade/Craft | Jewelry - Fashion | Made in the USA,,,"Unique- very dimensional, textural, often described as ' whimsical yet elegant ', and affordable handmade nature inspired jewelry using sterling, bronze, 14K gold and gemstones."
New York Now Winter,02/06/2022,2022,https://nynow.com/future-market/,DM,CharmCat,2952,,https://charmcat.net/,,,,"Martinsville, VA United States",United States,,,,
New York Now Winter,02/06/2022,2022,https://nynow.com/future-market/,DM,CERERIA INTRONA SRL,2353,,http://www.cereriaintrona.it,,,,"BITONTO, Italy",Italy,,,,
New York Now Winter,02/06/2022,2022,https://nynow.com/future-market/,DM,Charvet Editions,2229,,http://www.charveteditions.com,,,,"Armentieres, France",France,Home Textiles,,,"French weaver based in the North of France, CHARVET EDITIONS is specialized in the weaving of natural fibers like cotton and linen. All made in France fabrics sold by rolls of about 30 m and distribution of a large scale of ready made products for the house decoration (teatowels, tablecloth, aprons, bags, bedlinens, bags, bedlinens, curtains)."
New York Now Winter,02/06/2022,2022,https://nynow.com/future-market/,DM,Cellar Door Preserves,2571,,cellardoorpreserves.com,,,,"Grand Rapids, MI United States",United States,,,,
New York Now Winter,02/06/2022,2022,https://nynow.com/future-market/,DM,Ceto Home,2371,,www.cetohome.com,,,,"Petaluma, CA United States",United States,,,,
New York Now Winter,02/06/2022,2022,https://nynow.com/future-market/,DM,Catherine Canino Jewelry,311,,http://www.caninojewelry.com,,,,"New York, NY United States",United States,,,,"Classic, cool and always handmade in NYC, jewelry to give, love and cherish."
New York Now Winter,02/06/2022,2022,https://nynow.com/future-market/,DM,Candy Relics,1936,,http://www.candyrelics.com,,,,"Portland, OR United States",United States,Decorative Accessories | Handmade/Craft | Made in the USA,,,
New York Now Winter,02/06/2022,2022,https://nynow.com/future-market/,DM,Calm Me Company,1752,,www.calmmecompany.com,,,,"Lake Forest, CA United States",United States,,,,
New York Now Winter,02/06/2022,2022,https://nynow.com/future-market/,DM,Carole Shiber Designs,2309,,http://www.caroleshiber.com,,,,"Kingston, NY United States",United States,Floral | Holiday/Seasonal | Made in the USA | Stationery/Invitations/Greeting Cards,,,"Known for their popular shaped & hand-painted placemats, Carole Shiber Designs now brings even more creativity to the table with affordable, sophisticated collections: interactive Mix-n-Mats(tm), inspired Leafy Napkin Rings & Color-Tipped Napkins & hand-painted Sculpted Linen Baskets."
New York Now Winter,02/06/2022,2022,https://nynow.com/future-market/,DM,Cactus Club Paper,2859,,http://www.cactusclubpaper.com,,,,"Los Angeles, CA United States",United States,,,,
New York Now Winter,02/06/2022,2022,https://nynow.com/future-market/,DM,Canetti Design Group Inc.,2252,,http://www.canettidesigngroup.com,,,,"New York, NY United States",United States,Party Supplies | Promotional Items,,,"Nicolai Canetti designed the Original Magnet Frame ® over 30 years ago. This iconic ‘frameless frame’ is now available in a wide variety of sizes and styles from Canetti. Sizes range from 1""x2"" to 11""x14"" in metallic, primary, and pastel colors. Sphere, cube, rectangles, squares, wall models."
New York Now Winter,02/06/2022,2022,https://nynow.com/future-market/,DM,Busy Baby LLC,3012,,https://busybabymat.com,,,,"Oronoco, MN United States",United States,,,,
New York Now Winter,02/06/2022,2022,https://nynow.com/future-market/,DM,Cece DuPraz,3030,,cecedupraz.com,,,,"Marblehead, MA United States",United States,,,,
New York Now Winter,02/06/2022,2022,https://nynow.com/future-market/,DM,BUSATTI SINCE 1842,2329,,http://www.busatti.com,,,,"Anghiari Tuscany, Italy",Italy,Home Textiles | Private Label | Promotional Items,,,"BUSATTI WEAVERS IN TUSCANY SINCE 1842 CREATES AND PRODUCES NATURAL FABRICS BY THE YARD, STANDARD AND BESPOKE FINISHED TABLE, BED,KITCHEN, BATH AND HOME ACCESSORIES COLLECTIONS."
New York Now Winter,02/06/2022,2022,https://nynow.com/future-market/,DM,Caracol Jewelry,521,,http://www.caracol.ca,,,,"Beloeil, QC Canada",Canada,Jewelry - Fashion,,,"Caracol has been for 20 years a renowned signature in the custom  jewellery and accessories market. Caracol offers very competitive prices, fast delivery and first class customer services."
New York Now Winter,02/06/2022,2022,https://nynow.com/future-market/,DM,Buddha Board Inc,2770,,http://www.buddhaboard.com,,,,"Vancouver, BC Canada",Canada,Decorative Accessories | Environmentally Friendly/Natural/Recycled Products | Games/Puzzles/Toys | Home Furnishings,,,The Original Buddha Board gently encourages the user to
New York Now Winter,02/06/2022,2022,https://nynow.com/future-market/,DM,Branch,2123,,http://www.madebybranch.com,,,,"Venice, CA United States",United States,,,,
New York Now Winter,02/06/2022,2022,https://nynow.com/future-market/,DM,BRAID & WOOD Design Studio,1016,,http://braidandwood.com,,,,"San Diego, CA United States",United States,,,,
New York Now Winter,02/06/2022,2022,https://nynow.com/future-market/,DM,Case Island Glass,1231,,http://www.caseislandglass.com,,,,"Flint, MI United States",United States,Collectibles | Decorative Accessories | Kitchenware/Kitchen Accessories | Made in the USA,,,Functional dinnerware
New York Now Winter,02/06/2022,2022,https://nynow.com/future-market/,DM,Bounkit,828,,http://www.bounkit.com,,,,"New York, NY United States",United States,Jewelry - Fashion | Made in the USA,,,"Unique among jewelry designers, BOUNKIT masterfully combines the high fashion looks and stones of fine jewelry, with the affordable price points of the finest costume jewelry. The result is bold, dramatic designs lavishly set with soft romantic and electric colored stones."
New York Now Winter,02/06/2022,2022,https://nynow.com/future-market/,DM,Brittany Paige,3053,,http://brittanypaige.com,,,,"East Rutherford, NJ United States",United States,,,,
New York Now Winter,02/06/2022,2022,https://nynow.com/future-market/,DM,Boompods,1819,,http://www.boompods.com,,,,"Norwich, Norfolk United Kingdom",United Kingdom,Promotional Items | Tech Products,,,"Boompods was launched with a vision of uniting visually appealing design with product innovation, a love of sport, the outdoors and adventure."
New York Now Winter,02/06/2022,2022,https://nynow.com/future-market/,DM,BOMSHBEE,2409,,http://www.bomshbee.com,,,,"Hong Kong, Hong Kong",Hong Kong,Kitchenware/Kitchen Accessories | Tabletop,,,"At BOMSHBEE, our philosophy is “the little matters.” We create thoughtfully designed tableware celebrating the everyday. Re-imagining everyday essentials through smart design and exquisite aesthetics."
New York Now Winter,02/06/2022,2022,https://nynow.com/future-market/,DM,Bojay Inc,2217,,http://www.bojayinc.com,,,,"Greensboro, NC United States",United States,Home Furnishings,,,Bojay Inc.
New York Now Winter,02/06/2022,2022,https://nynow.com/future-market/,DM,Bokara Rug Company,2346,,http://www.bokara.com,,,,"Secaucus, NJ United States",United States,,,,"Providing the highest quality and finest designs in Rugs & Tapestries, from Contemporary,Traditional,European to Antique, plus the largest collection of Over/Unusual sizes.  Bokara. One Source. Endless Possibilities."
New York Now Winter,02/06/2022,2022,https://nynow.com/future-market/,DM,CBD for Life,1842,,http://www.cbdforlife.us,,,,"Rumson, NJ United States",United States,Made in the USA,,,
New York Now Winter,02/06/2022,2022,https://nynow.com/future-market/,DM,Boiess Colognes,3013,,http://www.boiess.com,,,,"New York, NY United States",United States,Children's/Baby Items | Environmentally Friendly/Natural/Recycled Products | Wellness/Personal Care,,,
New York Now Winter,02/06/2022,2022,https://nynow.com/future-market/,DM,Caskata,2404,,http://www.caskata.com,,,,"Medfield, MA United States",United States,Tabletop,,,"One of only a handful of ateliers of its kind in this country, the artisans and designers at Caskata create exquisite tabletop products in their studios in Massachusetts. Strong enough to be used every day, these chic, modern-day heirlooms help you set a table you love. Live Life Beautifully."
New York Now Winter,02/06/2022,2022,https://nynow.com/future-market/,DM,"Bloomwolf Studio, LLC",2726,,http://www.bloomwolfstudio.com,,,,"Orlando, FL United States",United States,,,,
New York Now Winter,02/06/2022,2022,https://nynow.com/future-market/,DM,"Bodrum Group,The",2205,,http://www.bodrumlinens.com,,,,"New York, NY United States",United States,Decorative Accessories | Holiday/Seasonal | Tabletop,,,Affordable Luxury Table Linens
New York Now Winter,02/06/2022,2022,https://nynow.com/future-market/,DM,Bloom Bath Co.,1758,,www.bloombathco.com,,,,"Hartland, MI United States",United States,,,,
New York Now Winter,02/06/2022,2022,https://nynow.com/future-market/,DM,Biely & Shoaf,2858,,http://www.bielyshoaf.com,,,,"Seattle, WA United States",United States,Stationery/Invitations/Greeting Cards,,,"Biely & Shoaf Co. offers fabulous greeting cards, boxed notes, and holiday cards for the specialty marketplace featuring Katie Daisy, Molly Hatch, Lisa Congdon and many more wonderful on-trend designers. Come see our dynamite new collection and take advantage of exciting show specials!"
New York Now Winter,02/06/2022,2022,https://nynow.com/future-market/,DM,Bey-Berk International,2331,,http://www.bey-berk.com,,,,"Chatsworth, CA United States",United States,Private Label | Promotional Items,,,"Bey-Berk offers an extensive line of gift products for home and office from bar & wine sets to grooming set to watch & valet cases, as well as an extensive selection of jewelry boxes, frames, bookends and wall decor to weather and nautical products. Bey-Berk is your one destination for all your needs"
New York Now Winter,02/06/2022,2022,https://nynow.com/future-market/,DM,Beyond Cushions Corp,2248,,http://www.beyondcushions.com,,,,"West Orange, NJ United States",United States,,,,
New York Now Winter,02/06/2022,2022,https://nynow.com/future-market/,DM,Berber Art,1255,,https://berberartmarket.com,,,,"GHARDAIA, Algeria",Algeria,,,,
New York Now Winter,02/06/2022,2022,https://nynow.com/future-market/,DM,"Bewaltz Yiwu luosu imp & exp co .,ltd",2947,,http://www.bewaltz.com,,,,"Ontario, CA United States",United States,Luggage & Travel Accessories,,,Bewaltz is a premium lifestyle brand for gifts & accessories in Los Angeles. Our wholesale division serves boutiques and chain retailers of all kinds. Let our unique and fun products help you expand your business! Drop by our booth# 7677 to see all the latest new arrivals.
New York Now Winter,02/06/2022,2022,https://nynow.com/future-market/,DM,Blackwing,2617,,http://www.blackwing.co,,,,"Stockton, CA United States",United States,Home Furnishings | Private Label,,,
New York Now Winter,02/06/2022,2022,https://nynow.com/future-market/,DM,Bklyn Bento,2526,,http://www.BklynBento.com,,,,"Brooklyn, NY United States",United States,,,,
New York Now Winter,02/06/2022,2022,https://nynow.com/future-market/,DM,Bella Vita Jewelry,1129,,http://www.bellavitajewelry.net,,,,"Little Rock, AR United States",United States,Environmentally Friendly/Natural/Recycled Products | Handmade/Craft | Jewelry - Fashion | Made in the USA | Private Label,,,"I'm Brandy Thomason McNair and I create artisan jewelry with an eye for design and a love for all things vintage.  BVJ is known for its personalized & hand stamped charms, natural stones, hand cast metal pendants and vintage inspired baubles  All pieces are designed and produced in Little Rock, AR."
New York Now Winter,02/06/2022,2022,https://nynow.com/future-market/,DM,Belart/Bello Arte,1334,,http://www.belartes.com/home.html,,,,"Bennington, VT United States",United States,Decorative Accessories | Environmentally Friendly/Natural/Recycled Products | Jewelry - Fashion,,,"A Vermont Fairtrade (member of the FairTrade Federation) wholesale business dedicated to creating Contemporary and Pre-Columbian jewelry in eco-friendly and sustainable materials like gold, silver, bronze, stone, eco-resin, up-cycled-horn, re-cycled metals, re-cycled fabrics, Tagua"
New York Now Winter,02/06/2022,2022,https://nynow.com/future-market/,DM,BE HOME,2453,,http://www.behome.com,,,,"San Pablo, CA United States",United States,Private Label | Tabletop,,,
New York Now Winter,02/06/2022,2022,https://nynow.com/future-market/,DM,Bati Goods,1329,,www.batigoods.com,,,,"Los Angeles, CA United States",United States,,,,
New York Now Winter,02/06/2022,2022,https://nynow.com/future-market/,DM,Being Earnest LLC,2872,,www.nowronganswersgame.com,,,,"Chicago, IL United States",United States,,,,
New York Now Winter,02/06/2022,2022,https://nynow.com/future-market/,DM,Bay View Printing Co,2959,,www.bayviewprintingco.com,,,,"Milwaukee, WI United States",United States,,,,
New York Now Winter,02/06/2022,2022,https://nynow.com/future-market/,DM,Bath Accessories Company,1737,,http://www.bathaccessories.com,,,,"Fremont, CA United States",United States,,,,
New York Now Winter,02/06/2022,2022,https://nynow.com/future-market/,DM,BATHORIUM INC,1746,,http://www.bathorium.com,,,,"KANATA, ON Canada",Canada,,,,
New York Now Winter,02/06/2022,2022,https://nynow.com/future-market/,DM,BATHORIUM INC,1853,,http://www.bathorium.com,,,,"KANATA, ON Canada",Canada,,,,
New York Now Winter,02/06/2022,2022,https://nynow.com/future-market/,DM,Bari Moss Ceramics,1141,,http://www.barimossceramics.com,,,,"New York, NY United States",United States,Handmade/Craft | Kitchenware/Kitchen Accessories | Tabletop,,,
New York Now Winter,02/06/2022,2022,https://nynow.com/future-market/,DM,"Basic Spirit, Inc.",1242,,http://www.basicspirit.com,,,,"Pugwash, NS Canada",Canada,Decorative Accessories | Handmade/Craft | Private Label,,,
New York Now Winter,02/06/2022,2022,https://nynow.com/future-market/,DM,Axiom Glass,1134,,http://www.axiomglass.com,,,,"Detroit, MI United States",United States,Handmade/Craft | Collectibles | Made in the USA | Home Furnishings,,,Hand blown sculptural glass.  Designed and made by the artist Andrew Madvin in his Detroit Studio.
New York Now Winter,02/06/2022,2022,https://nynow.com/future-market/,DM,Austin Titus Studio,1243,,http://www.augustninedesigns.com,,,,"Hanover, VA United States",United States,Handmade/Craft | Made in the USA | Jewelry - Fashion,,,Handmade Jewelry With A Delicate Edge
New York Now Winter,02/06/2022,2022,https://nynow.com/future-market/,DM,Bareket Fine Jewelry,517,,http://www.bareketjewelry.com,,,,"Los Angeles, CA United States",United States,Jewelry - Fashion | Made in the USA,,,
New York Now Winter,02/06/2022,2022,https://nynow.com/future-market/,DM,ASHKA DYMEL,1027,,http://www.ashkadymel.com,,,,"BROOKLYN, NY United States",United States,Handmade/Craft | Jewelry - Fashion | Made in the USA,,,"Ashka’s approach to jewelry making and design is informed by her architectural training. She achieves harmony in modular repetitions and variations on geometric forms. All the work is handmade in Brooklyn using sterling silver, 18k gold bimetal and semi precious stones and minerals."
New York Now Winter,02/06/2022,2022,https://nynow.com/future-market/,DM,"Avatar Imports, LLC",1652,,http://www.avatarimports.net,,,,"Santa Cruz, CA United States",United States,Apparel/Clothing | Private Label,,,Fairtrade clothing from Napal.
New York Now Winter,02/06/2022,2022,https://nynow.com/future-market/,DM,Artsy Doormats,2242,,www.artsydoormats.com,,,,"Cherry Hill, NJ United States",United States,,,,
New York Now Winter,02/06/2022,2022,https://nynow.com/future-market/,DM,ArtNWordz,2727,,http://www.artnwordz.com,,,,"Long Beach, CA United States",United States,Handmade/Craft | Made in the USA,,,"We save damaged dictionary books & use these sources (up to140 years old) as canvases for our artworks. Each page is refurbished & mounted on acid free backing for preservation, the words match the images and each is a one of a kind. All designs are avaialable as prints,coasters,totebags and socks."
New York Now Winter,02/06/2022,2022,https://nynow.com/future-market/,DM,Baabaazuzu,1157,,http://www.baabaazuzu.com,,,,"Lake Leelanau, MI United States",United States,Environmentally Friendly/Natural/Recycled Products | Apparel/Clothing | Made in the USA,,,"Women's and men's accessories handcrafted in the USA from reclaimed woolens. Notable for their mittens and fingerless gloves, Baabaazuzu offers a range of other wearables. Our mission is to repurpose discarded wool garments into artful design and function, at a high standard of quality."
New York Now Winter,02/06/2022,2022,https://nynow.com/future-market/,DM,ARTISTS IN ORBIT,1930,,ARTISTSINORBIT.NET,,,,"New York, NY United States",United States,,,,
New York Now Winter,02/06/2022,2022,https://nynow.com/future-market/,DM,ALEX+SVET,1154,,http://www.alex-svet-jewelry.design,,,,"Paris, France",France,Handmade/Craft | Jewelry - Fashion,,,
New York Now Winter,02/06/2022,2022,https://nynow.com/future-market/,DM,Art Floral Trading LLC,2426,,http://www.floralimport.com,,,,"Redwood City, CA United States",United States,Decorative Accessories | Handmade/Craft,,,
New York Now Winter,02/06/2022,2022,https://nynow.com/future-market/,DM,Art De Lys,2238,,http://www.artdelys.com,,,,"Lys Lez Lannoy, France",France,Home Textiles,,,
New York Now Winter,02/06/2022,2022,https://nynow.com/future-market/,DM,Alain Saint-Joanis,2304,,http://www.alain-saint-joanis.com,,,,"La Monnerie, France",France,Tabletop,,,"Alain Saint-Joanis is a family-owned company located in the heart of France. For several generations, top quality silverware and steak knives have been designed and crafted with a single concern in mind: quality."
New York Now Winter,02/06/2022,2022,https://nynow.com/future-market/,DM,ACGS,1943,,http://www.acgsbrands.com,,,,"New York, NY United States",United States,Decorative Accessories | Home Furnishings | Kitchenware/Kitchen Accessories,,,We have been showcasing our brands with a carefully curated selection of goods at one of the most important design and home goods shows in North America — NYNOW (previously NYIGF) since 2013.
New York Now Winter,02/06/2022,2022,https://nynow.com/future-market/,DM,A.Sanoma Inc.,2340,,http://www.asanoma.com,,,,"Long Island City, NY United States",United States,Decorative Accessories,,,"A Global Home Furnishings & Lighting Company - Your premier source for bone boxes, glass lanterns & hurricanes, magnifying glasses, frames, clocks, knobs, and much more!"
New York Now Winter,02/06/2022,2022,https://nynow.com/future-market/,DM,Barefoot Dreams Inc.,101,,http://www.barefootdreams.com,,,,"Agoura, CA United States",United States,Children's/Baby Items | Apparel/Clothing | Pet Products,,,"The Barefoot Dreams Collection features a variery of cozy and luxurious blankets, throws, & apparel for the whole family, including pets!"
New York Now Winter,02/06/2022,2022,https://nynow.com/future-market/,DM,417 Press,2853,,http://www.417press.com,,,,"St-Laurent, QC Canada",Canada,,,,
New York Now Winter,02/06/2022,2022,https://nynow.com/future-market/,DM,Aid Through Trade,1435,,http://www.aidthroughtrade.com,,,,"Annapolis, MD United States",United States,Jewelry - Fashion,,,
New York Now Winter,02/06/2022,2022,https://nynow.com/future-market/,DM,Adel Chefridi,2118,,http://www.chefridi.com,,,,"Kingston, NY United States",United States,Jewelry - Fashion,,,
New York Now Winter,02/06/2022,2022,https://nynow.com/future-market/,DM,Alashan Cashmere Company,2253,,http://www.alashancashmere.com,,,,"Mapleville, RI United States",United States,Apparel/Clothing | Home Textiles | Private Label,,,Alashan Cashmere Company offers a wide array of cashmere and cashmere blend throws for the home and interior decorating trade. Pillow covers are a new addition to the line.  Shop our array of Claudia Nichole and Caroline Grace ponchos and wraps.
New York Now Winter,02/06/2022,2022,https://nynow.com/future-market/,DM,AHDORNED,928,,http://www.ahdorned.com,,,,"Scarsdale, NY United States",United States,,,,Fashion Handbags at Affordable prices. Novelty Key Chains & Bag Tags/Swag. Vegan. Monogrammable.
New York Now Winter,02/06/2022,2022,https://nynow.com/future-market/,DM,925Suneera Jewelry,2157,,http://www.925suneera.com,,,,"Los Angeles, CA United States",United States,Jewelry - Fashion | Made in the USA,,,
