ShowName,ShowDate,ShowYear,ShowWebsite,SubmittedBy,ExhibitorName,BoothNumber,HallLocation,Website,Email,Phone,Fax,Address,Country,Categories,Manufacturers,Brands,Description
JDC,03/29/2022,2022,https://www.journeesdescollections.com/en/,DM,4 SEASONS OUTDOOR BV,A14,Esplanade,http://www.4seasonsoutdoor.fr,,,,,nl,"Building & landscaping, Outdoor living",,,One again 4 Seasons Outdoor furniture collections excels in quality and design. With guarantees up to 10 years we stand for quality. The extensive range is an addition for every store specializing in garden furniture.
JDC,03/29/2022,2022,https://www.journeesdescollections.com/en/,DM,8 SEASONS DESIGN GMBH,K23,Hall 1,http://WWW.8-SEASONS-DESIGN.DE,,,,,de,"Building & landscaping, Services, Outdoor living",,,"8 Seasons Design, an interior / exterior lighting specialist, manufactures its models in its own factory. The brand is synonymous with conscientious production in Germany, we also use recyclable polyethylene."
JDC,03/29/2022,2022,https://www.journeesdescollections.com/en/,DM,AB SAFETY,V22,Hall 2,http://www.ab-safety.eu,,,,,be,"Gardening, Outdoor living",,,AB-Safety specializes in providing personal protective equipment to dealers and retailers in Europe. AB-Safety has been active in the wholesale distribution “Business to Professional” and “Business to Consumer” for over 25 years.
JDC,03/29/2022,2022,https://www.journeesdescollections.com/en/,DM,AEROSPRING HYDROPONICS,P21,Hall 2,http://,,,,,sg,,,,
JDC,03/29/2022,2022,https://www.journeesdescollections.com/en/,DM,AGARIS,P05,Hall 2,http://www.agaris.com,,,,,fr,Gardening,,,"Agaris creates growing media for different sales segments. Professional growers from all over the world can daily count on our specialized substrates for a sustainable and performant cultivation. Our substrates are essential for the cultivation of mushrooms, fruits & vegetables&nbsp;(...)"
JDC,03/29/2022,2022,https://www.journeesdescollections.com/en/,DM,AGRIVER,R26,Hall 2,https://www.tonusol.com/,,,,,fr,Gardening,,,"FERTILISERS, TOP SOILS, MULCHES and  MANURE all organically certified by ECOCERT. Our high quality products are specifically tailored to each plant need and care. All the properties including Lombric Compost, seaweed, micro-nutrients and organic materials 100% natural garantee."
JDC,03/29/2022,2022,https://www.journeesdescollections.com/en/,DM,AIC INTERNATIONAL,A93,Esplanade,https://www.aic-international.net,,,,,fr,"Gardening, Building & landscaping, Outdoor living",,,"AIC International designs and provides outdoor decoration and solar lighting products for over 15 years marketed under the brand ORIUM Jardin, a pioneer in ecological lighting, we have built a complete range according to current trends."
JDC,03/29/2022,2022,https://www.journeesdescollections.com/en/,DM,AJS BLACKFOX,N20,Hall 2,http://blackfox-group.com,,,,,fr,Gardening,,,"AJS is a French company, specialized in gardening footwear, in garden centers and DIY stores in France and all Europe."
JDC,03/29/2022,2022,https://www.journeesdescollections.com/en/,DM,ALLIANCE SCP PARTENAIRES,P45,Hall 2,http://,,,,,fr,,,,
JDC,03/29/2022,2022,https://www.journeesdescollections.com/en/,DM,ALTONA FORESTA,A52,Esplanade,http://www.foresta.fr,,,,,fr,"Gardening, Building & landscaping, Outdoor living",,,"Our company produce garden products for chainstores. we have 3 factories in Europe who produce wooden sheds , pergolas and carports and others products for the garden. Our head office is the leader for injection and extrusion products for garden and&nbsp;(...)"
JDC,03/29/2022,2022,https://www.journeesdescollections.com/en/,DM,AMSCAN EUROPE GMBH,D34,Hall 1,http://www.amscan-europe.com,,,,,de,Outdoor living,,,"Amscan produces partygoods, latex & foil balloons and dress up items. Our large selection of products covers all occasions and all ages: birthday, baby shower, wedding,... We have products for Everyday and Seasonal campaigns: Valentine’s Day, Halloween, Christmas, NY. Licensed &&nbsp;(...)"
JDC,03/29/2022,2022,https://www.journeesdescollections.com/en/,DM,ANDERMATT FRANCE,N34,Hall 2,https://www.andermatt.fr/,,,,,fr,Gardening,,,
JDC,03/29/2022,2022,https://www.journeesdescollections.com/en/,DM,ANDREA BIZZOTTO SPA,D33,Hall 1,http://www.bizzotto.com,,,,,it,"Gardening, Building & landscaping, Outdoor living, Services",,,"The company was founded by Andrea Bizzotto in 1946. Initially bound to local craftsmanship, with wicker accessories and furnishings, over the years the company grew in its search for products until it reached the far East. Outdoor furniture, indoor furniture, home&nbsp;(...)"
JDC,03/29/2022,2022,https://www.journeesdescollections.com/en/,DM,ANDRONI GIOCATTOLI S.R.L,I03,Hall 1,http://www.andronigiocattoli.it,,,,,it,Outdoor living,,,"Italian manufacturer for the last 46 years, Androni Giocattoli is specialized in the production of plastic toys : Gardening toys, Lawn Mowers, Wheel Barrows, Gardening Tools, Swings, Outdoor Beach, Sport...  2021 : NEW RANGE made out of sugar cane - 100 %&nbsp;(...)"
JDC,03/29/2022,2022,https://www.journeesdescollections.com/en/,DM,ANTICOMESTIERE  GARDEN SERVICE SRL,B28,Hall 1,http://WWW.ANTICOMESTIERE.COM,,,,,it,"Building & landscaping, Gardening",,,"We are producers of terracotta and plastic pots. The brand AnticoMestiere has become a leader on the national and international scene of terracotta.Our production represent the typical Tuscan tradition, the high quality products are made with Galestro clay, one of&nbsp;(...)"
JDC,03/29/2022,2022,https://www.journeesdescollections.com/en/,DM,AQUALUX - CF GROUP,F07,Hall 1,https://www.edg-by-aqualux.com/accueil/,,,,,fr,Building & landscaping,,,"Subsidiary one of the European leaders in the swimming pool, spa and pond market (CF Group), we offer a complete innovative range for the maintenance, renovation and valorisation of swimming pools and water gardens:  Our main manufactured products  Chemistry,  Filtration,&nbsp;(...)"
JDC,03/29/2022,2022,https://www.journeesdescollections.com/en/,DM,ARCHE DIFFUSION,C03,Hall 1,http://www.archediffusion.fr,,,,,fr,"Services, Building & landscaping, Outdoor living",,,"Arche Diffusion is specialized in artificial flowers. From imported flowers, we create our own floral arrangements in our workshop (based in the Sout-west of France). We give priority to the quality of our products and our French craftmanship, thanks to&nbsp;(...)"
JDC,03/29/2022,2022,https://www.journeesdescollections.com/en/,DM,ARDEA,B02,Hall 1,http://www.ardeagroupe.fr,,,,,fr,"Gardening, Building & landscaping",,,"ARDÉA develops and markets cleaning, DIY and ignition products for the general public. The company is currently the leader in France in the distribution of chemicals and solvents. Its activities are deployed through brand worlds such as: Onyx: solvents and DIY&nbsp;(...)"
JDC,03/29/2022,2022,https://www.journeesdescollections.com/en/,DM,ARETA SRL,A20,Esplanade,http://www.areta.com,,,,,it,Outdoor living,,,"Since 1987 Areta has been leader in the production of plastics furniture. It is one of the symbols of Italian quality design. The products are conceived to be multifunctional, quality recognisable, long–lasting and suitable for indoor and outdoor contract sector."
JDC,03/29/2022,2022,https://www.journeesdescollections.com/en/,DM,ARLUX LIGHTING,H25,Hall 1,https://arlux-lighting.fr/,,,,,fr,Building & landscaping,,,"CREATIVE DESIGN & SMART SOLUTION FOR LIGHTING ARLUX is a continuation of a decades of experience in the domestic and professional lighting: from creating originaux designs to production, through compliance controls and performance."
JDC,03/29/2022,2022,https://www.journeesdescollections.com/en/,DM,ARMOSA,S33,Hall 2,https://www.armosa.eu/fr/,,,,,fr,Gardening,,,"Armosa is the new name for all the activities of the Aedes-Protecta / Belgagri / Biosix group. With this new name, we are moving more than ever before towards becoming a market leader in solutions for the protection against, and&nbsp;(...)"
JDC,03/29/2022,2022,https://www.journeesdescollections.com/en/,DM,AROZ,R08,Hall 2,http://,,,,,fr,Gardening,,,
JDC,03/29/2022,2022,https://www.journeesdescollections.com/en/,DM,ART PLAST S.P.A.,B19,Hall 1,https://www.artplast.it/,,,,,it,"Building & landscaping, Outdoor living",,,"Art Plast is an Italian production Company, founded in 1981 We have a wide range of products: from plastic cabinets, to shelves, and tiles of different sizes and models. This year we propose a range of innovative pots,  made with 100%&nbsp;(...)"
JDC,03/29/2022,2022,https://www.journeesdescollections.com/en/,DM,ATELIER DES TROIS MONDES,G33,Hall 1,http://https://atelierdestroismondes.wordpress.com/,,,,,fr,"Building & landscaping, Outdoor living, Services",,,
JDC,03/29/2022,2022,https://www.journeesdescollections.com/en/,DM,AZURIO,C04,Hall 1,https://www.azurio-gazon.fr,,,,,fr,"Building & landscaping, Outdoor living",,,"Azurio, French manufacturer of synthetic turf for 15 years, offers ultra-realistic, high-end and competitive products. A manufacturer who protects its partners thanks to a flawless business ethic, offering adapted marketing supports, internal and efficient logistics ..."
JDC,03/29/2022,2022,https://www.journeesdescollections.com/en/,DM,BAHCO,U32,Hall 2,http://www.bahco.com/fr,,,,,fr,Gardening,,,"Tool manufacturer since more than 150 years with 11 factories in Europe including 2 in France, Bahco offers a large range of tools for the passionate gardener as well as for the following applications : landscaping, horticulture, viticulture, pomology and&nbsp;(...)"
JDC,03/29/2022,2022,https://www.journeesdescollections.com/en/,DM,BARBECOOK (LIVWISE),L26,Allée/Alley,http://www.barbecook.com,,,,,be,Outdoor living,,,"Barbecook has since its creation in 1985 one mission: respond to innovation what makes barbecuing nicer and easier. Today Barbecook offers different barbecue models, ranging from charcoal and gas to smokers, but also the most extensive range of accessories on&nbsp;(...)"
JDC,03/29/2022,2022,https://www.journeesdescollections.com/en/,DM,BARENBRUG FRANCE,P32,Hall 2,http://semer-gazon.fr/barenbrug-france/,,,,,fr,Gardening,,,"Branding, production and trading of turf seeds"
JDC,03/29/2022,2022,https://www.journeesdescollections.com/en/,DM,BATIMEX SAS - LUMISKY,H19,Hall 1,http://www.lumisky.com,,,,,fr,"Building & landscaping, Gardening, Outdoor living",,,"Lumisky is a BATIMEX’s brand, specialized in ambient lighting, for indoor and outdoor use. Historically manufactured in China, we are developing our production in Europe since 2015. We are proud to be able to say ’Made in EU’ for more&nbsp;(...)"
JDC,03/29/2022,2022,https://www.journeesdescollections.com/en/,DM,BAUDOU,P29,Hall 2,http://www.baudou.fr,,,,,fr,Gardening,,,"Our story started in 1910, and since then we have never stopped innovating. Today, we are at many professionals¹ feet Farming, Construction, Heavy, Duty, Health, Food Processing, Transport of Dangerous Products, Industry and Artisans you name their trade and we will&nbsp;(...)"
JDC,03/29/2022,2022,https://www.journeesdescollections.com/en/,DM,BAYROL FRANCE,F11,Hall 1,http://www.bayrol.com,,,,,fr,Building & landscaping,,,BAYROL is the pool & spa water expert. BAYROL products are available throughout Europe. Choosing BAYROL : A complete range of products Innovative products The guarantee of qualitative and compliant products. Accurate and reliable advice.
JDC,03/29/2022,2022,https://www.journeesdescollections.com/en/,DM,BELLAMOLI GRANULATI SPA,A62,Esplanade,http://www.bellamoli.it/,,,,,it,Building & landscaping,,,"The story of an enterprise is often linked to that of a family,it started back in 1927. Nowadays the company boasts three transformation sites, a significant production capacity, their own quarries(the best guarantee for colour uniformity of their materials), one&nbsp;(...)"
JDC,03/29/2022,2022,https://www.journeesdescollections.com/en/,DM,BELLI SAS,A05,Esplanade,http://www.belli-france.com,,,,,fr,"Gardening, Building & landscaping, Outdoor living",,,"French Manufacturer, we are specialized in the design, manufacture and market of garden and home equipments. The products manufactured are the following:. Watering can, Water storage,. Dustbins; . Composters,. Parasol base, Containers for plants etc."
JDC,03/29/2022,2022,https://www.journeesdescollections.com/en/,DM,BERGER-WORLD,P38,Hall 2,http://,,,,,fr,"Gardening, Building & landscaping",,,Berger-World is a start-up specializing in water management for plants. Our product for water retention is biodegradable and effective for up to 5 years in the soil. It reduces the watering of plants by up to 80% and promotes their&nbsp;(...)
JDC,03/29/2022,2022,https://www.journeesdescollections.com/en/,DM,BESNARD / DUNLOP,W25,Hall 2,https://www.besnard.fr/,,,,,fr,Gardening,,,"BESNARD Specialized in the design and distribution of footwear and garment collections, casual and work. DUNLOP The world’s leading boot specialist, known for its unique material, PUROFORT gives its products lightness, thermal insulation and durability."
JDC,03/29/2022,2022,https://www.journeesdescollections.com/en/,DM,BESTWAY FRANCE,F03,Hall 1,http://www.bestwaycorp.fr,,,,,fr,"Building & landscaping, Outdoor living",,,"Bestway has devoted its efforts to strengthening research, design, development and the manufacturing of high quality and innovative outdoor leisure products to meet the needs of every consumer with inflatable stand up paddleboards, above ground pools, portable spas and flocked&nbsp;(...)"
JDC,03/29/2022,2022,https://www.journeesdescollections.com/en/,DM,BGS CD,A80,Esplanade,https://www.bgscd.com,,,,,fr,"Building & landscaping, Outdoor living, Gardening",,,"BGScd is a major player in the market for garden shelters, storage boxes, garages and carports. We offer the 3 materials (Metal, PCV and wood) through wide ranges (from entry-level to high-end), qualitative (guaranteed up to 30 years), original in&nbsp;(...)"
JDC,03/29/2022,2022,https://www.journeesdescollections.com/en/,DM,BILLIET,L08,Esplanade,http://Https://cosy-trendy.eu,,,,,be,"Building & landscaping, Outdoor living, Services, Gardening",,,
JDC,03/29/2022,2022,https://www.journeesdescollections.com/en/,DM,BIO SERVICES INTERNATIONAL - BSI,P33,Hall 2,http://www.bsi-products.com,,,,,be,"Gardening, Building & landscaping",,,
JDC,03/29/2022,2022,https://www.journeesdescollections.com/en/,DM,BIOLANDES PIN DECOR,P47,Hall 2,http://,,,,,fr,,,,
JDC,03/29/2022,2022,https://www.journeesdescollections.com/en/,DM,BONFEU,L47,Allée/Alley,http://www.bonfeu.com,,,,,nl,Outdoor living,,,"BonFeu is a major player in the world of fire baskets, fireplaces and fire bowls, and has outdoor living and cooking as focus point. The BonFeu brand stands for a recognizable design, a well thought-out design and high quality. Many&nbsp;(...)"
JDC,03/29/2022,2022,https://www.journeesdescollections.com/en/,DM,BOSCH FRANCE,Y38,Hall 2,http://www.bosch-do-it.com,,,,,fr,Gardening,,,"Renovating, building your own furniture or creatively improving your own home: DIY tools from Bosch Power Tools stimulate the imagination and maximize the enjoyment of home improvement work. Bosch is one of the worldwide leaders in DIY tools, accessories, measuring&nbsp;(...)"
JDC,03/29/2022,2022,https://www.journeesdescollections.com/en/,DM,BOUTTE SAS,U20,Hall 2,http://www.boutte.fr,,,,,fr,"Gardening, Building & landscaping",,,"Medium-sized family industry since 1867, specialized in bar-turning and the French metal watering market leader, Boutté designs, produces and distributes ranges for garden water supply: surface irrigation connectors and terminal sprinklers, pumping accessories and water recovery accessories."
JDC,03/29/2022,2022,https://www.journeesdescollections.com/en/,DM,BREINAS,R24,Hall 2,http://,,,,,lv,,,,
JDC,03/29/2022,2022,https://www.journeesdescollections.com/en/,DM,BRIGGS & STRATTON,Z26,Hall 2,http://www.briggsandstratton.com,,,,,fr,"Gardening, Outdoor living",,,"Briggs & Stratton Corporation (NYSE: BGG), headquartered in Milwaukee, Wisconsin, is focused on providing power to get work done and make people’s lives better. Briggs & Stratton is the world’s largest producer of gasoline engines for outdoor power equipment, and&nbsp;(...)"
JDC,03/29/2022,2022,https://www.journeesdescollections.com/en/,DM,BRIGHT WIN -STUDIO DMP LTD,M39,Allée/Alley,http://,,,,,gb,Outdoor living,,,"Bright Win STUDIO an Internationally recognised specialist in the BBQ Industry. Supplying most major BBQ markets  (US and EU)with its award winning products Bright Win STUDIO design their grills (gas and electric) in Europe and supply major brands, distributors&nbsp;(...)"
JDC,03/29/2022,2022,https://www.journeesdescollections.com/en/,DM,BURGER ET CIE,M11,Allée/Alley,https://www.jardipolys.com,,,,,fr,"Gardening, Building & landscaping, Outdoor living",,,"Burger & Cie manufactures and markets outdoor landscaping products with the brand Jardipolys : flower boxes, vegetable plots, picnic tables, panels ... Present on all distribution circuits (GSB, GSA, merchants ...), our innovation is our strength."
JDC,03/29/2022,2022,https://www.journeesdescollections.com/en/,DM,CADAC EUROPE BV,L33,Allée/Alley,https://www.cadacinternational.com/,,,,,nl,Outdoor living,,,"Known for product quality and innovation, Cadac products have been the companions of all occasions and places for more than 70 years. With a wide range of products, Cadac design and manufacture products that maximise the enjoyment of the BBQ&nbsp;(...)"
JDC,03/29/2022,2022,https://www.journeesdescollections.com/en/,DM,CAMPINGAZ - APPLICATION DES GAZ,J15,Hall 1,http://www.campingaz.com/FR/,,,,,fr,Outdoor living,,,"Barbecues and planchas: No smoke, no sweat. We have covered everything you need for easy barbecuing – electronic ignition, large cooking surfaces, easy grease collection... Our range of accessories will give you the opportunity to turn your hand to something&nbsp;(...)"
JDC,03/29/2022,2022,https://www.journeesdescollections.com/en/,DM,"CAÑIZOS FAURA, S.L.",J16,Hall 1,http://www.cfaura.com,,,,,es,"Gardening, Building & landscaping, Outdoor living",,,"Cañizos Faura, S.L. is a manufacturer of reed screen, heather, willow, decorative items, accessories, fencing, shading, furniture, construction .., both for the garden and for the interior, highlighting his specialization in the field of ARTIFICIAL GRASS.."
JDC,03/29/2022,2022,https://www.journeesdescollections.com/en/,DM,CATRAL GARDEN,C07,Hall 1,http://www.catralgarden.com,,,,,es,"Gardening, Building & landscaping, Outdoor living",,,"CATRAL GARDEN is an Spanish company with subsidiary in France specialised in DIY, gardening and decoration. It outstands in continuous innovation and own manufacture with products like artificial hedges, natural and PVC screens, trellis, meshes, tiles, artificial grass, cultivation..."
JDC,03/29/2022,2022,https://www.journeesdescollections.com/en/,DM,CATROS GERAND,N29,Hall 2,http://www.lesdoigtsverts.com,,,,,fr,Gardening,,,"Founded in 1785, CATROS GERAND specialises in the sale of flower and vegetable seeds, bulbs and lawns"
JDC,03/29/2022,2022,https://www.journeesdescollections.com/en/,DM,CAUDAL,P16,Hall 2,http://caudal.es,,,,,es,Gardening,,,System company of irrigation and water conductions created in 1995 and with vocation of constant growth and planning of expansion in different countries. National and international leaders with 100.000 m2 of facilities in Spain.
JDC,03/29/2022,2022,https://www.journeesdescollections.com/en/,DM,CAVAC BIOMATÉRIAUX,S34,Hall 2,http://www.biofibjardin.fr,,,,,fr,Gardening,,,"Manufacturer of mulch for garden and bedding, hemp, wheat straw, felt hemp, PLA, products for abiotic tomatoes and exclusive staking systems defenses. We product  litters and foods for animals too."
JDC,03/29/2022,2022,https://www.journeesdescollections.com/en/,DM,CAVATORTA FRANCE SAS,P04,Hall 2,http://https://www.cavatorta.fr,,,,,fr,Building & landscaping,,,"CAVATORTA Since 1961 we have been producing long lasting wire mesh, designed and manufactured for the residential, industrial, sports, construction and agricultural sectors."
JDC,03/29/2022,2022,https://www.journeesdescollections.com/en/,DM,CELL-FAST SP. Z O.O.,R18,Hall 2,http://www.cellfast.fr,,,,,pl,"Gardening, Building & landscaping, Services, Outdoor living",,,"The Cellfast Group is the manufacturer of hoses, garden accessories - watering systems, garden care tools, axes, rakes, digging tools, hose carts and reels, trimmer lines, lawn edges and garden palisades, technical hoses, gutter systems and soffits - all with&nbsp;(...)"
JDC,03/29/2022,2022,https://www.journeesdescollections.com/en/,DM,CHAMORIN - PENEZ,A87,Esplanade,http://www.chamorin.fr,,,,,fr,"Gardening, Building & landscaping, Services",,,
JDC,03/29/2022,2022,https://www.journeesdescollections.com/en/,DM,CHAPELU FRERES,E12,Hall 1,http://www.chapelu.com,,,,,fr,"Building & landscaping, Outdoor living",,,"A family company founded in 1956, French manufacturer of recycled materials pottery, rotational flower pots, horticultural containers, ornamental and bright products, flowers, plants and artificial trees. From creation to realization, which has been recognized for more than 60 years."
JDC,03/29/2022,2022,https://www.journeesdescollections.com/en/,DM,CHARBROIL EUROPE GMBH,M15,Allée/Alley,http://www.charbroil.fr/,,,,,de,Outdoor living,,,"Char-Broil®, American leader in gas barbecues, will seduce with many innovations grills and its new cooking technology : TRU-Infrared System !  Gas, charcoal, hybrid, electric or portable, Char-Broil® grills ensure a unique cooking experience, always successful !"
JDC,03/29/2022,2022,https://www.journeesdescollections.com/en/,DM,CHRISOFLEURS,D04,Hall 1,http://,,,,,fr,Outdoor living,,,
JDC,03/29/2022,2022,https://www.journeesdescollections.com/en/,DM,CIJEP,I01,Hall 1,http://www.jemini.fr,,,,,fr,Outdoor living,,,"CIJEP - JEMINI, is a French company who creates et distributes children products. Her expertise leads to the creation of original and quality products such as Plush toys Bedroom decoration Outdoor furnitures Tableware Her design studio proposes genuine own créations, or products with licences"
JDC,03/29/2022,2022,https://www.journeesdescollections.com/en/,DM,CLABER,R16,Hall 2,http://www.claber.com,,,,,it,Gardening,,,"The expertise and research of the Masters of Water available for gardens, vegetable patches and terraces: products and solutions of above-ground, drip and underground irrigation which combine technology, ease of use and respect of the environment."
JDC,03/29/2022,2022,https://www.journeesdescollections.com/en/,DM,COGEX,A103,Esplanade,http://www.cogex.com,,,,,fr,"Gardening, Building & landscaping, Outdoor living",,,
JDC,03/29/2022,2022,https://www.journeesdescollections.com/en/,DM,COLIN CALENDARS SPRL,T43,Hall 2,http://www.colin.be,,,,,be,"Gardening, Outdoor living, Services, Building & landscaping",,,
JDC,03/29/2022,2022,https://www.journeesdescollections.com/en/,DM,COMERCIAL QUIMICA MASSO,R34,Hall 2,http://www.massogarden.com,,,,,fr,Gardening,,,Manufacturer of fertilizers and phytosanitary products
JDC,03/29/2022,2022,https://www.journeesdescollections.com/en/,DM,COMINTES | CHALET-JARDIN,F27,Hall 1,http://www.chalet-jardin.com/,,,,,fr,"Building & landscaping, Outdoor living",,,"Comintes Chalet-Jardin, designs or markets a wide range of outdoor equipment for distributors: garden furniture, garden storage in resin, wood or metal (shelters, chests, wardrobes), bioclimatic pergolas, pergolas, carports, greenhouses, tarpaulins and covers..."
JDC,03/29/2022,2022,https://www.journeesdescollections.com/en/,DM,COMPAGNIE DES ENGRAIS DE LONGUEIL,R10,Hall 2,http://,,,,,fr,Gardening,,,
JDC,03/29/2022,2022,https://www.journeesdescollections.com/en/,DM,COMPO FRANCE,T04,Hall 2,http://www.algoflash.fr,,,,,fr,"Gardening, Building & landscaping",,,"COMPO France is a major manufacturer of garden products: growing media, fertilizers, lawn seeds, plant protection products, weedkillers, household insecticides and pest control products under brands Algoflash, Naturasol, Clairland, Barrière à Insectes, Barrière à Rongeurs and Barrière Répulsive."
JDC,03/29/2022,2022,https://www.journeesdescollections.com/en/,DM,COOK KING,L15,Esplanade,https://cookking.com/,,,,,pl,Outdoor living,,,"Cook King brand is engaged in manufacturing hand made products for home and garden.  Steel, 2-5 millimetre thick elements ensure a long lifetime of the goods. Only high quality materials from European steel mills are used in the production&nbsp;(...)"
JDC,03/29/2022,2022,https://www.journeesdescollections.com/en/,DM,COREP SAS,J31,Hall 1,http://www.corep.com,,,,,fr,"Building & landscaping, Services, Outdoor living, Gardening",,,
JDC,03/29/2022,2022,https://www.journeesdescollections.com/en/,DM,COTTON WOOD,K25,Hall 1,http://www.cottonwood.fr,,,,,fr,"Building & landscaping, Outdoor living",,,
JDC,03/29/2022,2022,https://www.journeesdescollections.com/en/,DM,COULEURS DU MONDE,H34,Hall 1,http://www.couleursdumonde.fr,,,,,fr,"Gardening, Building & landscaping, Outdoor living, Services",,,Couleurs du Monde is specialized in conception and distribution of designed and contemporary pergolas. Couleurs du monde also proposes qualitative and innovative outdoor furniture aiming value for money.
JDC,03/29/2022,2022,https://www.journeesdescollections.com/en/,DM,CPL FRANCE (FILIALE DU GROUPE CPL INDUSTRIES UK),L31,Allée/Alley,http://,,,,,fr,,,,"CPL France is a manufacturer of solid fuels for heating and barbecue, manufacturing 500.000 t of STARCITE pellets, forestry Eco responsible LATVIA bags of logs, FSC firewood, compressed logs, charcoal, barbecue briquettes and briquettes of lignite etc..."
JDC,03/29/2022,2022,https://www.journeesdescollections.com/en/,DM,CREA,S22,Hall 2,http://decamp.info,,,,,fr,"Outdoor living, Gardening",,,"fight against pests of the house and the garden, protect and care for its plants, eliminate weeds ... while respecting our planet as well as possible: this is the motto of our SME. Industrial certainly but not only! we are&nbsp;(...)"
JDC,03/29/2022,2022,https://www.journeesdescollections.com/en/,DM,CREAGREEN -TECHNOFLEX,A22,Esplanade,http://www.creagreen.eu,,,,,ca,"Gardening, Building & landscaping, Outdoor living",,,"Specialized since more than 10 years in the recycling activity, dedicated for garden items, we produce: - Garden borders, ecological floor panels, BBQ mats in recycled rubber - Floor panels and light roofing in PP Recycled"
JDC,03/29/2022,2022,https://www.journeesdescollections.com/en/,DM,CROIX CHATELAIN,B29,Hall 1,http://www.croixchatelain.com,,,,,be,"Building & landscaping, Outdoor living",,,"GARDEN ID by Croix Chatelain is the brand that offers every year plenty of novelties for the garden and the home with an adapted presentation in the store. Come and discover them in the following themes: metal ornaments, synthetic resin,&nbsp;(...)"
JDC,03/29/2022,2022,https://www.journeesdescollections.com/en/,DM,CRYOPAK FRANCE,C20,Hall 1,http://,,,,,fr,Outdoor living,,,"Cryopak, company established for 10 years in Normandy, we manufacture cold accumulators and other products related to the cold chain."
JDC,03/29/2022,2022,https://www.journeesdescollections.com/en/,DM,DACHSER INTELLIGENT LOGISTICS,S38,Hall 2,http://www.dachser.fr,,,,,fr,"Gardening, Building & landscaping, Outdoor living, Services",,,The DACHSER DIY-Logistics solution offers tailor-made logistics solutions for the  DIY & GARDEN industry which provide customers with a competitive advantage. The combination of our standard services as well as our industry know-how creates unique benfits for both Suppliers and&nbsp;(...)
JDC,03/29/2022,2022,https://www.journeesdescollections.com/en/,DM,DANIEL PLAT KUTNOWSKA,D19,Hall 1,http://www.2m2.se/fr-FR,,,,,be,"Gardening, Building & landscaping, Outdoor living",,,"2M2 is a Swedish group that develops original concepts in the world of the garden. Vegetable garden, urban garden, or balcony Nice selection of containers  Seeds  Clip-on tiles made of wood or other materials.  Glass and aluminium railing   Competitive quality&nbsp;(...)"
JDC,03/29/2022,2022,https://www.journeesdescollections.com/en/,DM,DANSONS EUROPE BV,L20,Esplanade,http://,,,,,fr,,,,
JDC,03/29/2022,2022,https://www.journeesdescollections.com/en/,DM,DCB GROUPE,H27,Hall 1,http://www.dcb-groupe.com,,,,,fr,"Gardening, Building & landscaping, Outdoor living",,,"Creator of trends in garden furniture and landscaping, DCB Groupe has been a key player for almost 20 years. Our 4 brands combine quality of finish, comfort and tricks. DCB Garden, PARIS Garden, CITY Garden and EZPELETA fit perfectly into any setting."
JDC,03/29/2022,2022,https://www.journeesdescollections.com/en/,DM,DEBARGE,A55,Esplanade,http://www.debarge.fr,,,,,fr,Building & landscaping,,,
JDC,03/29/2022,2022,https://www.journeesdescollections.com/en/,DM,DECOR ET JARDIN S.A.,A47,Esplanade,http://www.decoretjardin.com/fr,,,,,be,Building & landscaping,,,"Our Décor & Jardin plant has been designing and manufacturing wooden sheds, garages, carports... since 1978 in Battice, near Liège in Belgium. We are constantly developing our range to offer innovative models and storage solutions suitable for all budgets. Quality&nbsp;(...)"
JDC,03/29/2022,2022,https://www.journeesdescollections.com/en/,DM,DELUXE HOMEART,J02,Hall 1,http://,,,,,dk,,,,
JDC,03/29/2022,2022,https://www.journeesdescollections.com/en/,DM,DENIS ET FILS SAS,C01,Hall 1,https://www.bougies-denis.com/,,,,,fr,"Outdoor living, Building & landscaping",,,"DENIS & Fils, a family company with over 119 years of experience in the HOME FRAGANCE market, decorative scented and unscented candles.  A real know-how focused on quality (CSR approach) and innovation, present on the specialised and mass market."
JDC,03/29/2022,2022,https://www.journeesdescollections.com/en/,DM,DEVISMES,A61,Esplanade,http://www.devismes.fr,,,,,fr,"Gardening, Building & landscaping, Outdoor living",,,"DEVISMES is a FRENCH manufacturer of metal articles for outdoor decoration  Fountains, Showers,, Borders, decorative panels, Planters, Furniture, decorative items DEVISMES brings color and origninality in your garden"
JDC,03/29/2022,2022,https://www.journeesdescollections.com/en/,DM,DIGEBIS S L,P35,Hall 2,http://,,,,,es,,,,
JDC,03/29/2022,2022,https://www.journeesdescollections.com/en/,DM,DIPRA,U28,Hall 2,http://dipra.fr,,,,,fr,"Gardening, Building & landscaping, Services",,,"Since 1986, Dipra has been distributing ranges of garden products through the Spid'O brand: - A complete range of pumps for watering and evacuation in the house and the garden. - A range of pumps and accessories for the swimming pool. - A&nbsp;(...)"
JDC,03/29/2022,2022,https://www.journeesdescollections.com/en/,DM,DIRICKX,A75,Esplanade,https://www.dirickx.fr,,,,,fr,"Building & landscaping, Services",,,"International boundary fencing specialist (gates, fences, access control) for a century this year. Located in Congrier, Mayenne in France, DIRICKX makes, distributes and studies boundary projects, access control and management."
JDC,03/29/2022,2022,https://www.journeesdescollections.com/en/,DM,DLF FRANCE SAS,P07,Hall 2,http://www.dlf.fr,,,,,fr,Gardening,,,"In partnership with Vilmorin, DLF is a global leader in breeding, production, innovation and marketing of turf grass seed, including innovative packaging solutions. DLF and Vilmorin offer to private gardners concrete solutions for lawn creation and renovation."
JDC,03/29/2022,2022,https://www.journeesdescollections.com/en/,DM,DOMETIC,B11,Hall 1,http://www.dometic.com,,,,,fr,Outdoor living,,,Dometic manufactures and distributes a wide range of mobile fridge and freezer as well as accessories for camping
JDC,03/29/2022,2022,https://www.journeesdescollections.com/en/,DM,DOPPLER E. DOPPLER & CO. GMBH,A32,Esplanade,http://www.dopplerschirme.com,,,,,at,"Outdoor living, Services",,,"Doppler is a leading manufacturer of high quality garden parasols, outdoor cushions, parasol bases and accessories for home and contract use."
JDC,03/29/2022,2022,https://www.journeesdescollections.com/en/,DM,DORMAK LDA,U27,Hall 2,http://,,,,,fr,,,,
JDC,03/29/2022,2022,https://www.journeesdescollections.com/en/,DM,DUNLOP PROTECTIVE FOOTWEAR BV,W25,Hall 2,http://,,,,,nl,,,,
JDC,03/29/2022,2022,https://www.journeesdescollections.com/en/,DM,DUTCH TOYS GROUP B.V.,A36,Esplanade,https://www.exittoys.com,,,,,nl,"Building & landscaping, Outdoor living",,,"Making outdoor toys that are a real joy for both children and parents. When outside, children experience the best adventures. We at EXIT Toys are convinced that great outdoor toys means extra fun. The sturdier, smarter and more playful a&nbsp;(...)"
JDC,03/29/2022,2022,https://www.journeesdescollections.com/en/,DM,EDA,"E08, D01, D03",Hall 1,https://www.groupe-eda.com/,,,,,fr,"Gardening, Building & landscaping, Outdoor living",,,"Creating decorative and innovative products for home and garden : this is EDA’s goal.  The company designs, manufactures and sales sustainable products to answer every arrangement needs for home and outdoor"
JDC,03/29/2022,2022,https://www.journeesdescollections.com/en/,DM,EDDING FRANCE,J17,Hall 1,http://www.edding.com/fr,,,,,fr,"Gardening, Building & landscaping",,,info en attente
JDC,03/29/2022,2022,https://www.journeesdescollections.com/en/,DM,EDELMAN BV,D15,Hall 1,http://www.edelman.nl,,,,,nl,Outdoor living,,,"To make the world more beautiful, more warm and more cosy, both inside and outside the house, and in all seasons. That is our goal!"
JDC,03/29/2022,2022,https://www.journeesdescollections.com/en/,DM,EDEN PARTENAIRE JARDIN,A84,Esplanade,http://www.eden-partenaire-jardin.fr,,,,,fr,"Building & landscaping, Outdoor living",,,Marketing of garden equipment products  * Metal garden sheds Telluria  * Braziers in Corten-steel Remundi * Shading  Nesling * Blue Rabbit Play Grounds * Wooden carports * Wooden garden sheds * Garden lighting
JDC,03/29/2022,2022,https://www.journeesdescollections.com/en/,DM,EDIZA,P08,Hall 2,http://www.ediza.net,,,,,fr,"Building & landscaping, Outdoor living, Gardening",,,"EDIZA specializes in exceptional products for the garden & exterior decoration: Design fiber planters-Terracotta, Natural Sandstone & Glazed Stoneware Planters-Statues, Buddhas, Sculptures & Decorative garden stakes-Fountains-Biodiversity Habitat-Delivery throughout France within 72h/direct Import."
JDC,03/29/2022,2022,https://www.journeesdescollections.com/en/,DM,EINHELL,Y26,Hall 2,http://www.einhell.fr,,,,,fr,Gardening,,,
JDC,03/29/2022,2022,https://www.journeesdescollections.com/en/,DM,EKJU SIA,A23,Esplanade,http://www.ekju.com,,,,,lv,"Gardening, Building & landscaping, Outdoor living, Services",,,"EKJU is a Latvian company founded in 1992. Since our establishment, we have been dedicated to manufacturing practical and long-lasting outdoor wooden furniture of high quality - picnic tables, benches,  table sets. We also produce flower boxes, vegetable &nbsp;(...)"
JDC,03/29/2022,2022,https://www.journeesdescollections.com/en/,DM,ELEM SA,W28,Hall 2,http://www.ELEMTECHNIC.COM,,,,,be,"Gardening, Building & landscaping, Outdoor living",,,"With more than 130 years of experience, ELEM offers a wide range of products for the do-it-yourself market and professional trade. Our products are distributed worldwide and are available from our stock, or on request ! Availability, reactivity and professionalism&nbsp;(...)"
JDC,03/29/2022,2022,https://www.journeesdescollections.com/en/,DM,ELHO INTERNATIONAL BV,H23,Hall 1,http://www.elho.com,,,,,nl,"Gardening, Building & landscaping, Outdoor living",,,Our family company is proud to be the leading innovator in the synthetic pottery market.Our purpose is bringing more nature into people’s daily lives and we’re already doing so more than 30 million times a year. Give Room to Nature.&nbsp;(...)
JDC,03/29/2022,2022,https://www.journeesdescollections.com/en/,DM,EMU GROUP SPA,E23,Hall 1,http://www.emu.it,,,,,it,"Gardening, Building & landscaping, Outdoor living, Services",,,"EMU brings the Italian culture of open-air living to the world, producing signature furniture that combines tradition, technological innovation and quality, for private and public settings. EMU creates unique products that last in time thanks to their balanced mix of&nbsp;(...)"
JDC,03/29/2022,2022,https://www.journeesdescollections.com/en/,DM,ENO,L21,Esplanade,http://plancha-eno.com,,,,,fr,Outdoor living,,,"Eno Company is conceiving, testing and making cooking appliances since more than a hundred years in it’s factory at Niort. Our company is offering a wide range of electrical or gaz planchas, and fournitures adapted for exteriors. All of the&nbsp;(...)"
JDC,03/29/2022,2022,https://www.journeesdescollections.com/en/,DM,ESSCHERT DESIGN BV,K20,Hall 1,https://www.esschertdesign.nl/,,,,,nl,"Gardening, Building & landscaping, Outdoor living",,,"Items with a garden spirit : brasero, birdfeeder, nextboxes, insect hotel,, cast iron items, bags, umbrellas, watering can, outdoor carpet, doormats, pots, garden furniture, children range for garden, juice dispenser..."
JDC,03/29/2022,2022,https://www.journeesdescollections.com/en/,DM,ETESIA SAS,R03,Hall 2,http://www.outils-wolf.com,,,,,fr,Gardening,,,Outils WOLF dedicated to your garden since 60 years ! A French brand of lawnmowers and garden tools. OUTILS WOLF has had a rich history since its creation  in 1958.  The brand has continually relied on two fundamentals: quality and&nbsp;(...)
JDC,03/29/2022,2022,https://www.journeesdescollections.com/en/,DM,EURO 3 PLAST SPA,D23,Hall 1,http://WWW.EURO3PLAST.COM,,,,,it,"Building & landscaping, Outdoor living",,,"Pots to amaze. Different shapes, colors and sizes: all the solutions to express your style and reveal your personality whether at home or in the garden through the choice of a plastic pot."
JDC,03/29/2022,2022,https://www.journeesdescollections.com/en/,DM,EURO DISTRIBUTION,C14,Hall 1,http://,,,,,fr,"Services, Building & landscaping, Outdoor living",,,"French importer of Artificial flowers and plants, Creator of thematic, Manufacturer of funerary compositions,"
JDC,03/29/2022,2022,https://www.journeesdescollections.com/en/,DM,EURO ENERGIES,L49,Allée/Alley,http://,,,,,fr,,,,
JDC,03/29/2022,2022,https://www.journeesdescollections.com/en/,DM,EURO-TECH DISTRIBUTION,S37,Hall 2,http://www.zeromoustique.fr,,,,,fr,Outdoor living,,,
JDC,03/29/2022,2022,https://www.journeesdescollections.com/en/,DM,EUROFAR INTERNATIONAL B.V.,A27,Esplanade,http://,,,,,nl,,,,
JDC,03/29/2022,2022,https://www.journeesdescollections.com/en/,DM,EUROM B.V.,L29,Allée/Alley,http://www.eurom.nl,,,,,nl,"Gardening, Outdoor living, Building & landscaping",,,"Eurom is over 45 years a well-trusted importer of Patio heaters, Highpressure cleaners, heaters, climate control products and Garden tools. By keeping on innovating we always offer an actual and up-to-date assortment. Eurom offers comfort for everyone."
JDC,03/29/2022,2022,https://www.journeesdescollections.com/en/,DM,EUROSYSTEMS,Y34,Hall 2,http://www.eurosystems-spa.com,,,,,it,Gardening,,,"Since 1973, Eurosystems has been developing, designing and manufacturing a complete range of versatile, safe and easy-to-use machines for gardening: multi-tool machines (different tools for garden care and horticulture), tillers, motor mowers, motocultivators, wheelbarrows and many more."
JDC,03/29/2022,2022,https://www.journeesdescollections.com/en/,DM,EVADEA JARDIN,T33,Hall 2,http://www.secret-vert.com,,,,,fr,"Gardening, Building & landscaping",,,
JDC,03/29/2022,2022,https://www.journeesdescollections.com/en/,DM,EVERGREEN GARDEN CARE FRANCE SAS,T16,Hall 2,https://www.lapausejardin.fr,,,,,fr,Gardening,,,Manufacturing and marketing of garden products and Améliorants of the ground.
JDC,03/29/2022,2022,https://www.journeesdescollections.com/en/,DM,EXELGREEN,A85,Esplanade,http://www.exelgreen.com,,,,,fr,Building & landscaping,,,"As European manufacturer of artificial grass for ornamental and residential purposes, Exelgreen specializes in the sale of its top quality products in France and Europe. Exelgreen has more than 10 years’ experience and has sold more than 8 million m²,&nbsp;(...)"
JDC,03/29/2022,2022,https://www.journeesdescollections.com/en/,DM,F1 DISTRIBUTION,Y23,Hall 2,http://www.f1dristribution.com,,,,,fr,Gardening,,,
JDC,03/29/2022,2022,https://www.journeesdescollections.com/en/,DM,FAB HAB,A105,Esplanade,http://,,,,,us,Outdoor living,,,
JDC,03/29/2022,2022,https://www.journeesdescollections.com/en/,DM,FAR GROUP EUROPE,X28,Hall 2,http://www.fartools.com,,,,,fr,"Gardening, Building & landscaping",,,"Located in Tours, Fargroup’s company distributes electrical tools for the garden and workshop under the brand Fartools."
JDC,03/29/2022,2022,https://www.journeesdescollections.com/en/,DM,FAVEX,M05,Allée/Alley,http://www.favex.fr,,,,,fr,Outdoor living,,,"FAVEX, a key player for products that use gas for outside and inside with BBQ - Plancha - Patio heater - Cabinet heater."
JDC,03/29/2022,2022,https://www.journeesdescollections.com/en/,DM,FERMOB,J03 & J04,Hall 1,http://www.fermob.com,,,,,fr,Outdoor living,,,"A leader in outdoor design, Fermob is a French manufacturer of colourful metal furniture for more than 30 years. With its unique brand positioning, Fermob now offers a wide range of furniture, decorative accessories and a collection of lighting fixtures,&nbsp;(...)"
JDC,03/29/2022,2022,https://www.journeesdescollections.com/en/,DM,FERRARI GROUP SRL,B20,Hall 1,https://www.ferrarigroup.com/,,,,,it,"Gardening, Building & landscaping, Outdoor living",,,"Since 1954, Ferrari Group produces and markets a wide range of DIY products through large-scale distribution and specialized shops.     With more than 3.000 references, our catalogue is constantly being enriched to meet customer demands in a constantly&nbsp;(...)"
JDC,03/29/2022,2022,https://www.journeesdescollections.com/en/,DM,FERRO BULLONI FRANCE SA,R20,Hall 2,https://www.ferrobulloni.fr/,,,,,fr,Building & landscaping,,,"The Ferro Bulloni group specializes in the design and manufacture of metal fences Our main activities are wire mesh, ""T"" posts, ""Ø"" posts, rigid panels and privacy fencing, residential gates, industrial gates, mobile fencing"
JDC,03/29/2022,2022,https://www.journeesdescollections.com/en/,DM,FERTEMIS PARCS & JARDINS - ELIARD-SPCP,R33,Hall 2,http://fertemis-parcs-jardins.fr,,,,,fr,Gardening,,,"Manufacturer of fertilizers, biostimulants, amendments and litter deodorants distributed in garden shops LISA. Leading products: SCORAMIDE, BIOSTIMIULANTS FERTEVIE, CHAUPLUS, SANI’VOLIERES. Grass and ground plant cover manufacturer under the brands SMARTGRASS and MELYGREEN."
JDC,03/29/2022,2022,https://www.journeesdescollections.com/en/,DM,FEUERHAND,L13,Esplanade,https://www.feuerhand.de/fr/,,,,,de,"Building & landscaping, Outdoor living",,,"Feuerhand is the brand for terrace and garden culture. Next to fire and light Feuerhand stands for a lifestyle with design, functionality and an aesthetic attitude towards life."
JDC,03/29/2022,2022,https://www.journeesdescollections.com/en/,DM,FINIBEAU,A58,Esplanade,http://,,,,,fr,Building & landscaping,,,The FINIBEAU cover brings elegance to your sector. It goes well with your courtyard gate and your joinery. The particularity of FINIBEAU is its thickness of 3mm.  FINIBEAU comes from a French company.  Our wall coverings are ready to install and bring&nbsp;(...)
JDC,03/29/2022,2022,https://www.journeesdescollections.com/en/,DM,FISKARS FRANCE SAS,U39,Hall 2,http://www.fiskars.com,,,,,fr,Gardening,,,"Fiskars is a famous garden hand tools supplier. The Fiskars range includes cutting tools and stick tools, among others.  The result of extensive research and development, Fiskars products are efficient and durable to reduce effort and maximize the pleasure of&nbsp;(...)"
JDC,03/29/2022,2022,https://www.journeesdescollections.com/en/,DM,FITT,P20,Hall 2,http://www.fitt.com,,,,,it,Gardening,,,"FITT is a leader in the creation of complete thermoplastic fluid transfer systems. These systems are designed both for the industrial and building sector, for infrastructural and civil engineering applications, but also for domestic applications, from gardening to hobbies."
JDC,03/29/2022,2022,https://www.journeesdescollections.com/en/,DM,FLAM&CO,L30,Allée/Alley,http://,,,,,fr,Outdoor living,,,"STG, a specialist in fire-lighters in France for stoves, fireplaces and barbecues, with a strong environmental and ecological approach, offers you: * fires, * matches, * multi-igniters, * cleaners * cleaning products For consumers looking for practicality and quality"
JDC,03/29/2022,2022,https://www.journeesdescollections.com/en/,DM,FLAMINO,L01,Esplanade,http://www.flamino.fr,,,,,fr,"Outdoor living, Gardening, Building & landscaping",,,"Flamino is a French distributor of barbecue products and heating at the large retailers. A specialist in its range, its expertise enables it to rely on strong values such as the constant quality of its products made in France and&nbsp;(...)"
JDC,03/29/2022,2022,https://www.journeesdescollections.com/en/,DM,FLORENDI,P31,Hall 2,http://www.florendi.fr,,,,,fr,Gardening,,,"Florendi designs and markets value-added fertilizers, conventional or usable in organic, liquid or solid agriculture. Our objective: To meet the expectations of amateur and professional gardeners with an offer eco friendly combining efficiency, simplicity and practicality."
JDC,03/29/2022,2022,https://www.journeesdescollections.com/en/,DM,FLORENTAISE,R32,Hall 2,http://www.florentaise.com,,,,,fr,Gardening,,,"Manufacturer of growing media with a complete range of soil mixes, soil improvers and mulches, Ecological & renewable raw materials: products are eligible for a use in organic farming."
JDC,03/29/2022,2022,https://www.journeesdescollections.com/en/,DM,FOREST STYLE,A40,Esplanade,http://www.forest-style.com,,,,,fr,"Gardening, Building & landscaping, Outdoor living",,,"Forest-Style, French designer and manufacturer for over 20 years, specialises in the design of innovative, easy-to-use and durable outdoor products. For families, discover the brand Soulet and its French know-how in outdoor games since 1846"
JDC,03/29/2022,2022,https://www.journeesdescollections.com/en/,DM,FORGE ADOUR DISTRIBUTION,L12,Esplanade,http://www.forgeadour.com,,,,,fr,Outdoor living,,,"FORGE ADOUR, INNOVATIVE MANUFACTURER OF PLANCHAS AND ASSOCIATED PRODUCTS INTRODUCES ITS FULL RANGE : PLANCHAS, BARBECUES, PROTECTIVE HOODS, TROLLEYS, SUPPORT FURNITURES AND ACCESSORIES. LET’S DISCOVER THE TECHNICAL EXPERTISE OF THIS BRAND FOCUSED ON AN ECO-RESPONSIBLE APPROACH."
JDC,03/29/2022,2022,https://www.journeesdescollections.com/en/,DM,FORMACOMPOST,R22,Hall 2,http://www.formacompost.fr,,,,,fr,Gardening,,,"Union of a composting trainer and an engineer, Formacompost offers innovatives composting solutions to recycle food waste as closely as possible to the kitchen. A simplified and more accessible composting method, to adopt a more respectful and ecologically responsible way of&nbsp;(...)"
JDC,03/29/2022,2022,https://www.journeesdescollections.com/en/,DM,FVG FOLIEN-VERTRIEBS  GMBH,R35,Hall 2,https://www.fvg-folien.de/,,,,,de,"Gardening, Building & landscaping, Outdoor living",,,- urban gardening  - horticultural products  - ecological protection against slugs  - lawn edges - rhizomes-block  - herb spirals - raised beds  - sight protection  - plastic greenhouses / tunnel greenhouses  - greenhouse technical films
JDC,03/29/2022,2022,https://www.journeesdescollections.com/en/,DM,G.F. SRL CON UNICO SOCIO,S20,Hall 2,https://www.gfgarden.it,,,,,it,"Gardening, Building & landscaping, Services, Outdoor living",,,"A new way of conceiving gardens, a new challenge made of colors and design. Innovative products characterized by modern lines and endearing colors. GF GARDEN is a state-of-the-art company that manufactures objects for watering,gardening and outdoor living."
JDC,03/29/2022,2022,https://www.journeesdescollections.com/en/,DM,GALIX SAS,F31,Hall 1,http://www.galix-solaire.com,,,,,fr,Building & landscaping,,,"GALIX SAS is a supplier of solar energy products since 2003 : - Solar panel with distributors, installers and manufacturers - Solar garden lights with gardening, DIY shops, ... You will seen several univers through decoration, high-clarity lighting and beaconing."
JDC,03/29/2022,2022,https://www.journeesdescollections.com/en/,DM,GARD'BOIS,L41,Allée/Alley,http://,,,,,fr,,,,
JDC,03/29/2022,2022,https://www.journeesdescollections.com/en/,DM,GARDEN MAX,M31,Allée/Alley,http://www.cookingarden.fr,,,,,fr,"Outdoor living, Services",,,"Garden Max specializes in the sale of equipment for outdoor cooking (barbecue, plancha, accessory). Based in Hauts de France, this SME has existed for over 30 years. Our watchwords are ""reliability, friendliness and quirky spirit."""
JDC,03/29/2022,2022,https://www.journeesdescollections.com/en/,DM,GARDENA,W20,Hall 2,http://www.gardena.com,,,,,fr,Gardening,,,"Based in Ulm/Germany, GARDENA is the leading brand for high-quality garden tools in Europe. Represented in more than 80 countries, GARDENA offers a complete range of everything you need for your garden in watering systems, pumps, lawn care, tree and&nbsp;(...)"
JDC,03/29/2022,2022,https://www.journeesdescollections.com/en/,DM,GEKA,W27,Hall 2,http://www.geka.de/fr/,,,,,de,Gardening,,,"Since 1928 we develop and produce our GEKA irrigation systems, including our original GEKA brass quick couplings, nickel-plated brass push-fit connectors, watering lances, sprinklers and hose trolleys, for professionals in the horticultural industry and private end-users."
JDC,03/29/2022,2022,https://www.journeesdescollections.com/en/,DM,GERIN SAS,S24,Hall 2,http://www.gerin-protection.com,,,,,fr,Gardening,,,"GERIN develops, manufactures and imports a wide range of PPE (Personal protective equipment) and of works garments."
JDC,03/29/2022,2022,https://www.journeesdescollections.com/en/,DM,GLORIA HAUS UND GARTENGERAETE GMBH,T12,Hall 2,http://www.gloria-garten.de,,,,,fr,Gardening,,,"GLORIA is a German company, manufacturer for 70 years of sprayers, alternative weed killers, waterless terrace cleaners and high pressure cleaners. Eco-responsibility is the axis that GLORIA has set itself in order to meet the requirements of the cleaning and&nbsp;(...)"
JDC,03/29/2022,2022,https://www.journeesdescollections.com/en/,DM,GOLIATH CRAYOLA,K11,Hall 1,http://www.jeux-goliath.com,,,,,fr,Outdoor living,,,"Goliath creates and distributes toys and games since 1980. Among all the brands we offer, we can find Triominos, Pig Goes Pop, Super Sand, Phlat Ball and also the American brand Crayola, global market leader of creative activities for kids!"
JDC,03/29/2022,2022,https://www.journeesdescollections.com/en/,DM,GRAF,C19,Hall 1,http://www.garantia.fr,,,,,fr,"Gardening, Building & landscaping",,,"Manufacturer of : - Rainwater Tanks - Garden produce (Ergo Raised bed, Garden boards, Growing tunnel...) - Composters"
JDC,03/29/2022,2022,https://www.journeesdescollections.com/en/,DM,GRANULATI ZANDOBBIO SPA,A54,Esplanade,http://www.granulati.it,,,,,it,"Gardening, Building & landscaping, Services, Outdoor living",,,"Granulati Zandobbio is the representative point for the production and distribution of a wide range of products for landscape architecture: sintered stone, porcelain stoneware and natural stone pavings, claddings, monolithes and decorative products for garden and outdoor spaces"
JDC,03/29/2022,2022,https://www.journeesdescollections.com/en/,DM,GREEN BARBECUE EUROPE - GBE SAS,L38,Allée/Alley,https://greenbarbecues.com/,,,,,fr,"Outdoor living, Services, Gardening",,,Make your Barbecues Green again ! Green Barbecue Europe is a brand new French company specializing in wood-free charcoals which now offers you the possibility of respecting nature while protecting the forests. Enhance your grilling with an ecological and 100%&nbsp;(...)
JDC,03/29/2022,2022,https://www.journeesdescollections.com/en/,DM,GREEN OUTSIDE,L36,Allée/Alley,http://,,,,,fr,"Building & landscaping, Outdoor living",,,
JDC,03/29/2022,2022,https://www.journeesdescollections.com/en/,DM,GREENCELL,U22,Hall 2,http://www.greencell.tech,,,,,fr,Gardening,,,
JDC,03/29/2022,2022,https://www.journeesdescollections.com/en/,DM,GREENWORKS,U37,Hall 2,http://www.greenworkstools.eu,,,,,fr,Gardening,,,"GREENWORKS is the Consumer brand of GLOBE GROUP, founded in 2002, a global manufacturer of battery-powered garden tools. All our tools are equipped with Lithium-ion batteries. The performance, autonomy and reliability of our 24V, 40V, 24 / 48V, 60V ranges are equivalent&nbsp;(...)"
JDC,03/29/2022,2022,https://www.journeesdescollections.com/en/,DM,GROSFILLEX,A43,Esplanade,https://www.grosfillex.com/,,,,,fr,"Building & landscaping, Outdoor living",,,"Grosfillex imagines, develops and markets innovative and decorative products for interior and exterior living spaces. Planters, garden furniture, decorative wall coverings and garden sheds."
JDC,03/29/2022,2022,https://www.journeesdescollections.com/en/,DM,GROUPE BORDET,B21,Hall 1,http://,,,,,fr,,,,
JDC,03/29/2022,2022,https://www.journeesdescollections.com/en/,DM,GROUPE DDC CALCIO,G30,Hall 1,http://,,,,,fr,"Building & landscaping, Gardening",,,Solar lighting specialist
JDC,03/29/2022,2022,https://www.journeesdescollections.com/en/,DM,GRUPPO CAMARLINGHI S.P.A.,A63,Esplanade,http://,,,,,it,,,,
JDC,03/29/2022,2022,https://www.journeesdescollections.com/en/,DM,HAEMMERLIN CENTAURE CDH GROUP,P06,Hall 2,http://www.haemmerlin.com,,,,,fr,"Gardening, Outdoor living, Building & landscaping",,,"Haemmerlin, designer and manufacturer of building equipment since 1867 with a star product, the wheelbarrow. Centaure, designer and manufacturer of aluminium access equipment since 1936 are 2 companies together under one entity, CDH Group. Our commitments : a global offer and&nbsp;(...)"
JDC,03/29/2022,2022,https://www.journeesdescollections.com/en/,DM,HAILO FRANCE,L07,Esplanade,https://www.hailo-shop.fr,,,,,fr,Gardening,,,"As a leading manufacturer of access elements, steps, stepladders, ladders, scaffolding and waste collectors, we offer a wide range of innovative and constantly evolving products to better meet our customers' needs."
JDC,03/29/2022,2022,https://www.journeesdescollections.com/en/,DM,HARRIS BRIOCHIN,L06,Esplanade,https://www.lebriochin.com/qui-sommes-nous/nos-marques/jacques-briochin/maison-briochin/,,,,,fr,Building & landscaping,,,
JDC,03/29/2022,2022,https://www.journeesdescollections.com/en/,DM,HARTMAN INTERNATIONAL B.V.,E26,Hall 1,http://www.hartman.eu,,,,,nl,"Gardening, Outdoor living, Building & landscaping",,,"For over years Hartman has been about comfort, design and quality. Our new retail concept for 2022 arose from the need to design a  collection where design and comfort strongly reinforce each other with interesting retail conditions. We’ve worked&nbsp;(...)"
JDC,03/29/2022,2022,https://www.journeesdescollections.com/en/,DM,HD NORDICTREES / HEDEDANMARK,N25,Hall 2,https://www.hdnordictrees.com,,,,,dk,"Gardening, Building & landscaping, Services, Outdoor living",,,"Danish production of high quality christmas trees. Supplier of cut christmas trees, potgrown christmas trees and greenery. Distribution to many countries in- and outside EU."
JDC,03/29/2022,2022,https://www.journeesdescollections.com/en/,DM,HEAT CONCEPT,L32,Allée/Alley,http://,,,,,fr,,,,
JDC,03/29/2022,2022,https://www.journeesdescollections.com/en/,DM,HELIFLEX TUBOS E MANGUEIRAS S.A,U27,Hall 2,http://www.heliflex.pt,,,,,pt,"Gardening, Building & landscaping",,,Heliflex - Integrated solutions Pipes and Hoses Heliflex have an important role in the hose market for more than 50 years since it has a great experience on the transformation of polymers and because it has a big variety of products.
JDC,03/29/2022,2022,https://www.journeesdescollections.com/en/,DM,HERSTERA GARDEN SL,D07,Hall 1,http://www.hersteraurban.com,,,,,es,"Gardening, Building & landscaping, Services, Outdoor living",,,"Herstera Garden, founded in 1992, offers a large catalogue of outdoor pottery items, as well as a wide range of indoor gardening items. Specialist in Urban Gardening and with an always unique and different style, the Herstera collection will bring&nbsp;(...)"
JDC,03/29/2022,2022,https://www.journeesdescollections.com/en/,DM,HOGEWONING BV,D22,Hall 1,https://hogewoning.com/,,,,,nl,"Building & landscaping, Outdoor living",,,"Hogewoning is spcialised in distributing natural decoration items which enhance our interiors. We conceive, design and organise the production and transport. Our customers are mainly big retailers, decoration shops and garden centers."
JDC,03/29/2022,2022,https://www.journeesdescollections.com/en/,DM,HOME INTERNATIONAL SAS,H01,Hall 1,http://www.homeinternational.fr,,,,,fr,"Gardening, Building & landscaping",,,"Home International proposes through its two brands Jardi D’Jo and Gardenova a range of gardening products including weeding, landscaping and decorative solutions, all of which respect the environment so as to provide a French and European alternative to phytosanity products."
JDC,03/29/2022,2022,https://www.journeesdescollections.com/en/,DM,HONDA,W34,Hall 2,http://www.honda-engines-eu.com,,,,,fr,Gardening,,,"Manufacturer of gasoline engines from 0.72 kW to 18.5 kW, suitable for lawn and garden home use, semi professional and professional applications. All the range of Honda engines are STAGE 5 compliant. Introduction of new GCVxe, electric starter, in the&nbsp;(...)"
JDC,03/29/2022,2022,https://www.journeesdescollections.com/en/,DM,HOZELOCK-EXEL,P19,Hall 2,http://hozelock-exel.com,,,,,fr,Gardening,,,"HOZELOCK-EXEL manufactures garden watering and spraying solutions under its leading brands: Hozelock - delivering high quality, innovative gardening products since 1959, Berthoud – the professional and leading spraying specialist since 1895 and Hozelock Pure to get into green with natural&nbsp;(...)"
JDC,03/29/2022,2022,https://www.journeesdescollections.com/en/,DM,HUSQVARNA FRANCE SAS - 2,Y21,Hall 2,http://,,,,,fr,,,,
JDC,03/29/2022,2022,https://www.journeesdescollections.com/en/,DM,ICARE DISTRIBUTION,D13,Hall 1,http://,,,,,fr,,,,
JDC,03/29/2022,2022,https://www.journeesdescollections.com/en/,DM,IDEA EUROPE GMBH,B05,Hall 1,http://www.ideagroupco.eu,,,,,at,Outdoor living,,,"IDEA was established in 1987 and has now evolved into a global organization. Our resin items are designed and injected in Italy, while metal products are manufactured in China according to our own design. Our constant quality and unique Italian&nbsp;(...)"
JDC,03/29/2022,2022,https://www.journeesdescollections.com/en/,DM,IEV RONDY,U21,Hall 2,http://www.groupe-rondy.com,,,,,fr,Gardening,,,FASHION SECURITE is a feminine garden and DIY clothes and shoes range
JDC,03/29/2022,2022,https://www.journeesdescollections.com/en/,DM,IKRA GMBH,Y30,Hall 2,http://www.ikra.de,,,,,de,Gardening,,,"Manufacturer of Electric, cordless and petrol equipment for garden"
JDC,03/29/2022,2022,https://www.journeesdescollections.com/en/,DM,INDUSTRIAS ANJOSA,G07,Hall 1,http://www.anjosa.com,,,,,es,Outdoor living,,,Cushion and Parasols Manufacturer
JDC,03/29/2022,2022,https://www.journeesdescollections.com/en/,DM,INTEGRATED GAS TECHNOLOGIES,L44,Allée/Alley,http://www.igt-lpg.com,,,,,dk,Outdoor living,,,IGT is a global leading manufacture of small domeistic LPG regulators for propane and Butane gas cylinders. In France we launch 2020 a NF approved product range that we present on the JDC show. These includes products with manometer for&nbsp;(...)
JDC,03/29/2022,2022,https://www.journeesdescollections.com/en/,DM,INTEX - UNITEX SERVICE (FRANCE) SAS,F15,Hall 1,http://www.intex.fr,,,,,fr,"Building & landscaping, Outdoor living",,,"The Intex family is dedicated to developing and manufacturing the highest quality products that not only provide the best value in price, but are innovative, fin and exciting. Backed by excellent Customer Service, Intex also provides first-rate afer sale support.&nbsp;(...)"
JDC,03/29/2022,2022,https://www.journeesdescollections.com/en/,DM,IPIERRE SYSTEM SRL,B20,Hall 1,http://www.ipierre.eu,,,,,it,"Gardening, Building & landscaping",,,"Ipierre has been a brand leader in the world of irrigation and gardening for more than 50 years. It designs and produces quality products, starting with the selection of the best raw materials and constantly monitoring production processes."
JDC,03/29/2022,2022,https://www.journeesdescollections.com/en/,DM,JAM - JARDINERIE ANIMALERIE MÉDIA,P10,Hall 2,http://www.jam-consulting-developpement.ovh/,,,,,fr,"Services, Gardening",,,
JDC,03/29/2022,2022,https://www.journeesdescollections.com/en/,DM,JARDIBRIC,S25,Hall 2,http://www.jardibric.com,,,,,fr,"Gardening, Building & landscaping",,,"SFC JARDIBRIC is a french family company specialized in the creation, elaboration and  design of watering products for garden centers, DIY stores and specialists in Europe : Surface watering Dripping watering systems Underground watering  Misting systems"
JDC,03/29/2022,2022,https://www.journeesdescollections.com/en/,DM,JARDINAT,A15,Esplanade,http://,,,,,fr,"Gardening, Building & landscaping, Services",,,"French company, operator of contract of exploitation of natural stone quarries in Spain allowing to produce pebbles, decorative gravel of different sizes and colors. But also to provide an expanded range of natural stones"
JDC,03/29/2022,2022,https://www.journeesdescollections.com/en/,DM,JP OUTILLAGE,N19,Hall 2,http://www.jpoutillage.fr,,,,,fr,"Gardening, Building & landscaping, Outdoor living",,,"Importer since 1988, JP OUTILLAGE accompanies on a daily basis DIY stores and independent customers and offers a wide range of tarpaulins, garden accessories and tools (more than 1500 references) intended both for professionals and for experienced handymen."
JDC,03/29/2022,2022,https://www.journeesdescollections.com/en/,DM,KAEMINGK BV,E18,Hall 1,http://www.kaemingk.com,,,,,nl,"Building & landscaping, Outdoor living",,,"Kaemingk is a well known supplier since many years for Christmas decorations. For a few years now Kaemingk has also made a name with innovative and original collections in garden furniture, fountains, solar lights and spring summer decorations."
JDC,03/29/2022,2022,https://www.journeesdescollections.com/en/,DM,KB8 IMPORT EXPORT,G26,Hall 1,https://www.kb8.fr/,,,,,fr,"Building & landscaping, Outdoor living",,,"KB8, located in Bouc Bel Air (13), has been specialized for more than 60 years in interior design and garden furniture.   Our mission is to supply our customers with quality products through a dedicated service. The whole team is at&nbsp;(...)"
JDC,03/29/2022,2022,https://www.journeesdescollections.com/en/,DM,KIRAMI OY,A48,Esplanade,http://,,,,,fi,,,,
JDC,03/29/2022,2022,https://www.journeesdescollections.com/en/,DM,KRAMPOUZ,L25,Allée/Alley,http://www.krampouz.com,,,,,fr,Outdoor living,,,"Let’s celebrate 70 years of experience! Come and see our stainless steel planchas/cooking plates with outstanding design, enjoy the genuine taste of grilled meat thanks to the Mythic BBQ and be innovative with the Duo K: plancha cooking and genuine&nbsp;(...)"
JDC,03/29/2022,2022,https://www.journeesdescollections.com/en/,DM,L'ART DU JARDIN,L04,Esplanade,https://www.vulcano-france.fr/,,,,,fr,"Outdoor living, Services",,,"L’ART DU JARDIN is specialized in the manufacture of wood-burning ovens that can be converted into barbecues in 2 seconds, better known as VULCANO. The company has filed a worldwide patent on the design of its ovens. L’ART DU JARDIN&nbsp;(...)"
JDC,03/29/2022,2022,https://www.journeesdescollections.com/en/,DM,L.J. LINEN LTD.,T31,Hall 2,http://,,,,,lv,Gardening,,,
JDC,03/29/2022,2022,https://www.journeesdescollections.com/en/,DM,LA BROSSE ET DUPONT,P09,Hall 2,http://www.lbd.fr,,,,,fr,Outdoor living,,,"Eco-friendly insoles for shoes and boots, booties, eco-friendly shoe care products."
JDC,03/29/2022,2022,https://www.journeesdescollections.com/en/,DM,LA FORESTIERE DU NORD,C02,Hall 1,http://www.grillobois.fr,,,,,fr,Outdoor living,,,"Conception, production and distribution of high quality charcoal, firewood and natural firelighter, and de-icing salt."
JDC,03/29/2022,2022,https://www.journeesdescollections.com/en/,DM,LA SAVONNERIE DE NYONS,J11,Hall 1,http://www.lasavonneriedenyons.com,,,,,fr,Outdoor living,,,"Made following traditional methods, the products we offer range from natural soaps with original recipes, made from organic shea butter and AOC olive oil from Nyons, to full ranges of organic donkey milk, organic aloe vera, and organic argan oil&nbsp;(...)"
JDC,03/29/2022,2022,https://www.journeesdescollections.com/en/,DM,LA SIESTA GMBH,A25,Esplanade,http://www.lasiesta.com,,,,,de,"Outdoor living, Services",,,"LA SIESTA a supplier for high quality hammocks and hammock chairs. We are specialised in the development, marketing and distribution of high-end hammocks and hammock chairs from South America. LA SIESTA also offers a unique line of hammocks and hammock&nbsp;(...)"
JDC,03/29/2022,2022,https://www.journeesdescollections.com/en/,DM,LANDMANN GMBH,L35,Allée/Alley,http://www.landmann.com,,,,,fr,Outdoor living,,,"When it comes to barbecuing, different people have different expectations. With its proposition ""Your World of BBQ"", the Landmann collection for 2019 meets up to these different expectations..."
JDC,03/29/2022,2022,https://www.journeesdescollections.com/en/,DM,LAVORWASH,W21,Hall 2,http://,,,,,fr,"Gardening, Services",,,"Lavorwash Group is worldwide leader in cleaning industry since 1975 and offers a wide and complete range of cleaning machinery : high pressure cleaners, wet&dry vacuum, carpet cleaners, floor scrubber dryers, floor sweepers and stem generators. In 2017,the range has&nbsp;(...)"
JDC,03/29/2022,2022,https://www.journeesdescollections.com/en/,DM,LE MARQUIER,L17,Esplanade,http://lemarquier.com,,,,,fr,Outdoor living,,,"Since 1971, LE MARQUIER manufactures with passion French griddles, barbecues and fireplace accessories of high quality designed to last and bring joy of life ! NEW: Exclusive dealer of TRAEGER, the wood-fired revolution !"
JDC,03/29/2022,2022,https://www.journeesdescollections.com/en/,DM,LEBEURRE - LMA,R09,Hall 2,http://www.lma-lebeurre.com,,,,,fr,Gardening,,,"Specialized in the manufacture of work clothes since 1880, LEBEURRE, with its brand LMA,  is a French family-run company which is recognized on the professional clothing market. LMA offers workwear adapted to your occupation"
JDC,03/29/2022,2022,https://www.journeesdescollections.com/en/,DM,LEBORGNE SAS,V34,Hall 2,https://www.leborgne.fr/,,,,,fr,Gardening,,,"A manufacturer since 1829, Leborgne has developed a wide range of high-quality professional tools for working the soil and maintaining the garden. Designed to reduce strenuous work, our tools are intended to be reliable, safe and efficient."
JDC,03/29/2022,2022,https://www.journeesdescollections.com/en/,DM,LEDUC LUBOT,G27,Hall 1,http://www.leduc-lubot.com,,,,,fr,"Gardening, Building & landscaping, Services, Outdoor living",,,"The first activity of the company is a commercial and logistics service provider for the garden industry, and also a manufacturer and importer of garden products for its own brands ( JANY, JARDIFER and ROUL'BAC)."
JDC,03/29/2022,2022,https://www.journeesdescollections.com/en/,DM,LEISUREGROW PRODUCTS LTD,B31,Hall 1,http://,,,,,gb,,,,
JDC,03/29/2022,2022,https://www.journeesdescollections.com/en/,DM,LEMAITRE SECURITE,V21,Hall 2,http://,,,,,fr,"Gardening, Outdoor living",,,Manufactures and sells safety shoes.
JDC,03/29/2022,2022,https://www.journeesdescollections.com/en/,DM,LES POTAGERS DE THOMAS J.ELIAT BV,A39,Esplanade,http://www.lespotagersdethomas.be,,,,,be,"Gardening, Building & landscaping",,,10 years ago we were the first to build à veggarden as a table. We only use Padouk wood. We also have steel glasshouses to put on our vegtables. Everything is made in EU and have been created to give a&nbsp;(...)
JDC,03/29/2022,2022,https://www.journeesdescollections.com/en/,DM,LINENS DIFFUSION,A03,Esplanade,http://,,,,,fr,Outdoor living,,,"Linens Diffusion is a family business, we have our own production site, specialized in the manufacture of pallet cushions, floor cushions,decorative cushions, animal pillow, , we can manufacture special series on request, large choice of colors."
JDC,03/29/2022,2022,https://www.journeesdescollections.com/en/,DM,LIPHATECH,S23,Hall 2,https://liphatech.fr/,,,,,fr,Gardening,,,"LIPHATECH the referent leader in rodent control, proudly claims its mission and purpose: perpetuate a healthy environment by developing innovative and effective solutions, by demonstrating good pratices and by limiting the impact of our products on the environment."
JDC,03/29/2022,2022,https://www.journeesdescollections.com/en/,DM,LOUD & CLEAR SAFETY PTY LTD.,U19,Hall 2,http://,,,,,gb,,,,
JDC,03/29/2022,2022,https://www.journeesdescollections.com/en/,DM,LP DESIGN BY SARL DUCHESNE,A78,Esplanade,http://www.lpdesign-france.com,,,,,fr,"Gardening, Building & landscaping, Outdoor living",,,"Creation / Manufacture ’s LP Design - GARDEN DECO: Cactus, Flowers, Leaves, Fir trees, Palm trees - GARDEN FURNITURE: Coffee tables, Side table, Stool, Bench, Harnesses, Consoles - OUTDOOR PRODUCTS: Brazier, Candle tripod, Planters, Trays, ALUMINUM / STEEL_FRENCH MANUFACTURING"
JDC,03/29/2022,2022,https://www.journeesdescollections.com/en/,DM,LUXFORM GLOBAL,B27,Hall 1,http://luxform.eu,,,,,nl,Building & landscaping,,,"Luxform Lighting –established in 1978- has developed itself as a one-stop-shop supplier, a brand with a complete range, which is always in recognizable with striking packaging and in-store solutions. Our sales advisors are always happy to advise on the range&nbsp;(...)"
JDC,03/29/2022,2022,https://www.journeesdescollections.com/en/,DM,MADISON BV,H07,Hall 1,http://www.madison.nl,,,,,nl,Outdoor living,,,"Madison is a family company established in 1977 and based in The Netherlands, Producer of outside cushions, umbrellas & dog beds, the products are designed at our head quarter, and produced in our own factories in Poland. the modern and&nbsp;(...)"
JDC,03/29/2022,2022,https://www.journeesdescollections.com/en/,DM,MAKITA FRANCE SAS,W33,Hall 2,http://www.makita.fr,,,,,fr,Gardening,,,"MAKITA, the premium brand of power tools, has been designing and manufacturing for more than a century tools dedicated to professional applications in the Building, Industry, Crafts and Green Spaces."
JDC,03/29/2022,2022,https://www.journeesdescollections.com/en/,DM,MANUFACTURAS GRE,H15,Hall 1,https://www.grepool.com/,,,,,es,Building & landscaping,,,"Specialist and leader whitin the european market since 1956, we propose a wide range of products of steel aboveground pools, or wood and a complete range of accesories for their equipments and maintenance."
JDC,03/29/2022,2022,https://www.journeesdescollections.com/en/,DM,MARLINE,Z32,Hall 2,http://www.marline.fr,,,,,fr,Gardening,,,"MARLINE develop and sell special fuels and ready-to-use mixtures for 2-stroke and 4-stroke engines since 1954 to the general public and professionals, with safe storage. MARLINE is No. 1 on the construction equipment rental market and on the DIY market."
JDC,03/29/2022,2022,https://www.journeesdescollections.com/en/,DM,MASY PERE ET FILS,N30,Hall 2,http://,,,,,fr,Gardening,,,MANUFACTURER OF MOUSE AND RATS TRAPS UNDER THE TRADEMARK LUCIFER. IMPORTER OF INSECTS KILLER AND GLUE TRAPS
JDC,03/29/2022,2022,https://www.journeesdescollections.com/en/,DM,MATABI - GOIZPER GROUP.,S36,Hall 2,https://www.matabi.com,,,,,es,Gardening,,,"Manufacturer of manual sprayers: trigger, compression (1,5-7 liters), knapsack (12-16 liters), as well as battery operated sprayers (1-7-10-15 liters), and dusters; for Home/Garden, Agriculture, Industrial (construction, automobile, cleaning) and Public Health. Our brands are: MATABI / IK"
JDC,03/29/2022,2022,https://www.journeesdescollections.com/en/,DM,MEGA COLLECTIONS B.V.,F19,Hall 1,http://www.megacollections.com,,,,,nl,"Building & landscaping, Outdoor living",,,"Mega Collections, based in Waalwijk, the Netherlands, is one of Europe’s largest import and export companies specialising in pottery, baskets, zinc and a wide range of decorative articles for in- and outdoor."
JDC,03/29/2022,2022,https://www.journeesdescollections.com/en/,DM,MENICO,A91,Esplanade,http://,,,,,fr,"Building & landscaping, Outdoor living",,,
JDC,03/29/2022,2022,https://www.journeesdescollections.com/en/,DM,MERMIER,U34,Hall 2,https://www.mermier.com,,,,,fr,Gardening,,,"With over 130 years of experience in the world of gardens, Mermier offers a comprehensive range of large and small garden hand tools to maintain and beautify your garden. It is also a specialist in watering systems with a complete range&nbsp;(...)"
JDC,03/29/2022,2022,https://www.journeesdescollections.com/en/,DM,METALLURGICA FRIGERIO,C12,Hall 1,http://www.frigerionet.com,,,,,it,Building & landscaping,,,"FRIGERIO is a leading Italian manufacturer of high-quality electro-welded wire mesh. Founded in 1920, the company benefits from advanced industrial processes and expertise, and is today considered to be one of the leaders of the European wire mesh market.     Offer:&nbsp;(...)"
JDC,03/29/2022,2022,https://www.journeesdescollections.com/en/,DM,MGM,F13,Hall 1,http://,,,,,fr,,,,
JDC,03/29/2022,2022,https://www.journeesdescollections.com/en/,DM,MONNET SEVE - MON PETIT POTAGER,T05,Hall 2,http://monpetitpotager.fr,,,,,fr,"Gardening, Building & landscaping, Services, Outdoor living",,,"Our company offers a wide range of products for the Garden and exterior. Exclusively in French wood, in an ecological essence: the Douglas Natural guaranteed without treatment or pesticide"
JDC,03/29/2022,2022,https://www.journeesdescollections.com/en/,DM,MOOKIE FRANCE,J05,Hall 1,https://www.mookie.co.uk/,,,,,fr,"Gardening, Outdoor living",,,"Founded in 1988, Mookie Toys has been promoting a world of play to children of all ages for over 30 years. After the UK, the USA and Australia, it is now with our new subsidiary MOOKIE France that we are continuing&nbsp;(...)"
JDC,03/29/2022,2022,https://www.journeesdescollections.com/en/,DM,MOREL SAS,H28,Hall 1,http://www.morel.fr,,,,,fr,"Building & landscaping, Outdoor living",,,"French manufacturer and distributor of equipment and decorative solutions for the inside and the outside of the house: garden furniture, sun sails, outdoor relaxation products, blinds of shade, protection covers, breeze-view, door curtains, mosquito nets for doors..."
JDC,03/29/2022,2022,https://www.journeesdescollections.com/en/,DM,MV INDUSTRIE SAS,S08,Hall 2,http://www.mvindustrie.fr,,,,,fr,"Gardening, Building & landscaping, Outdoor living",,,"Plastic transformation by injection. Design, manufacture, trading, sale of garden products for the individual, such as Modul’o rigid mini-greenhouses, tutors, baskets, planters. Richel authorized distributor, first European manufacturer of professional greenhouses"
JDC,03/29/2022,2022,https://www.journeesdescollections.com/en/,DM,NAPOLEON WOLF STEEL EUROPE,L40,Allée/Alley,http://www.napoleongrills.fr,,,,,nl,Outdoor living,,,"Napoleon’s commitment to producing quality products combined with honest, reliable service has proven to be a successful framework to ensuring the continued rapid growth of the company."
JDC,03/29/2022,2022,https://www.journeesdescollections.com/en/,DM,NAUDET SAPINS DE NOEL,P36,Hall 2,http://www.pepinieres-naudet.com,,,,,fr,"Gardening, Building & landscaping",,,Christmas tree grower since 1956. We are based in Planchez en Morvan. Place where conditions are very good for our production of trees that cover almost  500 ha. We grown in majority nordmann but either other trees like norway&nbsp;(...)
JDC,03/29/2022,2022,https://www.journeesdescollections.com/en/,DM,NETLON FRANCE,T06,Hall 2,http://,,,,,fr,,,,
JDC,03/29/2022,2022,https://www.journeesdescollections.com/en/,DM,NEW WAVE / PROJOB,N28,Hall 2,http://www.newwave.fr,,,,,fr,"Gardening, Outdoor living, Services",,,"New Wave is leader of workwear and confort textile ! Increase your shops sellings with our complete collection using the best norma and certifications. T-shirt to softshell, pant to fleece, be proud to sell our quality brands to satisfy your cutomers. Our&nbsp;(...)"
JDC,03/29/2022,2022,https://www.journeesdescollections.com/en/,DM,NEWGARDEN SPAIN SL,B17,Hall 1,https://www.newgarden.es,,,,,es,"Building & landscaping, Outdoor living, Services, Gardening",,,"Newgarden, manufacturer of flower pots, lighting and outdoor furniture. Inspired, designed and manufactured in Spain.  We are in 18 countries and always to commited to the design and technology."
JDC,03/29/2022,2022,https://www.journeesdescollections.com/en/,DM,NOCIKA,J08,Hall 1,https://www.nocika-distribution.com/,,,,,fr,"Building & landscaping, Outdoor living, Services",,,"Importer, distributor and manufacturer of sports items specialize in the water sports. Since more than 10 years, our team develop and choose the best products dedicated to the water sports"
JDC,03/29/2022,2022,https://www.journeesdescollections.com/en/,DM,NOGENT*** SAS,S42,Hall 2,https://www.nogent3etoiles.com,,,,,fr,"Gardening, Building & landscaping, Outdoor living",,,"Nogent 3 étoiles : specialist, since 1923, in the manufacture of knives and kitchen utensils in wood or polypropylene 100% Made In France.  Guillouard : specialist, since 1911, in the manufacture of garden products (watering cans, buckets, compost bins...) and kitchens&nbsp;(...)"
JDC,03/29/2022,2022,https://www.journeesdescollections.com/en/,DM,NORASIA SOURCING SAS,B03,Hall 1,http://,,,,,fr,,,,
JDC,03/29/2022,2022,https://www.journeesdescollections.com/en/,DM,NORTENE,N37,Hall 2,http://www.nortene.com,,,,,fr,"Gardening, Building & landscaping",,,"European leader in garden equipment and accessories with the NORTENE brand. Specialist in protection and landscaping products such as: mulching, forcing film, garden greenhouses, bags, breeze-screens, low-voltage lighting decorative panels and artificial turf"
JDC,03/29/2022,2022,https://www.journeesdescollections.com/en/,DM,NOVAPIERRE,A72,Esplanade,http://,,,,,fr,Building & landscaping,,,
JDC,03/29/2022,2022,https://www.journeesdescollections.com/en/,DM,O-GRILL EUROPE,L34,Allée/Alley,https://o-grill.com/,,,,,no,Outdoor living,,,"O-Grill, the only true portable gas grill. Join the success of doing barbecue every where, with our models & accessories. See also our Kichen Torch collection for home and professionals. We don’t just make portable gas grills and torches, we&nbsp;(...)"
JDC,03/29/2022,2022,https://www.journeesdescollections.com/en/,DM,OFYR GLOBAL BV,L46,Allée/Alley,http://,,,,,nl,,,,
JDC,03/29/2022,2022,https://www.journeesdescollections.com/en/,DM,OLG FRANCE,A59,Esplanade,http://www.olgfrance.com,,,,,fr,"Gardening, Building & landscaping, Outdoor living",,,
JDC,03/29/2022,2022,https://www.journeesdescollections.com/en/,DM,ONEK BY PONTAROLO ENGINEERING SPA,B10,Hall 1,http://www.onek.biz,,,,,it,"Building & landscaping, Outdoor living",,,Dynamic company that deals with developing innovative building technologies.ONEK is our brand for DIY market.We propose a wide range of outdoor modular flooring that is easy to install and made with cutting-edge materials that meets the needs of customer. We&nbsp;(...)
JDC,03/29/2022,2022,https://www.journeesdescollections.com/en/,DM,OONI PIZZA OVENS,L28,Allée/Alley,https://ooni.com,,,,,gb,Outdoor living,,,"Ooni revolutionized outdoor cooking, launching the world’s first portable pellet pizza oven in 2012. Ooni Pizza Ovens are portable or transportable, cook incredible pizza in 60 seconds, heat to double the temperature of domestic ovens and cost a fraction of&nbsp;(...)"
JDC,03/29/2022,2022,https://www.journeesdescollections.com/en/,DM,OPTIM BETON SL,A42,Esplanade,https://www.optimbeton.com,,,,,es,"Gardening, Building & landscaping, Services",,,"OPTIM BÉTON is a company that was incorporated in 2010. The company’s purpose is the wholesale marketing of a wide range of products for construction and decoration. We have structured our range into four families : mortars, concrete, sand, and decorative&nbsp;(...)"
JDC,03/29/2022,2022,https://www.journeesdescollections.com/en/,DM,OR BRUN,S18,Hall 2,http://www.or-brun.com,,,,,fr,Gardening,,,"Or Brun, precursor of organic gardening, presents a full range of natural gardening products, at the forefront of technology and innovation: amendments, mulches, fertilizers, soils, biocides, and plant protection products of natural origin, for experts as well as neophytes"
JDC,03/29/2022,2022,https://www.journeesdescollections.com/en/,DM,ORGANISATION JDC GARDEN TRENDS,Commissariat Général,Hall 1,http://,,,,,fr,Services,,,Event organization
JDC,03/29/2022,2022,https://www.journeesdescollections.com/en/,DM,ORIUM,W31,Hall 2,http://www.aic-international.net,,,,,fr,"Gardening, Building & landscaping, Outdoor living",,,"Orium® offers innovative energy charging solutions through these portable solar power stations. The use of portable electrical appliances continues to increase, Orium® provides the answer for all uses with ecological and economical alternative solutions."
JDC,03/29/2022,2022,https://www.journeesdescollections.com/en/,DM,OUTDOORCHEF INT. LTD,L16,Esplanade,http://,,,,,ch,,,,
JDC,03/29/2022,2022,https://www.journeesdescollections.com/en/,DM,OUTILS PERRIN SA,R06,Hall 2,http://outilsperrin.com,,,,,fr,Gardening,,,"PERRIN makes hand tools with professional quality products: tools of gardening (spades, rakes, hoes, brooms) tools for the clearing and wood cutting (billhooks, Splitting maul, axes, crescent hook), snow clearing tools (shovels, snow pusher, sledge…), Bulding world tools for construction&nbsp;(...)"
JDC,03/29/2022,2022,https://www.journeesdescollections.com/en/,DM,OUTTRADE BV,L27,Allée/Alley,http://www.outtrade.eu,,,,,nl,Outdoor living,,,"Established as a family business, OutTrade has grown to a global importer, developer and wholesale supplier of high quality electric and gas-fired patio heaters, outdoor fireplaces and barbecues. From our warehouse in Holland we look forward to serving you with&nbsp;(...)"
JDC,03/29/2022,2022,https://www.journeesdescollections.com/en/,DM,OZALIDE,G15,Hall 1,http://WWW.OZALIDE.FR,,,,,fr,"Building & landscaping, Outdoor living",,,"Conception and distribution of outdoor furniture, umbrella, barbecue ..."
JDC,03/29/2022,2022,https://www.journeesdescollections.com/en/,DM,PA.CA-CREA,A18,Esplanade,http://,,,,,fr,,,,
JDC,03/29/2022,2022,https://www.journeesdescollections.com/en/,DM,PALAZZETTI LELIO SPA,L14,Esplanade,http://www.palazzetti.it,,,,,it,"Building & landscaping, Outdoor living, Services",,,"Producer since 1953 of: masonry barbecues, grills, garden steps and borders, plates for sun umbrellas, fireplaces, wood fired pizza ovens, fireboxes, wood fired stoves and pellet stoves. These products are made of refractory concrete mixture, marble mixture, steel and stainless&nbsp;(...)"
JDC,03/29/2022,2022,https://www.journeesdescollections.com/en/,DM,PALMAKO AS,A95,Esplanade,http://www.palmako.ee,,,,,ee,"Building & landscaping, Outdoor living",,,"Producer of garden timber products, machine rounded timber, glue laminated products and wood pellets. We offer wide product range – square log garden houses, pavilions, carports, tool sheds, children’s playhouses and playgrounds, fence panels, wooden garden furniture and flower boxes.&nbsp;(...)"
JDC,03/29/2022,2022,https://www.journeesdescollections.com/en/,DM,PALMEX,L11,Esplanade,http://www.palmex.fr,,,,,fr,"Building & landscaping, Outdoor living",,,"Exclusive importer of synthetic exotic roofs in high density polypropylene, 100% recyclable, intended for decoration (chalet, arbor, gazebo, pergola) NEW ON THE G.S.B AND GARDENING MARKET Our product is resistant to winds of 150 km / h and guaranteed for 20 years."
JDC,03/29/2022,2022,https://www.journeesdescollections.com/en/,DM,PEPINIERES PONCIN SA,P03,Hall 2,http://www.pepinieres-poncin.com,,,,,be,"Gardening, Outdoor living, Services",,,"Grower of real Christmas trees located in Ardenne since 1988. With a privileged geographic location for culture and logistics, we produce Nordmanns, Norway Spruce, Nobles and Frasers. Other products : Tree stands with water tank, Bûche d’Ambiance and  Olfactory&nbsp;(...)"
JDC,03/29/2022,2022,https://www.journeesdescollections.com/en/,DM,PETROMAX,L13,Esplanade,http://www.petromax.de,,,,,de,"Building & landscaping, Outdoor living",,,"Petromax is one of the European leading manufacturers for equipment for outdoor cooking and living. Cast-iron cookware in various models, barbecues and cooking areas, equipment for cooling as well as accessories have become absolute bestsellers and are well-known and not&nbsp;(...)"
JDC,03/29/2022,2022,https://www.journeesdescollections.com/en/,DM,PH.S.,V19,Hall 2,http://societe-phs.com/,,,,,fr,Services,,,"A true link between supplier databases and those of the Ph.S. is the only expert specialized in unitary management for garden centers. A company of human size, expert in computer science and garden, this allows us to combine reactivity&nbsp;(...)"
JDC,03/29/2022,2022,https://www.journeesdescollections.com/en/,DM,PIVETEAU BOIS,K18,Hall 1,http://www.piveteaubois.com,,,,,fr,"Gardening, Building & landscaping",,,"Each year PiveteauBois innovates and develops new solutions for outdoor and garden improvement: Fences, Screens, Decking, Flower containers, Vegetable Gardens, Pergolas...2022 sets another opportunity to introduce new designs aiming at a very large scope of end consumers : Les collections&nbsp;(...)"
JDC,03/29/2022,2022,https://www.journeesdescollections.com/en/,DM,PLANET OUTDOOR,L27,Allée/Alley,http://www.plancha-planet.fr,,,,,fr,"Building & landscaping, Outdoor living",,,PLANET OUTDOOR is an outdoor distributor for : - PLANCHAS PLANET (Outdoor Cooking) - FUNGOO (Kids Playgrounds) - DECORSPA (Wooden Protection for SPAS)
JDC,03/29/2022,2022,https://www.journeesdescollections.com/en/,DM,PLASTIKEN SLU,F33,Hall 1,https://www.plastiken.com/fr/productos/,,,,,es,"Building & landscaping, Outdoor living",,,"Design and production of polypropylene injected goods, for Garden, Furniture and DIY. our plant is located in Palomar Valencia Spain on a 65.000 m2 site."
JDC,03/29/2022,2022,https://www.journeesdescollections.com/en/,DM,PLICOSA,E24,Hall 1,http://www.plicosafrance.com,,,,,fr,"Building & landscaping, Outdoor living",,,"Development and marketing of outdoor furniture, by using outsourced manufacturing expertise from around the world. Exclusive agent of the brands www.keter.com, www.allibert-outdoor.com, www.scancom.net, www.bica.eu, and www.fiam.it."
JDC,03/29/2022,2022,https://www.journeesdescollections.com/en/,DM,POETIC SAS,B23,Hall 1,http://www.poetic-jardin.fr,,,,,fr,"Gardening, Building & landscaping, Outdoor living",,,"Poétic is a family-run company specialized in manufacturing and selling planters made of recycled plastic. Poétic offers more than 1 000 references of planters, window boxes, watering cars, and metal accessories to make gardens beautiful."
JDC,03/29/2022,2022,https://www.journeesdescollections.com/en/,DM,POETIC SAS - 2,B24,Hall 1,http://,,,,,fr,,,,
JDC,03/29/2022,2022,https://www.journeesdescollections.com/en/,DM,POLET QUALITY PRODUCTS,T03,Hall 2,http://www.outils-polet.fr,,,,,be,"Gardening, Outdoor living, Services, Building & landscaping",,,"POLET Quality Products is an international manufacturer with a large assortment of gardening, construction and industry tools. Quality tools for gardening make work a lot easier ànd give much better results. This is also the reason why Polet’s quality is&nbsp;(...)"
JDC,03/29/2022,2022,https://www.journeesdescollections.com/en/,DM,POMME PIDOU,I05,Hall 1,http://www.optiplast-revelateur-d-objets.com,,,,,fr,"Building & landscaping, Outdoor living",,,"Founded in Belgium in 2002, Pomme Pidou invites you to feel at home like a child in a candy store We create very colorful ceramic animals with unique decorations. Mainly decorative object, our animals can have different functions (piggy banks, cache pot,&nbsp;(...)"
JDC,03/29/2022,2022,https://www.journeesdescollections.com/en/,DM,POOLSTAR,G12,Hall 1,https://www.poolstar.fr/fr,,,,,fr,"Building & landscaping, Services",,,"Poolstar is a story of passion. The company created in 2006 on the Etang de Berre, between Mediterranean and Provence, has grown well. The company became a reference on three major complementary axes: SWIMMING POOL & GARDEN, RELAXATION & WELLNESS, SPORT & LEISURE."
JDC,03/29/2022,2022,https://www.journeesdescollections.com/en/,DM,PRADIER,A66,Esplanade,http://www.pradiergranulats.fr,,,,,fr,"Gardening, Building & landscaping",,,"Pradier, a major player in the extraction, production and bagging of aggregates for construction and exterior design. Pradier aggregates produces 700 000 T of products per year packaged in bags, big-bag and bulk. French Leader in the packaging of aggregates.&nbsp;(...)"
JDC,03/29/2022,2022,https://www.journeesdescollections.com/en/,DM,PREMIER TECH,T08,Hall 2,http://www.pthorticulturefrance.com,,,,,fr,Gardening,,,"Premier Tech Producers and Consumers offers a wide range of potting soils, mulches and biostimulants to meet all the needs of the gardener expert in quest for beautiful harvests, to the novice gardener wishing to green his little corner of&nbsp;(...)"
JDC,03/29/2022,2022,https://www.journeesdescollections.com/en/,DM,PROCOPI BWT GROUP,A100,Esplanade,http://procoshop.com,,,,,fr,Building & landscaping,,,"A French manufacturer of Pool and spa equipment with 3 factories, Procopi has a network of 12 agencies within France and, through its export service, France and 4 subsidiaries, is present in 88 countries throughout the world."
JDC,03/29/2022,2022,https://www.journeesdescollections.com/en/,DM,PROLOISIRS,G03,Hall 1,https://www.proloisirs.fr/,,,,,fr,Outdoor living,,,"Creator and designer of garden furniture since 1997, Proloisirs is a specialist of outdoor living. Come and discover our different collections. Our product ranges : wood, resin and aluminium Chairs, armchairs, tables, lounge sets, modular lounge sets, sun beds, parasols,&nbsp;(...)"
JDC,03/29/2022,2022,https://www.journeesdescollections.com/en/,DM,PUR VER S.A.,N32,Hall 2,https://www.purver.com,,,,,be,Gardening,,,Our PUR VER® vermicompost and our PURlife® biostimulant bring your soil back to life and promote the growth and yield of your plants.
JDC,03/29/2022,2022,https://www.journeesdescollections.com/en/,DM,PYROFEU,L42,Allée/Alley,http://,,,,,fr,"Gardening, Building & landscaping, Outdoor living",,,"PYROFEU, French manufacturer of maintenance accessories for stoves, inserts and barbecues. Glass cleaner/ Firelighter/ Soot remover/ Gaskets...  SIAM, garden brand, insecticides (anti mosquitoes, flies, ticks), citronella candles, torches, fuels...  CHEMINETT, brand firelighter."
JDC,03/29/2022,2022,https://www.journeesdescollections.com/en/,DM,RAIN IRRIGATION,S12,Hall 2,http://www.rain.it,,,,,fr,"Gardening, Services",,,
JDC,03/29/2022,2022,https://www.journeesdescollections.com/en/,DM,RAINPLAY,R07,Hall 2,http://www.rainplay.fr,,,,,fr,Gardening,,,"Rainplay, consulting and distribution of automatic, micro and surface irrigation equipment, for the retail, garden center and professional markets."
JDC,03/29/2022,2022,https://www.journeesdescollections.com/en/,DM,REALPAKS,U23,Hall 2,https://realpaks.eu/en/,,,,,pl,"Gardening, Outdoor living",,,"Realpaks, a European manufacturer company is offering a wide range of moulded all-season footwear: rain boots, garden clogs, flip-flops. We provide a full production cycle from raw materials to finished footwear of the best quality  and guarantee fast deliveries&nbsp;(...)"
JDC,03/29/2022,2022,https://www.journeesdescollections.com/en/,DM,RESOL,A34,Esplanade,http://www.resol.es,,,,,es,"Building & landscaping, Outdoor living",,,"Design furniture manufacturer, mostly in resin, with more than 50 years of history. We offer versatile designs suitable for all ambiences and lifestyles all year long."
JDC,03/29/2022,2022,https://www.journeesdescollections.com/en/,DM,RIBIMEX,N24,Hall 2,http://www.ribimex.com,,,,,fr,"Gardening, Building & landscaping, Outdoor living",,,"We are a wholesale company counting more than 50 years of experience. Since then we sell a whole range of DIY and Gardening products such as: sprinkling, pump, sprayer, garden tools, garden equipement, powertools, handtools.... We are located in Paris&nbsp;(...)"
JDC,03/29/2022,2022,https://www.journeesdescollections.com/en/,DM,RICA LEVY INTERNATIONAL,R17,Hall 2,https://b2b.ricalewis.com,,,,,fr,"Gardening, Outdoor living",,,"RICA LEWIS WORKWEAR® has been successfully launched in response to the need of the market. We sell a complete range of products for professionals workers, gardeners or DIY enthusiasts, to specialized distributors, garden centers or hardware stores."
JDC,03/29/2022,2022,https://www.journeesdescollections.com/en/,DM,RIVIERA-ET-BAR,L23,Allée/Alley,https://www.riviera-et-bar.fr/,,,,,fr,Outdoor living,,,"Riviera-et-Bar has been enthusiastically advocating for quality homemade cooking for over 50 years. French brand and major player in the premium plancha market, Riviera-et-Bar is committed to offering elegant, efficient and sturdy appliances."
JDC,03/29/2022,2022,https://www.journeesdescollections.com/en/,DM,RIVIERA SAS,F23,Hall 1,http://www.riviera.eu,,,,,fr,Building & landscaping,,,French manufacturer of plastic pots for the garden with or without self watering system. Importer of decorative garden items and artificial flowers and plants.
JDC,03/29/2022,2022,https://www.journeesdescollections.com/en/,DM,RM-MOBILIER,G02,Hall 1,http://www.rm-mobilier.fr,,,,,fr,Outdoor living,,,"Manufacturer of furniture, in steel, for interior and exterior. 26 models in 26 colors in High Durability polyester powder paint, architectural quality. Manufactured in our workshops near Lille, our range of furniture represents French know-how since 1958."
JDC,03/29/2022,2022,https://www.journeesdescollections.com/en/,DM,ROBIN PEPINIERES EARL,A98,Esplanade,http://www.robinpepinieres.com,,,,,fr,"Gardening, Building & landscaping",,,"Christmas trees, Robin Iced Tree®, Robin Diamond Tree® Christmas trees Stands : FRESCHERTREE® Robin Truffle trees under control and licence of INRAE Wood garden decoration articles - 100% natural larch wood: flower box, kitchen garden grow box etc."
JDC,03/29/2022,2022,https://www.journeesdescollections.com/en/,DM,ROMBERG GMBH & CO.KG,I04,Hall 1,http://www.romberg.de,,,,,de,"Gardening, Building & landscaping",,,"ROMBERG is a manufacturer of accessories for sowing since 1865 our head office is located closed to HAMBURG our logistics is in France. We manufacture our products by respecting the environment; our products must allow the novice, gardeners, and professionals&nbsp;(...)"
JDC,03/29/2022,2022,https://www.journeesdescollections.com/en/,DM,ROUCHETTE SAS,T09,Hall 2,http://https://www.rouchette.com,,,,,fr,"Gardening, Outdoor living",,,"We are manufacturer and designer of shoes, clogs, boots for raining, hunting and gardenning ... For each use you will find your happiness! Rouchette incorporates many innovations for your comfort and safety.  Shoe for the whole family, woman, man and kids."
JDC,03/29/2022,2022,https://www.journeesdescollections.com/en/,DM,SADY'S TRADING,D27,Hall 1,http://www.sadys-trading.com,,,,,fr,Outdoor living,,,30 YEARS EXPERIENCE ON THE DESIGN AND IMPORT OF HIGH QUALITY TEXTILES AND DECORATIVE ACCESSORIES INSIDE & OUTDOOR . MANUFACTURING EXCLUSIVELY IN INDIA IN PARTNERSHIP WITH AN INDIAN MANUFACTURER ALLOWS US TO OFFER THE BEST QUALITY / PRICE RATIO AND&nbsp;(...)
JDC,03/29/2022,2022,https://www.journeesdescollections.com/en/,DM,SAFINA SOCIEDADE INDUSTRIAL DE ALCATIFAS LDA,A77,Esplanade,https://www.safina.pt,,,,,pt,"Building & landscaping, Outdoor living",,,"European manufacturer of synthetic turf for pleasure gardens, landscapes, local communities and sports With a large production capacity Safina is present on many international markets for sports and ornamental lawns"
JDC,03/29/2022,2022,https://www.journeesdescollections.com/en/,DM,SANRIVAL JARDIN,N33,Hall 2,http://,,,,,fr,Gardening,,,
JDC,03/29/2022,2022,https://www.journeesdescollections.com/en/,DM,SANTINO SERVICE SRL,B15,Hall 1,http://,,,,,md,,,,
JDC,03/29/2022,2022,https://www.journeesdescollections.com/en/,DM,SARL JM DIFFUSION,C22,Hall 1,http://,,,,,fr,"Outdoor living, Services, Building & landscaping",,,"Company of artificial flowers and decorations specializing in GSA and GSB. Monitoring of shelves, implantations, theatricalizations, animation of seasonal operations. We also participate to national operations and a lot of catalogs."
JDC,03/29/2022,2022,https://www.journeesdescollections.com/en/,DM,SARL JMA DISTRIBUTION GRILL CHIC,L48,Allée/Alley,http://,,,,,fr,,,,
JDC,03/29/2022,2022,https://www.journeesdescollections.com/en/,DM,SARL OYAT,L24,Allée/Alley,http://,,,,,fr,,,,
JDC,03/29/2022,2022,https://www.journeesdescollections.com/en/,DM,SAROM SPA,L37,Allée/Alley,http://www.saromfuoco.it,,,,,it,Outdoor living,,,"Sarom was founded in 1945 as a manufacturer of concrete products. From 1990 Sarom added to its production design and construction of barbecue in Concrete and product for the garden.Sarom has recently developed new metal products: barbecues, ovens ,pellet stoves&nbsp;(...)"
JDC,03/29/2022,2022,https://www.journeesdescollections.com/en/,DM,SAS NORMAND,A106,Esplanade,http://,,,,,fr,,,,
JDC,03/29/2022,2022,https://www.journeesdescollections.com/en/,DM,SAS PAPO  - LA MAISON DES FIGURINES,B04,Hall 1,http://,,,,,fr,,,,
JDC,03/29/2022,2022,https://www.journeesdescollections.com/en/,DM,SAS PERFECT LOISIRS,A89,Esplanade,http://,,,,,fr,,,,
JDC,03/29/2022,2022,https://www.journeesdescollections.com/en/,DM,SAS PREFABRICADOS DE HORMIGON S.A,A96,Esplanade,http://www.sas1900.com,,,,,es,Building & landscaping,,,"Exterior design products : pillar gates, wall copings, terrace tiles, swimming pool edges or swimming pool curbstones (celui que tu préfère), Japanese steps, balusters, concrete fencing, ornaments products, planters, gravel and pebbles. Possibility to manufacture products tailored or exclusives one."
JDC,03/29/2022,2022,https://www.journeesdescollections.com/en/,DM,SBM LIFE SCIENCE,U24,Hall 2,http://sbm-company.com/,,,,,fr,Gardening,,,"SBM Life Science offers innovative solutions to beautify and nourish your garden’s plants (compost, soil improver, mulch, fertilisers, protection products) but also solutions to protect your home and look after your terraces (rat poison, household insecticides, weed killers)."
JDC,03/29/2022,2022,https://www.journeesdescollections.com/en/,DM,SCHEPPACH GMBH,W32,Hall 2,http://www.scheppach.com,,,,,de,Gardening,,,Scheppach is a German company created in 1927 in Bavaria in Ichenhausen. The company celebrated its 90th anniversary in 2017. We manufacture (Made in Germany) and import thermal and electrical machines for tools and garden industries.
JDC,03/29/2022,2022,https://www.journeesdescollections.com/en/,DM,SCHEURICH GMBH & CO. KG,E16,Hall 1,https://www.scheurich.com/en/company/,,,,,de,"Gardening, Building & landscaping, Outdoor living",,,"Scheurich - ""Fashion for Plant"" is the market leader for ceramic pots and accessories for flowers and plants in Europe, as well as the outdoor plastic plant pots. Pots, bowls, jardinieres in all shapes and sizes, 100% waterproof, made in&nbsp;(...)"
JDC,03/29/2022,2022,https://www.journeesdescollections.com/en/,DM,SCP,H08,Hall 1,http://www.swimmingpool.eu,,,,,fr,Building & landscaping,,,"SCP is part of the POOLCORP group, the world’s largest wholesale distributor of swimming pool supplies, and#1 distributor on the European market. SCP has 7 branches throughout France, 50 sales representatives on the field, 7 after Sales Service Centers and&nbsp;(...)"
JDC,03/29/2022,2022,https://www.journeesdescollections.com/en/,DM,SEDPA FRANCE SA,A33,Esplanade,http://www.sedpa.com,,,,,fr,Building & landscaping,,,
JDC,03/29/2022,2022,https://www.journeesdescollections.com/en/,DM,SEMENCES DE FRANCE,S26,Hall 2,https://www.semencesdefrance.com,,,,,fr,Gardening,,,"Semences de France is a company of research, production and marketing of grass and lawn seeds. We sale lawn seed mixtures for amateur gardeners and other mixtures to promote biodiversity in the garden (flower mixes, green manures ...)."
JDC,03/29/2022,2022,https://www.journeesdescollections.com/en/,DM,SHELTERLOGIC CORP,A57,Esplanade,http://www.shelterlogic.com,,,,,us,"Gardening, Building & landscaping, Outdoor living",,,"For over 50 years, ShelterLogic has delivered reliable and tough shade, shelter and storage solutions for customers and retail partners in 33 countries worldwide, across 4 continents. with over 21 million shelters sold."
JDC,03/29/2022,2022,https://www.journeesdescollections.com/en/,DM,SIT MOBILIA,A92,Esplanade,https://www.sit-mobilia.ch/,,,,,ch,"Outdoor living, Services",,,outdoor furniture - tables and chairs
JDC,03/29/2022,2022,https://www.journeesdescollections.com/en/,DM,SMART GARDEN PRODUCTS,K22,Hall 1,http://www.sgpuk.com,,,,,fr,"Gardening, Building & landscaping, Outdoor living",,,"Smart Garden Products is a leading supplier of garden products including solar sowered lights, décor, battery powered products; lanterns, doormats; garden gécor; hanging gardening; plant support; Gro-Zone growhouses... As well as new ranges: footwear and gloves, Christmas décor and pets&nbsp;(...)"
JDC,03/29/2022,2022,https://www.journeesdescollections.com/en/,DM,SMOBY TOYS SAS / ECOIFFIER,A102,Esplanade,http://www.smoby.com,,,,,fr,"Building & landscaping, Outdoor living",,,"Smoby is the first french toys producer with his garden houses or slides in a large range of toys outdoor products.   Others brands are distributed by Smoby such as the famous die cast french brand ""Majorette"" or the outdoor products&nbsp;(...)"
JDC,03/29/2022,2022,https://www.journeesdescollections.com/en/,DM,SODIPA,K14,Hall 1,http://www.sodipa84.com,,,,,fr,"Gardening, Building & landscaping, Outdoor living",,,"SODIPA, family company since 1964 Importer, distributor in the world of the Garden and Agriculture Platform storage of 18 000 m ² in the South of France Our strength revolves around the storage, the reactivity, the permanent novelties and the&nbsp;(...)"
JDC,03/29/2022,2022,https://www.journeesdescollections.com/en/,DM,SOJAM,U30,Hall 2,http://www.sojam.fr,,,,,fr,Gardening,,,"Specialist in household pest control solutions: insecticides, rodenticides, repellents, fire products. with attractive brands sold in specialized stores and hypermarkets."
JDC,03/29/2022,2022,https://www.journeesdescollections.com/en/,DM,SOLER,L39,Allée/Alley,http://,,,,,fr,"Outdoor living, Gardening",,,"French producer of eco-friendly charcoal and briquettes for BBQ. Production that respects our ecosystem and our forests and generates renewable green electricity. Established in Gyé-sur-Seine (Aube, Grand Est, France) since 1993."
JDC,03/29/2022,2022,https://www.journeesdescollections.com/en/,DM,SOLIDUR SAS,V23,Hall 2,http://,,,,,fr,Gardening,,,
JDC,03/29/2022,2022,https://www.journeesdescollections.com/en/,DM,SOMAGIC,M25,Allée/Alley,https://www.somagic.fr,,,,,fr,Outdoor living,,,"The French leader in charcoal grills for over nearly 40 years, Somagic designs and manufactures top quality cast iron barbecues and griddles. With a sleek, innovative, aesthetic and functional design, all our models are very easy to use and guarantee&nbsp;(...)"
JDC,03/29/2022,2022,https://www.journeesdescollections.com/en/,DM,SOMPEX GMBH & CO. KG,K15,Hall 1,https://www.sompex.de,,,,,de,"Building & landscaping, Outdoor living",,,Life is too short for mediocrity–that’s why we at Sompex specialize in unique and remarkable designs for our products. Our modern indoor and outdoor lighting solutions are characterized by stylish innovations at a sound price/performance ratio – German quality from&nbsp;(...)
JDC,03/29/2022,2022,https://www.journeesdescollections.com/en/,DM,SOPRIMEX,S30,Hall 2,http://,,,,,fr,Gardening,,,
JDC,03/29/2022,2022,https://www.journeesdescollections.com/en/,DM,SOURCIDYS,B09,Hall 1,http://www.sourcidys.com,,,,,fr,"Gardening, Building & landscaping, Outdoor living",,,"SOURCIDYS offer the ""Best of Web"" garden products, from gardening to outdoor furnitures, we generate your futures Bests Sellers ! We are looking forward to meeting you at our booth B09 - Hall 1."
JDC,03/29/2022,2022,https://www.journeesdescollections.com/en/,DM,SOVACOM,A99,Esplanade,http://https://www.sovacom-sovgroup.fr/,,,,,fr,"Building & landscaping, Outdoor living",,,"Importer and Distributor of artificial flowers for more than 30 years, SOVACOM is one of the leader of the French market."
JDC,03/29/2022,2022,https://www.journeesdescollections.com/en/,DM,SP BERNER PLASTIC GROUP S.L.,D29,Hall 1,http://sp-berner.com,,,,,es,Outdoor living,,,"With over 50 years of experience and a multinational presence, Sp-Berner has become a leading international group in the transformation of plastics. One of our main areas is outdoor furniture, where we work coffee sets, tables, loungers and armchair for&nbsp;(...)"
JDC,03/29/2022,2022,https://www.journeesdescollections.com/en/,DM,SPEAR & JACKSON FRANCE,U35,Hall 2,http://www.spear-and-jackson.fr,,,,,fr,"Gardening, Building & landscaping, Outdoor living",,,"We are manufacturing and selling traditional garden tools (including big garden tools, hand garden tools, cutting tools and many accessories). We are mainly focusing on innovation and are proposing each year new garden tools (new design, new use...)."
JDC,03/29/2022,2022,https://www.journeesdescollections.com/en/,DM,SPG,P12,Hall 2,http://www.graines-caillard.com,,,,,fr,Gardening,,,"Packaging and marketing of gardening products : vegetable and flower seeds, lawns, bulbs, feed and products for wild birds and garden animals."
JDC,03/29/2022,2022,https://www.journeesdescollections.com/en/,DM,START,U31,Hall 2,http://www.les-produits-star.com,,,,,fr,"Gardening, Building & landscaping",,,"French family business specializing in garden and home products Natural and Synthetic Fertilizers. Natural Weed Control Solutions Thermal weeders. Natural treatments, basic substances. Anti green deposits Pest control Grass seeds Distribution of weather stations"
JDC,03/29/2022,2022,https://www.journeesdescollections.com/en/,DM,STEFANPLAST SPA,J07,Hall 1,http://www.stefanplast.it,,,,,it,"Building & landscaping, Outdoor living",,,"Stefanplast has been creating and producing articles made of plastic in  Italy since 1964. Among one of the first companies to believe and invest  in  this  revolutionary  material,  Stefanplast  is  now  ranked &nbsp;(...)"
JDC,03/29/2022,2022,https://www.journeesdescollections.com/en/,DM,STEINBACH INTERNATIONAL GMBH,H09,Hall 1,http://www.steinbach.at,,,,,at,Building & landscaping,,,Steinbach International with headquarters in Schwertberg is one of Europe‘s leading suppliers around pools and accessories. By now Steinbach counts over 300 Employees. The pool chemicals are exclusively produced in Austria as our own packaging. We are specialized in &nbsp;(...)
JDC,03/29/2022,2022,https://www.journeesdescollections.com/en/,DM,STIGA SAS,W36,Hall 2,http://www.alpina-garden.fr,,,,,fr,Gardening,,,"STIGA Group (former GGP Group) is the leading manufacturer of lawn mowers and lawn tractors, as well as a wide range of garden equipment. STIGA Group has more than 90 years of experience through its brands Alpina, STIGA and Castelgarden&nbsp;(...)"
JDC,03/29/2022,2022,https://www.journeesdescollections.com/en/,DM,STOCKER SRL,V32,Hall 2,https://www.stockergarden.com/en/,,,,,it,"Gardening, Outdoor living, Services",,,"Stocker was founded in 1985 in Lana, Bolzano, Italy. The tools we supply are of daily use for all those people who love gardening and agriculture. Main products range from pruning electric shears to electric sprayers. Each year we develop&nbsp;(...)"
JDC,03/29/2022,2022,https://www.journeesdescollections.com/en/,DM,SUBITO SPRING,A64,Esplanade,http://,,,,,fr,"Building & landscaping, Outdoor living, Gardening",,,"FABRICATION AND DISTRIBUTION OF PRODUCTS ANTI NUISIBLES REPUlSIFS, INSECTICIDES, RATICIDES, MECANIC PIEGES, ELECTRIC PRODUITS FOR RESELL IN PARTICULIERS AND PROFESSIONNELS"
JDC,03/29/2022,2022,https://www.journeesdescollections.com/en/,DM,SUMEC FRANCE,V24,Hall 2,http://,,,,,fr,Gardening,,,"Sumec France as subsidiary of Sumec group based in China offers a complete range of lawn and Garden products, power tools and high pressure washer under his own brand yardForce and Power G but is also able to develop products&nbsp;(...)"
JDC,03/29/2022,2022,https://www.journeesdescollections.com/en/,DM,SUN AMEX,K28,Hall 1,http://www.sunamex.fr,,,,,fr,"Building & landscaping, Gardening, Outdoor living",,,"SUN AMEX French designer of solar solutions for individuals and professionals develops a range of solar lighting, powerful, multifunctional and design with long autonomy as well as ranges of solar decoration, solar security and autonomy for the home."
JDC,03/29/2022,2022,https://www.journeesdescollections.com/en/,DM,SUNBRELLA,J18,Hall 1,http://dckc.fr/sunbrella,,,,,fr,"Building & landscaping, Outdoor living",,,"Renowned for its experience and unique savoir-faire in the weaving and coloring of the fiber, Sunbrella’s technical process sets the brand apart from its competitors. Integrating performance and design, Sunbrella® has been a leader in its field for over 60&nbsp;(...)"
JDC,03/29/2022,2022,https://www.journeesdescollections.com/en/,DM,SUNCOMFORT BY GLATZ FRANCE,C16,Hall 1,http://suncomfort.fr/,,,,,fr,"Building & landscaping, Outdoor living",,,"With the SUNCOMFORT by Glatz, GLATZ (leading European manufacturer) has achieved one thing above all: consistent value for Money. Quality/Innovation/Design are our development key words. More than sunshade, we propose an ATMOSPHERE for ideal moments on the terraces."
JDC,03/29/2022,2022,https://www.journeesdescollections.com/en/,DM,SWISSINNO SOLUTIONS AG,P14,Hall 2,http://www.swissinno.com,,,,,fr,Gardening,,,"CREATOR OF SOLUTIONS FOR NATURAL PEST CONTROL Success through innovation! Dynamic - Creative - Experienced. The team at SWISSINNO SOLUTIONS researches, develops and markets innovative pest control solutions."
JDC,03/29/2022,2022,https://www.journeesdescollections.com/en/,DM,SYLVA FERTILIS FRANCE,S21,Hall 2,http://www.terrafertilis.com,,,,,fr,Gardening,,,"Sylva fertilis produces and sells Terra fertilis, natural fertilizers for soil and plants, based on french biochar 100% wood and UAB. For more beautiful and resistant plants with less fertilizer and less watering.  Terra fertilis, have a green thumb becomes natural&nbsp;(...)"
JDC,03/29/2022,2022,https://www.journeesdescollections.com/en/,DM,TALUX SA,V21,Hall 2,http://,,,,,fr,Gardening,,,Italian manufacturer of technical socks and knee-highs for professionals and the general public. The Talux Company based in Meaux is your specialist with a complete range of footwear accessories.  The only authorized producer of technical socks with the KEVLAR label.
JDC,03/29/2022,2022,https://www.journeesdescollections.com/en/,DM,TCK GARDEN,Y25,Hall 2,http://www.builder-innovation.com,,,,,fr,"Gardening, Building & landscaping, Services",,,"We are manufacturers of garden tools: chainsaws, brushcutters, mowers, high pressure cleaners, etc. under, Hyundai (petrol tools) and Energizer (cordless tools) brands."
JDC,03/29/2022,2022,https://www.journeesdescollections.com/en/,DM,TECHMAR B.V.,K30,Hall 1,http://www.techmar.nl/fr,,,,,nl,Building & landscaping,,,"We are a specialist in developing, designing, producing and selling 12 volt outdoor lighting."
JDC,03/29/2022,2022,https://www.journeesdescollections.com/en/,DM,TELAMON,T39,Hall 2,http://www.telamon.fr,,,,,fr,Services,,,"Divide by 10 the time spent in data exchanges with your customers. The manual data entry is over!  BART converts, adapts and puts your product information in the right format. In a few clicks: • Fill in all your distributor matrixes; • Rename, convert and&nbsp;(...)"
JDC,03/29/2022,2022,https://www.journeesdescollections.com/en/,DM,TENSAI FURNITURE,K19,Hall 1,https://www.tensaifurniture.pt,,,,,pt,"Outdoor living, Gardening",,,"TENSAI Furniture, company dedicated to the production and development of Contract, HoReCa and Hospitality plastic furniture solutions.  #injection #plastic #furniture #chairs #tables"
JDC,03/29/2022,2022,https://www.journeesdescollections.com/en/,DM,TERAPLAST S.P.A,K34,Hall 1,http://www.teraplast.com,,,,,it,"Gardening, Building & landscaping, Outdoor living",,,"Teraplast is a new player in the plastic vase sector  and stands out for its flexibility, innovation, range and particularly competitive prices. We produce articles with injection e rotational technology and we are able to satisfy the requirements of diversified sectors."
JDC,03/29/2022,2022,https://www.journeesdescollections.com/en/,DM,TERRA FLORA,E27,Hall 1,http://,,,,,fr,Outdoor living,,,"TERRA FLORA WORKS IN ITS OWN WORKSHOPS FOR THE MANUFACTURE OF ITS FLORAL COMPOSITIONS AND MARKETS A WIDE RANGE OF PERMANENT PRODUCTS (TREES, BUSHES, STEMS, FUNERAL PRODUCTS ... )"
JDC,03/29/2022,2022,https://www.journeesdescollections.com/en/,DM,TEXTISS,T07,Hall 2,http://www.textiss.com/,,,,,fr,Gardening,,,"TEXTISS is your French professional in the underwear, cap and sock sectors for 20 years.  Find our large range of socks products for DIY and gardening on our stand, with BLACK+DECKER, FACOM and SCHOLL brands."
JDC,03/29/2022,2022,https://www.journeesdescollections.com/en/,DM,THE POTS COMPANY SA,D11,Hall 1,https://www.thepotscompany.eu/,,,,,be,,,,The Pots Company is a creator of brands in flowerpots and planters. With our brand Ecopots we are pioneer in durability: certification of content of recycled plastics and of CO2 neutral product; min. 10 years of use guaranteed. And this&nbsp;(...)
JDC,03/29/2022,2022,https://www.journeesdescollections.com/en/,DM,THEVENIN SAS,C05,Hall 1,http://www.theveninsa.fr,,,,,fr,"Building & landscaping, Outdoor living",,,"Creator and French manufacturer of artificial flower arrangements for 50 years, leader in this market in France, we produce more than 700,000 compositions per year and are able to absorb the growth demanded by the major brands we supply and&nbsp;(...)"
JDC,03/29/2022,2022,https://www.journeesdescollections.com/en/,DM,TIERRA ZEN S.L.,B16,Hall 1,https://tierrazen.com/fr,,,,,es,"Outdoor living, Building & landscaping",,,"An experience for the senses. We propose you to taste the smell of Japan with Nippon Kodo incenses, to vibrate with the finely tuned Woodstock wind chimes, to admire the sparkling brilliance of our feng shui crystals  and other&nbsp;(...)"
JDC,03/29/2022,2022,https://www.journeesdescollections.com/en/,DM,TOY INFLUENCE SAS,A94,Esplanade,http://www.toyinfluence.com,,,,,fr,Outdoor living,,,
JDC,03/29/2022,2022,https://www.journeesdescollections.com/en/,DM,TRAMONTINA GERMANY GMBH,L45,Allée/Alley,https://www.tramontina.de/,,,,,de,"Outdoor living, Gardening",,,"Tramontina is a Brazilian company that manufactures all products for the kitchen and the garden. We ensure distribution in France from our warehouse in Germany. Key figures : - 3million products manufactured daily. - 22,000 reference - 10 factories"
JDC,03/29/2022,2022,https://www.journeesdescollections.com/en/,DM,TRIGANO JARDIN,A106,Esplanade,http://www.triganojardin.com,,,,,fr,"Building & landscaping, Outdoor living, Services",,,"We are specialist of conception, manufacture and sales of children outdoor products for private use. Our products are made in France, they have OFG label: wooden and/or metal swing sets, slides, family pools in metal. We resale YARDMASTER metal garden&nbsp;(...)"
JDC,03/29/2022,2022,https://www.journeesdescollections.com/en/,DM,TROOP GARDEN,N31,Hall 2,http://www.troopgarden.com,,,,,es,Gardening,,,"EXPERTS IN RESEARCH AND DEVELOPMENT OF BIOTECHNOLOGY AND AGRICULTURAL INNOVATION The company offers innovative biological solutions for home gardening, using natural microorganisms. Its products, Absorption, Activation and Nitrofix are 100% natural and chemical-free"
JDC,03/29/2022,2022,https://www.journeesdescollections.com/en/,DM,TSMP - PLANCHA TONIO,L43,Allée/Alley,http://www.plancha-tonio.com,,,,,fr,Outdoor living,,,"100 % INOX planchas French leader, PLANCHA TONIO brings professional quality to the home user. Come and choose from our very wide choice of models, tested and manufactured in our factory in the respect of your customers expectations."
JDC,03/29/2022,2022,https://www.journeesdescollections.com/en/,DM,TURFQUICK AB,T29,Hall 2,http://www.turfquick.com,,,,,se,Gardening,,,ECO GROW TEX TURFquick is a patented revolutionary planting textile with nature-soluble seed planting fabric developed to make grass planting more professional and easier. It has been produced in the most appropriate way to provide the first greening with seeds suitable&nbsp;(...)
JDC,03/29/2022,2022,https://www.journeesdescollections.com/en/,DM,UKAL,A46,Esplanade,https://www.ukal.com/,,,,,fr,"Gardening, Building & landscaping",,,"UKAL ELEVAGE is a manufacturer, wholesaler and distributor of products and equipment for agriculture and gardening (fencing, backyard, boots, pest control, etc.) based in France. For 55 years, UKAL has offered more than 2000 products, more than 20 brands, in&nbsp;(...)"
JDC,03/29/2022,2022,https://www.journeesdescollections.com/en/,DM,UNIQUE LIVING BY LEMETEX,C34,Hall 1,http://www.uniqueliving.nl,,,,,nl,Outdoor living,,,"Home textiles, coushins, throws, blankets, table-cloths, table-runners, placemats, christmas decorations, plush puppets.  Lemetex import/export B.V. founded in 1978 nowadays one of the largest importers of home textiles. For more than a decade we passionately run our label “Unique Living”"
JDC,03/29/2022,2022,https://www.journeesdescollections.com/en/,DM,V.N.M. SAS - KOCIDE / TRANKILL,V26,Hall 2,http://vnm.fr,,,,,fr,"Gardening, Building & landscaping",,,
JDC,03/29/2022,2022,https://www.journeesdescollections.com/en/,DM,VARO,W26,Hall 2,http://www.varo.com,,,,,be,"Gardening, Building & landscaping",,,"With more than 60 years of experience, VARO distributes at a global level its own brands, POWERPLUS, KREATOR et PREMION. The firm offers a large assortment, declined in various ranges, of power tools and gardening tools as well as handtools&nbsp;(...)"
JDC,03/29/2022,2022,https://www.journeesdescollections.com/en/,DM,VECA SPA,C25,Hall 1,http://www.vecaspa.com,,,,,it,"Building & landscaping, Outdoor living",,,"VECA has been designing, producing and marketing plastic pots for over 30 years. We have 6 facilities with a total area of ​​25,000 square meters, equipped with 37 rotomolding and injection production units We invite you to share a coffee&nbsp;(...)"
JDC,03/29/2022,2022,https://www.journeesdescollections.com/en/,DM,VELAMP INDUSTRIES FRANCE  SARL,X34,Hall 2,http://,,,,,fr,,,,
JDC,03/29/2022,2022,https://www.journeesdescollections.com/en/,DM,VERITABLE SAS,B01,Hall 1,http://www.veritable-potager.fr,,,,,fr,"Gardening, Building & landscaping, Outdoor living",,,"Founded in 2015, Véritable® is a Food Tech company specialized in indoor urban farming. We design and manufacture in France innovative solutions which enable everyone to easily grow, harvest and enjoy a large range of herbs, edible flowers, fruits and&nbsp;(...)"
JDC,03/29/2022,2022,https://www.journeesdescollections.com/en/,DM,VIDEX GARDEN GMBH & CO. KG,N36,Hall 2,http://www.videx.de,,,,,de,"Gardening, Building & landscaping, Outdoor living, Services",,,"Manufacture (30%) of metal-, plastic- and natural garden products at own production for products and customized displays. Naturally grown resources (straw, reed, willow, jute, coco) and its craftmanship isa tradition at Videx. For over 40 years we manufacture PVC screening&nbsp;(...)"
JDC,03/29/2022,2022,https://www.journeesdescollections.com/en/,DM,VILMORIN JARDIN,P11,Hall 2,https://www.vilmorin-jardin.fr/,,,,,fr,Gardening,,,"Our mission in Vilmorin is to accompany the gardeners of today and tomorrow in their garden projects with simplicity and shared entertainment. With Vilmorin live a positive experience of the garden, user-friendly in everyday life, to sow, plant, harvest, share and&nbsp;(...)"
JDC,03/29/2022,2022,https://www.journeesdescollections.com/en/,DM,WATT ET HOME,J01,Hall 1,http://www.wattethome.com,,,,,fr,"Building & landscaping, Outdoor living, Gardening",,,"Watt & Home is a french company, manufacturer of solar lighting since more than 10 years. Thanks to its qualitative solar lighting range, with differenciating design and high level performances, Watt & home is an unavoidable brand for outdoor lighting."
JDC,03/29/2022,2022,https://www.journeesdescollections.com/en/,DM,WENKO FRANCE,G01,Hall 1,http://www.wenko.fr,,,,,fr,"Outdoor living, Services",,,"Wenko develops smart and innovative products for the whole house. Kitchen, garden, balcony, terrace, bathroom, living rooms. Sideboards, protection plates, cutting boards, summer kitchen accessories, storage, we offer a wide range of accessories accessible to all."
JDC,03/29/2022,2022,https://www.journeesdescollections.com/en/,DM,WINDHAGER FRANCE,E30,Hall 1,https://www.windhager.eu/fr/,,,,,fr,"Gardening, Building & landscaping",,,"Windhager products encourage the beauty and natural diversity of your garden.   we offer the following product ranges: insect stops, pest control, tarpaulins, stakes, fences, blackout, sun screens and gardening accessories.  The specificity of Windhager is to offer turnkey concepts&nbsp;(...)"
JDC,03/29/2022,2022,https://www.journeesdescollections.com/en/,DM,ZIIPA,M41,Allée/Alley,http://www.ziipa.fr,,,,,fr,Outdoor living,,,"Want to enjoy a great outdoor culinary experience ? Welcome to the world of ZiiPa, a French brand that designs compact, innovative and colorful pizza ovens for individuals. Come and meet us quickly !"
