ShowName,ShowDate,ShowYear,ShowWebsite,SubmittedBy,ExhibitorName,BoothNumber,HallLocation,Website,Email,Phone,Fax,Address,Country,Categories,Manufacturers,Brands,Description
Stockholm Furniture & Lighting Fair,02/08/2022,2022,https://www.stockholmfurniturelightfair.se/,DM,Bjelin,C05:23,,www.bjelin.se,sales@bjelin.com,020-51 50 10,,"Apelvägen 2, 263 62, Viken",Sverige,Carpets & flooring,,,
Stockholm Furniture & Lighting Fair,02/08/2022,2022,https://www.stockholmfurniturelightfair.se/,DM,BISLEY,A17:18,,www.bisley.com,nuno.esteves@bisley.com,+491728580289,,"Caswell Way, Reevesland Ind Est, NP194PW, Newport",Storbritannien,,,,
Stockholm Furniture & Lighting Fair,02/08/2022,2022,https://www.stockholmfurniturelightfair.se/,DM,Beslag Design,A23:11,,www.beslagdesign.se,info@beslagdesign.se,0431-784 80,,"Inre Kustvägen 32, 269 43, Båstad",Sverige,Interior fittings,,,
Stockholm Furniture & Lighting Fair,02/08/2022,2022,https://www.stockholmfurniturelightfair.se/,DM,BordBirger,B04:10,,www.bordbirger.se,info@bordbirger.se,+46 380 37 04 30,,"Industrigatan 15, 571 62, Bodafors",Sverige,Home furniture | Furniture public environment,,,
Stockholm Furniture & Lighting Fair,02/08/2022,2022,https://www.stockholmfurniturelightfair.se/,DM,Bench bench bench,C05:53,,,marc.hoogendijk@gmail.com,070 893 35 42,,"Lantvärnsgatan 1b, 414 51, Göteborg",Sverige,,,,
Stockholm Furniture & Lighting Fair,02/08/2022,2022,https://www.stockholmfurniturelightfair.se/,DM,Blond Belysning AB,A04:18,,www.blond.se,info@blond.se,+46 370 30 17 35,,"Box 503, 331 25, Värnamo",Sverige,Lighting contract market,,,
Stockholm Furniture & Lighting Fair,02/08/2022,2022,https://www.stockholmfurniturelightfair.se/,DM,BIARO AB,AG:16,,www.biaro.se,kundservice@biaro.se,+46 (0)481-24020,,"Kopparfly 111, 382 90, Örsjö",Sverige,Office contract market | Furniture public environment | Corporate / Public space - office | Corporate / Public space - furniture interior,,,
Stockholm Furniture & Lighting Fair,02/08/2022,2022,https://www.stockholmfurniturelightfair.se/,DM,Blå Station,C14:31,,www.blastation.se,mimi@blastation.se,+46 44 24 90 70,,"Box 100, 296 22, Åhus",Sverige,Furniture public environment | Corporate / Public space - furniture interior,,,
Stockholm Furniture & Lighting Fair,02/08/2022,2022,https://www.stockholmfurniturelightfair.se/,DM,Bellalite AB,A03:21,,www.bellalite.se,info@bellalite.se,010-470 02 00,,"Mörners väg 122, 352 46, Växjö",Sverige,Home lighting | Lighting contract market | Light source & Electrical materials,,,
Stockholm Furniture & Lighting Fair,02/08/2022,2022,https://www.stockholmfurniturelightfair.se/,DM,Baseco Golv,A26:21,,www.baseco.se,patrik@baseco.se,0952-550 10,,"Box 86, 924 31, Sorsele",Sverige,Furniture public environment | Corporate / Public space - furniture interior,,,
Stockholm Furniture & Lighting Fair,02/08/2022,2022,https://www.stockholmfurniturelightfair.se/,DM,Beckmans College of Design,C06:33,,www.beckmans.se,info@beckmans.se,+46 8 660 20 20,,"Brahegatan 10, 114 37, Stockholm",Sverige,Schools,,,
Stockholm Furniture & Lighting Fair,02/08/2022,2022,https://www.stockholmfurniturelightfair.se/,DM,Bargi AB,B06:21,,www.bargi.se,fg@bargi.se,+46 40 53 55 00,,"Limvägen 3, 232 37, Arlöv",Sverige,Carpets & flooring,,,
Stockholm Furniture & Lighting Fair,02/08/2022,2022,https://www.stockholmfurniturelightfair.se/,DM,Bang Paper Collection,C04:47,,www.banguniverse.se,theresia@banguniverse.se,+46 073 510 53 00,,"Åsögatan 144, 116 44, Stockholm",Sverige,,,,
Stockholm Furniture & Lighting Fair,02/08/2022,2022,https://www.stockholmfurniturelightfair.se/,DM,Belid Lighting,A07:11,,www.belid.se,info@belid.se,+46 340 62 30 00,,"Klasavägen 4, 432 95, Varberg",Sverige,Home lighting | Lighting contract market,,,
Stockholm Furniture & Lighting Fair,02/08/2022,2022,https://www.stockholmfurniturelightfair.se/,DM,FF Kakel x Mutina,AG:66,,www.ffkakel.se,caroline.andernell@ffkakel.se,0736-357486,,"Murmästarvägen 43, 12735, Stockholm",Sverige,,,,
Stockholm Furniture & Lighting Fair,02/08/2022,2022,https://www.stockholmfurniturelightfair.se/,DM,Balzar Beskow,A09:18,,www.balzar.se,info@balzar.se,+46 8 545 551 40,,"Birger Dahlérus väg 12, 176 69, Järfälla",Sverige,Furniture public environment | Corporate / Public space - furniture interior,,,
Stockholm Furniture & Lighting Fair,02/08/2022,2022,https://www.stockholmfurniturelightfair.se/,DM,Fermob,C13:41,,www.fermob.com,mdumont@fermob.com,+33427300110,,"Parc Actival, 01140, SAINT-DIDIER-SUR-CHALARONNE",Frankrike,,,,
Stockholm Furniture & Lighting Fair,02/08/2022,2022,https://www.stockholmfurniturelightfair.se/,DM,FDB Møbler,C11:29,,www.fdbmoebler.dk,,,,"Vallensbæk Torvevej 9, 2620, ALBERSLUND",Danmark,Furniture public environment,,,
Stockholm Furniture & Lighting Fair,02/08/2022,2022,https://www.stockholmfurniturelightfair.se/,DM,European House of Beds A/S,B06:14,,www.europeanhouseofbeds.com,ronny.frisk@europeanhouseofbeds.com,+45 89 93 43 21,,"Marsalle 25, 8700, HORSENS",Danmark,Home furniture,,,
Stockholm Furniture & Lighting Fair,02/08/2022,2022,https://www.stockholmfurniturelightfair.se/,DM,Backapp,A17:11,,www.backapp.eu,,+4763826311,,"v/Exmo AB, Västra Götgatan 4, Box 68, 334 32, Anderstorp",Sverige,Office contract market | Corporate / Public space - office,,,
Stockholm Furniture & Lighting Fair,02/08/2022,2022,https://www.stockholmfurniturelightfair.se/,DM,Fabrikant,C07:24,,www.fabrikant.se,info@fabrikant.se,,,"Skatelövsvägen 69, 340 32, Grimslöv",Sverige,Furniture public environment,,,
Stockholm Furniture & Lighting Fair,02/08/2022,2022,https://www.stockholmfurniturelightfair.se/,DM,Fabula Living,A05:10,,www.fabulaliving.dk,info@fabulaliving.dk,+4522333966,,"Teglstrupvej 33, 2100, København Ø",Danmark,Textiles contract market,,,
Stockholm Furniture & Lighting Fair,02/08/2022,2022,https://www.stockholmfurniturelightfair.se/,DM,"Estonian Academy of Arts, Department of Product Design",C06:41,,www.artun.ee,anna-liisa.laarits@artun.ee,+372 56 953 199,,"Estonia pst 7, 10143, Tallinn",Estland,Schools,,,
Stockholm Furniture & Lighting Fair,02/08/2022,2022,https://www.stockholmfurniturelightfair.se/,DM,Eurocontact AB,A22:12,,www.eurocontact.se,,+46 31 706 75 10,,"A Odhners Gata 43, 421 30, Västra Frölunda",Sverige,Home lighting | Lighting contract market | Light source & Electrical materials,,,
Stockholm Furniture & Lighting Fair,02/08/2022,2022,https://www.stockholmfurniturelightfair.se/,DM,Essem Design,A18:12,,www.essem.se/en,info@essem.se,+46 (0) 371-19410,,"Nennesmovägen 9, 334 33, Anderstorp",Sverige,Interior fittings | Office contract market | Home furniture | Furniture public environment | Corporate / Public space - office | Corporate / Public space - furniture interior,,,
Stockholm Furniture & Lighting Fair,02/08/2022,2022,https://www.stockholmfurniturelightfair.se/,DM,Inno,C08:31,,www.inno.fi,Niklas.korhonen@inno.fi,+358 98 87 03 80,,"Tähdenlennontie 9, 02240, ESPOO",Finland,Furniture public environment | Corporate / Public space - furniture interior,,,
Stockholm Furniture & Lighting Fair,02/08/2022,2022,https://www.stockholmfurniturelightfair.se/,DM,Inoff Inred ab,A14:10,,www.inoff.se,,+46 451 77 53 60,,"Box 82, 280 20, Bjärnum",Sverige,Furniture public environment | Corporate / Public space - furniture interior,,,
Stockholm Furniture & Lighting Fair,02/08/2022,2022,https://www.stockholmfurniturelightfair.se/,DM,Interesting Times Gang,C06:36,,,alexander@itg.studio,073 358 28 13,,"Norra Stationsgatan 111, 113 64, Stockholm",Sverige,,,,
Stockholm Furniture & Lighting Fair,02/08/2022,2022,https://www.stockholmfurniturelightfair.se/,DM,IDT Solutions AS,A23:10,,www.idt.no,,0047 414699 75,,"Lenagata 131, 2850, LENA",Norge,Office contract market,,,
Stockholm Furniture & Lighting Fair,02/08/2022,2022,https://www.stockholmfurniturelightfair.se/,DM,Human Error,C04:51,,instagram.com/humanerror.systems,andersericlinden@gmail.com,0762436175,,"Ålgrytevägen 25, 127 32, Skärholmen",Sverige,Standalone Designer/Greenhouse,,,
Stockholm Furniture & Lighting Fair,02/08/2022,2022,https://www.stockholmfurniturelightfair.se/,DM,Hitex Robot Tuft,A14:11,,www.hitex.se,hitex@hitex.se,0454-32 36 16,,"Nissavägen 5, 376 36, Svängsta",Sverige,Textiles contract market,,,
Stockholm Furniture & Lighting Fair,02/08/2022,2022,https://www.stockholmfurniturelightfair.se/,DM,Hovden,B04:20,,www.hovdenmobel.no,,+47 700 49591,,"Palmiskes g. 33
Svepeliu k., Dovilu sen, 95102, Klapeidos r.sav",Litauen,Home furniture | Furniture public environment,,,
Stockholm Furniture & Lighting Fair,02/08/2022,2022,https://www.stockholmfurniturelightfair.se/,DM,Hetta Supply,AG:50,,www.hettasupply.com,kontakt@hettasupply.com,+48579900408,,"Porcelanowa 23, 40-246, Katowice",Polen,Outdoor furniture public environment,,,
Stockholm Furniture & Lighting Fair,02/08/2022,2022,https://www.stockholmfurniturelightfair.se/,DM,hule,C07:20,,www.hule.pl,hule@hule.pl,,,"ul. Mickiewicza 21/2, 01-517, Warszawa",Polen,Home lighting | Home furniture,,,
Stockholm Furniture & Lighting Fair,02/08/2022,2022,https://www.stockholmfurniturelightfair.se/,DM,Heymat,"C06:29, C06:21",,www.heymat.com,info@heymat.no,+47-4144  9696,,"Nesnaveien 59, 8614, Mo i Rana",Norge,Interior fittings | Carpets & flooring | Textiles home | Textiles contract market,,,
Stockholm Furniture & Lighting Fair,02/08/2022,2022,https://www.stockholmfurniturelightfair.se/,DM,Högskolan i Gävle,C05:65,,www.hig.se/tgidk,,+46 26 64 85 00,,"801 76, Gävle",Sverige,Standalone Designer/Greenhouse,,,
Stockholm Furniture & Lighting Fair,02/08/2022,2022,https://www.stockholmfurniturelightfair.se/,DM,Linfalk Trading AB,AG:15,,www.linfalk.se,info@linfalk.se,013-31 40 20,,"Fågelögatan 2, 582 78, Linköping",Sverige,,,,
Stockholm Furniture & Lighting Fair,02/08/2022,2022,https://www.stockholmfurniturelightfair.se/,DM,Helland Möbler A/S,A13:11,,www.helland.no,helland@helland.no,+47 70 27 90 00,,"Postboks 10, 6259, STORDAL",Norge,Office contract market | Furniture public environment | Corporate / Public space - furniture interior,,,
Stockholm Furniture & Lighting Fair,02/08/2022,2022,https://www.stockholmfurniturelightfair.se/,DM,LiL HOUSE,B09:21,,www.lil-house.com,info@lil-house.com,+371 26782827,,"Celtnieku iela 6a-39, LV-2121, Lettland",Litauen,,,,
Stockholm Furniture & Lighting Fair,02/08/2022,2022,https://www.stockholmfurniturelightfair.se/,DM,Limited Edition,C04:23,,www.limitededition.be,sales@le.be,32-56852780,,"284, Chaussée D'Aelbeke, 7700, Moeskroen",Belgien,Furniture public environment | Textiles home,,,
Stockholm Furniture & Lighting Fair,02/08/2022,2022,https://www.stockholmfurniturelightfair.se/,DM,Lampefeber,A04:16,,www.lampefeber.com,michael@lampefeber.com,+45 86 36 17 22,,"Lilleringvej 30, 8462, Harlev",Danmark,Home lighting | Lighting contract market,,,
Stockholm Furniture & Lighting Fair,02/08/2022,2022,https://www.stockholmfurniturelightfair.se/,DM,LIB,B01:10,,www.lib.se,info@lib.se,+46 300 376 60,,"Åsklostervägen 53, 432 96, Åskloster",Sverige,Home furniture | Furniture public environment,,,
Stockholm Furniture & Lighting Fair,02/08/2022,2022,https://www.stockholmfurniturelightfair.se/,DM,L.I.B.,B01:22,,www.lib.se,info@lib.se,+46 300 376 60,,"Åsklostervägen 53, 432 96, Åskloster",Sverige,Home furniture | Furniture public environment,,,
Stockholm Furniture & Lighting Fair,02/08/2022,2022,https://www.stockholmfurniturelightfair.se/,DM,Lauritzon,A04:28,,www.lauritzon.fi,,+358 502864,,"Teerisuonkuja 6, 00700, HELSINGFORS",Finland,Furniture public environment | Corporate / Public space - office | Textiles contract market,,,
Stockholm Furniture & Lighting Fair,02/08/2022,2022,https://www.stockholmfurniturelightfair.se/,DM,LEPO PRODUCT OY,C08:11,,www.lepo.fi,,+358 440 490851,,"Villähteentie 547, 15540, VILLÄHDE",Finland,Furniture public environment | Corporate / Public space - furniture interior,,,
Stockholm Furniture & Lighting Fair,02/08/2022,2022,https://www.stockholmfurniturelightfair.se/,DM,La Cividina,A12:18,,www.lacividina.com,info@lacividina.com,+39 0432 67 74 33,,"Via Cividina 176, 33035, Martignacco (UD)",Italien,Corporate / Public space - office,,,
Stockholm Furniture & Lighting Fair,02/08/2022,2022,https://www.stockholmfurniturelightfair.se/,DM,Northern,C04:11,,www.northernlighting.no,daniel.b@northern.no,+47 40 00 70 37,,"Bygdöy Alle 68, 0265, Oslo",Norge,Home lighting | Lighting contract market,,,
Stockholm Furniture & Lighting Fair,02/08/2022,2022,https://www.stockholmfurniturelightfair.se/,DM,Nyckelviksskolan,C03:48,,www.nyckelviksskolan.se,post@nyckelviksskolan.se,+46 8 544 815 00,,"Granvägen 1, 181 32, Lidingö",Sverige,Schools,,,
Stockholm Furniture & Lighting Fair,02/08/2022,2022,https://www.stockholmfurniturelightfair.se/,DM,Lammhults,C10:31,,www.lammhults.se,info@lammhults.se,+46 472 26 95 00,,"Box 26, 360 30, Lammhult",Sverige,Furniture public environment | Corporate / Public space - furniture interior,,,
Stockholm Furniture & Lighting Fair,02/08/2022,2022,https://www.stockholmfurniturelightfair.se/,DM,Norwegian Trash,C05:35,,norwegiantrash.no,sindre@norwegiantrash.no,+47 928 99 200,,"Hallings gate 3A, 0170, Oslo",Norge,,,,
Stockholm Furniture & Lighting Fair,02/08/2022,2022,https://www.stockholmfurniturelightfair.se/,DM,NORDI furniture,B09:21,,www.nordi.com,,+371 294 667 97,,"Pernavas iela 10-55, LV-1012, Riga",Lettland,,,,
Stockholm Furniture & Lighting Fair,02/08/2022,2022,https://www.stockholmfurniturelightfair.se/,DM,Normann Copenhagen,A05:15,,www.normann-copenhagen.com,normann@normann-copenhagen.com,+45 35 55 44 59,,"Niels Hemmingsens Gade 12, 1153, København K",Danmark,Furniture public environment | Corporate / Public space - office,,,
Stockholm Furniture & Lighting Fair,02/08/2022,2022,https://www.stockholmfurniturelightfair.se/,DM,Nordisk Group,C10:29,,www.nordiskgroup.dk,mvt@nordiskgroup.dk,+4522200575,,"Nordager 26, 6000, KOLDING",Danmark,Furniture public environment,,,
Stockholm Furniture & Lighting Fair,02/08/2022,2022,https://www.stockholmfurniturelightfair.se/,DM,Nordifa AB,AG:20,,nordifa.se,info@nordifa.se,035-17 48 00,,"Box 612, 301 16, Halmstad",Sverige,,,,
Stockholm Furniture & Lighting Fair,02/08/2022,2022,https://www.stockholmfurniturelightfair.se/,DM,Nordic Furniture Group,B03:14,,www.nfgsverige.se,info@nfgsverige.se,0533-13300,,"Norrlandsvägen 29, 661 40, Säffle",Sverige,Home lighting | Interior fittings | Home furniture | Textiles home | Outdoor furniture | Other,,,
Stockholm Furniture & Lighting Fair,02/08/2022,2022,https://www.stockholmfurniturelightfair.se/,DM,Skandiform,A16:20,,www.skandiform.se,info@skandiform.se,+46 44 855 50,,"Dolinvägen 8, 288 34, Vinslöv",Sverige,Furniture public environment | Corporate / Public space - furniture interior,,,
Stockholm Furniture & Lighting Fair,02/08/2022,2022,https://www.stockholmfurniturelightfair.se/,DM,Nordgröna,A13:10,,www.nordgrona.com,info@nordgrona.com,0737-416 475,,"Företagsvägen 29 Hus 5, 232 37, Arlöv",Sverige,Office contract market | Furniture public environment | Corporate / Public space - office | Corporate / Public space - furniture interior,,,
Stockholm Furniture & Lighting Fair,02/08/2022,2022,https://www.stockholmfurniturelightfair.se/,DM,Skargaarden,A06:11,,www.skargaarden.com,info@skargaarden.com,+46 8 449 0750,,"Atlasgatan 8, 802 86, Gävle",Sverige,Interior fittings | Home furniture | Furniture public environment | Corporate / Public space - office | Textiles contract market,,,
Stockholm Furniture & Lighting Fair,02/08/2022,2022,https://www.stockholmfurniturelightfair.se/,DM,Sit stand table base,AG:27,,www.richmat.com,,+86 532 8906 6999,,"No.78, Kongquehe 4th Road, 266200, Jimo Qingdao",Kina,Home furniture | Corporate / Public space - office,,,
Stockholm Furniture & Lighting Fair,02/08/2022,2022,https://www.stockholmfurniturelightfair.se/,DM,Silen Space,A20:10,,www.silenspace.com,sparry.kivilo@silenspace.com,+3725185211,,"Veerenni 38, Tallinn, 10138",Estland,,,,
Stockholm Furniture & Lighting Fair,02/08/2022,2022,https://www.stockholmfurniturelightfair.se/,DM,SIKA Design,A05:20,,www.sika-design.com,,+45 66 15 42 24,,"Rynkebyvej 245, 5350, Rynkeby",Danmark,Home furniture | Furniture public environment | Corporate / Public space - furniture interior | Outdoor furniture,,,
Stockholm Furniture & Lighting Fair,02/08/2022,2022,https://www.stockholmfurniturelightfair.se/,DM,SilentLab,A16:10,,www.silent-lab.cz,tereza.vetvickova@verti.cz,,,"Za Zastavkou 373
Prague 10, 111 01, Prague",Tjeckien,Office contract market | Furniture public environment | Corporate / Public space - office | Corporate / Public space - furniture interior,,,
Stockholm Furniture & Lighting Fair,02/08/2022,2022,https://www.stockholmfurniturelightfair.se/,DM,Simplex srl.,AG:13,,www.@simplexluce.it,lqb@simplexluce.it,+39 366 8404875,,"STRADA CASTAGNOLE 24, 31100, TREVISO",Italien,,,,
Stockholm Furniture & Lighting Fair,02/08/2022,2022,https://www.stockholmfurniturelightfair.se/,DM,SIA Marks M,B09:21,,"www.naktsmebeles.lv, www.heavens-furniture.com",,,,"Dunu iela 9, LV-3001, Jelgava",Lettland,Home furniture,,,
Stockholm Furniture & Lighting Fair,02/08/2022,2022,https://www.stockholmfurniturelightfair.se/,DM,SKAFAB Stålmöbler AB,A20:14,,www.skafab.se,info@skafab.nu,+46 44 960 41,,"Värestorp 2182, 289 73, Immeln",Sverige,Office contract market | Furniture public environment | Corporate / Public space - office | Corporate / Public space - furniture interior,,,
Stockholm Furniture & Lighting Fair,02/08/2022,2022,https://www.stockholmfurniturelightfair.se/,DM,SIEDLE NORDIC,A04:25,,www.siedle.se,,0771-88 890,,"Avedøreholmen 96, 2650, HVIDOVRE",Danmark,,,,
Stockholm Furniture & Lighting Fair,02/08/2022,2022,https://www.stockholmfurniturelightfair.se/,DM,Shapeless Light,AG:49,,www.shapelesslight.eu,marius@alternetas.lt,+37065552522,,"Slaito str 16-1, 03151, Vilnius",Litauen,Home lighting | Lighting contract market,,,
Stockholm Furniture & Lighting Fair,02/08/2022,2022,https://www.stockholmfurniturelightfair.se/,DM,SF COLLECTION,C18:21,,www.sfcollection.it,info@sfcollection.it,+390432 756237,,"Via Masarotte 1, 33048, S. Giovanni al Natisone (ud)",Italien,,,,
Stockholm Furniture & Lighting Fair,02/08/2022,2022,https://www.stockholmfurniturelightfair.se/,DM,TRIVILITA,B07:14,,www.trivilita.lt,info@trivilita.it,+370 41 545 127,,"Tilzes str. 227, 76200, Siauliai",Litauen,Home furniture,,,
Stockholm Furniture & Lighting Fair,02/08/2022,2022,https://www.stockholmfurniturelightfair.se/,DM,TreCe AB,A07:10,,www.trece.se,info@trece.se,+46 11 21 14 80,,"Box 6063, 600 06, Norrköping",Sverige,Office contract market | Furniture public environment | Corporate / Public space - office | Corporate / Public space - furniture interior,,,
Stockholm Furniture & Lighting Fair,02/08/2022,2022,https://www.stockholmfurniturelightfair.se/,DM,TOKIO Lighting,C02:27,,www.tokiotokio.com,gorazd.malacic@asobi.si,+386 41 793 475,,"TEHNOLOŠKI PARK 024,, 1000, LJUBLJANA",Slovenien,,,,
Stockholm Furniture & Lighting Fair,02/08/2022,2022,https://www.stockholmfurniturelightfair.se/,DM,Torkelson Möbel AB,B03:15,,www.torkelson.se,info@torkelson.se,+46 433 325 00,,"Junexvägen 2, 286 73, Skånes Fagerhult",Sverige,Home furniture,,,
Stockholm Furniture & Lighting Fair,02/08/2022,2022,https://www.stockholmfurniturelightfair.se/,DM,TORRI LANA 1885 S.R.L.,C18:29,,www.torrilana.it,+39 035745198,amministrazione@torrilana.it,,"VIA G.CARDUCCI N.13 -, 24024, GANDINO",Italien,,,,
Stockholm Furniture & Lighting Fair,02/08/2022,2022,https://www.stockholmfurniturelightfair.se/,DM,Triple Bottom Line,C05:51,,www.triplebottomline.cc,enquiry@triplebottomline.cc,+818054982737,,"201 Ark House TD
294 Takaido Nishi, 168-0071, Suginami",Japan,,,,
Stockholm Furniture & Lighting Fair,02/08/2022,2022,https://www.stockholmfurniturelightfair.se/,DM,Time & Style,A05:18,,www.timeandstyle.com,ryoshida@timeandstyle.com,+819010590960,,"4-27-15 Minamiaoyama, Minato-ku, 107-0062, Tokyo",Japan,Furniture public environment,,,
Stockholm Furniture & Lighting Fair,02/08/2022,2022,https://www.stockholmfurniturelightfair.se/,DM,THESIGN d.o.o.,C02:27,,www.thesign.si,eva.kosovel@tkc.si,+386 41 34 11 99,,"Maurerjeva ulica 29, 1000, LJUBLJANA",Slovenien,,,,
Stockholm Furniture & Lighting Fair,02/08/2022,2022,https://www.stockholmfurniturelightfair.se/,DM,The Jan Matejko Academy of Fine Arts in Krakow,C03:52,,waw.asp.krakow.pl,,,,"Plac Matejki 13, 31-157, Krakow",Polen,,,,
Stockholm Furniture & Lighting Fair,02/08/2022,2022,https://www.stockholmfurniturelightfair.se/,DM,Theofils,A25:21,,www.theofils.se,info@theofils.se,+46 (0)10-178 13 00,,"Mogölsvägen 26, 55475, Jönköping",Sverige,Interior fittings,,,
Stockholm Furniture & Lighting Fair,02/08/2022,2022,https://www.stockholmfurniturelightfair.se/,DM,TEXAO SPA,C18:31,,www.texao.com,giorgio.masperi@texao.com,+393383654735,,"VIA PER LE CASE NUOVE 113
59100 PRATO PO, PRATO, 59100",Italien,,,,
Stockholm Furniture & Lighting Fair,02/08/2022,2022,https://www.stockholmfurniturelightfair.se/,DM,Zero Belysning,A02:10,,www.zero.se,info@zero.se,+46 481-800 00,,"Friluftsvägen 2, 382 34, Nybro",Sverige,Lighting contract market,,,
Stockholm Furniture & Lighting Fair,02/08/2022,2022,https://www.stockholmfurniturelightfair.se/,DM,Textilhögskolan i Borås,C05:30,,www.hb.se,info@hb.se,033-16 40 00,,"501 90, Borås",Sverige,Schools,,,
Stockholm Furniture & Lighting Fair,02/08/2022,2022,https://www.stockholmfurniturelightfair.se/,DM,ZEE,BG:13,,www.zee.be,peter@zee.be,0032 496 309 313,,"Hoekstraat 76, 9080, Lochristi",Belgien,,,,
Stockholm Furniture & Lighting Fair,02/08/2022,2022,https://www.stockholmfurniturelightfair.se/,DM,Yellowdot Design Limited,C05:38,,www.yellowdotdesign.co,hello@yellowdotdesign.co,+85223116668,,"41 Heung Yip Road,  10/F Rm 1018, Wong Chuk Han, Hong Kong Island",Hongkong,,,,
Stockholm Furniture & Lighting Fair,02/08/2022,2022,https://www.stockholmfurniturelightfair.se/,DM,YINGJIE DESIGN,"C05:50, C05:34",,www.yingjiedesign.com,lyj1107@hotmail.com,,,"c/oYingjie Liang Kivenhakkaajankuja 3 B 21, 02650, Espoo",Finland,,,,
Stockholm Furniture & Lighting Fair,02/08/2022,2022,https://www.stockholmfurniturelightfair.se/,DM,www.gymba.fi,AG:28,,www.gymba.fi,hanna@gymba.fi,+358413154141,,"Hyväriläntie 5, 80260, Joensuu",Finland,,,,
Stockholm Furniture & Lighting Fair,02/08/2022,2022,https://www.stockholmfurniturelightfair.se/,DM,www.dynadesk.se,A15:13,,www.workmotions.com,ml@workmotions.com,070-5119343,,"Tillverkarvägen 20, 187 66, Täby",Sverige,Office contract market | Furniture public environment,,,
Stockholm Furniture & Lighting Fair,02/08/2022,2022,https://www.stockholmfurniturelightfair.se/,DM,Yrkeshögskolan Höga Kusten,C03:41,,www.traakademien.se,linnea.kempe@kramfors.se,0612-80830,,"Företagsvägen 2, 872 34, Kramfors",Sverige,Schools,,,
Stockholm Furniture & Lighting Fair,02/08/2022,2022,https://www.stockholmfurniturelightfair.se/,DM,VUDEX Ljubjana d.o.o.,C02:27,,www.ceta.si,stane@ceta.si,+386 1 519 72 10,,"Marinovseva cesta 15, 1000, LJUBLJANA",Slovenien,,,,
Stockholm Furniture & Lighting Fair,02/08/2022,2022,https://www.stockholmfurniturelightfair.se/,DM,"Workzone, provided by European Furniture Group","A21:28, AG:41",,www.efg.se,marketing@efg.se,+46 140 675 25,,"Box 1017, 573 28, Tranås",Sverige,Office contract market | Furniture public environment | Corporate / Public space - office | Corporate / Public space - furniture interior | Textiles contract market,,,
Stockholm Furniture & Lighting Fair,02/08/2022,2022,https://www.stockholmfurniturelightfair.se/,DM,VS Vereinigte Spezialmöbelfabriken GmbH & Co. KG,A21:20,,www.vs-moebel.de,u.schmidt@vs-moebel.de,+49934188814,,"Hochhäuser Strasse 8, D-97941, Tauberbischofsheim",Tyskland,Corporate / Public space - office,,,
Stockholm Furniture & Lighting Fair,02/08/2022,2022,https://www.stockholmfurniturelightfair.se/,DM,Woodnotes OY,C09:20,,www.woodnotes.fi,mikko.puotila@woodnotes.fi,+358 9 694 22 00,,"Tallberginkatu 1 B, 00180, Helsinki",Finland,,,,
Stockholm Furniture & Lighting Fair,02/08/2022,2022,https://www.stockholmfurniturelightfair.se/,DM,WOBATH D.O.O.,B10:14,,www.wobath.com,info@wobath.com,+386 40 302 304,,"Gmajnica 24, SI-1218, Komenda",Slovenien,,,,
Stockholm Furniture & Lighting Fair,02/08/2022,2022,https://www.stockholmfurniturelightfair.se/,DM,VM Carpet,A15:11,,www.vm-carpet.fi,,+358 40 7593 423,,"Karvalantie 79, 62630, KARVALA",Finland,Carpets & flooring,,,
Stockholm Furniture & Lighting Fair,02/08/2022,2022,https://www.stockholmfurniturelightfair.se/,DM,Woodlife Sweden,A18:20,,www.svenskttra.se,,08-762 72 60,,"Box 55525, 102 04, Stockholm",Sverige,,,,
Stockholm Furniture & Lighting Fair,02/08/2022,2022,https://www.stockholmfurniturelightfair.se/,DM,Vivero,A13:19,,www.vivero.fi,info@vivero.fi,+358 97 74 53 30,,"Hämeentie 157, 00560, HELSINKI",Finland,Office contract market,,,
Stockholm Furniture & Lighting Fair,02/08/2022,2022,https://www.stockholmfurniturelightfair.se/,DM,Wood Oriented Furniture Design/ Steneby,"C03:40, C03:40",,www.hdk.gu.se,rasmus.malbert@hdk.gu.se,+46 531 71000,,"Hemslöjdsvägen 1, 660 10, Dals Långed",Sverige,Schools,,,
Stockholm Furniture & Lighting Fair,02/08/2022,2022,https://www.stockholmfurniturelightfair.se/,DM,Vluv Lovely seating balls,A19:11,,www.vluv.de,hock@vluv.de,+492262707516-0,,"Koelner Strasse 45, 51766, Engelskirchen",Tyskland,,,,
Stockholm Furniture & Lighting Fair,02/08/2022,2022,https://www.stockholmfurniturelightfair.se/,DM,Villeroy & Boch Gustavsberg,AG:59,,www.villeroy-boch.com,kundservice.tableware@villeroy-boch.com,08 570 391 00,,"P.O. Box 400, 13 429, Gustavsberg",Sverige,,,,
Stockholm Furniture & Lighting Fair,02/08/2022,2022,https://www.stockholmfurniturelightfair.se/,DM,Vilax AB,A19:06,,www.vilax.se,,046-23 45 67,,"Tirupsvägen 9, 245 93, Staffanstorp",Sverige,Office contract market | Corporate / Public space - office,,,
Stockholm Furniture & Lighting Fair,02/08/2022,2022,https://www.stockholmfurniturelightfair.se/,DM,"Vetrospace Clean Ultra, VetroHealth",A19:13,,www.vetrospace.com,juoko.urpolahti@vetrospace.com,+358505219826,,"Otto Korhosenkatu 1, 20660, Littoinen",Finland,,,,
Stockholm Furniture & Lighting Fair,02/08/2022,2022,https://www.stockholmfurniturelightfair.se/,DM,VIA Design,C06:31,,www.via.dk/uddannelser/design/design-og-business/furniture-design,,+45 87440559,,"Birk Centerpark 5, 7400, HERNING",Danmark,Schools,,,
Stockholm Furniture & Lighting Fair,02/08/2022,2022,https://www.stockholmfurniturelightfair.se/,DM,Vestre,A06:21,,www.vestre.com,info@vestre.com,+47 23007840,,"Bergebyvägen 27, 685 34, Torsby",Sverige,Furniture public environment | Corporate / Public space - furniture interior | Outdoor furniture,,,
Stockholm Furniture & Lighting Fair,02/08/2022,2022,https://www.stockholmfurniturelightfair.se/,DM,Venture Design,B05:21,,www.venturedesign.se,ola@venturedesign.se,,,"Skidsvägen 25, 352 49, Växjö",Sverige,Home furniture,,,
Stockholm Furniture & Lighting Fair,02/08/2022,2022,https://www.stockholmfurniturelightfair.se/,DM,VECOS,A14:24,,www.vecos.com,Lorelei.de.Boer@vecos.com,+31 40 36 86 030,,"De Esp 237, 5633 AD, Eindhoven",Nederländerna,Office contract market | Furniture public environment,,,
Stockholm Furniture & Lighting Fair,02/08/2022,2022,https://www.stockholmfurniturelightfair.se/,DM,WILSONIC DESIGN d.o.o.,C02:27,,,nina.mihovec@wilsonicdesign.com,+386 41 77 68 85,,"Ljubjanska cesta 12, 1236, TRZIN",Slovenien,,,,
Stockholm Furniture & Lighting Fair,02/08/2022,2022,https://www.stockholmfurniturelightfair.se/,DM,Wendelbo,C03:23,,www.wendelbo.dk,,+45 87 400 800,,"Mosevej 20 A, 8240, Risskov",Danmark,,,,
Stockholm Furniture & Lighting Fair,02/08/2022,2022,https://www.stockholmfurniturelightfair.se/,DM,wd-dp,C05:45,,,info@wd-dp.com,+44 784 6044556,,"507 Ridgway Road, SW9 7EX",Storbritannien,,,,
Stockholm Furniture & Lighting Fair,02/08/2022,2022,https://www.stockholmfurniturelightfair.se/,DM,Wenden Furniture,B09:21,,www.wenden.lv,ansis.skrabulis@wenden.lv,+371 64107740,,"Rupniecibas 1, 4125, Jaunpiebalgas",Lettland,Home furniture,,,
Stockholm Furniture & Lighting Fair,02/08/2022,2022,https://www.stockholmfurniturelightfair.se/,DM,Vandra Rugs,C06:18,,www.vandra-rugs.com,,+46 708 95 72 12,,"Grevgatan 32, 114 53, Stockholm",Sverige,,,,
Stockholm Furniture & Lighting Fair,02/08/2022,2022,https://www.stockholmfurniturelightfair.se/,DM,VAD,A02:12,,www.vad.no,info@vad.no,+47 975 44 020,,"Sandvikgata 14, 6250, Stordal",Norge,Furniture public environment | Corporate / Public space - furniture interior,,,
Stockholm Furniture & Lighting Fair,02/08/2022,2022,https://www.stockholmfurniturelightfair.se/,DM,URBANTIME,A25:19,,www.urbantime.it,federico@urbantime.it,+39 344 204 3976,,"Via dell'industria 14, 31029, VITTORIO",Italien,,,,
Stockholm Furniture & Lighting Fair,02/08/2022,2022,https://www.stockholmfurniturelightfair.se/,DM,VANK,A21:19,,www.vank.pl,export@vank.pl,+48 61 81 733 63,,"SARBINOWSKA 11, 62-020, SWARZEDZ",Polen,Office contract market | Furniture public environment | Corporate / Public space - office | Corporate / Public space - furniture interior,,,
Stockholm Furniture & Lighting Fair,02/08/2022,2022,https://www.stockholmfurniturelightfair.se/,DM,Unidrain,A22:10,,www.unidrain.se,info@jafo.eu,046-33 39 00,,"Box 4056, 227 21, Lund",Sverige,Kitchen & Bath,,,
Stockholm Furniture & Lighting Fair,02/08/2022,2022,https://www.stockholmfurniturelightfair.se/,DM,"Trä och Möbelföretagen, TMF","AG:02, AG:03",,www.tmf.se,info@tmf.se,08-762 72 00,,"Box 55525, 102 04, Stockholm",Sverige,Other,,,
Stockholm Furniture & Lighting Fair,02/08/2022,2022,https://www.stockholmfurniturelightfair.se/,DM,Universitetet i Bergen Institutt for Design,C06:46,,www.kmd.uib.no,svein.p.knudsen@uib.no,+47 93680444,,"Möllendalsveien 61, 5009, Bergen",Norge,Schools,,,
Stockholm Furniture & Lighting Fair,02/08/2022,2022,https://www.stockholmfurniturelightfair.se/,DM,Tärnsjö Garveri,A10:11,,www.tarnsjogarveri.se,matilda@tarnsjogarveri.se,0292-707 50,,"Garverivägen 6, 740 45, Tärnsjö",Sverige,Textiles contract market,,,
Stockholm Furniture & Lighting Fair,02/08/2022,2022,https://www.stockholmfurniturelightfair.se/,DM,TERRATINTA CERAMICHE,AG:76,,www.terratinta.com,ccavani@terratinta.com,+39 0536 911 408,,"Via Panaro 20, 41042, Fiorano Modenese",Italien,,,,
Stockholm Furniture & Lighting Fair,02/08/2022,2022,https://www.stockholmfurniturelightfair.se/,DM,Träteknikerutbildning i Hammarö AB,C03:46,,www.ttuhammaro.se,,054-519103,,"Djupsundsv. 1, 663 34, Skoghall",Sverige,,,,
Stockholm Furniture & Lighting Fair,02/08/2022,2022,https://www.stockholmfurniturelightfair.se/,DM,TRONHILL,A18:14,,www.tronhill.com,sales@tronhill.com,+370 5 233 88 99,,"Vytauto street 8/7, 08118, Vilnius",Litauen,Office contract market | Furniture public environment | Corporate / Public space - office | Corporate / Public space - furniture interior,,,
Stockholm Furniture & Lighting Fair,02/08/2022,2022,https://www.stockholmfurniturelightfair.se/,DM,Tente AB,AG:19,,www.tente.com,order.se@tente.com,+46 31 46 47 00,,"Fraktvägen 5A, 435 33, Mölnlycke",Sverige,Other,,,
Stockholm Furniture & Lighting Fair,02/08/2022,2022,https://www.stockholmfurniturelightfair.se/,DM,Ted Synnott Studio,C05:55,,tedsynnott.com,studio@tedsynnott.com,+642102488592,,"3a Commersial Road, 1021, Grey Lynn",Nya Zeeland,,,,
Stockholm Furniture & Lighting Fair,02/08/2022,2022,https://www.stockholmfurniturelightfair.se/,DM,TELNET D.O.O.,B10:14,,WWW.J-RUDOLF.COM,INFO@J-RUDOLF.COM,+386 41 691 139,,"DOLENJSKA CESTA 242, 1000, LJUBLJANA",Slovenien,,,,
Stockholm Furniture & Lighting Fair,02/08/2022,2022,https://www.stockholmfurniturelightfair.se/,DM,Søren Lund Møbler A/S,C04:29,,www.soeren-lund.dk,info@soeren-lund.dk,+45 86 47 64 66,,"Hvilehusevej 13, Törring, 8983, GJERLEV",Danmark,Home furniture | Furniture public environment,,,
Stockholm Furniture & Lighting Fair,02/08/2022,2022,https://www.stockholmfurniturelightfair.se/,DM,Svensson,A10:12,,www.ludvigsvensson.com,info@ludvigsvensson.com,+46 320 20 92 00,,"Bangatan 8, 511 82, Kinna",Sverige,Office contract market | Furniture public environment | Corporate / Public space - office | Corporate / Public space - furniture interior | Textiles contract market,,,
Stockholm Furniture & Lighting Fair,02/08/2022,2022,https://www.stockholmfurniturelightfair.se/,DM,Taulukeskus TK-Team Oy Ab,C18:41,,www.tk-.team.com,marika.laiho@tk-team.com,+358 40 757 3613,,"Maorlantie 3, 24800, Halikko",Finland,,,,
Stockholm Furniture & Lighting Fair,02/08/2022,2022,https://www.stockholmfurniturelightfair.se/,DM,Svenheim Møbelindustri AS,A20:20,,www.svenheim.no,post@svenheim.no,,,"Naujoji str. 132, 62175, Alytus",Litauen,Office contract market | Corporate / Public space - office,,,
Stockholm Furniture & Lighting Fair,02/08/2022,2022,https://www.stockholmfurniturelightfair.se/,DM,Svenska Kakel,AG:51,,www.svenskakakel.se,,,,"Box 35, 254 03, Ödåkra",Sverige,Carpets & flooring,,,
Stockholm Furniture & Lighting Fair,02/08/2022,2022,https://www.stockholmfurniturelightfair.se/,DM,Svedholm Design,C06:23,,www.svedholm.se,info@svedholm.se,+46 10 190 2080,,"Kungsängsvägen 19 B, 753 23, Uppsala",Sverige,Interior fittings | Kitchen & Bath | Furniture public environment | Corporate / Public space - office,,,
Stockholm Furniture & Lighting Fair,02/08/2022,2022,https://www.stockholmfurniturelightfair.se/,DM,Swedstyle AB,A20:18,,www.swedstyle.se,info@swedstyle.se,+46 393 363 60,,"Karlavägen 38, 567 24, Vaggeryd",Sverige,Office contract market | Corporate / Public space - office,,,
Stockholm Furniture & Lighting Fair,02/08/2022,2022,https://www.stockholmfurniturelightfair.se/,DM,Swedese,A06:20,,www.swedese.se,info@swedese.se,+46 393 797 00,,"Box 156, 567 23, Vaggeryd",Sverige,Home furniture | Furniture public environment,,,
Stockholm Furniture & Lighting Fair,02/08/2022,2022,https://www.stockholmfurniturelightfair.se/,DM,Swedish Ninja,A12:17,,www.swedishninja.com,maria@swedishninja.com,070-2843083,,"Biografgatan 32, 218 54, Klagshamn",Sverige,Office contract market | Home furniture | Furniture public environment | Corporate / Public space - office | Corporate / Public space - furniture interior,,,
Stockholm Furniture & Lighting Fair,02/08/2022,2022,https://www.stockholmfurniturelightfair.se/,DM,Svedbergs,AG:62,,www.svedbergs.se,info@svedbergs.se,+46 321 53 30 00,,"Verkstadsvägen 1, 514 63, Dalstorp",Sverige,Kitchen & Bath,,,
Stockholm Furniture & Lighting Fair,02/08/2022,2022,https://www.stockholmfurniturelightfair.se/,DM,Studio Sara de Campos,C05:43,,www.studiosaradecampos.com,info@studiosaradecampos.com,,,"1050-084, Lissabon",Portugal,,,,
Stockholm Furniture & Lighting Fair,02/08/2022,2022,https://www.stockholmfurniturelightfair.se/,DM,Svanen,AG:17,,www.svanen.se,,08-55 55 24 00,,"Västgötagatan 2, 118 27, Stockholm",Sverige,,,,
Stockholm Furniture & Lighting Fair,02/08/2022,2022,https://www.stockholmfurniturelightfair.se/,DM,Studio Radically Ordinary,C04:37,,,thomas.radll@gmail.com,+45 506 53 038,,"Kompagnistraede 24 st Copenhagen, 1208, Köpenhamn",Danmark,,,,
Stockholm Furniture & Lighting Fair,02/08/2022,2022,https://www.stockholmfurniturelightfair.se/,DM,Studio Antti E Oy,C11:10,,www.evavaaradesign.com,carolina@evavaaradesign.com,+358 50 549 1141,,"Lemminkäisenkatu 1, 15210, Lahti",Finland,Office contract market,,,
Stockholm Furniture & Lighting Fair,02/08/2022,2022,https://www.stockholmfurniturelightfair.se/,DM,String Furniture,A05:19,,www.string.se,,+46 40 18 70 01,,"Limhamnsvägen 110, 216 13, Limhamn",Sverige,Office contract market | Home furniture | Furniture public environment,,,
Stockholm Furniture & Lighting Fair,02/08/2022,2022,https://www.stockholmfurniturelightfair.se/,DM,Stolcomfort,A23:13,,www.stolcomfort.se,,0522-17741,,"Kurödsvägen 9, 451 55, Uddevalla",Sverige,Office contract market,,,
Stockholm Furniture & Lighting Fair,02/08/2022,2022,https://www.stockholmfurniturelightfair.se/,DM,Stoddard,"A03:16, A03:14",,www.stoddard.se,,08 20 60 40,,"Sturegatan 19, 114 36, Stockholm",Sverige,Textiles contract market,,,
Stockholm Furniture & Lighting Fair,02/08/2022,2022,https://www.stockholmfurniturelightfair.se/,DM,Starrike of Scandinavia AB,A16:11,,,daniel@wogtra.se,0393-61 50 29,,"Gjuterigatan 9, 553 18, Jönköping",Sverige,Interior fittings | Home furniture | Furniture public environment,,,
Stockholm Furniture & Lighting Fair,02/08/2022,2022,https://www.stockholmfurniturelightfair.se/,DM,Stolab Möbel AB,A06:18,,www.stolab.se,info@stolab.se,+46 371 337 50,,"Östra Järnvägsgatan 7, 333 31, Smålandsstenar",Sverige,Home furniture | Furniture public environment | Corporate / Public space - office | Corporate / Public space - furniture interior,,,
Stockholm Furniture & Lighting Fair,02/08/2022,2022,https://www.stockholmfurniturelightfair.se/,DM,Stay Seated Project,C05:33,,,paulssondesign@gmail.com,+46 073 3 28 32 19,,"Kämnärsvägen 42, 226 46, Lund",Sverige,,,,
Stockholm Furniture & Lighting Fair,02/08/2022,2022,https://www.stockholmfurniturelightfair.se/,DM,Steelbase,A18:18,,www.steelbase.com.ua,igor.nychaiuk@steelbase.com.ua,+380636475272,,"Provujok Karelsky 5, 02094, Kyiv",Ukraina,,,,
Stockholm Furniture & Lighting Fair,02/08/2022,2022,https://www.stockholmfurniturelightfair.se/,DM,Standard AS,A20:10,,www.standard.ee,standard@standard.ee,+372 650 93 00,,"Marja 9, 10617, TALLIN",Estland,,,,
Stockholm Furniture & Lighting Fair,02/08/2022,2022,https://www.stockholmfurniturelightfair.se/,DM,Staff Editoriale,,,www.staffedit.it,staffedi@staffedit.it,+39 02 4800 7449,,"Via B. Davanzati, 5, 20158, MILANO",Italien,,,,
Stockholm Furniture & Lighting Fair,02/08/2022,2022,https://www.stockholmfurniturelightfair.se/,DM,"SPIRIT SLOVENIA, PUBLIC AGENCY","B10:14, C02:27",,www.spiritslovenia.si,Matjaz.Rovan@spiritslovenia.si,+38615309828,,"Verovskova ulica 60, 1000, LJUBLJANA",Slovenien,,,,
Stockholm Furniture & Lighting Fair,02/08/2022,2022,https://www.stockholmfurniturelightfair.se/,DM,StableTable,A18:10,,www.stabletable.se,info@stabletable.se,046-15 15 50,,"Stora Södergatan 31, 222 23, Lund",Sverige,,,,
Stockholm Furniture & Lighting Fair,02/08/2022,2022,https://www.stockholmfurniturelightfair.se/,DM,Standard System Altikon AB,A18:13,,www.altikon.se,,040-22 83 80,,"Teknikvägen 11, 246 43, Löddeköpinge",Sverige,,,,
Stockholm Furniture & Lighting Fair,02/08/2022,2022,https://www.stockholmfurniturelightfair.se/,DM,SOFTREND,A12:12,,www.softtrend.ee,,,,"Vahi küla, 76918, Harku Harku vald",Estland,Office contract market | Furniture public environment,,,
Stockholm Furniture & Lighting Fair,02/08/2022,2022,https://www.stockholmfurniturelightfair.se/,DM,Sono Brands,A22:18,,www.sonobrands.se,info@sonobrands.se,0140-77 14 00,,"Box 196, 573 22, Tranås",Sverige,Office contract market | Furniture public environment | Corporate / Public space - office | Corporate / Public space - furniture interior | Schools,,,
Stockholm Furniture & Lighting Fair,02/08/2022,2022,https://www.stockholmfurniturelightfair.se/,DM,Sono Sverige,A22:18,,www.sono.se,info@sono.se,018-18 68 80,,"EA Rosengrens gata 13A, 421 31, Västra Frölunda",Sverige,Office contract market | Furniture public environment | Corporate / Public space - office | Corporate / Public space - furniture interior | Schools,,,
Stockholm Furniture & Lighting Fair,02/08/2022,2022,https://www.stockholmfurniturelightfair.se/,DM,Slalom Srl Unipersonale,A13:13,,www.slalom-it.com,info@slalom-it.com,+39 039 61 80571,,"Via Ernesto Rossi 69, 20862, Arcore (MB)",Italien,Office contract market | Furniture public environment | Corporate / Public space - office | Corporate / Public space - furniture interior | Textiles contract market,,,
Stockholm Furniture & Lighting Fair,02/08/2022,2022,https://www.stockholmfurniturelightfair.se/,DM,Skovby Møbelfabrik A/S,B05:15,,www.skovby.dk,,+45 87 54 55 00,,"Frichsvej 43, 8464, GALTEN",Danmark,,,,
Stockholm Furniture & Lighting Fair,02/08/2022,2022,https://www.stockholmfurniturelightfair.se/,DM,Skipper Furniture,A15:21,,www.skipperfurniture.se,an@skipperfurniture.se,+46 708 203 422,,"Färgerigatan 6, 289 21, Knislinge",Sverige,Office contract market | Home furniture | Furniture public environment | Corporate / Public space - office,,,
Stockholm Furniture & Lighting Fair,02/08/2022,2022,https://www.stockholmfurniturelightfair.se/,DM,SMD Design,A01:18,,www.smddesign.se,info@smddesign.se,+46 371 207 60,,"Idrottsvägen 4, 330 21, Reftele",Sverige,Furniture public environment,,,
Stockholm Furniture & Lighting Fair,02/08/2022,2022,https://www.stockholmfurniturelightfair.se/,DM,SELKA Oy,A21:10,,www.selka.fi,sales@selka.fi,+ 358 3 882 610,,"Harjuviidantie 3, 15550, Nastola",Finland,Office contract market | Furniture public environment | Corporate / Public space - office | Corporate / Public space - furniture interior,,,
Stockholm Furniture & Lighting Fair,02/08/2022,2022,https://www.stockholmfurniturelightfair.se/,DM,Skinnwille Home Collection,B05:10,,www.skinnwille.se,helene@skinnwille.se,+46 515 836 50,,"Bangatan 10, 521 43, Falköping",Sverige,Textiles home,,,
Stockholm Furniture & Lighting Fair,02/08/2022,2022,https://www.stockholmfurniturelightfair.se/,DM,Secto Design,A03:18,,www.sectodesign.fi,info@sectodesign.fi,+358 9 50 50 598,,"Kauppalantie 12, 02700, Kauniainen",Finland,Home lighting | Lighting contract market,,,
Stockholm Furniture & Lighting Fair,02/08/2022,2022,https://www.stockholmfurniturelightfair.se/,DM,Sesvan,B08:10,,www.sesvan.com,sales@sesvan.com,072-532 32 99,,"Brostigen 8, 334 33, Anderstorp",Sverige,Interior fittings | Kitchen & Bath | Light source & Electrical materials | Home furniture,,,
Stockholm Furniture & Lighting Fair,02/08/2022,2022,https://www.stockholmfurniturelightfair.se/,DM,Saas Instruments,A14:12,,www.saas.fi,info@saas.fi,+358 407071194,,"Henry Fordsgatan 5 B, 00150, HELSINGFORS",Finland,Home lighting | Lighting contract market,,,
Stockholm Furniture & Lighting Fair,02/08/2022,2022,https://www.stockholmfurniturelightfair.se/,DM,Scherlin Form,,,www.scherlin.se,info@scherlin.se,08-611 41 22,,"Riddargatan 30 Bv, 114 57, Stockholm",Sverige,Home furniture,,,
Stockholm Furniture & Lighting Fair,02/08/2022,2022,https://www.stockholmfurniturelightfair.se/,DM,Scab Giardino spa,A14:21,,www.scabitaly.com,pasquali@s-cab.it,+39 030 771 87 20,,"Via G. Monauni, 12, 25030, Coccaglio (BS)",Italien,Furniture public environment | Corporate / Public space - furniture interior,,,
Stockholm Furniture & Lighting Fair,02/08/2022,2022,https://www.stockholmfurniturelightfair.se/,DM,School of Architecture at Lund University,C06:56,,www.arch.lth.se,helene.sveningsson@arkitektur.lth.se,+46 46 222 48 08,,"Box 118, 221 00, Lund",Sverige,Schools,,,
Stockholm Furniture & Lighting Fair,02/08/2022,2022,https://www.stockholmfurniturelightfair.se/,DM,Savo Office Seating,"A21:28, C15:48",,www.efg.se,marketing@efg.se,+46 140 675 25,,"Box 1017, 573 28, Tranås",Sverige,Office contract market | Furniture public environment | Corporate / Public space - office | Corporate / Public space - furniture interior | Textiles contract market,,,
Stockholm Furniture & Lighting Fair,02/08/2022,2022,https://www.stockholmfurniturelightfair.se/,DM,Rockfon AB,A02:22,,www.rockfon.se,,,,"Box 11505, 550 11, Jönköping",Sverige,Office contract market | Corporate / Public space - office,,,
Stockholm Furniture & Lighting Fair,02/08/2022,2022,https://www.stockholmfurniturelightfair.se/,DM,Ringvide Studio,C14:10,,www.ringvide.com,lukas@ringvide.com,070-227 79 75,,"Brissund strandskogsvägen 4, 622 76, Visby",Sverige,,,,
Stockholm Furniture & Lighting Fair,02/08/2022,2022,https://www.stockholmfurniturelightfair.se/,DM,Rasmus Palmgren,C04:53,,www.rasmuspalmgren.com,hi@rasmuspalmgren.com,+358 40 740 3603,,"Sjömansgatan 14B 20, 00150, Helsingfors",Finland,,,,
Stockholm Furniture & Lighting Fair,02/08/2022,2022,https://www.stockholmfurniturelightfair.se/,DM,Re-Volt,AG:24A,,www.re-volt.be,sofie.claeys@re-volt.be,0032475488099,,"Gerststraat 24, 8400, Oostende",Belgien,,,,
Stockholm Furniture & Lighting Fair,02/08/2022,2022,https://www.stockholmfurniturelightfair.se/,DM,Rimarket leseni izdelki d.o.o.,B10:14,,froc.si,matej@froc.si,+386 41 973 721,,"Jurjevica 50, 1310, Ribnica",Slovenien,,,,
Stockholm Furniture & Lighting Fair,02/08/2022,2022,https://www.stockholmfurniturelightfair.se/,DM,Reform Design Lab,A07:32,,REFORMLAB.SE,mans@reformlab.se,0708347093,,"C/o Måns Broman
Drottninggatan 28, 432 44, Varberg",Sverige,,,,
Stockholm Furniture & Lighting Fair,02/08/2022,2022,https://www.stockholmfurniturelightfair.se/,DM,Ragnars/Fora Form,C11:31,,www.ragnars.se,,+46 36 39 35 00,,"Fiabgatan 1, 571 78, Forserum",Sverige,Furniture public environment | Corporate / Public space - office,,,
Stockholm Furniture & Lighting Fair,02/08/2022,2022,https://www.stockholmfurniturelightfair.se/,DM,Press & Son,BG:08,,www.press-son.se,info@press-son.se,+46 (0) 8-80 29 80,,"Ranhammarsvägen 9, 168 67, Bromma",Sverige,Interior fittings,,,
Stockholm Furniture & Lighting Fair,02/08/2022,2022,https://www.stockholmfurniturelightfair.se/,DM,Playoffice Design AB,A22:20,,www.playoffice.se,,+46 (0)70 259 29 97,,"Sågargatan 14, 116 36, Stockholm",Sverige,Corporate / Public space - office,,,
Stockholm Furniture & Lighting Fair,02/08/2022,2022,https://www.stockholmfurniturelightfair.se/,DM,POIAT,A01:14,,www.poiat.com,contact@poiat.com,+358 445 957 170,,"Merikatu 1, 00140, Helsinki",Finland,Home furniture | Furniture public environment | Corporate / Public space - furniture interior,,,
Stockholm Furniture & Lighting Fair,02/08/2022,2022,https://www.stockholmfurniturelightfair.se/,DM,Plexwood,AG:11,,www.plexwood.com,info@plexwood.com,+31 (0)30-296 43 67,,"Lekdijk 7A, 4121KG, Everdingen",Nederländerna,Furniture public environment,,,
Stockholm Furniture & Lighting Fair,02/08/2022,2022,https://www.stockholmfurniturelightfair.se/,DM,Pinjasto Oy / Saari,A01:14,,www.saari.fi,tuomas.pyrhonen@pinjasto.fi,+358415184808,,"Katkiluodonkatu 6, 24100, SALO",Finland,,,,
Stockholm Furniture & Lighting Fair,02/08/2022,2022,https://www.stockholmfurniturelightfair.se/,DM,PIKKA,C02:27,,www.raketa.si,rok@pikka.si,+38 641 376 206,,"Mala Colnarska 11A, 1000, Ljubljana",Slovenien,Furniture public environment,,,
Stockholm Furniture & Lighting Fair,02/08/2022,2022,https://www.stockholmfurniturelightfair.se/,DM,Place2Place AB,AG:38,,www.place2place.se,ola@place2place.se,0765 - 335 335,,"Bellevuevägen 18, 271 32, Ystad",Sverige,,,,
Stockholm Furniture & Lighting Fair,02/08/2022,2022,https://www.stockholmfurniturelightfair.se/,DM,Piiroinen,A13:20,,www.piiroinen.com,pasi.aaltonen@piiroinen.com,+358 9 667 632,,"Tehdaskatu 28, 241 00, Salo",Finland,Furniture public environment | Corporate / Public space - furniture interior,,,
Stockholm Furniture & Lighting Fair,02/08/2022,2022,https://www.stockholmfurniturelightfair.se/,DM,PEDRALI,A07:18,,www.pedrali.it,info@pedrali.it,+39 03 58 35 88 40,,"S.P 122 Mornico Al Serio (BG), 24050, Bergamo",Italien,Office contract market | Furniture public environment | Outdoor furniture,,,
Stockholm Furniture & Lighting Fair,02/08/2022,2022,https://www.stockholmfurniturelightfair.se/,DM,PhoneAlone,A21:12,,www.phonealone.dk,ks@phonealone.dk,+4553861030,,"Birkedommervej 31, 2.sal, 2400, Copenhagen",Danmark,Corporate / Public space - office,,,
Stockholm Furniture & Lighting Fair,02/08/2022,2022,https://www.stockholmfurniturelightfair.se/,DM,Polaria,AG:70,,www.polaria.fi,sales@polaria.fi,+358 40 5306486,,"Yrittäjäntie 4, 52700, MÄNTYHARJU",Finland,Kitchen & Bath,,,
Stockholm Furniture & Lighting Fair,02/08/2022,2022,https://www.stockholmfurniturelightfair.se/,DM,PlyDesign,C13:21,,Plydesign Ltd.,info@plydesign.eu,+36209782586,,"Stadion köz 11., 8200, Veszprém",Ungern,Home furniture | Furniture public environment,,,
Stockholm Furniture & Lighting Fair,02/08/2022,2022,https://www.stockholmfurniturelightfair.se/,DM,Piece of Wood,BG:05,,pieceofwood.pl,kontakt@pieceofwood.pl,0048512398132,,"Urocza 10/1, 51-361, Wilczyce",Polen,Interior fittings | Home furniture,,,
Stockholm Furniture & Lighting Fair,02/08/2022,2022,https://www.stockholmfurniturelightfair.se/,DM,PAGUNETTE & ILIV,A05:12,,www.pagunette.se / www.drapilux.com,pagunette@pagunette.dk,+45 58 57 04 00,,"Gerlev, 4200, SLAGELSE",Danmark,Textiles home | Textiles contract market,,,
Stockholm Furniture & Lighting Fair,02/08/2022,2022,https://www.stockholmfurniturelightfair.se/,DM,OXDENMARQ,A03:12,,www.oxdenmarq.com,jh@oxdenmarq.com,+4528591364,,"Milepark 2, 2740, COPENHAGEN V",Danmark,,,,
Stockholm Furniture & Lighting Fair,02/08/2022,2022,https://www.stockholmfurniturelightfair.se/,DM,OnMateria,C05:47,,www.onmateria.com,hej@onmateria.com,+46 070 099 64 48,,"Åsögatan 194 lgh 1401, 116 32, Stockholm",Sverige,,,,
Stockholm Furniture & Lighting Fair,02/08/2022,2022,https://www.stockholmfurniturelightfair.se/,DM,Ornäs Oy,C08:41,,ww.ornas.fi,janne@fasetti.fi,+358 10 423 1000,,"Vanha Messiläntie 8, 15860, HOLLOLA",Finland,,,,
Stockholm Furniture & Lighting Fair,02/08/2022,2022,https://www.stockholmfurniturelightfair.se/,DM,OE Electrics Ltd,C18:39,,www.oeelectrics.co.uk,neil.howson@oeelectrics.co.uk,+44 7734796105,,"OE House, Thomas Maddison Lane, Calder Park, Wakefield, WF4 3GH, Wakefield",Storbritannien,Light source & Electrical materials,,,
Stockholm Furniture & Lighting Fair,02/08/2022,2022,https://www.stockholmfurniturelightfair.se/,DM,OFFECCT,C16:30,,www.offecct.se,support@offecct.se,+46 504 415 00,,"Box 100, 543 21, Tibro",Sverige,Office contract market | Home furniture | Furniture public environment,,,
Stockholm Furniture & Lighting Fair,02/08/2022,2022,https://www.stockholmfurniturelightfair.se/,DM,Ogeborg,A06:12,,www.ogeborg.se,info@ogeborg.se,0812054200,,"Maria Skolgata 81, 11853, Stockholm",Sverige,,,,
Stockholm Furniture & Lighting Fair,02/08/2022,2022,https://www.stockholmfurniturelightfair.se/,DM,Ogeborg,,,www.ogeborg.se,info@ogeborg.se,08-120 542 00,,"Box 11234, 100 61, Stockholm",Sverige,,,,
Stockholm Furniture & Lighting Fair,02/08/2022,2022,https://www.stockholmfurniturelightfair.se/,DM,OBLURE,C05:21,,www.oblure.com,info@oblure.com,031-797 98 96,,"Fabriksgatan 38-42, 412 52, Göteborg",Sverige,Home lighting | Lighting contract market,,,
Stockholm Furniture & Lighting Fair,02/08/2022,2022,https://www.stockholmfurniturelightfair.se/,DM,NIKARI,C09:28,,www.nikari.fi,,+358 10 315 1310,,"Peltorivi 13, 10470, Fiskars",Finland,,,,
Stockholm Furniture & Lighting Fair,02/08/2022,2022,https://www.stockholmfurniturelightfair.se/,DM,Okko Design,C09:10,,www.okko.se,ml@okko.se,+ 46 708 10 25 20,,"Södermanagatan 41 A 5tr, 116 40, Stockholm",Sverige,Furniture public environment | Corporate / Public space - furniture interior,,,
Stockholm Furniture & Lighting Fair,02/08/2022,2022,https://www.stockholmfurniturelightfair.se/,DM,Nocturnals,C07:21,,www.nocturnals.dk,info@nocturnals.dk,+45 27590194,,"Höffdingsvej 34, 2500, VALBY",Danmark,Interior fittings | Home furniture | Furniture public environment,,,
Stockholm Furniture & Lighting Fair,02/08/2022,2022,https://www.stockholmfurniturelightfair.se/,DM,NCP,A25:15,,www.ncp.no,rj@ncp.no,+47 751 977 02,,"Juvikveien1, Postboks 3, 8641, HEMNESBERGET",Norge,Office contract market | Furniture public environment | Corporate / Public space - office | Corporate / Public space - furniture interior,,,
Stockholm Furniture & Lighting Fair,02/08/2022,2022,https://www.stockholmfurniturelightfair.se/,DM,Naver Collection,C12:21,,www.navercollection.dk,ap@gramrode.dk,+45 75 68 50 50,,"GI. Landevej 6, 7130, Juelsminde",Danmark,Furniture public environment | Corporate / Public space - furniture interior,,,
Stockholm Furniture & Lighting Fair,02/08/2022,2022,https://www.stockholmfurniturelightfair.se/,DM,Noas Sweden,A11:12,,www.noassweden.se,info@noassweden.se,+46 504 49 51 00,,"Fabriksgatan 2, 543 50, Tibro",Sverige,Office contract market | Kitchen & Bath | Furniture public environment | Corporate / Public space - office | Corporate / Public space - furniture interior,,,
Stockholm Furniture & Lighting Fair,02/08/2022,2022,https://www.stockholmfurniturelightfair.se/,DM,NC Nordic Care,A16:19,,www.ncnordiccare.se,info@ncnordiccare.se,+46 140 38 40 60,,"Box 30, 573 21, Tranås",Sverige,Furniture public environment | Corporate / Public space - furniture interior,,,
Stockholm Furniture & Lighting Fair,02/08/2022,2022,https://www.stockholmfurniturelightfair.se/,DM,"NATURALUS MI EGAS , UAB",B05:12,,,,,,"Sodu 15, Mostiskes, Vilniaus r., LT15222, Vilniaus r.",Litauen,Home furniture,,,
Stockholm Furniture & Lighting Fair,02/08/2022,2022,https://www.stockholmfurniturelightfair.se/,DM,NAAMANKA Products,C10:11,,www.naamanka.fi,info@naamanka.fi,+358408495480,,"Löylytie 18, 02770, Espoo",Finland,Furniture public environment | Corporate / Public space - office,,,
Stockholm Furniture & Lighting Fair,02/08/2022,2022,https://www.stockholmfurniturelightfair.se/,DM,Morbern/Tyggrossisten AB,A16:13,,www.tyggrossisten.se,,033-205880,,"Ödegärdsgatan 1, 504 64, Borås",Sverige,Textiles home | Textiles contract market,,,
Stockholm Furniture & Lighting Fair,02/08/2022,2022,https://www.stockholmfurniturelightfair.se/,DM,Möbelform AB,B06:13,,www.mobelform.se,info@mobelform.se,+46 44 430 90,,"Box 21, 280 64, Glimåkra",Sverige,Home furniture | Furniture public environment,,,
Stockholm Furniture & Lighting Fair,02/08/2022,2022,https://www.stockholmfurniturelightfair.se/,DM,Mylhta by Lisa Hilland,C02:10,,www.lisahilland.com,mail@lisahilland.com,+46 73 43 40 010,,"Kompassgatan 38, 211 17, Malmö",Sverige,,,,
Stockholm Furniture & Lighting Fair,02/08/2022,2022,https://www.stockholmfurniturelightfair.se/,DM,Moroso,C05:20,,www.moroso.it,andrea.bazzaro@moroso.it,+39 04 32 57 71 11,,"Via Nazionale 60, 33010, Cavalicco - Udine",Italien,Furniture public environment | Corporate / Public space - furniture interior,,,
Stockholm Furniture & Lighting Fair,02/08/2022,2022,https://www.stockholmfurniturelightfair.se/,DM,Mont,C05:49,,,mont.design.studio@gmail.com,076 879 12 44,,"Södra Esplanaden 15A, 223 54, Lund",Sverige,,,,
Stockholm Furniture & Lighting Fair,02/08/2022,2022,https://www.stockholmfurniturelightfair.se/,DM,Moholy-Nagy University of Art and Design Budapest,C03:43,,www.mome.hu,vesmas.julia@mome.hu,+36203265607,,"Zugligeti ut 9-25, 1121, Budapest",Ungern,,,,
Stockholm Furniture & Lighting Fair,02/08/2022,2022,https://www.stockholmfurniturelightfair.se/,DM,MM Studio,B08:11,,www.salonymmstudio.pl,,,,"UL. PLANETARNA 15A/6, 62-020, ZALASEWO",Polen,Home furniture | Furniture public environment,,,
Stockholm Furniture & Lighting Fair,02/08/2022,2022,https://www.stockholmfurniturelightfair.se/,DM,Modalita,A25:10,,www.modalitasedie.com,info@modalitasedie.com,+393939633647,,"Via Nazionale 30 Moimacco, 33040, Maimacco",Italien,,,,
Stockholm Furniture & Lighting Fair,02/08/2022,2022,https://www.stockholmfurniturelightfair.se/,DM,Mizetto AB,A11:11,,www.mizetto.se,malin@mizetto.se,0706-471 404,,"ENGELSKA VÄGEN 5, 393 56, Kalmar",Sverige,Office contract market | Furniture public environment | Corporate / Public space - office,,,
Stockholm Furniture & Lighting Fair,02/08/2022,2022,https://www.stockholmfurniturelightfair.se/,DM,Miramondo GmbH,A12:19,,www.miramondo.com,w.hints@miramondo.com,+432253700212,,"Miramondostrasse 6, 2504, Sooss",Österrike,,,,
Stockholm Furniture & Lighting Fair,02/08/2022,2022,https://www.stockholmfurniturelightfair.se/,DM,Mjuk,B09:10,,www.mjukhome.com,max@mjuk.fi,+358400844584,,"Stålgatan 11 Rosersberg, 19572, Rosersberg",Sverige,,,,
Stockholm Furniture & Lighting Fair,02/08/2022,2022,https://www.stockholmfurniturelightfair.se/,DM,MILA,AG:22,,www.mila.com.pl,j.misterkiewicz@mila.com.pl,+48603652001,,"Przejazdowa 6j, 42-280, Czestochowa",Polen,,,,
Stockholm Furniture & Lighting Fair,02/08/2022,2022,https://www.stockholmfurniturelightfair.se/,DM,MJ DESIGN,A23:16,,www.mjdesign.com.pl,office@mjdesign.com.pl,+48 608 36 26 26,,"Parkowa 29, 87-880, Wieniec",Polen,Office contract market | Furniture public environment | Corporate / Public space - office | Corporate / Public space - furniture interior,,,
Stockholm Furniture & Lighting Fair,02/08/2022,2022,https://www.stockholmfurniturelightfair.se/,DM,Minding A/S,B03:21,,www.top-line.dk,lene@top-line.dk,+45 86691855,,"Vestrgade 31., 9632, Møldrup",Danmark,,,,
Stockholm Furniture & Lighting Fair,02/08/2022,2022,https://www.stockholmfurniturelightfair.se/,DM,METALCO,A23:14,,www.metalco.it,alberto.magro@theplacemakers.it,+393282481811,,"via della Fornace, 44 Castelminio di  (TV) Italy, 31023, Resana",Italien,Outdoor furniture public environment,,,
Stockholm Furniture & Lighting Fair,02/08/2022,2022,https://www.stockholmfurniturelightfair.se/,DM,Maze interior,A03:10,,www.mazeinterior.se,lotta.devisscher@mazeinterior.se,+46 8 654 03 10,,"Skeppargatan 17, 114 52, Stockholm",Sverige,Furniture public environment | Corporate / Public space - furniture interior,,,
Stockholm Furniture & Lighting Fair,02/08/2022,2022,https://www.stockholmfurniturelightfair.se/,DM,MIDJ S.p.A.,A13:21,,www.midj.com,olga.darashuk@midj.it,0039 370 3140206,,"Via Madonna di Campagna, 2A -, 33075, Cordovado",Italien,,,,
Stockholm Furniture & Lighting Fair,02/08/2022,2022,https://www.stockholmfurniturelightfair.se/,DM,Materia AB,A15:20,,www.materia.se,info@materia.se,+46 140 38 56 00,,"Box 340, 573 24, Tranås",Sverige,Furniture public environment | Corporate / Public space - furniture interior,,,
Stockholm Furniture & Lighting Fair,02/08/2022,2022,https://www.stockholmfurniturelightfair.se/,DM,Mavis,A05:13,,www.mavis.se,,+46 371 337 00,,"Värnamovägen 1, 333 31, Smålandsstenar",Sverige,Home furniture | Furniture public environment,,,
Stockholm Furniture & Lighting Fair,02/08/2022,2022,https://www.stockholmfurniturelightfair.se/,DM,Mekrapid Products,AG:21,,www.mekrapid.fi,fredrika.furu@mekrapid.fi,+35867889750,,"PB 101 FI-68601, 68601, JAKOBSTAD",Finland,Other,,,
Stockholm Furniture & Lighting Fair,02/08/2022,2022,https://www.stockholmfurniturelightfair.se/,DM,Martinsen AS,B04:15,,www.handelshusetmartinsen.no,Thomas.Samuelsen@martinsenco.no,,,"Industriveien 1, 4344, Bryne",Norge,Home furniture,,,
Stockholm Furniture & Lighting Fair,02/08/2022,2022,https://www.stockholmfurniturelightfair.se/,DM,Malmstens Linköpings Universitet,C06:30,,www.liu.se/malmstens,mikael.lofstrom@liu.se,+46 13 28 23 46,,"Larsbergsvägen 8, 181 39, Lidingö",Sverige,Schools,,,
Stockholm Furniture & Lighting Fair,02/08/2022,2022,https://www.stockholmfurniturelightfair.se/,DM,Mari Koppanen,C05:44,,www.marikoppanen.com,info@marikoppanen.com,+35 840 745 67 10,,"Karjalankatu, 200520, Helsinki",Finland,,,,
Stockholm Furniture & Lighting Fair,02/08/2022,2022,https://www.stockholmfurniturelightfair.se/,DM,Luula,B09:21,,www.luu.la,luulatable@gmail.com,+371 29103187,,"Ezeru laukuma 1, LV-3201, Talsi",Lettland,,,,
Stockholm Furniture & Lighting Fair,02/08/2022,2022,https://www.stockholmfurniturelightfair.se/,DM,Malmstolen AB,C17:31,,www.malmstolen.se,order@malmstolen.se,+46 31 21 90 00,,"Stora Åvägen 21, 436 34, Askim",Sverige,,,,
Stockholm Furniture & Lighting Fair,02/08/2022,2022,https://www.stockholmfurniturelightfair.se/,DM,Lovisa of Sweden AB,A14:14,,www.lovisaofsweden.se,,,,"Lysgatan 25, 802 86, Gävle",Sverige,Furniture public environment,,,
Stockholm Furniture & Lighting Fair,02/08/2022,2022,https://www.stockholmfurniturelightfair.se/,DM,Lundbergs Möbler AB,C16:31,,www.lundbergs-mobler.se,support@lundbergs-mobler.se,+46 504 404 40,,"Tidavadsgatan 2, 543 23, Tibro",Sverige,Office contract market | Furniture public environment | Corporate / Public space - office,,,
Stockholm Furniture & Lighting Fair,02/08/2022,2022,https://www.stockholmfurniturelightfair.se/,DM,Lund University - School of Industrial Design,C05:56,,www.industrialdesign.lth.se,info@info.lu.se,046-222 00 00,,"Box 188
Fakturor, 221 00, Lund",Sverige,Schools,,,
Stockholm Furniture & Lighting Fair,02/08/2022,2022,https://www.stockholmfurniturelightfair.se/,DM,Lundqvist Inredningar,A06:10,,www.lundqvistinredningar.se,,+46 8 623 98 00,,"Ö Storgatan 55, 646 42, Gnesta",Sverige,,,,
Stockholm Furniture & Lighting Fair,02/08/2022,2022,https://www.stockholmfurniturelightfair.se/,DM,Linnéuniversitetet,C05:61,,www.lnu.se,,0470 708116,,"Box 451 Lyckligplats 1, M huset, 351 95, Växjö",Sverige,Schools,,,
Stockholm Furniture & Lighting Fair,02/08/2022,2022,https://www.stockholmfurniturelightfair.se/,DM,Linie Design,C17:21,,www.liniedesign.dk,,+45 48 16 34 15,,"Granlyet 7, 3540, Lynge",Danmark,Carpets & flooring | Textiles home,,,
Stockholm Furniture & Lighting Fair,02/08/2022,2022,https://www.stockholmfurniturelightfair.se/,DM,Lintex,C12:31,,www.lintex.se,info@lintex.se,+46 481 799 000,,"Madesjövägen 17, 382 45, Nybro",Sverige,Office contract market | Furniture public environment,,,
Stockholm Furniture & Lighting Fair,02/08/2022,2022,https://www.stockholmfurniturelightfair.se/,DM,Kurage A/S,A08:16,,www.kurage.dk,info@kurage.dk,+45 865 507 00,,"Holmstrupgårdsvej 4, 8220, BRABRAND",Danmark,Textiles contract market,,,
Stockholm Furniture & Lighting Fair,02/08/2022,2022,https://www.stockholmfurniturelightfair.se/,DM,Loook Industries,C13:31,,www.loookindustries.com,ivar.gestranius@loookindustries.com,+358401693002,,"Kroggårdintie 29C, 00300, Karjaa",Finland,,,,
Stockholm Furniture & Lighting Fair,02/08/2022,2022,https://www.stockholmfurniturelightfair.se/,DM,LAB University of Applied Sciences - Lahti Institute of Design,C05:63,,www.lab.fi,,,,"Mukkulankatu 19, 152 10, Lahti",Finland,,,,
Stockholm Furniture & Lighting Fair,02/08/2022,2022,https://www.stockholmfurniturelightfair.se/,DM,+kouple,A10:13,,www.pluskouple.com,kateryna@thefild.com,+380954135656,,"Sakhahanskoho 89A, 01032,, Kyiv",Ukraina,,,,
Stockholm Furniture & Lighting Fair,02/08/2022,2022,https://www.stockholmfurniturelightfair.se/,DM,KOYORI,"C03:29, C13:29",,koyori-jp.com,info@koyori-jp.com,+81 3-6427-1505,,"601, 5-16-3 Minamiaoyama, Minato-ku, 107-0062, Tokyo",Japan,,,,
Stockholm Furniture & Lighting Fair,02/08/2022,2022,https://www.stockholmfurniturelightfair.se/,DM,Kristina Dam Studio,C10:38,,www.kristinadam.dk,order@kristinadam.dk,,,"Sydholmen 9-17, 2650, HVIDOVRE",Danmark,,,,
Stockholm Furniture & Lighting Fair,02/08/2022,2022,https://www.stockholmfurniturelightfair.se/,DM,Konstfack,C05:31,,www.konstfack.se,,+46 8 450 41 00,,"Box 3601, 103 59, Stockholm",Sverige,Schools,,,
Stockholm Furniture & Lighting Fair,02/08/2022,2022,https://www.stockholmfurniturelightfair.se/,DM,Konsthantverk Tyringe AB,A04:21,,www.konsthantverk.com,info@konsthantverk.com,+46 451 509 05,,"Box 147, 282 23, Tyringe",Sverige,Lighting contract market,,,
Stockholm Furniture & Lighting Fair,02/08/2022,2022,https://www.stockholmfurniturelightfair.se/,DM,Kondator,A21:13,,www.kondator.se,info@kondator.se,+46 8 556 595 00,,"Box 121, 135 23, Tyresö",Sverige,Office contract market | Corporate / Public space - office,,,
Stockholm Furniture & Lighting Fair,02/08/2022,2022,https://www.stockholmfurniturelightfair.se/,DM,Ko Jubilo Studio,C04:43,,www.kojubilo.com,info@kojubilo.com,604-725-8744,,"587 West 18th Avenue, V5Z 1V7, Vancouver BC",Kanada,,,,
Stockholm Furniture & Lighting Fair,02/08/2022,2022,https://www.stockholmfurniturelightfair.se/,DM,Klong,C05:19,,www.klong.se,info@klong.se,+46 8 446 27 30,,"Ackumulatorvägen 7, 181 55, Lidingö",Sverige,Furniture public environment | Corporate / Public space - furniture interior,,,
Stockholm Furniture & Lighting Fair,02/08/2022,2022,https://www.stockholmfurniturelightfair.se/,DM,Kinnamark,,,www.kinnamark.com,,+46 320 320 27,,"Box 37, 511 21, Kinna",Sverige,Textiles home | Textiles contract market,,,
Stockholm Furniture & Lighting Fair,02/08/2022,2022,https://www.stockholmfurniturelightfair.se/,DM,Kilroy Indbo A/S,B07:15,,www.kilroyindbo.dk,pb@kilroyindbo.dk,+45 56 66 06 97,,"Kögevej 51, 4653, Karise",Danmark,Home furniture,,,
Stockholm Furniture & Lighting Fair,02/08/2022,2022,https://www.stockholmfurniturelightfair.se/,DM,Kinnarps AB,A16:18,,www.kinnarps.se,,0515 380 00,,"Industrigatan 1, 521 88, Kinnarp",Sverige,Office contract market | Furniture public environment | Corporate / Public space - office | Corporate / Public space - furniture interior,,,
Stockholm Furniture & Lighting Fair,02/08/2022,2022,https://www.stockholmfurniturelightfair.se/,DM,Karlsbergs Gård - Svenska Lammskinn,B06:02,,www.karlsbergsgard.se,susanne.flykt@gmail.com,+46 70 296 65 00,,"Karlsbergs Gård, 544 94, HJO",Sverige,Textiles home | Textiles contract market,,,
Stockholm Furniture & Lighting Fair,02/08/2022,2022,https://www.stockholmfurniturelightfair.se/,DM,Karl Andersson & Söner,A08:18,,www.karl-andersson.se,info@karl-andersson.se,+46 36 13 25 30,,"Rosendalagatan 6, 561 34, Huskvarna",Sverige,Furniture public environment | Corporate / Public space - furniture interior,,,
Stockholm Furniture & Lighting Fair,02/08/2022,2022,https://www.stockholmfurniturelightfair.se/,DM,Kallin & Franzén AB,A12:10,,www.kallinfranzen.se,info@kallinfranzen.se,+46 495 494 00,,"Börstigsvägen 21, 523 78, Trädet",Sverige,Office contract market | Furniture public environment | Corporate / Public space - office | Corporate / Public space - furniture interior,,,
Stockholm Furniture & Lighting Fair,02/08/2022,2022,https://www.stockholmfurniturelightfair.se/,DM,KAUCH,C02:27,,WWW.KAUCH.SI,LUKA.DEBEVEC@KAUCH.SI,+386 31 685 788,,"Podplesivica 37, 1357, Notranje Gorice",Slovenien,,,,
Stockholm Furniture & Lighting Fair,02/08/2022,2022,https://www.stockholmfurniturelightfair.se/,DM,Kasthall,C07:29,,www.kasthall.com,info@kasthall.se,+46 320 20 59 00,,"Box 254, 511 57, Kinna",Sverige,Furniture public environment | Corporate / Public space - furniture interior,,,
Stockholm Furniture & Lighting Fair,02/08/2022,2022,https://www.stockholmfurniturelightfair.se/,DM,Kakelspecialisten Projekt,AG:63,,www.kakelspecialisten.se,post@kakelspecialisten.se,+46 8 686 00 31,,"Box 90285, 120 24, Stockholm",Sverige,Kitchen & Bath | Furniture public environment | Corporate / Public space - furniture interior,,,
Stockholm Furniture & Lighting Fair,02/08/2022,2022,https://www.stockholmfurniturelightfair.se/,DM,KAB Seating Ltd / Holmek Consulting AB,A18:13,,www.holmek.se,jh@holmek.se,0708-39 40 30,,"Linnévägen 34, 616 34, Åby",Sverige,Corporate / Public space - office,,,
Stockholm Furniture & Lighting Fair,02/08/2022,2022,https://www.stockholmfurniturelightfair.se/,DM,Juilusberg Växtservice AB,AG:39,,juliusberg.se,info@juliusberg.se,+46 8-687 02 63,,"Industrigatan 7 A, 112 46, Stockholm",Sverige,,,,
Stockholm Furniture & Lighting Fair,02/08/2022,2022,https://www.stockholmfurniturelightfair.se/,DM,JOINT JOURNEY by Studio Sparv & Josephine Aspenrot,C04:41,,,josephine.aspenrot@hotmail.com,070 89 52 101,,"Hallebyvägen 8A, 666 95, Dals Långed",Sverige,,,,
Stockholm Furniture & Lighting Fair,02/08/2022,2022,https://www.stockholmfurniturelightfair.se/,DM,JLM-form,C05:39,,www.jlmform.com,jochenmangelsdorff@gmail.com,070-8424891,,"Kvarngatan 8b, 118 47, Stockholm",Sverige,,,,
Stockholm Furniture & Lighting Fair,02/08/2022,2022,https://www.stockholmfurniturelightfair.se/,DM,JTH i samarbete med Träcentrum i Nässjö,C03:50,,www.tracentrum.se,victor.strandgren@ju.se,0722227874,,"Box 174, 571 22, Nässjö",Sverige,Schools,,,
Stockholm Furniture & Lighting Fair,02/08/2022,2022,https://www.stockholmfurniturelightfair.se/,DM,JI Jonas Ihreborn,A21:13,,www.ihreborn.se,info@ihreborn.se,0382-204 50,,"Expovägen 5, 331 42, Värnamo",Sverige,,,,
Stockholm Furniture & Lighting Fair,02/08/2022,2022,https://www.stockholmfurniturelightfair.se/,DM,Johanson,,,www.johansondesign.se,info@johansondesign.se,+46 433 725 00,,"Anders Anderssons väg 7, 285 35, Markaryd",Sverige,,,,
Stockholm Furniture & Lighting Fair,02/08/2022,2022,https://www.stockholmfurniturelightfair.se/,DM,Jess,A09:12,,www.jessdesign.com,maarten@jessdesign.com,+31412639092,,"Postbus 721, 5340 AS, OSS",Nederländerna,Home furniture | Furniture public environment | Corporate / Public space - furniture interior,,,
Stockholm Furniture & Lighting Fair,02/08/2022,2022,https://www.stockholmfurniturelightfair.se/,DM,Jeltec,A12:10,,www.jeltec.se,info@jeltec.se,+46 13148300,,"Idögatan 35, 582 78, Linköping",Sverige,Furniture public environment | Corporate / Public space - furniture interior,,,
Stockholm Furniture & Lighting Fair,02/08/2022,2022,https://www.stockholmfurniturelightfair.se/,DM,Jenni Inciarte Villaverde,C05:37,,inciarte.fi,jenni.inciarte@inciarte.fi,+358407600835,,"Vähäkaski 6 B, 00680, Helsinki",Finland,,,,
Stockholm Furniture & Lighting Fair,02/08/2022,2022,https://www.stockholmfurniturelightfair.se/,DM,Isku,A09:28,,www.isku.fi,,+358 447 92  3361,,"P.O. Box 5704
Mukkulankatu 19, 15120, Lahti",Finland,,,,
Stockholm Furniture & Lighting Fair,02/08/2022,2022,https://www.stockholmfurniturelightfair.se/,DM,"IVO ir ko, UAB",B05:11,,www.ivobaldai.lt,viktoras@ivo.lt,+370 606 00404,,"Sodu 15, Mostiskes, Vilniaus r., LT15222",Litauen,Home furniture,,,
Stockholm Furniture & Lighting Fair,02/08/2022,2022,https://www.stockholmfurniturelightfair.se/,DM,IO LINE AND ROUND,C05:32,,lineandround.io,lukacs.edit@lineandround.io,,,"1136 Budapest Tátra utca 5/A al.2.
1126 Böszörményi út 3/A, Budapest",Ungern,,,,
Stockholm Furniture & Lighting Fair,02/08/2022,2022,https://www.stockholmfurniturelightfair.se/,DM,iSiMAR,C05:11,,www.isimar.es,alazne@isimar.es,+34678556391,,"Ctra Salinas km1, 31110, Navarra",Spanien,Furniture public environment | Outdoor furniture,,,
Stockholm Furniture & Lighting Fair,02/08/2022,2022,https://www.stockholmfurniturelightfair.se/,DM,IPV - Instituto Politecnico de Viseu,C06:43,,dep.estgv.ipv.pt/departamentos/demad,demad@estgv.ipv.pt,+351 232480500,,"Escola Superior de Tecnologia e Gestão de Viseu - Campus Politécnico, 3504-510, Viseu",Portugal,,,,
Stockholm Furniture & Lighting Fair,02/08/2022,2022,https://www.stockholmfurniturelightfair.se/,DM,Investment and Development Agency of Latvia,B09:21,,www.liaa.gov.lv,Toms.Sudrabs@liaa.gov.lv,+371 703 94 00,,"Perses Street 2, LV-1442, Riga",Lettland,Home furniture,,,
Stockholm Furniture & Lighting Fair,02/08/2022,2022,https://www.stockholmfurniturelightfair.se/,DM,INTO the Nordic Silence,A17:10,,www.intoconcept.com,contact@intoconcept.com,+358 40 670 7819,,"Lemuntie 3-5 C, 00510, Helsinki",Finland,Office contract market | Furniture public environment | Corporate / Public space - office | Corporate / Public space - furniture interior,,,
Stockholm Furniture & Lighting Fair,02/08/2022,2022,https://www.stockholmfurniturelightfair.se/,DM,Interstuhl,A17:20,,www.interstuhl.com,marketing-hq@interstuhl.de,,,"Brühlstrasse 21, 72469, Messstetten Tieringen",Tyskland,Office contract market | Furniture public environment,,,
Stockholm Furniture & Lighting Fair,02/08/2022,2022,https://www.stockholmfurniturelightfair.se/,DM,Interior Design Collection,A08:10,,www.interiordesign.se,,+46 920 220 101,,"Box 39, 971 02, Luleå",Sverige,Office contract market | Furniture public environment | Corporate / Public space - office | Corporate / Public space - furniture interior,,,
Stockholm Furniture & Lighting Fair,02/08/2022,2022,https://www.stockholmfurniturelightfair.se/,DM,Healsafe Interiör,AG:25,,healsafeinterior.com,info@healsafeinterior.com,+46 0708 846176,,"Nordhemsgatan 36-42, 413 06, Göteborg",Sverige,Interior fittings | Corporate / Public space - furniture interior,,,
Stockholm Furniture & Lighting Fair,02/08/2022,2022,https://www.stockholmfurniturelightfair.se/,DM,Interface Sverige AB,A09:10,,www.interface.com,,+46 766 44 09 77,,"Box 17172, 104 62, Stockholm",Sverige,,,,
Stockholm Furniture & Lighting Fair,02/08/2022,2022,https://www.stockholmfurniturelightfair.se/,DM,HDK-Valand – Högskolan för konst och design vid Göteborgs Universitet.,C03:45,,www.hdk.gu.se,johnny.friberg@hdk.gu.se,0766184772,,"Kristinelundsgatan 6-8, 40530, Göteborg",Sverige,Schools,,,
Stockholm Furniture & Lighting Fair,02/08/2022,2022,https://www.stockholmfurniturelightfair.se/,DM,Havuu Oasis,A23:21,,www.havuu.fi,info@havuu.fi,,,"Kruunuvuorenkatu 2, 00160, Helsinki",Finland,Furniture public environment,,,
Stockholm Furniture & Lighting Fair,02/08/2022,2022,https://www.stockholmfurniturelightfair.se/,DM,Hajom Skjutdörrar,A25:14,,www.hajom.com,,+46 10 451 47 00,,"Kvarnbacken 2, 511 97, Hajom",Sverige,Corporate / Public space - furniture interior,,,
Stockholm Furniture & Lighting Fair,02/08/2022,2022,https://www.stockholmfurniturelightfair.se/,DM,Handarbetets Vänner,C04:55,,www.hv-textil.se,mathilda.perem@hv-textil.se,08-545 686 50,,"Djurgårdsslätten 82-84, 115 21, Stockholm",Sverige,Schools,,,
Stockholm Furniture & Lighting Fair,02/08/2022,2022,https://www.stockholmfurniturelightfair.se/,DM,Hamari auditorium furniture solutions Oy,A25:20,,www.hamari.pro,jari.jaaskela@hamari.pro,+358 505024731,,"Runeberginkatu 34 E, 06100, PORVOO",Finland,,,,
Stockholm Furniture & Lighting Fair,02/08/2022,2022,https://www.stockholmfurniturelightfair.se/,DM,Haga Gruppen,B04:11,,www.hagagruppen.se,info@hagagruppen.se,+46 36 207 00,,"Kyrkvägen 2, 565 76, Bottnaryd",Sverige,Home furniture,,,
Stockholm Furniture & Lighting Fair,02/08/2022,2022,https://www.stockholmfurniturelightfair.se/,DM,Grythyttan Stålmöbler,A04:10,,www.grythyttan.net,,+46 591 143 50,,"Lokstallsgatan 1, 712 60, Grythyttan",Sverige,Furniture public environment | Outdoor furniture,,,
Stockholm Furniture & Lighting Fair,02/08/2022,2022,https://www.stockholmfurniturelightfair.se/,DM,Gustav Winsth,C05:42,,,Gustav.winsth@gmail.com,0702953705,,"Möregatan 6, 118 27, Stockholm",Sverige,,,,
Stockholm Furniture & Lighting Fair,02/08/2022,2022,https://www.stockholmfurniturelightfair.se/,DM,Götessons,A19:18,,www.gotessons.com,info@gotessons.se,0321-68 77 00,,"Rönnåsgatan 5A, 523 38, Ulricehamn",Sverige,Office contract market | Furniture public environment | Corporate / Public space - office | Corporate / Public space - furniture interior,,,
Stockholm Furniture & Lighting Fair,02/08/2022,2022,https://www.stockholmfurniturelightfair.se/,DM,Grebbestads Folkhögskola,C03:44,,www.grebbestads.fhsk.se,,0525-19920,,"Folkhögskolor FE 922, 405 83, Göteborg",Sverige,Schools,,,
Stockholm Furniture & Lighting Fair,02/08/2022,2022,https://www.stockholmfurniturelightfair.se/,DM,Graphic Concrete Oy,C10:11,,www.graphicconcrete.com,samuli.naamanka@graphicconcrete.com,+358415282698,,"c/oGraphic Concrete Oy
Itälahdenkatu 18 C 5, 00210, Helsinki",Finland,,,,
Stockholm Furniture & Lighting Fair,02/08/2022,2022,https://www.stockholmfurniturelightfair.se/,DM,Grand ERP,AG:22A,,www.granderp.com,dmitrij@granderp.com,+37063051936,,"Draugystes 13a, 51225, Kaunas",Litauen,,,,
Stockholm Furniture & Lighting Fair,02/08/2022,2022,https://www.stockholmfurniturelightfair.se/,DM,Gramrode Møbelfabrik A/S,C12:21,,www.navercollection.dk,ap@gramrode.dk,+45 75 68 50 50,,"GI. Landevej 6, 7130, Juelsminde",Danmark,,,,
Stockholm Furniture & Lighting Fair,02/08/2022,2022,https://www.stockholmfurniturelightfair.se/,DM,GoodSitStudio,C05:46,,www.goodsitstudio.com,info@glenbaghurst.com,+46(0)70 835 78 58,,"Friisgatan 9, 214 21, Malmö",Sverige,,,,
Stockholm Furniture & Lighting Fair,02/08/2022,2022,https://www.stockholmfurniturelightfair.se/,DM,Golvabia,A22:11,,www.golvabia.se,info@golvabia.se,+46 371 58 82 00,,"Box 43, 334 21, Anderstorp",Sverige,Carpets & flooring,,,
Stockholm Furniture & Lighting Fair,02/08/2022,2022,https://www.stockholmfurniturelightfair.se/,DM,Gradus Ltd,A25:11,,www.gradusworld.com,jill.harrington@gradusworld.com,+44 1625 413 339,,"Chapel Mill, Park green, SK117LZ, Macclesfield, Cheshire",Storbritannien,,,,
Stockholm Furniture & Lighting Fair,02/08/2022,2022,https://www.stockholmfurniturelightfair.se/,DM,Glänta Design,A23:22,,www.glantadesign.com,,,,"Kvarnholmsvägen 77, 131 31, Nacka",Sverige,Furniture public environment,,,
Stockholm Furniture & Lighting Fair,02/08/2022,2022,https://www.stockholmfurniturelightfair.se/,DM,Globen Lighting,A03:20,,www.globenlighting.se,info@globenlighting.se,+46 325 61 80 80,,"Sågvägen 10, 512 00, Svenljunga",Sverige,Home lighting | Lighting contract market | Light source & Electrical materials | Home furniture,,,
Stockholm Furniture & Lighting Fair,02/08/2022,2022,https://www.stockholmfurniturelightfair.se/,DM,Glamox AB,A03:28,,www.glamoxluxo.com,,+31 74 65 100,,"Box 40, 570 82, Målilla",Sverige,Lighting contract market,,,
Stockholm Furniture & Lighting Fair,02/08/2022,2022,https://www.stockholmfurniturelightfair.se/,DM,Glimakra of Sweden,A19:10,,www.glimakra.com,info@glimakra.com,+46 44 454 10,,"Box 125, 289 04, Glimåkra",Sverige,Office contract market,,,
Stockholm Furniture & Lighting Fair,02/08/2022,2022,https://www.stockholmfurniturelightfair.se/,DM,Gerflor Scandinavia AS Norge Filial,A25:11,,www.gerflor.se,sara.halonen@gerflor.com,+46 72 908 36 75,,"Rosenlundsgatan 32B, 118 53, Stockholm",Sverige,Lighting contract market | Interior fittings | Office contract market | Kitchen & Bath | Light source & Electrical materials | Carpets & flooring | Corporate / Public space - office | Schools | Other,,,
Stockholm Furniture & Lighting Fair,02/08/2022,2022,https://www.stockholmfurniturelightfair.se/,DM,Gemla,A02:20,,www.gemlaab.se,mail@gemlaab.se,0476-214 00,,"Stora Backegatan 2, 343 71, Diö",Sverige,Home furniture | Furniture public environment | Corporate / Public space - furniture interior,,,
Stockholm Furniture & Lighting Fair,02/08/2022,2022,https://www.stockholmfurniturelightfair.se/,DM,Furninova,B01:11,,www.furninova.se,info@furninova.se,+46 451 77 56 00,,"Perssons väg 3, P.O. BOX 28, 282 03, Bjärnum",Sverige,Home furniture | Furniture public environment,,,
Stockholm Furniture & Lighting Fair,02/08/2022,2022,https://www.stockholmfurniturelightfair.se/,DM,Galaxy Profiles GmbH,AG:09,,www.galaxy-profiles.ay,info@galaxy-profiles.com,+436766564553,,"Haller Au 19a, A-6060, Tirol",Österrike,,,,
Stockholm Furniture & Lighting Fair,02/08/2022,2022,https://www.stockholmfurniturelightfair.se/,DM,GEMEGA,B09:14,,www.gemega.lt,,,,"Liejyklos str. 1a, 781 55, Siauliai",Litauen,Home furniture,,,
Stockholm Furniture & Lighting Fair,02/08/2022,2022,https://www.stockholmfurniturelightfair.se/,DM,Furnico,B06:11,,www.hypnos.ee,,+3725037637,,"EE100088058, 11415, Tallinn",Estland,Home furniture | Furniture public environment,,,
Stockholm Furniture & Lighting Fair,02/08/2022,2022,https://www.stockholmfurniturelightfair.se/,DM,Fujiei Europa sp. z.o.o.,A14:09,,www.nychairx.eu,patrick.h@fujiei.eu,+48602447516,,"Al. Wojska Polskiego 0/108, 01-524, Warsaw",Polen,,,,
Stockholm Furniture & Lighting Fair,02/08/2022,2022,https://www.stockholmfurniturelightfair.se/,DM,Frost,A05:11,,www.frost.dk,info@frost.dk,+45 87 61 00 32,,"Bavne Allé 6 E, 8370, Hadsten",Danmark,Kitchen & Bath | Furniture public environment,,,
Stockholm Furniture & Lighting Fair,02/08/2022,2022,https://www.stockholmfurniturelightfair.se/,DM,Framery,A21:18,,www.frameryacoustics.com,mira.haulo@frameryacoustics.com,,,"Patamaenkatu 7, 339 00, Tampere",Finland,Office contract market | Furniture public environment | Corporate / Public space - office | Corporate / Public space - furniture interior,,,
Stockholm Furniture & Lighting Fair,02/08/2022,2022,https://www.stockholmfurniturelightfair.se/,DM,Forestier,A04:12,,WWW.forestier.fr,jd@forestier.fr,+33 5 56 49 80 30,,"Rue Radio Londres - CS 50001 - 33323, 50001 - 33323, Begles",Frankrike,Lighting contract market,,,
Stockholm Furniture & Lighting Fair,02/08/2022,2022,https://www.stockholmfurniturelightfair.se/,DM,Forbo Flooring AB,A11:10,,www.forbo-flooring.se,info.sweden@forbo.com,+46 31 89 20 00,,"Box 9046, 400 91, Göteborg",Sverige,Furniture public environment | Corporate / Public space - office,,,
Stockholm Furniture & Lighting Fair,02/08/2022,2022,https://www.stockholmfurniturelightfair.se/,DM,FMH Stainless AB,AG:12,,www.fmhstainless.se,info@fmhstainless.se,+46(0)31-748 22 77,,"Lilla Hovåsvägen 19, 436 56, Hovås",Sverige,Other,,,
Stockholm Furniture & Lighting Fair,02/08/2022,2022,https://www.stockholmfurniturelightfair.se/,DM,"FMI, Färg, Möbler Interiör",B01:01,,www.fmibranschen.se,,+46 8 505 970 11,,"Box 92107, 120 07, Stockholm",Sverige,,,,
Stockholm Furniture & Lighting Fair,02/08/2022,2022,https://www.stockholmfurniturelightfair.se/,DM,Fogia,C04:18,,www.fogia.se,info@fogia.se,08-556 091 00,,"Finnboda Varvsväg 19 A, 131 72, Nacka",Sverige,Home furniture | Furniture public environment | Textiles home | Textiles contract market,,,
Stockholm Furniture & Lighting Fair,02/08/2022,2022,https://www.stockholmfurniturelightfair.se/,DM,Fora Form,C11:31,,www.foraform.no,info@foraform.com,+47 70 04 60 00,,"Postboks 4 / Mosflateveien, 6150, ÖRSTA",Norge,Furniture public environment | Corporate / Public space - office,,,
Stockholm Furniture & Lighting Fair,02/08/2022,2022,https://www.stockholmfurniturelightfair.se/,DM,FÓLK Reykjavik,A07:15,,www.folkreykjavik.com,folk@folkreykjavik.com,+354 849 21 22,,"Fiskisloo 24, IS101, Reykjavik",Island,,,,
Stockholm Furniture & Lighting Fair,02/08/2022,2022,https://www.stockholmfurniturelightfair.se/,DM,FitWood Ltd.,B09:24,,www.fitwood.com,info@fitwood.com,+358 444915446,,"Hautalankatu 20, 33560, Tampere",Finland,,,,
Stockholm Furniture & Lighting Fair,02/08/2022,2022,https://www.stockholmfurniturelightfair.se/,DM,Eskoleia AS,A22:14,,www.eskoleia-stal.no,jannicke.mykkestue@eskoleia.no,+47 62 81 08 10,,"Lensmann Jahnsens vei 39, 2211, Kongsvinger",Norge,Furniture public environment | Corporate / Public space - furniture interior,,,
Stockholm Furniture & Lighting Fair,02/08/2022,2022,https://www.stockholmfurniturelightfair.se/,DM,Ermatiko OÜ,"B08:21, B04:21",,www.ermatiko.ee,mail@ermatiko.ee,+372 605 52 62,,"Tööstuse 13, Laabi küla, Harku vald,, 76901, Harju mk",Estland,,,,
Stockholm Furniture & Lighting Fair,02/08/2022,2022,https://www.stockholmfurniturelightfair.se/,DM,Englund-Gruppen Flooring AB,C02:19,,www.ntkab.se,stefan.englund@englund-gruppen.se,,,"Kryptongatan 20, 43153, Mölndal",Sverige,Carpets & flooring,,,
Stockholm Furniture & Lighting Fair,02/08/2022,2022,https://www.stockholmfurniturelightfair.se/,DM,Ergoseat AB,A22:13,,www.ergoseat.se,info@ergoseat.se,070-603 60 40,,"Energigatan 23, 434 37, Kungsbacka",Sverige,Furniture public environment | Corporate / Public space - office,,,
Stockholm Furniture & Lighting Fair,02/08/2022,2022,https://www.stockholmfurniturelightfair.se/,DM,Elmo,"C11:21, C14:29",,www.elmoleather.com,se.info@elmoleather.com,+ 46 (0)325-661400,,"Kyrkogatan 18, 512 81, Svenljunga",Sverige,Furniture public environment | Corporate / Public space - furniture interior,,,
Stockholm Furniture & Lighting Fair,02/08/2022,2022,https://www.stockholmfurniturelightfair.se/,DM,Källemo AB,A11:18,,www.kallemo.se,info@kallemo.se,+46 370 150 00,,"Box 605, 331 26, Värnamo",Sverige,Furniture public environment,,,
Stockholm Furniture & Lighting Fair,02/08/2022,2022,https://www.stockholmfurniturelightfair.se/,DM,"""Eilersen"" and other brand ""JUUL""",A10:18,,www.eilersen.eu/www.juul.eu,info@eilersen.eu,+45 64 85 10 08,,"Fabriksvej 2, 5485, SKAMBY",Danmark,Home furniture | Furniture public environment | Textiles home,,,
Stockholm Furniture & Lighting Fair,02/08/2022,2022,https://www.stockholmfurniturelightfair.se/,DM,Ekstrands Dörrar & Fönster AB,A26:20,,www.ekstrands.nu,,0479-100 40,,"Box 123, 283 22, Osby",Sverige,,,,
Stockholm Furniture & Lighting Fair,02/08/2022,2022,https://www.stockholmfurniturelightfair.se/,DM,Elementi,B08:25,,www.elementi.se/contact_us,hej@elementi.se,+47 33 400 888,,"c\o Vadsbo Redovisering AB
Kungstagan 5, 542 30, Mariestad",Sverige,,,,
Stockholm Furniture & Lighting Fair,02/08/2022,2022,https://www.stockholmfurniturelightfair.se/,DM,EFG European Furniture Group AB,"A21:28, C15:41",,www.efg.se,marketing@efg.se,+46 140 675 25,,"Box 1017, 573 28, Tranås",Sverige,Office contract market | Furniture public environment | Corporate / Public space - office | Corporate / Public space - furniture interior | Textiles contract market,,,
Stockholm Furniture & Lighting Fair,02/08/2022,2022,https://www.stockholmfurniturelightfair.se/,DM,Edvin Klasson,C04:35,,www.edvinklasson.com,edvin@edvinklasson.com,+47 97146639,,"Strømsveien 3, 0657, Oslo",Norge,,,,
Stockholm Furniture & Lighting Fair,02/08/2022,2022,https://www.stockholmfurniturelightfair.se/,DM,Ege carpets,C10:10,,www.egecarpet.com,sverige@egecarpet.com,+46 31 778 00 50,,"Engelbrektsgatan 28, 411 37, Göteborg",Sverige,Office contract market | Corporate / Public space - office,,,
Stockholm Furniture & Lighting Fair,02/08/2022,2022,https://www.stockholmfurniturelightfair.se/,DM,DONAR d.o.o,C02:27,,www.donar.si,ivan.ukmar@donar.si,+386 40 84 56 80,,"GOSPOSVETSKA CESTA 10, 1000, LJUBLJANA",Slovenien,,,,
Stockholm Furniture & Lighting Fair,02/08/2022,2022,https://www.stockholmfurniturelightfair.se/,DM,Eciov AB (Unt Voice AB),"A02:18, C07:39",,www.voicefurniture.se,sara@a2designers.se,0370 702 82,,"Storgatan 86, 568 32, Skillingaryd",Sverige,,,,
Stockholm Furniture & Lighting Fair,02/08/2022,2022,https://www.stockholmfurniturelightfair.se/,DM,DesignProgrammet,"AG:02, C03:29, C03:29",,www.tmf.se,,08-762 72 00,,"Box 55525, 102 04, Stockholm",Sverige,Other,,,
Stockholm Furniture & Lighting Fair,02/08/2022,2022,https://www.stockholmfurniturelightfair.se/,DM,Deltalight,A14:17,,www.deltalight.be,dieter.eeckhout@deltalight.com,+32487829654,,"Muizelstraat 2, 8560, Wevelgem",Belgien,Home lighting,,,
Stockholm Furniture & Lighting Fair,02/08/2022,2022,https://www.stockholmfurniturelightfair.se/,DM,Delius Textiles,A09:13,,www.deliustextiles.de,mira.haegerbaemer@deliustextiles.de,00495215430,,"Goldstrasse 16-18, 33602, BIELEFELD",Tyskland,Textiles home | Textiles contract market,,,
Stockholm Furniture & Lighting Fair,02/08/2022,2022,https://www.stockholmfurniturelightfair.se/,DM,DRY FOREST FURNITURE,AG:45,,,,,,"Ogrodnicza 43, 62-002, Suchy Las",Polen,Corporate / Public space - office,,,
Stockholm Furniture & Lighting Fair,02/08/2022,2022,https://www.stockholmfurniturelightfair.se/,DM,DewertOkin GmbH,AG:31,,www.dewertokin.com,krawczenko@dewertokin.de,+495223979134,,"Weststraße 1, 33278, Kirchlengern",Tyskland,Furniture public environment,,,
Stockholm Furniture & Lighting Fair,02/08/2022,2022,https://www.stockholmfurniturelightfair.se/,DM,David Design,C03:11,,www.daviddesign.se,hakan@daviddesign.se,+46 42 29 29 49,,"Kajpromenaden 24, 252 67, Helsingborg",Sverige,,,,
Stockholm Furniture & Lighting Fair,02/08/2022,2022,https://www.stockholmfurniturelightfair.se/,DM,DCW éditions,C06:28,,www.dcwe.fr,contract@dcwe.fr,+33 1 40 21 37 60,,"71 rue de la fontaine au roi, 75011, Paris",Frankrike,Home lighting | Lighting contract market,,,
Stockholm Furniture & Lighting Fair,02/08/2022,2022,https://www.stockholmfurniturelightfair.se/,DM,Dekoma Sp. z o.o.,A02:25,,www.dekoma.eu,filip@dekoma.eu,0048 696 429 615,,"Pszczelna 3, Zalasewo, 62-020, SWARZEDZ",Polen,,,,
Stockholm Furniture & Lighting Fair,02/08/2022,2022,https://www.stockholmfurniturelightfair.se/,DM,CURA OF SWEDEN,"B09:11, AG:30",,www.curaofsweden.com,fredrik.dahlgren@curaofsweden.com,+46 10 10 10 024,,"Gärdevägen 11, 856 50, Sundsvall",Sverige,Textiles contract market,,,
Stockholm Furniture & Lighting Fair,02/08/2022,2022,https://www.stockholmfurniturelightfair.se/,DM,Dalform AB,A12:11,,www.dalform.se,info@dalform.se,+46 225 566 00,,"Box 77, 783 22, Säter",Sverige,Furniture public environment | Corporate / Public space - furniture interior,,,
Stockholm Furniture & Lighting Fair,02/08/2022,2022,https://www.stockholmfurniturelightfair.se/,DM,Cuero Design,A01:12,,www.cuerodesign.com,info@cuerodesign.com,,,"Importgatan 10, 422 46, Göteborg",Sverige,Home furniture,,,
Stockholm Furniture & Lighting Fair,02/08/2022,2022,https://www.stockholmfurniturelightfair.se/,DM,Cube Design,A17:20,,www.cube-design.dk,cube@cube-design.dk,+45 86 98 74 11,,"Vadstedvej 212, 8450, Hammel",Danmark,Office contract market | Corporate / Public space - office,,,
Stockholm Furniture & Lighting Fair,02/08/2022,2022,https://www.stockholmfurniturelightfair.se/,DM,Conform,B01:11,,www.conform.se,info@conform.se,+46 383 508 90,,"Vetlandavägen 14, 574 53, Holsbybrunn",Sverige,,,,
Stockholm Furniture & Lighting Fair,02/08/2022,2022,https://www.stockholmfurniturelightfair.se/,DM,CHATBOARD,C14:40,,www.chat-board.dk,lh@chat-board.dk,+45 44 84 51 44,,"Energivej 9, 2750, BALLERUP",Danmark,Office contract market | Furniture public environment | Corporate / Public space - office | Corporate / Public space - furniture interior,,,
Stockholm Furniture & Lighting Fair,02/08/2022,2022,https://www.stockholmfurniturelightfair.se/,DM,CHEF DECO,C06:32,,www.instagram.com/chef.deco,info@chef-deco.com,+46 72 179 57 20,,"Borgargatan 6, 117 34, Stockholm",Sverige,,,,
Stockholm Furniture & Lighting Fair,02/08/2022,2022,https://www.stockholmfurniturelightfair.se/,DM,Capellagården,C03:42,,www.capellagarden.se,mobel@capellagarden.se,+46 485 361 42,,"Vickleby Byg. 25, 386 93, Färjestaden",Sverige,Schools,,,
Stockholm Furniture & Lighting Fair,02/08/2022,2022,https://www.stockholmfurniturelightfair.se/,DM,Cane-Line,A05:21,,www.cane-line.com,lke@cane-line.com,+45 66 15 45 60,,"Rynkebyvej 245, 5350, Rynkeby",Danmark,Furniture public environment | Corporate / Public space - furniture interior | Outdoor furniture,,,
Stockholm Furniture & Lighting Fair,02/08/2022,2022,https://www.stockholmfurniturelightfair.se/,DM,By Da Wood,C07:36,,www.bydawood.dk,info@bydawood.dk,+45 5037 2050,,"Vedelsgade 32A, 7100, Veijle",Danmark,Furniture public environment,,,
Stockholm Furniture & Lighting Fair,02/08/2022,2022,https://www.stockholmfurniturelightfair.se/,DM,Byarums Bruk,C05:10,,www.byarumsbruk.se,byarum@byarumsbruk.se,+46 393 222 10,,"Byarum, 567 92, Vaggeryd",Sverige,Furniture public environment | Corporate / Public space - furniture interior | Outdoor furniture,,,
Stockholm Furniture & Lighting Fair,02/08/2022,2022,https://www.stockholmfurniturelightfair.se/,DM,Bäccman & Berglund Sweden AB,AG:73,,www.bb-sweden.se,,08-6699100,,"Skeppargatan 75,NB, 115 30, Stockholm",Sverige,Interior fittings,,,
Stockholm Furniture & Lighting Fair,02/08/2022,2022,https://www.stockholmfurniturelightfair.se/,DM,BY THORNAM,C09:11,,www.bythornam.com,m@bythornam.com,+45 60 47 91 09,,"Enighedsvej 61-63, 2920, CHARLOTTENLUND",Danmark,Furniture public environment,,,
Stockholm Furniture & Lighting Fair,02/08/2022,2022,https://www.stockholmfurniturelightfair.se/,DM,Bsweden,A04:13,,www.bsweden.com,info@bsweden.com,+46 474 230 40,,"Holma Gård, Herråkra, 360 73, Lenhovda",Sverige,Home lighting | Lighting contract market,,,
Stockholm Furniture & Lighting Fair,02/08/2022,2022,https://www.stockholmfurniturelightfair.se/,DM,Bröderna Anderssons,B01:21,,www.broderna-anderssons.se,office@broderna-anderssons.se,+46 383 346 00,,"Box 2003, 574 02, Ekenässjön",Sverige,Home furniture | Furniture public environment,,,
Stockholm Furniture & Lighting Fair,02/08/2022,2022,https://www.stockholmfurniturelightfair.se/,DM,burhéns,B03:20,,www.burhens.com,info@burhens.com,0048 586 851 273,,"Kawle gorne 33, 83-304, Przodkowo",Polen,Home furniture,,,
Stockholm Furniture & Lighting Fair,02/08/2022,2022,https://www.stockholmfurniturelightfair.se/,DM,Broste Copenhagen,C09:41,,www.brostecopenhagen.com,copenhagen@brostecph.com,+45-36 39 03 00,,"Sydholmen 9 - 17, 2650, HVIDOVRE",Danmark,Furniture public environment,,,
Stockholm Furniture & Lighting Fair,02/08/2022,2022,https://www.stockholmfurniturelightfair.se/,DM,Brafab,B01:11,,www.brafab.se,brafab@brafab.se,+46 430 493 00,,"Norra Össjö, 320 71, Hishult",Sverige,,,,
Stockholm Furniture & Lighting Fair,02/08/2022,2022,https://www.stockholmfurniturelightfair.se/,DM,Ayrton Miranda Studio,C05:41,,AYRTONMIRANDA.COM,hello@ayrtonmiranda.com,+52 331 100 70 23,,"Marina Vallarta, 370, Zapopan",Mexico,,,,
Stockholm Furniture & Lighting Fair,02/08/2022,2022,https://www.stockholmfurniturelightfair.se/,DM,Bottlelight Company Dr. Kitzenmaier,BG:07,,www.bottlelight.eu,info@bottlelight.eu,+493318671723,,"Gregor-Mendel-Strasse 2, 14469, Potsdam",Tyskland,Home lighting,,,
Stockholm Furniture & Lighting Fair,02/08/2022,2022,https://www.stockholmfurniturelightfair.se/,DM,Atelier Sandemar AB,C07:26,,www.ateliersandemar.se,contact@ateliersandemar.se,,,"Dalarövägen 181, 13795, Österhaninge",Sverige,Furniture public environment,,,
Stockholm Furniture & Lighting Fair,02/08/2022,2022,https://www.stockholmfurniturelightfair.se/,DM,Avocado Creative Studio,BG:06,,www.avocadopt.com,info@avocadopt.com,+48 694874767,,"Siennicka 25, 80-758, Gdansk",Polen,Home furniture,,,
Stockholm Furniture & Lighting Fair,02/08/2022,2022,https://www.stockholmfurniturelightfair.se/,DM,Avolt AB,EH:07,,www.avolt.com,johan@avolt.com,0701939970,,"Östermalmsgatan 26A
c/o Ahouse, 11426, Stockholm",Sverige,,,,
Stockholm Furniture & Lighting Fair,02/08/2022,2022,https://www.stockholmfurniturelightfair.se/,DM,BORUNA,B06:10,,WWW.BORUNA.LT,VYTAS@BORUNA.LT,+37061638814,,"PANERIU STR 51, 48335, KAUNAS",Litauen,,,,
Stockholm Furniture & Lighting Fair,02/08/2022,2022,https://www.stockholmfurniturelightfair.se/,DM,Atelier Mon,C04:49,,mikaelafalk.com,karinmikaelafalk@gmail.com,+46 0765 940 377,,"Stora Gungans väg 6A, 122 62, Enskede",Sverige,,,,
Stockholm Furniture & Lighting Fair,02/08/2022,2022,https://www.stockholmfurniturelightfair.se/,DM,ATBO,C03:21,,www.atbo.com,pmo@atbo.com,+45 20351781,,"Bredgade 65, 1260, København K",Danmark,,,,
Stockholm Furniture & Lighting Fair,02/08/2022,2022,https://www.stockholmfurniturelightfair.se/,DM,Atelier Belge Bvba,A01:10,,www.atelierbelge.eu,oskar@atelierbelge.eu,+32478277405,,"Diamanstraat 7, 2390, Wechelderzande",Belgien,Interior fittings,,,
Stockholm Furniture & Lighting Fair,02/08/2022,2022,https://www.stockholmfurniturelightfair.se/,DM,Astrid AB,C04:21,,www.astrid.se,info@astrid.se,+46 8 667 15 33,,"Nybrogatan 68, 114 44, Stockholm",Sverige,Textiles home | Textiles contract market,,,
Stockholm Furniture & Lighting Fair,02/08/2022,2022,https://www.stockholmfurniturelightfair.se/,DM,ASSMANN,AG:36,,www.assmann.de,theresa.budde@assmann.de,+49 (175) 3286154,,"Heinrich-Assmann-Straße 11, 49324, Melle",Tyskland,,,,
Stockholm Furniture & Lighting Fair,02/08/2022,2022,https://www.stockholmfurniturelightfair.se/,DM,Arper,"C07:31, C17:41",,www.arper.com,info@arper.com,0732079090,,"HULDA LINDGRENS GATA 8 2TR, 421 31, Västra frölun",Sverige,,,,
Stockholm Furniture & Lighting Fair,02/08/2022,2022,https://www.stockholmfurniturelightfair.se/,DM,ASPLUND,C06:20,,www.asplund.org,info@asplund.org,+46 8 662 52 84,,"Sibyllegatan 31, 114 42, Stockholm",Sverige,Corporate / Public space - furniture interior,,,
Stockholm Furniture & Lighting Fair,02/08/2022,2022,https://www.stockholmfurniturelightfair.se/,DM,Artwood AB,B07:21,,www.artwood.se,info@artwood.se,+46 320 181 00,,"Industrigatan 19, 511 62, Skene",Sverige,,,,
Stockholm Furniture & Lighting Fair,02/08/2022,2022,https://www.stockholmfurniturelightfair.se/,DM,Artome,A25:20,,www.artome.fi,piia.kallioinen@artome.fi,+358404110459,,"Syrjäläntie 81, 19110, Vierumäki",Finland,Furniture public environment,,,
Stockholm Furniture & Lighting Fair,02/08/2022,2022,https://www.stockholmfurniturelightfair.se/,DM,AROMAS DEL CAMPO SLU,C12:41,,www.aromasdelcampo.com,ada@aromasdelcampo.com,+34962737953,,"POL IN L HORTA VELLA C/7 PAR 3, 46117, Valencia",Spanien,,,,
Stockholm Furniture & Lighting Fair,02/08/2022,2022,https://www.stockholmfurniturelightfair.se/,DM,Aritco,C13:39,,www.aritco.com,info@aritco.se,08-120 401 00,,"Box 516, 175 26, Järfälla",Sverige,Corporate / Public space - furniture interior,,,
Stockholm Furniture & Lighting Fair,02/08/2022,2022,https://www.stockholmfurniturelightfair.se/,DM,Annala Oy,A15:12,,www.annala.fi,,+358 50 557 0146,,"Lankilantie 90, 62100, LAPPO",Finland,Textiles home | Textiles contract market,,,
Stockholm Furniture & Lighting Fair,02/08/2022,2022,https://www.stockholmfurniturelightfair.se/,DM,Andersson System,A19:12,,www.p-andersson.se,info@p-andersson.se,+46 8 581 753 00,,"Västra Rydsvägen 134, 196 31, Kungsängen",Sverige,Lighting contract market | Furniture public environment,,,
Stockholm Furniture & Lighting Fair,02/08/2022,2022,https://www.stockholmfurniturelightfair.se/,DM,Andras Kerekgyarto Design,C05:52,,andraskererkgyarto.design,andras.kerekgyarto@gmail.com,+36304752717,,"Almavirag ter 3., 1192, Budapest",Ungern,,,,
Stockholm Furniture & Lighting Fair,02/08/2022,2022,https://www.stockholmfurniturelightfair.se/,DM,Albin i Hyssna AB,A06:18,,www.albinihyssna.se,office@albinihyssna.se,+46 320 20 99 80,,"Kronvägen 4, 511 68, Hyssna",Sverige,,,,
Stockholm Furniture & Lighting Fair,02/08/2022,2022,https://www.stockholmfurniturelightfair.se/,DM,Amorim Cork Flooring,A13:12,,www.amorimwise.se,jessica.moussa@hotmail.com,0735404483,,"C/o Golvgrossisten
Marieholmsgatan 10 B BV, 41502, Göteborg",Sverige,,,,
Stockholm Furniture & Lighting Fair,02/08/2022,2022,https://www.stockholmfurniturelightfair.se/,DM,Aksel Kjersgaard A/S,C12:21,,www.ak.dk,jk@ak.dk,+45 86 54 07 22,,"Strandvejen 158, 8300, ODDER",Danmark,,,,
Stockholm Furniture & Lighting Fair,02/08/2022,2022,https://www.stockholmfurniturelightfair.se/,DM,AJ Produkter AB,A19:20,,www.ajprodukter.se,info@ajprodukter.se,035 18 00 00,,"Transportvägen 23, 301 82, Halmstad",Sverige,Lighting contract market | Office contract market | Furniture public environment,,,
Stockholm Furniture & Lighting Fair,02/08/2022,2022,https://www.stockholmfurniturelightfair.se/,DM,Ackurat Industriplast AB,A19:15,,www.ackurat.se,info@ackurat.se,+46 472 26 93 00,,"Värnamovägen 42, 363 44, Lammhult",Sverige,Corporate / Public space - furniture interior,,,
Stockholm Furniture & Lighting Fair,02/08/2022,2022,https://www.stockholmfurniturelightfair.se/,DM,AMATA,B07:11,,www.amatamoments.com,Gregors.Spogis@amatamoments.com,+37129262430,,"Cecilu 12, LV-4139, Amatas novads",Lettland,Outdoor furniture,,,
Stockholm Furniture & Lighting Fair,02/08/2022,2022,https://www.stockholmfurniturelightfair.se/,DM,Adea Oy,A04:20,,www.adea.fi,esa.makitalo@adea.fi,,,"PL 31, 61801, KAUHAJOKI",Finland,Carpets & flooring | Home furniture | Furniture public environment,,,
Stockholm Furniture & Lighting Fair,02/08/2022,2022,https://www.stockholmfurniturelightfair.se/,DM,aifosDesign,C05:48,,www.aifosdesign.se,info@aifosdesign.se,,,"Gumshornsgatan 5, 114 60, Stockholm",Sverige,Standalone Designer/Greenhouse,,,
Stockholm Furniture & Lighting Fair,02/08/2022,2022,https://www.stockholmfurniturelightfair.se/,DM,Academy of Art Szczecin,C06:34,,www.akademiasztuki.eu,,,,"pl. Orla Bialego 2, 70- 562, Szczecin",Polen,,,,
Stockholm Furniture & Lighting Fair,02/08/2022,2022,https://www.stockholmfurniturelightfair.se/,DM,AB Ilmonte,AG:35,,www.ilmonte.se,sales@ilmonte.se,035-181940,,"Nattflyvägen 7, 313 50, Åled",Sverige,,,,
Stockholm Furniture & Lighting Fair,02/08/2022,2022,https://www.stockholmfurniturelightfair.se/,DM,Abstracta,C10:31,,www.abstracta.se,info@abstracta.se,+46 472 26 96 00,,"Box 75
Marknad 4000, 360 30, Lammhult",Sverige,,,,
Stockholm Furniture & Lighting Fair,02/08/2022,2022,https://www.stockholmfurniturelightfair.se/,DM,"Aalto University - School of Arts, Design & Architecture",C04:31,,www.aalto.fi,,+358 405 924 992,,"Aalto PO BOX 3100, 0056, Helsinki",Finland,Schools,,,
Stockholm Furniture & Lighting Fair,02/08/2022,2022,https://www.stockholmfurniturelightfair.se/,DM,A2,"A02:18, C07:39",,www.a2designers.se,a2@a2designers.se,+46 36 38 71 54,,"Box 264, 561 23, Huskvarna",Sverige,Furniture public environment | Corporate / Public space - office,,,
Stockholm Furniture & Lighting Fair,02/08/2022,2022,https://www.stockholmfurniturelightfair.se/,DM,A2S Furnishing Systems,A14:13,,www.a2s.com,jde@a2s.com,+4917615730019,,"ASS - Adam - Stegner-Strasse 19, 96342, Stockheim",Tyskland,,,,
Stockholm Furniture & Lighting Fair,02/08/2022,2022,https://www.stockholmfurniturelightfair.se/,DM,3S design d.o.o.,,,www.3sdesign.eu,lana@3sdesign.eu,+386 1 50 52 863,,"V Murglah 7, 1000, Ljubljana",Slovenien,,,,
Stockholm Furniture & Lighting Fair,02/08/2022,2022,https://www.stockholmfurniturelightfair.se/,DM,2TEC2,C04:23,,www.2tec2.com,sales@2tec2.com,+32477985438,,"Boulevard Industriel 98, 7700, Mouscron",Belgien,Carpets & flooring,,,
