ShowName,ShowDate,ShowYear,ShowWebsite,SubmittedBy,ExhibitorName,BoothNumber,HallLocation,Website,Email,Phone,Fax,Address,Country,Categories,Manufacturers,Brands,Description
Home Design,04/06/2022,2022,https://otthon-design.hu/en/catalogue/,DM,7K Stäjer Bt.,303A,Hall A,,,,,,,,,,
Home Design,04/06/2022,2022,https://otthon-design.hu/en/catalogue/,DM,A-Invent s.r.o. (CZ),,,,,,,,,,,,
Home Design,04/06/2022,2022,https://otthon-design.hu/en/catalogue/,DM,ABB Kft.,206B,Hall G,,,,,,,,,,
Home Design,04/06/2022,2022,https://otthon-design.hu/en/catalogue/,DM,ADAM-HOUSE Innovatív Építőipari és Ingatlanfejlesztési Kft.,311C,Hall A,,,,,,,,,,
Home Design,04/06/2022,2022,https://otthon-design.hu/en/catalogue/,DM,ADIROM ACTIV CONSTRUCT SRL (RO),,,,,,,,,,,,
Home Design,04/06/2022,2022,https://otthon-design.hu/en/catalogue/,DM,Aereco Légtechnika Kft.,105D,Hall G,,,,,,,,,,
Home Design,04/06/2022,2022,https://otthon-design.hu/en/catalogue/,DM,AGC GLASS HUNGARY Kft.,,,,,,,,,,,,
Home Design,04/06/2022,2022,https://otthon-design.hu/en/catalogue/,DM,AGROLÁNC  Kft.,,,,,,,,,,,,
Home Design,04/06/2022,2022,https://otthon-design.hu/en/catalogue/,DM,AirGroup Kft.,104A,Hall G,,,,,,,,,,
Home Design,04/06/2022,2022,https://otthon-design.hu/en/catalogue/,DM,AL-PET Kft.,307H,Hall A,,,,,,,,,,
Home Design,04/06/2022,2022,https://otthon-design.hu/en/catalogue/,DM,Albion Trade Kft.,205A,Hall D,,,,,,,,,,
Home Design,04/06/2022,2022,https://otthon-design.hu/en/catalogue/,DM,Alplast sp.z.o.o. (PL),303C,E pavilon,,,,,,,,,,
Home Design,04/06/2022,2022,https://otthon-design.hu/en/catalogue/,DM,ALTA 2001 Építoipari és Szolgáltató Bt. Szabó Kandalló Stúdió,105A,Hall B,,,,,,,,,,
Home Design,04/06/2022,2022,https://otthon-design.hu/en/catalogue/,DM,Alukov Hungaria Kft.,401A,E pavilon,,,,,,,,,,
Home Design,04/06/2022,2022,https://otthon-design.hu/en/catalogue/,DM,Anhui Daheng Energy Technology Co. Ltd. (CN),405D,Hall G,,,,,,,,,,
Home Design,04/06/2022,2022,https://otthon-design.hu/en/catalogue/,DM,ANNA HAUS HUNGARY Kft.,304C,Hall B,,,,,,,,,,
Home Design,04/06/2022,2022,https://otthon-design.hu/en/catalogue/,DM,Antiqua Pavilonok,,,,,,,,,,,,
Home Design,04/06/2022,2022,https://otthon-design.hu/en/catalogue/,DM,AQUACOMET Kft.,201A,E pavilon,,,,,,,,,,
Home Design,04/06/2022,2022,https://otthon-design.hu/en/catalogue/,DM,Arezzo Design Kft.,102A,E pavilon,,,,,,,,,,
Home Design,04/06/2022,2022,https://otthon-design.hu/en/catalogue/,DM,Aridus Kft.,312F,Hall A,,,,,,,,,,
Home Design,04/06/2022,2022,https://otthon-design.hu/en/catalogue/,DM,Armin Trade Kft.,303H,Hall A,,,,,,,,,,
Home Design,04/06/2022,2022,https://otthon-design.hu/en/catalogue/,DM,Axabau Group Kft.,,,,,,,,,,,,
Home Design,04/06/2022,2022,https://otthon-design.hu/en/catalogue/,DM,BÁNYAI BÚTOROK KFT,205C,Hall D,,,,,,,,,,
Home Design,04/06/2022,2022,https://otthon-design.hu/en/catalogue/,DM,Barabás Téglakő Kft.,106C,Hall A,,,,,,,,,,
Home Design,04/06/2022,2022,https://otthon-design.hu/en/catalogue/,DM,BC Engineering Kft.,110E,Hall A,,,,,,,,,,
Home Design,04/06/2022,2022,https://otthon-design.hu/en/catalogue/,DM,BILKA STEEL S.R.L. (RO),210D,Hall A,,,,,,,,,,
Home Design,04/06/2022,2022,https://otthon-design.hu/en/catalogue/,DM,Blecha Kft.,,,,,,,,,,,,
Home Design,04/06/2022,2022,https://otthon-design.hu/en/catalogue/,DM,Blue&Green Mérnöki Iroda Kft.,105B,Hall G,,,,,,,,,,
Home Design,04/06/2022,2022,https://otthon-design.hu/en/catalogue/,DM,Bluefin Century s.r.o. (SK),506D,Hall G,,,,,,,,,,
Home Design,04/06/2022,2022,https://otthon-design.hu/en/catalogue/,DM,BM Országos Katasztrófavédelmi Főigazgatóság GEK,102A,Hall G,,,,,,,,,,
Home Design,04/06/2022,2022,https://otthon-design.hu/en/catalogue/,DM,BND Partner Kft.,403B,Hall B,,,,,,,,,,
Home Design,04/06/2022,2022,https://otthon-design.hu/en/catalogue/,DM,Brabex Kft.,,,,,,,,,,,,
Home Design,04/06/2022,2022,https://otthon-design.hu/en/catalogue/,DM,Brabex Kft.,,,,,,,,,,,,
Home Design,04/06/2022,2022,https://otthon-design.hu/en/catalogue/,DM,Brustor Magyarország Kft.,206C,Hall A,,,,,,,,,,
Home Design,04/06/2022,2022,https://otthon-design.hu/en/catalogue/,DM,BTS Alu-Railings Kft.,,,,,,,,,,,,
Home Design,04/06/2022,2022,https://otthon-design.hu/en/catalogue/,DM,Budapesti Kereskedelmi és Iparkamara,302E,Hall A,,,,,,,,,,
Home Design,04/06/2022,2022,https://otthon-design.hu/en/catalogue/,DM,BUILDING PRODUCTS KFT.,307E,Hall A,,,,,,,,,,
Home Design,04/06/2022,2022,https://otthon-design.hu/en/catalogue/,DM,Casada Hungary Kft.,,,,,,,,,,,,
Home Design,04/06/2022,2022,https://otthon-design.hu/en/catalogue/,DM,Casati Color Kft.,302C,Hall B,,,,,,,,,,
Home Design,04/06/2022,2022,https://otthon-design.hu/en/catalogue/,DM,Cec Connector Bt.,101D,Hall G,,,,,,,,,,
Home Design,04/06/2022,2022,https://otthon-design.hu/en/catalogue/,DM,Cell-fast Sp. z o.o. (PL),,,,,,,,,,,,
Home Design,04/06/2022,2022,https://otthon-design.hu/en/catalogue/,DM,"CHANGZHOU ZETAI DECORATION MATERIAL CO.,LTD (CN)",101FAA,E pavilon,,,,,,,,,,
Home Design,04/06/2022,2022,https://otthon-design.hu/en/catalogue/,DM,CONICA AG,108E,Hall A,,,,,,,,,,
Home Design,04/06/2022,2022,https://otthon-design.hu/en/catalogue/,DM,CORINA PLAST SRL (RO),,,,,,,,,,,,
Home Design,04/06/2022,2022,https://otthon-design.hu/en/catalogue/,DM,coverart,,,,,,,,,,,,
Home Design,04/06/2022,2022,https://otthon-design.hu/en/catalogue/,DM,CVC Sach Hungary Kft.,101B,Hall G,,,,,,,,,,
Home Design,04/06/2022,2022,https://otthon-design.hu/en/catalogue/,DM,Czech Trade Promotion Agency (CZ),,,,,,,,,,,,
Home Design,04/06/2022,2022,https://otthon-design.hu/en/catalogue/,DM,DANIELLA Kereskedelmi Kft.,202A,Hall A,,,,,,,,,,
Home Design,04/06/2022,2022,https://otthon-design.hu/en/catalogue/,DM,Danubius Épterv Kft.,,,,,,,,,,,,
Home Design,04/06/2022,2022,https://otthon-design.hu/en/catalogue/,DM,Deltako S.r.o. (SK),106A,Hall B,,,,,,,,,,
Home Design,04/06/2022,2022,https://otthon-design.hu/en/catalogue/,DM,DIEGO Kereskedelmi és Szolgáltató Kft.,203A,Hall B,,,,,,,,,,
Home Design,04/06/2022,2022,https://otthon-design.hu/en/catalogue/,DM,DINOCOOP Kft.,,,,,,,,,,,,
Home Design,04/06/2022,2022,https://otthon-design.hu/en/catalogue/,DM,DNM MKT Kft.,201E,E pavilon,,,,,,,,,,
Home Design,04/06/2022,2022,https://otthon-design.hu/en/catalogue/,DM,"Dongguan Zhongjin Electronic Technology Co.,Ltd (CN)",201C,Hall G,,,,,,,,,,
Home Design,04/06/2022,2022,https://otthon-design.hu/en/catalogue/,DM,Door Sys Kft.,,,,,,,,,,,,
Home Design,04/06/2022,2022,https://otthon-design.hu/en/catalogue/,DM,Doorstar Kft.,203B,Hall A,,,,,,,,,,
Home Design,04/06/2022,2022,https://otthon-design.hu/en/catalogue/,DM,Dubai Carpets & Curtain (PK),,,,,,,,,,,,
Home Design,04/06/2022,2022,https://otthon-design.hu/en/catalogue/,DM,Duoflex-Pool Kft.,401E,E pavilon,,,,,,,,,,
Home Design,04/06/2022,2022,https://otthon-design.hu/en/catalogue/,DM,ÉBEN-H Bútoripari és Kereskedelmi Kft.,303A.,Hall D,,,,,,,,,,
Home Design,04/06/2022,2022,https://otthon-design.hu/en/catalogue/,DM,Edelholz Faipari Kft.,205B,Hall B,,,,,,,,,,
Home Design,04/06/2022,2022,https://otthon-design.hu/en/catalogue/,DM,Edri Kft,,,,,,,,,,,,
Home Design,04/06/2022,2022,https://otthon-design.hu/en/catalogue/,DM,Efaflex Hungária Kft.,302D,Hall A,,,,,,,,,,
Home Design,04/06/2022,2022,https://otthon-design.hu/en/catalogue/,DM,EGERERDŐ Erdészeti Zrt.,303B,Hall B,,,,,,,,,,
Home Design,04/06/2022,2022,https://otthon-design.hu/en/catalogue/,DM,Eisele Hungária Kft.,,,,,,,,,,,,
Home Design,04/06/2022,2022,https://otthon-design.hu/en/catalogue/,DM,ÉMI Építésügyi Minőségellenőrző Innovációs Nonprofit Kft.,203A,Hall A,,,,,,,,,,
Home Design,04/06/2022,2022,https://otthon-design.hu/en/catalogue/,DM,Energia Unió  Zrt.,,,,,,,,,,,,
Home Design,04/06/2022,2022,https://otthon-design.hu/en/catalogue/,DM,Energiaklub Szakpolitikai Intézet és Módszertani Központ Egyesület,201H,Hall G,,,,,,,,,,
Home Design,04/06/2022,2022,https://otthon-design.hu/en/catalogue/,DM,EnerGo Investment Kft.,206A,Hall G,,,,,,,,,,
Home Design,04/06/2022,2022,https://otthon-design.hu/en/catalogue/,DM,Energy3000 solar GmbH (AT),103C,Hall G,,,,,,,,,,
Home Design,04/06/2022,2022,https://otthon-design.hu/en/catalogue/,DM,Engsol Mérnöki és Kereskedelmi Kft.,403A,Hall G,,,,,,,,,,
Home Design,04/06/2022,2022,https://otthon-design.hu/en/catalogue/,DM,Épületgépészeti Múzeum,208B,Hall G,,,,,,,,,,
Home Design,04/06/2022,2022,https://otthon-design.hu/en/catalogue/,DM,Erste Bank Hungary Zrt.  csoportazonosító: 17781042-5-44,403A,Hall B,,,,,,,,,,
Home Design,04/06/2022,2022,https://otthon-design.hu/en/catalogue/,DM,EU-Solar Zrt.,401F,"Hall G  301A, 301B, 401A, 401E,",,,,,,,,,,
Home Design,04/06/2022,2022,https://otthon-design.hu/en/catalogue/,DM,Euromarknet Kft.,,,,,,,,,,,,
Home Design,04/06/2022,2022,https://otthon-design.hu/en/catalogue/,DM,European Lighting Design Kft.,206A,Hall B,,,,,,,,,,
Home Design,04/06/2022,2022,https://otthon-design.hu/en/catalogue/,DM,EuroVyz Hungária Kft.,206E,Hall D,,,,,,,,,,
Home Design,04/06/2022,2022,https://otthon-design.hu/en/catalogue/,DM,EW 1867 Hungária Kft.,207B,Hall A,,,,,,,,,,
Home Design,04/06/2022,2022,https://otthon-design.hu/en/catalogue/,DM,Exotic Wood Kft.,,,,,,,,,,,,
Home Design,04/06/2022,2022,https://otthon-design.hu/en/catalogue/,DM,Expleo Kft.,105C,Hall G,,,,,,,,,,
Home Design,04/06/2022,2022,https://otthon-design.hu/en/catalogue/,DM,"Faktum Bútor Ipari, Kereskedelmi és Szolgáltató Kft.",202B,Hall B,,,,,,,,,,
Home Design,04/06/2022,2022,https://otthon-design.hu/en/catalogue/,DM,Fatra Izolfa Zrt.,307A,Hall A,,,,,,,,,,
Home Design,04/06/2022,2022,https://otthon-design.hu/en/catalogue/,DM,Felföldi Tanácsadó és Szolgáltató Kft.,309F,Hall A,,,,,,,,,,
Home Design,04/06/2022,2022,https://otthon-design.hu/en/catalogue/,DM,Fénycsatorna Kft.,PZS2,P szabad (Passzázs),,,,,,,,,,
Home Design,04/06/2022,2022,https://otthon-design.hu/en/catalogue/,DM,Fiber Solutions Kereskedelmi és Szolgáltató Kft.,311F,Hall A,,,,,,,,,,
Home Design,04/06/2022,2022,https://otthon-design.hu/en/catalogue/,DM,Framecad International FZE (AE),312F1,Hall A,,,,,,,,,,
Home Design,04/06/2022,2022,https://otthon-design.hu/en/catalogue/,DM,FRONIUS International GmbH. (AT),104D,Hall G,,,,,,,,,,
Home Design,04/06/2022,2022,https://otthon-design.hu/en/catalogue/,DM,G-U Magyarország Kft.,,,,,,,,,,,,
Home Design,04/06/2022,2022,https://otthon-design.hu/en/catalogue/,DM,Gastro-Line Hungary Kft.,,,,,,,,,,,,
Home Design,04/06/2022,2022,https://otthon-design.hu/en/catalogue/,DM,GBC Solino s.r.o. (CZ),201E,Hall G,,,,,,,,,,
Home Design,04/06/2022,2022,https://otthon-design.hu/en/catalogue/,DM,Geri Door s.r.o (SK),304E,Hall A,,,,,,,,,,
Home Design,04/06/2022,2022,https://otthon-design.hu/en/catalogue/,DM,Glass Movers Kft.,302A,Hall A,,,,,,,,,,
Home Design,04/06/2022,2022,https://otthon-design.hu/en/catalogue/,DM,Globál Sport Kft.,,,,,,,,,,,,
Home Design,04/06/2022,2022,https://otthon-design.hu/en/catalogue/,DM,Global-Union Kft.,101E,Hall G,,,,,,,,,,
Home Design,04/06/2022,2022,https://otthon-design.hu/en/catalogue/,DM,Glück-Fa Bt.,204H,Hall A,,,,,,,,,,
Home Design,04/06/2022,2022,https://otthon-design.hu/en/catalogue/,DM,GMS SU Armatürleri Sanayi Ve Ticaret Limited Sirketi (TR),102B,E pavilon,,,,,,,,,,
Home Design,04/06/2022,2022,https://otthon-design.hu/en/catalogue/,DM,"GOODWE TECHNOLOGIES CO., LTD. (CN)",204A,Hall G,,,,,,,,,,
Home Design,04/06/2022,2022,https://otthon-design.hu/en/catalogue/,DM,Grand Automotive CE Kft.,,,,,,,,,,,,
Home Design,04/06/2022,2022,https://otthon-design.hu/en/catalogue/,DM,Grand Union Kft.,106C,Hall G,,,,,,,,,,
Home Design,04/06/2022,2022,https://otthon-design.hu/en/catalogue/,DM,GRAND-ÁCS TETŐCENTRUM ÉS KÉSZHÁZ Kft.,,,,,,,,,,,,
Home Design,04/06/2022,2022,https://otthon-design.hu/en/catalogue/,DM,Green Clean Kft.,102D,E pavilon,,,,,,,,,,
Home Design,04/06/2022,2022,https://otthon-design.hu/en/catalogue/,DM,Grenton Sp.z.o.o. (PL),304B,Hall A,,,,,,,,,,
Home Design,04/06/2022,2022,https://otthon-design.hu/en/catalogue/,DM,GrillGuru2008 Kft.,302B.,Hall D,,,,,,,,,,
Home Design,04/06/2022,2022,https://otthon-design.hu/en/catalogue/,DM,Guangdong Trend Group Co. Ltd. (CN),101E,E pavilon,,,,,,,,,,
Home Design,04/06/2022,2022,https://otthon-design.hu/en/catalogue/,DM,Havitu Bt.,103A,Hall B,,,,,,,,,,
Home Design,04/06/2022,2022,https://otthon-design.hu/en/catalogue/,DM,HECHT Hungary Kft.,,,,,,,,,,,,
Home Design,04/06/2022,2022,https://otthon-design.hu/en/catalogue/,DM,Herczku-Kályhás Kft.,,,,,,,,,,,,
Home Design,04/06/2022,2022,https://otthon-design.hu/en/catalogue/,DM,Hikvision Hungary Kft.,,,,,,,,,,,,
Home Design,04/06/2022,2022,https://otthon-design.hu/en/catalogue/,DM,HKIK-Heves Megyei Kereskedelmi és Iparkamara,,,,,,,,,,,,
Home Design,04/06/2022,2022,https://otthon-design.hu/en/catalogue/,DM,HL HUTTERER & LECHNER GmbH (AT),201B,Hall G,,,,,,,,,,
Home Design,04/06/2022,2022,https://otthon-design.hu/en/catalogue/,DM,Holland Pázsit Kft.,401B,E pavilon,,,,,,,,,,
Home Design,04/06/2022,2022,https://otthon-design.hu/en/catalogue/,DM,HOME Concept Lakberendezési Kft.,103D,Hall B,,,,,,,,,,
Home Design,04/06/2022,2022,https://otthon-design.hu/en/catalogue/,DM,Home Spa Wellness Kft.,105AA,E pavilon,,,,,,,,,,
Home Design,04/06/2022,2022,https://otthon-design.hu/en/catalogue/,DM,Horizont Global Kft.,213B,Hall A,,,,,,,,,,
Home Design,04/06/2022,2022,https://otthon-design.hu/en/catalogue/,DM,HSG Consulting Kft.,302A,E pavilon,,,,,,,,,,
Home Design,04/06/2022,2022,https://otthon-design.hu/en/catalogue/,DM,Huitang Global Kft. (CN),,,,,,,,,,,,
Home Design,04/06/2022,2022,https://otthon-design.hu/en/catalogue/,DM,Huitang Global Kft. (CN),,,,,,,,,,,,
Home Design,04/06/2022,2022,https://otthon-design.hu/en/catalogue/,DM,Hydropool Hungária Kft.,201B,E pavilon,,,,,,,,,,
Home Design,04/06/2022,2022,https://otthon-design.hu/en/catalogue/,DM,IBD Magyarország Kft.,304A,Hall B,,,,,,,,,,
Home Design,04/06/2022,2022,https://otthon-design.hu/en/catalogue/,DM,IFK-AMPRON Kft.,501A,E pavilon,,,,,,,,,,
Home Design,04/06/2022,2022,https://otthon-design.hu/en/catalogue/,DM,Innovatív Napelem Kft.,101G,Hall G,,,,,,,,,,
Home Design,04/06/2022,2022,https://otthon-design.hu/en/catalogue/,DM,Inter-Mix Kft.,PZS1,P szabad (Passzázs),,,,,,,,,,
Home Design,04/06/2022,2022,https://otthon-design.hu/en/catalogue/,DM,Intermar Kft.,303D,Hall A,,,,,,,,,,
Home Design,04/06/2022,2022,https://otthon-design.hu/en/catalogue/,DM,IPS-solar GmbH (DE),201A,Hall G,,,,,,,,,,
Home Design,04/06/2022,2022,https://otthon-design.hu/en/catalogue/,DM,Isocell GmbH & Co KG (AT),312C,Hall A,,,,,,,,,,
Home Design,04/06/2022,2022,https://otthon-design.hu/en/catalogue/,DM,Istrate Utilaje S.r.l. (RO),,,,,,,,,,,,
Home Design,04/06/2022,2022,https://otthon-design.hu/en/catalogue/,DM,Italceramica Kereskedelmi és Szolgáltató Kft.,303D,E pavilon,,,,,,,,,,
Home Design,04/06/2022,2022,https://otthon-design.hu/en/catalogue/,DM,Jaroslav Cankar a syn ATMOS (CZ),,,,,,,,,,,,
Home Design,04/06/2022,2022,https://otthon-design.hu/en/catalogue/,DM,Kamleithner Budapest Kft.,106E,Hall G,,,,,,,,,,
Home Design,04/06/2022,2022,https://otthon-design.hu/en/catalogue/,DM,KAN-therm Hungary Kft.,205D,Hall G,,,,,,,,,,
Home Design,04/06/2022,2022,https://otthon-design.hu/en/catalogue/,DM,Karapin Bt.,,,,,,,,,,,,
Home Design,04/06/2022,2022,https://otthon-design.hu/en/catalogue/,DM,Kaspa dis ticaret anonim sirketi (TR),309D,Hall A,,,,,,,,,,
Home Design,04/06/2022,2022,https://otthon-design.hu/en/catalogue/,DM,KASSAI-KLÍMA Kft.,107A,Hall G,,,,,,,,,,
Home Design,04/06/2022,2022,https://otthon-design.hu/en/catalogue/,DM,KENO Energy Kft.,502A,Hall G,,,,,,,,,,
Home Design,04/06/2022,2022,https://otthon-design.hu/en/catalogue/,DM,Keraber Kft.,201G,E pavilon,,,,,,,,,,
Home Design,04/06/2022,2022,https://otthon-design.hu/en/catalogue/,DM,KERKO HUNGÁRIA Zrt.,304A,E pavilon,,,,,,,,,,
Home Design,04/06/2022,2022,https://otthon-design.hu/en/catalogue/,DM,Készház Menedzser Kft.,,,,,,,,,,,,
Home Design,04/06/2022,2022,https://otthon-design.hu/en/catalogue/,DM,KK Kavics Beton Kft.,,,,,,,,,,,,
Home Design,04/06/2022,2022,https://otthon-design.hu/en/catalogue/,DM,KLH Massivholz GmbH (AT),103F,Hall A,,,,,,,,,,
Home Design,04/06/2022,2022,https://otthon-design.hu/en/catalogue/,DM,KLÍMA Centrum  Kft.,101A,Hall G,,,,,,,,,,
Home Design,04/06/2022,2022,https://otthon-design.hu/en/catalogue/,DM,Komoder Kft.,405F,Hall B,,,,,,,,,,
Home Design,04/06/2022,2022,https://otthon-design.hu/en/catalogue/,DM,Kondor György EV.,,,,,,,,,,,,
Home Design,04/06/2022,2022,https://otthon-design.hu/en/catalogue/,DM,Kontaktika Technika Kft.,301B,Hall D,,,,,,,,,,
Home Design,04/06/2022,2022,https://otthon-design.hu/en/catalogue/,DM,KÖLTÖZZMA SIPOTTHON,211C,Hall A,,,,,,,,,,
Home Design,04/06/2022,2022,https://otthon-design.hu/en/catalogue/,DM,Kroj Kft.,306C,Hall B,,,,,,,,,,
Home Design,04/06/2022,2022,https://otthon-design.hu/en/catalogue/,DM,KT-Electronic Kft.,401D,Hall G,,,,,,,,,,
Home Design,04/06/2022,2022,https://otthon-design.hu/en/catalogue/,DM,Lamiga Hungary Kft.,306A,Hall B,,,,,,,,,,
Home Design,04/06/2022,2022,https://otthon-design.hu/en/catalogue/,DM,Lartech-Maestro Kft.,204C,Hall A,,,,,,,,,,
Home Design,04/06/2022,2022,https://otthon-design.hu/en/catalogue/,DM,LAURUM Kereskedelmi és Szolgáltató Kft,304B,Hall B,,,,,,,,,,
Home Design,04/06/2022,2022,https://otthon-design.hu/en/catalogue/,DM,Lindab Építőipari Kft.,103F,Hall G,,,,,,,,,,
Home Design,04/06/2022,2022,https://otthon-design.hu/en/catalogue/,DM,Lux Hungária Kft.,103B,Hall G,,,,,,,,,,
Home Design,04/06/2022,2022,https://otthon-design.hu/en/catalogue/,DM,M.L.S. Magyarország Kft.,304F,Hall A,,,,,,,,,,
Home Design,04/06/2022,2022,https://otthon-design.hu/en/catalogue/,DM,Magyar Kéménygyártó Kft.,311K,Hall A,,,,,,,,,,
Home Design,04/06/2022,2022,https://otthon-design.hu/en/catalogue/,DM,Magyar-Norvég  Kft.,309A,Hall A,,,,,,,,,,
Home Design,04/06/2022,2022,https://otthon-design.hu/en/catalogue/,DM,MAIKUPON Kft.,,,,,,,,,,,,
Home Design,04/06/2022,2022,https://otthon-design.hu/en/catalogue/,DM,MAKITA  Kft.,212A,Hall A,,,,,,,,,,
Home Design,04/06/2022,2022,https://otthon-design.hu/en/catalogue/,DM,Mapei Kereskedelmi Kft.,211D,Hall A,,,,,,,,,,
Home Design,04/06/2022,2022,https://otthon-design.hu/en/catalogue/,DM,MAROSINVEST Kft.,,,,,,,,,,,,
Home Design,04/06/2022,2022,https://otthon-design.hu/en/catalogue/,DM,Maslen s.r.o (SK),311D,Hall A,,,,,,,,,,
Home Design,04/06/2022,2022,https://otthon-design.hu/en/catalogue/,DM,Masszázsfotel.hu Kft.,,,,,,,,,,,,
Home Design,04/06/2022,2022,https://otthon-design.hu/en/catalogue/,DM,Masterplast Nyrt.,310A,Hall A,,,,,,,,,,
Home Design,04/06/2022,2022,https://otthon-design.hu/en/catalogue/,DM,Matis Bútor Hungary Kft.,104D,Hall B,,,,,,,,,,
Home Design,04/06/2022,2022,https://otthon-design.hu/en/catalogue/,DM,Max-FurnIture Bt.,,,,,,,,,,,,
Home Design,04/06/2022,2022,https://otthon-design.hu/en/catalogue/,DM,Mega-Tolóajtó Kft.,206B,Hall D,,,,,,,,,,
Home Design,04/06/2022,2022,https://otthon-design.hu/en/catalogue/,DM,Megaweb Multimédia Kft.,305E,Hall B,,,,,,,,,,
Home Design,04/06/2022,2022,https://otthon-design.hu/en/catalogue/,DM,MeraTrade Kft.,203B,Hall G,,,,,,,,,,
Home Design,04/06/2022,2022,https://otthon-design.hu/en/catalogue/,DM,MeraTrade Kft.,405A,Hall B,,,,,,,,,,
Home Design,04/06/2022,2022,https://otthon-design.hu/en/catalogue/,DM,Merkapt Zrt.,207A,Hall G,,,,,,,,,,
Home Design,04/06/2022,2022,https://otthon-design.hu/en/catalogue/,DM,MERKBAU Zrt.,210F,Hall A,,,,,,,,,,
Home Design,04/06/2022,2022,https://otthon-design.hu/en/catalogue/,DM,MÉTA Hungary Kft.,203A,E pavilon,,,,,,,,,,
Home Design,04/06/2022,2022,https://otthon-design.hu/en/catalogue/,DM,Metál-Sheet Kft.,311B,Hall A,,,,,,,,,,
Home Design,04/06/2022,2022,https://otthon-design.hu/en/catalogue/,DM,Minimalworks Kft.,,,,,,,,,,,,
Home Design,04/06/2022,2022,https://otthon-design.hu/en/catalogue/,DM,MJ Group Kft.,,,,,,,,,,,,
Home Design,04/06/2022,2022,https://otthon-design.hu/en/catalogue/,DM,Mobiladalin Kft,202E,Hall B,,,,,,,,,,
Home Design,04/06/2022,2022,https://otthon-design.hu/en/catalogue/,DM,Mohamed abdelasalam Company (EG),,,,,,,,,,,,
Home Design,04/06/2022,2022,https://otthon-design.hu/en/catalogue/,DM,Molino Reklámügynökség Kft.,,,,,,,,,,,,
Home Design,04/06/2022,2022,https://otthon-design.hu/en/catalogue/,DM,MONACO Spa Kft.,201F,E pavilon,,,,,,,,,,
Home Design,04/06/2022,2022,https://otthon-design.hu/en/catalogue/,DM,Montel Magyarország Kft.,309E,Hall A,,,,,,,,,,
Home Design,04/06/2022,2022,https://otthon-design.hu/en/catalogue/,DM,Montex Glass Fibre Industries Pvt. Ltd. (IN),,,,,,,,,,,,
Home Design,04/06/2022,2022,https://otthon-design.hu/en/catalogue/,DM,Nagy Géza Faipari Kft.,205B,Hall A,,,,,,,,,,
Home Design,04/06/2022,2022,https://otthon-design.hu/en/catalogue/,DM,NÉMETH-FA Kft.,105C,Hall A,,,,,,,,,,
Home Design,04/06/2022,2022,https://otthon-design.hu/en/catalogue/,DM,NEON Multimedia Kft.,201F,Hall G,,,,,,,,,,
Home Design,04/06/2022,2022,https://otthon-design.hu/en/catalogue/,DM,Nilan Légtechnika Kft.,107C,"Hall G  107B,",,,,,,,,,,
Home Design,04/06/2022,2022,https://otthon-design.hu/en/catalogue/,DM,Nordinova Energy Kft.,101F,Hall G,,,,,,,,,,
Home Design,04/06/2022,2022,https://otthon-design.hu/en/catalogue/,DM,Novotransz Kft.,306B,Hall A,,,,,,,,,,
Home Design,04/06/2022,2022,https://otthon-design.hu/en/catalogue/,DM,Nowy Styl Hungary Zrt.,101A,Hall B,,,,,,,,,,
Home Design,04/06/2022,2022,https://otthon-design.hu/en/catalogue/,DM,NVSolar Energia Kft.,404A,Hall G,,,,,,,,,,
Home Design,04/06/2022,2022,https://otthon-design.hu/en/catalogue/,DM,Nyír-Lift Kft.,310C,Hall A,,,,,,,,,,
Home Design,04/06/2022,2022,https://otthon-design.hu/en/catalogue/,DM,ÓAM Ózdi Acélművek Kft.,211A,Hall A,,,,,,,,,,
Home Design,04/06/2022,2022,https://otthon-design.hu/en/catalogue/,DM,Office and Locker Kft.,304A,Hall A,,,,,,,,,,
Home Design,04/06/2022,2022,https://otthon-design.hu/en/catalogue/,DM,OHRA Regalanlagen GmbH (DE),313F,Hall A,,,,,,,,,,
Home Design,04/06/2022,2022,https://otthon-design.hu/en/catalogue/,DM,One Boya ve Kimya Ins. Tur. Ltd. Sti. (TR),204E,Hall B,,,,,,,,,,
Home Design,04/06/2022,2022,https://otthon-design.hu/en/catalogue/,DM,Otti Manufactura Kft,305C,E pavilon,,,,,,,,,,
Home Design,04/06/2022,2022,https://otthon-design.hu/en/catalogue/,DM,OVEN GRILL Kft.,PZS4,P szabad (Passzázs),,,,,,,,,,
Home Design,04/06/2022,2022,https://otthon-design.hu/en/catalogue/,DM,P&P Épületgépészeti Kft.,102CA,Hall G,,,,,,,,,,
Home Design,04/06/2022,2022,https://otthon-design.hu/en/catalogue/,DM,Palatinus 94 Kereskedelmi Kft.,103B,E pavilon,,,,,,,,,,
Home Design,04/06/2022,2022,https://otthon-design.hu/en/catalogue/,DM,PALMIYE GLOBAL HAREKETLI YAPI SISTEMLERI SANAYI VE TICARET A.Ş. (TR),203C,Hall A,,,,,,,,,,
Home Design,04/06/2022,2022,https://otthon-design.hu/en/catalogue/,DM,Pannónia Bútorstúdió Kft.,302A.,Hall D,,,,,,,,,,
Home Design,04/06/2022,2022,https://otthon-design.hu/en/catalogue/,DM,Parkertech Kft.,401CA,E pavilon,,,,,,,,,,
Home Design,04/06/2022,2022,https://otthon-design.hu/en/catalogue/,DM,Pest Megyei és Érd Megyei Jogú Városi Kereskedelmi és Iparkamara,,,,,,,,,,,,
Home Design,04/06/2022,2022,https://otthon-design.hu/en/catalogue/,DM,Pfiffer Bútor Mór Kft.,102A,Hall B,,,,,,,,,,
Home Design,04/06/2022,2022,https://otthon-design.hu/en/catalogue/,DM,Philips Magyarország Kft.,302D,Hall D,,,,,,,,,,
Home Design,04/06/2022,2022,https://otthon-design.hu/en/catalogue/,DM,PILLE-HÁZ KFT.,,,,,,,,,,,,
Home Design,04/06/2022,2022,https://otthon-design.hu/en/catalogue/,DM,Pipelife Hungária Kft.,206E,Hall G,,,,,,,,,,
Home Design,04/06/2022,2022,https://otthon-design.hu/en/catalogue/,DM,PlyDesign Kft.,405E,Hall B,,,,,,,,,,
Home Design,04/06/2022,2022,https://otthon-design.hu/en/catalogue/,DM,Pottery Company (TN),,,,,,,,,,,,
Home Design,04/06/2022,2022,https://otthon-design.hu/en/catalogue/,DM,Power Biztonságtechnika Kereskedelmi Kft.,304B,Hall A,,,,,,,,,,
Home Design,04/06/2022,2022,https://otthon-design.hu/en/catalogue/,DM,Praktikus Fűtés Kft.,203A,Hall G,,,,,,,,,,
Home Design,04/06/2022,2022,https://otthon-design.hu/en/catalogue/,DM,PREFA Hungária Kft.,312A,Hall A,,,,,,,,,,
Home Design,04/06/2022,2022,https://otthon-design.hu/en/catalogue/,DM,Prelement Home Kft.,313H,Hall A,,,,,,,,,,
Home Design,04/06/2022,2022,https://otthon-design.hu/en/catalogue/,DM,Prémium Pázsit Kft.,403A,E pavilon,,,,,,,,,,
Home Design,04/06/2022,2022,https://otthon-design.hu/en/catalogue/,DM,PrimePlan Kft.,303B,E pavilon,,,,,,,,,,
Home Design,04/06/2022,2022,https://otthon-design.hu/en/catalogue/,DM,Purecon Plus Kft.,303A,Hall G,,,,,,,,,,
Home Design,04/06/2022,2022,https://otthon-design.hu/en/catalogue/,DM,PV Napenergia Kft.,102B,Hall G,,,,,,,,,,
Home Design,04/06/2022,2022,https://otthon-design.hu/en/catalogue/,DM,Quality Direct Kft.,303D.,Hall D,,,,,,,,,,
Home Design,04/06/2022,2022,https://otthon-design.hu/en/catalogue/,DM,R-M System Kft.,205A,Hall A,,,,,,,,,,
Home Design,04/06/2022,2022,https://otthon-design.hu/en/catalogue/,DM,Rába-HD Generál Kft.,312E,Hall A,,,,,,,,,,
Home Design,04/06/2022,2022,https://otthon-design.hu/en/catalogue/,DM,Rábaablak 93 Kft.,206B,Hall A,,,,,,,,,,
Home Design,04/06/2022,2022,https://otthon-design.hu/en/catalogue/,DM,RAVAK Hungary Kft.,202A,E pavilon,,,,,,,,,,
Home Design,04/06/2022,2022,https://otthon-design.hu/en/catalogue/,DM,RIAMET Kft.,401C,Hall G,,,,,,,,,,
Home Design,04/06/2022,2022,https://otthon-design.hu/en/catalogue/,DM,Ro-pánt 95 Bt.,204D,Hall A,,,,,,,,,,
Home Design,04/06/2022,2022,https://otthon-design.hu/en/catalogue/,DM,Ro-Zsó Bt.,302C.,Hall D,,,,,,,,,,
Home Design,04/06/2022,2022,https://otthon-design.hu/en/catalogue/,DM,Rockwool Hungary Kft.,312B,Hall A,,,,,,,,,,
Home Design,04/06/2022,2022,https://otthon-design.hu/en/catalogue/,DM,ROTOVILL Kft.,504A,Hall G,,,,,,,,,,
Home Design,04/06/2022,2022,https://otthon-design.hu/en/catalogue/,DM,RUS-THERM Kft.,105A,Hall G,,,,,,,,,,
Home Design,04/06/2022,2022,https://otthon-design.hu/en/catalogue/,DM,Salix Lignum Kft.,303A,Hall B,,,,,,,,,,
Home Design,04/06/2022,2022,https://otthon-design.hu/en/catalogue/,DM,Sanotechnik Hungária Kft.,104A,E pavilon,,,,,,,,,,
Home Design,04/06/2022,2022,https://otthon-design.hu/en/catalogue/,DM,Schletter Solar GmbH (DE),203D,Hall G,,,,,,,,,,
Home Design,04/06/2022,2022,https://otthon-design.hu/en/catalogue/,DM,Sema GmbH. (DE),304I,Hall A,,,,,,,,,,
Home Design,04/06/2022,2022,https://otthon-design.hu/en/catalogue/,DM,Sip Építőipari Kft.,211C,Hall A,,,,,,,,,,
Home Design,04/06/2022,2022,https://otthon-design.hu/en/catalogue/,DM,SIPEurope s.r.o. (SK),312D,Hall A,,,,,,,,,,
Home Design,04/06/2022,2022,https://otthon-design.hu/en/catalogue/,DM,SKM-Protect Kft.,202D,Hall A,,,,,,,,,,
Home Design,04/06/2022,2022,https://otthon-design.hu/en/catalogue/,DM,SMA Solar Technology AG (DE),208A,Hall G,,,,,,,,,,
Home Design,04/06/2022,2022,https://otthon-design.hu/en/catalogue/,DM,SMG Sportplatzmaschinenbau GmbH (DE),108C,Hall A,,,,,,,,,,
Home Design,04/06/2022,2022,https://otthon-design.hu/en/catalogue/,DM,Solar&Solar Kft.,105C,Hall G,,,,,,,,,,
Home Design,04/06/2022,2022,https://otthon-design.hu/en/catalogue/,DM,Solar-Napelem Kft.,104B,Hall G,,,,,,,,,,
Home Design,04/06/2022,2022,https://otthon-design.hu/en/catalogue/,DM,Solarity s.r.o (CZ),103D,Hall G,,,,,,,,,,
Home Design,04/06/2022,2022,https://otthon-design.hu/en/catalogue/,DM,Solplanet (NL),304B,Hall G,,,,,,,,,,
Home Design,04/06/2022,2022,https://otthon-design.hu/en/catalogue/,DM,Somogyi és Társa Kft.,,,,,,,,,,,,
Home Design,04/06/2022,2022,https://otthon-design.hu/en/catalogue/,DM,Soudal Magyarország Kft.,310B,Hall A,,,,,,,,,,
Home Design,04/06/2022,2022,https://otthon-design.hu/en/catalogue/,DM,Splendid Design Kft.,101C,Hall G,,,,,,,,,,
Home Design,04/06/2022,2022,https://otthon-design.hu/en/catalogue/,DM,ST Solar Kft.,405C,Hall G,,,,,,,,,,
Home Design,04/06/2022,2022,https://otthon-design.hu/en/catalogue/,DM,Star Stone SA (RO),,,,,,,,,,,,
Home Design,04/06/2022,2022,https://otthon-design.hu/en/catalogue/,DM,Stebo 5000 Kft.,106A,Hall G,,,,,,,,,,
Home Design,04/06/2022,2022,https://otthon-design.hu/en/catalogue/,DM,STM Hungary Bt.,301C,Hall G,,,,,,,,,,
Home Design,04/06/2022,2022,https://otthon-design.hu/en/catalogue/,DM,Stonemine Kft.,205A,E pavilon,,,,,,,,,,
Home Design,04/06/2022,2022,https://otthon-design.hu/en/catalogue/,DM,"STROJEGRADNJA SAS, ARZENSEK STANKO S.P. (SI)",,,,,,,,,,,,
Home Design,04/06/2022,2022,https://otthon-design.hu/en/catalogue/,DM,Sunova Solar Technology Co. Ltd. (CN),203C,Hall G,,,,,,,,,,
Home Design,04/06/2022,2022,https://otthon-design.hu/en/catalogue/,DM,SW Umwelttechnik Magyarország Kft.,210B,Hall A,,,,,,,,,,
Home Design,04/06/2022,2022,https://otthon-design.hu/en/catalogue/,DM,Szabó Zsolt E.V.,302D,Hall B,,,,,,,,,,
Home Design,04/06/2022,2022,https://otthon-design.hu/en/catalogue/,DM,SZAUER Magyarország Belsőépítészeti Kft.,204C,Hall B,,,,,,,,,,
Home Design,04/06/2022,2022,https://otthon-design.hu/en/catalogue/,DM,T.E.L.L. Biztonságtechnikai Rendszerek Kereskedelmi és Szolgáltató Kft.,,,,,,,,,,,,
Home Design,04/06/2022,2022,https://otthon-design.hu/en/catalogue/,DM,TASKAZAN SOMUN CIVATA BAGLANTI ELEMANLARI SAN.TIC.LTD.STI (TR),,,,,,,,,,,,
Home Design,04/06/2022,2022,https://otthon-design.hu/en/catalogue/,DM,Tece d.o.o. Magyarországi Kereskedelmi Képviselete,103E,E pavilon,,,,,,,,,,
Home Design,04/06/2022,2022,https://otthon-design.hu/en/catalogue/,DM,Technical Tüzeléstechnikai Kft.,305D,Hall B,,,,,,,,,,
Home Design,04/06/2022,2022,https://otthon-design.hu/en/catalogue/,DM,Terasteel SA (RO),,,,,,,,,,,,
Home Design,04/06/2022,2022,https://otthon-design.hu/en/catalogue/,DM,TESTO (Magyarország) Kft.,304A,Hall G,,,,,,,,,,
Home Design,04/06/2022,2022,https://otthon-design.hu/en/catalogue/,DM,Tető Építők Egyesülete,313K,Hall A,,,,,,,,,,
Home Design,04/06/2022,2022,https://otthon-design.hu/en/catalogue/,DM,Thermo-Block Magyarország Kft.,310F,Hall A,,,,,,,,,,
Home Design,04/06/2022,2022,https://otthon-design.hu/en/catalogue/,DM,Timpanon-Terv Bt.,306C,Hall A,,,,,,,,,,
Home Design,04/06/2022,2022,https://otthon-design.hu/en/catalogue/,DM,Toma Family Mobil Kft.,103A,Hall G,,,,,,,,,,
Home Design,04/06/2022,2022,https://otthon-design.hu/en/catalogue/,DM,Tóth Sándor EV,204B,Hall B,,,,,,,,,,
Home Design,04/06/2022,2022,https://otthon-design.hu/en/catalogue/,DM,Tömösváry Norbert,206B,Hall B,,,,,,,,,,
Home Design,04/06/2022,2022,https://otthon-design.hu/en/catalogue/,DM,Trial Product Bt.,103G,Hall A,,,,,,,,,,
Home Design,04/06/2022,2022,https://otthon-design.hu/en/catalogue/,DM,Triparkett Bt.,,,,,,,,,,,,
Home Design,04/06/2022,2022,https://otthon-design.hu/en/catalogue/,DM,TRM Pro Kft.,313C,Hall A,,,,,,,,,,
Home Design,04/06/2022,2022,https://otthon-design.hu/en/catalogue/,DM,Tűzfészek-Fireshop Bt.,206C,Hall B,,,,,,,,,,
Home Design,04/06/2022,2022,https://otthon-design.hu/en/catalogue/,DM,Tűzvarázs Mérnökiroda Kft.,,,,,,,,,,,,
Home Design,04/06/2022,2022,https://otthon-design.hu/en/catalogue/,DM,Ubrankovics Gerenda- és Készházgyártó Kft.,309B,Hall A,,,,,,,,,,
Home Design,04/06/2022,2022,https://otthon-design.hu/en/catalogue/,DM,Új-Ház Centrum Budapest Zrt.,,,,,,,,,,,,
Home Design,04/06/2022,2022,https://otthon-design.hu/en/catalogue/,DM,Ultimate AV Kft.,404D,Hall B,,,,,,,,,,
Home Design,04/06/2022,2022,https://otthon-design.hu/en/catalogue/,DM,UNILIN CZECHIA s.r.o. (CZ),406B,Hall B,,,,,,,,,,
Home Design,04/06/2022,2022,https://otthon-design.hu/en/catalogue/,DM,Ursa Salgótarján Zrt.,310D,Hall A,,,,,,,,,,
Home Design,04/06/2022,2022,https://otthon-design.hu/en/catalogue/,DM,VARGA és tsai Kft.,201D,Hall G,,,,,,,,,,
Home Design,04/06/2022,2022,https://otthon-design.hu/en/catalogue/,DM,Vents Hungary Bodorvent Kft.,402A,Hall G,,,,,,,,,,
Home Design,04/06/2022,2022,https://otthon-design.hu/en/catalogue/,DM,Verbis Kereskedelmi és Szolgáltató Kft.,,,,,,,,,,,,
Home Design,04/06/2022,2022,https://otthon-design.hu/en/catalogue/,DM,Vertigo Group Kft.,202A,Hall G,,,,,,,,,,
Home Design,04/06/2022,2022,https://otthon-design.hu/en/catalogue/,DM,VIOMAL S.A. (GR),,,,,,,,,,,,
Home Design,04/06/2022,2022,https://otthon-design.hu/en/catalogue/,DM,Webépker Kft.,207C,Hall A,,,,,,,,,,
Home Design,04/06/2022,2022,https://otthon-design.hu/en/catalogue/,DM,Weishaupt Hőtechnikai Kft.,302B,Hall G,,,,,,,,,,
Home Design,04/06/2022,2022,https://otthon-design.hu/en/catalogue/,DM,Weitzer Parkett Sales Kft.,303C,Hall B,,,,,,,,,,
Home Design,04/06/2022,2022,https://otthon-design.hu/en/catalogue/,DM,Well-Deck Kft.,404CA,E pavilon,,,,,,,,,,
Home Design,04/06/2022,2022,https://otthon-design.hu/en/catalogue/,DM,Wellis Magyarország Kereskedelmi és Szolgáltató Zrt.,301A,E pavilon,,,,,,,,,,
Home Design,04/06/2022,2022,https://otthon-design.hu/en/catalogue/,DM,WernerCo Hungary Kft,104F,Hall A,,,,,,,,,,
Home Design,04/06/2022,2022,https://otthon-design.hu/en/catalogue/,DM,Wolf Bavaria Magyarország - Hang és Tűz Kft.,309G,Hall A,,,,,,,,,,
Home Design,04/06/2022,2022,https://otthon-design.hu/en/catalogue/,DM,Zedon-HUN Reklám Kft.,101C,E pavilon,,,,,,,,,,
Home Design,04/06/2022,2022,https://otthon-design.hu/en/catalogue/,DM,Zepter Ungarn Kft.,204G,Hall D,,,,,,,,,,
Home Design,04/06/2022,2022,https://otthon-design.hu/en/catalogue/,DM,"ZETA s.c. Andrzei Baran, Grzegorz Baran (PL)",311A,Hall A,,,,,,,,,,
Home Design,04/06/2022,2022,https://otthon-design.hu/en/catalogue/,DM,Zsófi Team Kft.,,,,,,,,,,,,
