ShowName,ShowDate,ShowYear,ShowWebsite,SubmittedBy,ExhibitorName,BoothNumber,HallLocation,Website,Email,Phone,Fax,Address,Country,Categories,Manufacturers,Brands,Description
Coverings,07/07/2021,2021,https://www.coverings.com/,DM,Ibis Smart Marble Pvt Ltd,1027,,http://www.ibissmartmarble.com,,,,"Morbi,, GJ, India",India,Tile | Tile - Ceramic (Glazed) | Tile - Ceramic (Unglazed) | Tile - Countertop | Tile - Decorative | Tile - Floor | Tile - Mosaic | Tile - Pavers | Tile - Porcelain | Tile - Wall,,IBIS is the perfect combination of visionary designs and technological performance.,Welcome to the world of beautiful porcelain slabs and tiles.
Coverings,07/07/2021,2021,https://www.coverings.com/,DM,Baldocer,5648,,http://www.baldocer.com,,,,"Vilafames,, Castellon, Spain",Spain,Tile | Tile - Floor | Tile - Porcelain | Tile - Wall,,"BALDOCER, BPLUS, BSMALL, BPRIME, BTOP","We are a company with over 25 years of experience 

"
Coverings,07/07/2021,2021,https://www.coverings.com/,DM,ARDEX Americas / DTA,3719,,http://www.ardexamericas.com,,,,"Aliquippa,, PA, United States",United States,Allied Products - Adhesives | Allied Products - Backerboard | Allied Products - Grout | Allied Products - Mortars | Allied Products - Shower Pans | Allied Products - Sponges | Allied Products - Tools | Allied Products - Underlayment | Allied Products - Waterproofing | Miscellaneous - Floor Heating Systems,,"ARDEX Tile & Stone Installation Systems
ARDEX FLEXBONE Uncoupling and In-Floor Heating Systems","With more than 60 years of global innovation leadership, ARDEX Tile & Stone Installation Systems deliver high-performance solutions for the most demanding tile and stone installations including large format tile, glass tile, super format-thin tiles, submerged applications, natural stone, stone veneer and exterior installations. "
Coverings,07/07/2021,2021,https://www.coverings.com/,DM,Apollo Stone Imports Inc.,433,,http://www.apollostone.com,,,,"Athens,, Greece",Greece,Stone - Limestone | Stone - Marble | Stone - Mosaic | Stone - Slab | Stone - Stone Tile,,"WHITES Thassos, Stellar, Pegasus, Pentelikon, Volakas, Spoleto & more; GREYS Martino, Sorrento, Monterey, Pewter; AND Creme Fedora, Trizina Silver, Corinthian Beige, Castilian Black, Cypress Limestone",Apollo Stone Imports: the most popular stones & great prices
Coverings,07/07/2021,2021,https://www.coverings.com/,DM,BACA Systems,5819,,http://www.BACASystems.com,,,,"Orion Township,, MI, United States",United States,Equipment & Machinery - Edging | Equipment & Machinery - Fabricating | Equipment & Machinery - Saws | Equipment & Machinery - Water-jet | Equipment & Machinery - CNC Equipment,,"Robo SawJet, Miter Saw Excel, BACA Edge, BACA BOSS",BACA Systems - American Stone Automation
Coverings,07/07/2021,2021,https://www.coverings.com/,DM,APE GRUPO,5145,,http://www.apegrupo.com,,,,"Castellon,, Castellon, Spain",Spain,Tile | Tile - Decorative | Tile - Porcelain | Tile - Swimming Pool | Tile - Wall,,"We are offering our product under three brands: Ape, Carmen and XLINING.","Welcome to APE GRUPO, Spanish tile trading company."
Coverings,07/07/2021,2021,https://www.coverings.com/,DM,Apavisa,5445,,http://www.apavisa.com,,,,"San Juan de Moro,, Castellon, Spain",Spain,Tile - Floor | Tile - Metallic | Tile - Mosaic | Tile - Porcelain | Tile - Wall,,"Apavisa —porcelain stoneware— solves the needs of professional and particular. Color, texture, size and finish variety offer the perfect tiles for upcoming projects.
Apavisa · District · Slabs",Find us at Coverings 2020 - Spanish Pav- Booth: 5326
Coverings,07/07/2021,2021,https://www.coverings.com/,DM,Anthology,3048,,http://anthologytile.com,,,,"Doral,, FL, United States",United States,Tile - Floor | Tile - Glass | Tile - Mosaic | Tile - Porcelain | Tile - Wall,,"ANTHOLOGY!  Our team has created a compilation of decorative mosaics, stone, glass, ceramic and field tile in unlimited varieties to fit any of your specifications.","ANTHOLOGY! Let our collections tell your story. Blending years of knowledge and expertise, our team has created a compilation of decorative mosaics, stone, glass, ceramic and field tile in unlimited varieties to fit any of your specifications. We bring to market a unique product offering that has yet to be seen. Our commitment to our clients will be an exceptional and growing product line with the sales and customer service support needed to rise above the competition. Very few companies say they can meet the needs of the client. Here at ANTHOLOGY we can, we strive to offer all this in one unique package."
Coverings,07/07/2021,2021,https://www.coverings.com/,DM,Argenta,5135,,http://www.argentaceramica.com,,,,"Vall D'Alba,, Castellon, Spain",Spain,Tile | Tile - Floor | Tile - Porcelain | Tile - Wall,,,"Visit us at COVERINGS 2021,  ARGENTA's New '21 collection."
Coverings,07/07/2021,2021,https://www.coverings.com/,DM,Yurtbay Seramik,441,,https://www.yurtbayseramik.com/,,,,"Norcross,, GA, United States",United States,Tile - Ceramic (Glazed) | Tile - Ceramic (Unglazed) | Tile - Floor | Tile - Porcelain | Tile - Wall,,Yurtbay Seramik,Allow us to turn your valuable time into a great opportunity
Coverings,07/07/2021,2021,https://www.coverings.com/,DM,"XIAMEN TERRY STONE CO., LTD.",2019,,https://www.terrystone.us/,,,,"Doral,, FL, United States",United States,Stone - Quartzite | Stone - Slab,,Terry Stone,Welcome to our Booth! Find Better in Here!
Coverings,07/07/2021,2021,https://www.coverings.com/,DM,Arvex Italstyle Srl.,2313,,http://www.arvexmosaic.com,,,,"Mondolfo,, Pesaro, Italy",Italy,Stone - Mosaic | Stone - Terrazzo | Tile - Glass | Tile - Mosaic | Tile - Stone,,ARVEX,Arvex Mosaic - Italian style worldwide.
Coverings,07/07/2021,2021,https://www.coverings.com/,DM,Wizard Enterprise,3330,,http://www.wizardenterprise.com,,,,"Hawthorne,, CA, United States",United States,Tile - Artisan | Tile - Brick,,"Wizard Tile, Valletta, Bison Brick","Wizard Enterprise specializes in handcrafted ceramic tile and glazed thin brick, available in a wide range of glaze finishes. Designed and produced in their California studios, Wizard tile is a unique handmade made tile offered at affordable prices. Wizard’s team of craftsmen are dedicated to delivering the highest quality handmade tile. Wizard’s vision is to enhance the built environment with ceramics that inspire, comfort, delight, and providing lasting appeal."
Coverings,07/07/2021,2021,https://www.coverings.com/,DM,White House Stone,2122,,www.whitehousestone.com,,,,"West Palm Beach,, FL, United States",United States,,,,
Coverings,07/07/2021,2021,https://www.coverings.com/,DM,Antolini Luigi & C. SpA,634,,http://www.antolini.com,,,,"Sega di Cavaion,, VR, Italy",Italy,Stone - Granite | Stone - Marble | Stone - Onyx | Stone - Quartzite | Stone - Slab | Stone - Cut-to-Size,,Marble - Granite - Travertine - Onyx - Limestone - Precious Stone - Gemstone - Shellstone,A stone philosphy
Coverings,07/07/2021,2021,https://www.coverings.com/,DM,VINCENT Operative Division of IGP Tools Inc.,5422,,http://www.vincent.it,,,,"Oswego,, IL, United States",United States,Equipment & Machinery - Cutting | Equipment & Machinery - Diamond Blades & Saws | Equipment & Machinery - Grinding | Equipment & Machinery - Polishing | Equipment & Machinery - Profiling,,"Since 1974 VINCENT is one of the world’s leading manufacturer of grinding, drilling and cutting tools for Quartz Industries.",Vincent - CNC tools and much more
Coverings,07/07/2021,2021,https://www.coverings.com/,DM,WORLD ROCKS,241,,http://www.worldrocks.com,,,,"ORANGE,, CA, United States",United States,Stone | Stone - Granite | Stone - Marble | Stone - Onyx | Stone - Slab,,Nirvana Quartz,"We're ""Rocking The World"" 
Welcome to World Rocks!"
Coverings,07/07/2021,2021,https://www.coverings.com/,DM,VIA DELL’ARTE,6031,,http://www.ViaDellArte.com,,,,"Fort Lauderdale,, FL, United States",United States,Stone | Tile | Tile - Pavers | Tile - Terracotta | Tile - Wall,,"ALELUIA, ART2000, ARVEX, BACCI MARMI, BERTI SISTO & CO., EDIMAX, FLYZONE, FURRER, GABRIELLA CERAMICA, GAZZINI, GRANDSTONE, IMOLA , ITALGRANITI, KERION CERAMICS, PEDRANTIQUA, SUGARONI, TAGINA.",USA - CANADA AGENT
Coverings,07/07/2021,2021,https://www.coverings.com/,DM,Vitacer,4231,,,,,,"Vila-real,, Castellón, Spain",Spain,Tile | Tile - Cement | Tile - Ceramic (Glazed) | Tile - Ceramic (Unglazed) | Tile - Floor,,VITACER,We wait for you at our booth 6050
Coverings,07/07/2021,2021,https://www.coverings.com/,DM,Ventiques,3132,,http://www.ventiques.com,,,,"Waite Park,, MN, United States",United States,Allied Products - DIY Products | Allied Products - Tools | Equipment & Machinery - Flooring Equipment | Equipment & Machinery - Profiling | Miscellaneous | Tile | Tile - Floor | Tile - Mosaic | Tile - Porcelain | Tile - Trims,,,
Coverings,07/07/2021,2021,https://www.coverings.com/,DM,Angi,3431,,http://www.homeadvisor.com,,,,"Denver,, CO, United States",United States,,,,
Coverings,07/07/2021,2021,https://www.coverings.com/,DM,Undefasa,5127,,https://www.undefasa.com,,,,"Alcora,, Castellón, Spain",Spain,Tile | Tile - Ceramic (Glazed) | Tile - Floor | Tile - Porcelain | Tile - Wall,,"UNDEFASA
UNDEFASAPORCELANICO
",always ceramics
Coverings,07/07/2021,2021,https://www.coverings.com/,DM,Valley View Ceramics,749,,http://www.valleyviewceramics.com,,,,"Valley View,, TX, United States",United States,Tile - Ceramic (Glazed) | Tile - Glass | Tile - Mosaic | Tile - Porcelain | Tile - Wall,,,
Coverings,07/07/2021,2021,https://www.coverings.com/,DM,VELSAA VITRIFIED LLP,1831,,info@velsaavitrified.com,,,,"MORBI,, Gujarat, India",India,Tile | Tile - Ceramic (Glazed) | Tile - Ceramic (Unglazed) | Tile - Floor | Tile - Porcelain | Tile - Wall,,,
Coverings,07/07/2021,2021,https://www.coverings.com/,DM,Vidrepur,4636,,http://www.vidrepur.com,,,,"Miami,, FL, United States",United States,Tile - Glass | Tile - Mosaic | Tile - Swimming Pool,,,THE ART OF DECORATING YOUR DREAMS WITH  MOSAICS
Coverings,07/07/2021,2021,https://www.coverings.com/,DM,TNA Stone Machinery,5623,,http://www.thibaut.fr,,,,"Hilton Head Island,, SC, United States",United States,,,,
Coverings,07/07/2021,2021,https://www.coverings.com/,DM,UMUT MARBLE,4523,,http://www.umutmarble.com,,,,"AFYONKARAHİSAR,, Afyonkarahisar, Turkey",Turkey,Stone - Cut-to-Size | Stone - Limestone | Stone - Marble | Stone - Mosaic | Stone - Sinks,,UMUT MARBLE,WELCOME STONE MOSAIC WORLD
Coverings,07/07/2021,2021,https://www.coverings.com/,DM,Tile Heritage Foundation,3233,,https://www.tileheritage.org,,,,"Healdsburg,, CA, United States",United States,Tile - Artisan | Tile - Ceramic (Glazed) | Tile - Decorative | Tile - Mosaic | Tile - Murals,,"Archives of Ceramic Tile History, Research and Educational Resources, Historic Tile Catalog Reproductions, THF Gallery links to Contemporary Tile Products and Services.",Welcome to Coverings Connected 2020 THF www.tileheritage.org
Coverings,07/07/2021,2021,https://www.coverings.com/,DM,Topcu Tile + Stone,2230,,http://www.topcutile.com,,,,"Atlanta,, GA, United States",United States,Stone - Marble | Stone - Moldings | Stone - Mosaic | Stone - Travertine | Tile - Porcelain,,,Visit us at booth #2230
Coverings,07/07/2021,2021,https://www.coverings.com/,DM,AZZARO SURFACES,1433,,www.azzarosurfaces.com,,,,"Newbury  park,, CA, United States",United States,,,,
Coverings,07/07/2021,2021,https://www.coverings.com/,DM,Tile of Spain Pavilion,4836,,https://tileofspainusa.com/,,,,"CORAL GABLES,, FL, United States",United States,Tile - Ceramic (Glazed) | Tile - Ceramic (Unglazed) | Tile - Floor | Tile - Porcelain | Tile - Wall,,Tile of Spain,Visit the Spain Pavilion and celebrate Spanish hospitality
Coverings,07/07/2021,2021,https://www.coverings.com/,DM,Transgranitos,1428,,transgranitos.pt,,,,"Vila Pouca de Aguiar,, Portugal",Portugal,,,,
Coverings,07/07/2021,2021,https://www.coverings.com/,DM,TILE EZE,2527,,http://www.tile-eze.com,,,,"Naples,, FL, United States",United States,Equipment & Supplies | Stone | Tile | Equipment & Machinery - Flooring Equipment,,,"TILE EZE is the US partner of the KEIL Concealed Anchoring System from Germany, one of the world''s predominant concealed stainless steel anchor manufacturers for ventilated / rainscreen facades. The KEIL Anchor was developed for mechanical anchoring, non-adhesive concealed anchoring for a wide range of cladding materials such as natural stone, porcalain tile, fiber cement, ultra high performance concrete, crystallized glass."
Coverings,07/07/2021,2021,https://www.coverings.com/,DM,Tile Council of North America,3233,,http://www.tcnatile.com,,,,"Anderson,, SC, United States",United States,Miscellaneous | Miscellaneous - Trade Association,,, 
Coverings,07/07/2021,2021,https://www.coverings.com/,DM,Tile & Stone Blue Book,4152,,http://www.tileandstonebluebook.com,,,,"Orlando,, FL, United States",United States,Miscellaneous - Publication (Trade),,,"Davison's Tile & Stone Blue Book is the ultimate industry directory. This annual directory is an extensive compilation of manufacturers, distributors, and tile professionals."
Coverings,07/07/2021,2021,https://www.coverings.com/,DM,Aria Marble,2846,,http://www.ariamarble.com,,,,"Centreville,, VA, United States",United States,Stone | Stone - Marble | Stone - Slab | Stone - Stone Tile | Tile - Stone,,"travertine, marble, silver travertine, gohara, pietra grey, onyx, walnut travertine, dolomite marble, silver shadow marble ,mugla white, dark emperador, light emperador, marmara marble, mosaics,",ARIA provider of premium natural stones
Coverings,07/07/2021,2021,https://www.coverings.com/,DM,TIEIC Ceramics,5833,,http://www.tieic.com,,,,"Morbi,, GJ, India",India,Tile | Tile - Ceramic (Glazed) | Tile - Floor | Tile - Mosaic | Tile - Porcelain,,,INDIA TO THE WORLD
Coverings,07/07/2021,2021,https://www.coverings.com/,DM,AYA MADENCILIK SAN. VE TIC. A.S.,4722,,http://www.ayastone.com,,,,"BILECIK,, Turkey",Turkey,Stone - Limestone | Stone - Marble | Stone - Moldings | Stone - Mosaic | Stone - Stone Tile,,,"Dynamism & competency are the main characteristics of AYA STONE. In this new facilities and quarries, AYA STONE puts into practise the highest technologies so as to meet all the most exacting demands though the world of the natural stone. Ours in an active service whose major goal is to be obedient to the demands of the each and every one of our customers. AYA STONE has a highly wide range of materials, finishings and colors to carry out all types of decorative and constructive projects."
Coverings,07/07/2021,2021,https://www.coverings.com/,DM,Thassos.com,2032,,http://www.thassos.com,,,,"Brooklyn,, NY, United States",United States,Stone | Stone - Marble | Stone - Mosaic | Stone - Slab | Stone - Stone Tile,,,"WELCOME TO THE SOURCE OF THE SNOW WHITE MARBLE OF THASSOS!
"
Coverings,07/07/2021,2021,https://www.coverings.com/,DM,Termal Seramik,1835,,http://www.termalseramik.com.tr,,,,"Istanbul,, Turkey",Turkey,Tile - Ceramic (Glazed) | Tile - Decorative | Tile - Floor | Tile - Porcelain | Tile - Wall,,,"Ceramic is today''s the most contemporary, the state-of-the-art material while also the earliest artistic material produced and used by the human being. Fusing technology with nature and human, “Termal Seramik” was founded in Sogut , BILECIK, TURKEY in 1995 to create spaces for customers with different needs and demands. First factory was opened and started production in 1997, and second factory in 2005. The current capacity of the factory is now 21.000.000 m2/ year. The product range starts from 10x10cm(4x4 inches) through 60x120cm( 24x48 inches) in different nominal sizes with availiability of floor, wall and glazed porcelain tiles. Employing around 700 people for production, Termal Seramik runs detailed production and control stages for products produced at the factory. The moment when Termal Seramik employees meet with finished products gives a huge happiness and excitement due to responsibility. Our purpose is to make production under the framework of our mission, vision and quality policy in order to maintain Termal Seramik Corp.''s currently available certificate of quality, to keep sustainable development and improvement and to raise the bars for our targets at all times. Customer satisfaction, contribution to national economy and being responsible to environment and the society are our major objectives. We do adopt the principles of Total Quality Management as our philosophy of life for life and work, in order to become a leader in technology and quality. Product designing is of great importance to us in order to establish the right connection with customers in financial, cultural and emotional aspects. For this very purpose, Termal Seramik cooperates with foreign design companies that tailgate and lead global markets. With its in-house expert designers, Termal Seramik follows global trends in market, exhibits in major international tiles and ceramics trade shows such as Cersaie, Unicera and Coverings and also visits various trend and technology exhibitions to reflect latest trends on their designs. We envisage coming out of nature and try our best to highlight natural colors, textures and products in our designs."
Coverings,07/07/2021,2021,https://www.coverings.com/,DM,"Tile by Design, LLC",3531,,http://www.tilebydesign.net,,,,"Duncansville,, PA, United States",United States,Tile - Ceramic (Glazed) | Tile - Decorative | Tile - Hand Painted | Tile - Murals | Tile - Swimming Pool,,"Tile By Design, Mexican Tile Designs","Any Image, On Tile!"
Coverings,07/07/2021,2021,https://www.coverings.com/,DM,Tagina S.p.A.,1046,,http://www.tagina.it,,,,"Gualdo Tadino,, PG, Italy",Italy,Tile | Tile - Floor | Tile - Porcelain | Tile - Wall,,Tagina,You are welcome on our booth# 1046
Coverings,07/07/2021,2021,https://www.coverings.com/,DM,Tenax USA,4824,,http://www.tenax4you.com,,,,"Charlotte,, NC, United States",United States,Allied Products - Adhesives | Allied Products - Fillers | Allied Products - Sealers,,"Ager. Ager Tiger, Pectro, Tixo, Travertine Filler, Filiflex, Airflex, Antique Brushes, Domo, Rivo, StrongEdge, Tepox V, Color kits, A complete line of diamond abrasives","For 50 years, TENAX has been a leader in mastics, resins, diamond tools, abrasives, polishes, and waxes and surface treatment products for natural stones and derivatives. We don''t make your granite; we just make it better. For further information please contact Tenax at 1-800-341-0432 or "
Coverings,07/07/2021,2021,https://www.coverings.com/,DM,Sunshine Stone Products,1622,,http://www.toemi.com,,,,"Ocala,, FL, United States",United States,,,,
Coverings,07/07/2021,2021,https://www.coverings.com/,DM,Supergres,6026,,http://www.supergres.com,,,,"Casalgrande,, RE, Italy",Italy,Tile | Tile - Ceramic (Unglazed) | Tile - Floor | Tile - Pavers | Tile - Porcelain,,,
Coverings,07/07/2021,2021,https://www.coverings.com/,DM,SunTouch Floor Heating & Snow Melting,2526,,http://www.suntouch.com,,,,"North Andover,, MA, United States",United States,Miscellaneous - Floor Heating Systems | Stone | Tile | Tile - Floor,,"SunTouch Mats, SunTouch WarmWire, SunTouch Underfloor Mat, ProMelt Mats, ProMelt Cable, SunTouch SunStat","SunTouch manufactures electric radiant heating systems in both a mat and a WarmWire cable system. We offer both a programmable and non programmable control for these systems. The most popular spaces to warm are bathrooms, kitchens, entries and sun rooms. We also offer an UnderFloor mat that hangs between your joists to warm an existing floor. Our electric snow melting line, ProMelt, is available in a mat and cable system. It minimizes accidents on slippery sidewalks and saves time and money from snow removal in driveways and parking lots."
Coverings,07/07/2021,2021,https://www.coverings.com/,DM,Strong Ace Ltd. (A Ceramica),749,,http://www.mostylemosaic.com,,,,"Foshan,, Guangdong, China",China,Tile - Floor | Tile - Mosaic | Tile - Porcelain | Tile - Vinyl | Tile - Wall,,Mostyle Mosaic & 7mm glazed porcelain thin tile.,Special glass mosaic and 7mm glazed porcelain thin tile
Coverings,07/07/2021,2021,https://www.coverings.com/,DM,Sunhearrt Ceramik,2222,,http://www.sunhearrt.com,,,,"Ahmedabad,, GJ, India",India,Tile | Tile - Ceramic (Glazed) | Tile - Ceramic (Unglazed) | Tile - Floor | Tile - Porcelain,,"SUNHEARRT
axi marble
BHUMISTU 5",
Coverings,07/07/2021,2021,https://www.coverings.com/,DM,Stonex India Pvt Ltd,2224,,www.stonexindia.com,,,,"New Delhi,, DL, India",India,,,,
Coverings,07/07/2021,2021,https://www.coverings.com/,DM,Stover's Liquidation,1930,,http://www.stoverswholesale.com,,,,"Cookeville,, TN, United States",United States,Stone | Tile | Tile - Decorative | Tile - Mosaic | Tile - Porcelain,,"Closeouts in Marazzi, Daltile, Ragno, Mohawk, Jeffrey Court, Anatolia, Florim, and others of Porcelain Tile, Hardwood Flooring, Stone and Glass Mosaics, Laminate Flooring, and Vinyl Flooring.",Closeout and Liquidations in All types of Flooring
Coverings,07/07/2021,2021,https://www.coverings.com/,DM,As Gureller Mermer Nak. San.Tic. Ltd. Sti.,4323,,,,,,"Burdur,, Turkey",Turkey,Stone - Block | Stone - Cut-to-Size | Stone - Marble | Stone - Slab | Stone - Stone Tile,,"Bejmer, ASG BEIGE",The thinnest marble tiles on the largest size
Coverings,07/07/2021,2021,https://www.coverings.com/,DM,"StonePeak Ceramics, Inc.",6045,,http://www.stonepeakceramics.com,,,,"Chicago,, IL, United States",United States,Tile | Tile - Countertop | Tile - Floor | Tile - Pavers | Tile - Porcelain,,StonePeak High-Tech Porcelain Tile,"Italian-style porcelain tile, proudly made in the USA"
Coverings,07/07/2021,2021,https://www.coverings.com/,DM,Tau Ceramica,5148,,http://www.tauceramica.com,,,,"ONDA,, Castellon, Spain",Spain,Tile - Wall | Tile | Tile - Floor | Tile - Porcelain | Tile - Stone,,"TAU Cerámica, ASCALE BY TAU","Tau Ceramic is the brand with the widest range of ceramic products, regarding the type, the format and the finish."
Coverings,07/07/2021,2021,https://www.coverings.com/,DM,Stonelement Inc.,952,,,,,,"Parlin,, NJ, United States",United States,,,,"Maer Charme USA
European Semi Precious Stone Slabs and Tile"
Coverings,07/07/2021,2021,https://www.coverings.com/,DM,TCAA,3233,,https://www.tcaainc.org/,,,,"Strongsville,, OH, United States",United States,Miscellaneous - Trade Association,,,TCAA welcomes you to visit us @ Booth 3233 - Coverings 2021
Coverings,07/07/2021,2021,https://www.coverings.com/,DM,Stone Equipment USA,5814,,http://www.stoneequiptusa.com,,,,"Fort Laudardale,, FL, United States",United States,Equipment & Machinery - CNC Equipment | Equipment & Machinery - Fabricating | Equipment & Machinery - Polishing | Equipment & Machinery - Saws | Equipment & Machinery - Water-jet,,Terzago Macchine and Hedel Multi Wires,Thank you for visiting Stone Equipment USA Booth #5814
Coverings,07/07/2021,2021,https://www.coverings.com/,DM,Stone-Mart,1049,,http://www.stone-mart.com,,,,"Tampa,, FL, United States",United States,Stone - Limestone | Stone - Marble | Stone - Mosaic | Stone - Pavers | Stone - Travertine,,"Stone-Mart  
Natural Elegance Collection
Bellissimo Porcelain Collection
Ozer Tile & Stone
",Florida’s Source for Superior Flooring & Hardscape Solutions
Coverings,07/07/2021,2021,https://www.coverings.com/,DM,Stone Profit Systems,5427,,http://www.stoneprofits.com,,,,"Chicago,, IL, United States",United States,,,,"Stone Profit Systems creates industry-leading, Internet-based software and state-of-the-art hardware for business processes and practices for stone and tile importers, distributors and fabricators. Some of our clients include Alpine Stone, AP Marble and Granite, American Granite and Tile, Cava International, JP Stone, Marble Point, Midwest Granite, Marble Yard, Mont Granite, Mystic Granite, Stone Quarry, Stone Distribution, Tile World of Italy and Valencia Stone. Some of the features of our system include inventory management, material management and supplier price analysis, barcode scanning, job scheduling, job management and quote management, consignment locations and slab dimensioning."
Coverings,07/07/2021,2021,https://www.coverings.com/,DM,Stone Quest,1630,,http://www.stone-quest.com,,,,"Farmingdale,, NJ, United States",United States,,,,
Coverings,07/07/2021,2021,https://www.coverings.com/,DM,Steuler-Fliesen GmbH,2830,,http://www.steuler-fliesen.com,,,,"Muehlacker,, Germany",Germany,Tile | Tile - Floor | Tile - Mosaic | Tile - Porcelain | Tile - Wall,,"With its tiles group, Steuler is one of the largest manufacturers of tiles ""Made in Germany"", producing more than 13 million square metres of tiles per year for the national and international markets.",Steuler tile group - Tiles made in Germany
Coverings,07/07/2021,2021,https://www.coverings.com/,DM,Stone Fabricators Alliance,5009,,http://www.stonefabricatorsalliance.com,,,,"Shawnee,, OK, United States",United States,Miscellaneous - Trade Association | Miscellaneous - Training Group,,,"Fabricators helping fabricators, sharing knowledge & skills"
Coverings,07/07/2021,2021,https://www.coverings.com/,DM,"STABILA, Inc.",3833,,http://www.stabila.com,,,,"South Elgin,, IL, United States",United States,Equipment & Machinery | Equipment & Machinery - Hand Tools | Equipment & Supplies | Miscellaneous - Measuring Devices,,"STABILA Levels, STABILA Lasers",STABILA:  The #1 Professional Level and Laser Brand
Coverings,07/07/2021,2021,https://www.coverings.com/,DM,STAIN-PROOF by Dry-Treat,2937,,http://www.drytreat.com,,,,"Andover,, MA, United States",United States,Allied Products | Allied Products - Cleaning Products | Allied Products - Sealers | Allied Products - Waterproofing,,Dry-Treat™,Preserving the Beauty of Stone
Coverings,07/07/2021,2021,https://www.coverings.com/,DM,StoneApp by StoneGrid,4311,,http://www.stonegridusa.com/,,,,"Windermere,, FL, United States",United States,Equipment & Machinery | Equipment & Supplies | Miscellaneous – Business Services | Miscellaneous - Computer Equipment | Miscellaneous – Software,,,Best ERP & JOBMGMT Software for Fabricators by Fabricators
Coverings,07/07/2021,2021,https://www.coverings.com/,DM,Slabsmith,4312,,http://www.slabsmith.com,,,,"Antwerp,, NY, United States",United States,,,,
Coverings,07/07/2021,2021,https://www.coverings.com/,DM,Sika Corporation,3422,,http://usa.sika.com,,,,"Lyndhurst,, NJ, United States",United States,,,,
Coverings,07/07/2021,2021,https://www.coverings.com/,DM,Sparron Vitrified LLP,2219,,http://www.sparronvitrified.com,,,,"Morbi,, GJ, India",India,Tile | Tile - Floor | Tile - Mosaic | Tile - Porcelain | Tile - Wall,,,    
Coverings,07/07/2021,2021,https://www.coverings.com/,DM,Tile and Stone International,6049,,www.casavitabella.com,,,,"Salt Lake City,, UT, United States",United States,Tile | Tile - Floor | Tile - Glass | Tile - Porcelain | Tile - Wall,,,Welcome to Tile and Stone International!
Coverings,07/07/2021,2021,https://www.coverings.com/,DM,Shivam Enterprise,1019,,www.evolutionceramic.com,,,,"Morbi,, GJ, India",India,,,,
Coverings,07/07/2021,2021,https://www.coverings.com/,DM,Stoneglass Srl,2246,,http://www.stoneglass.it,,,,"CASCIANA TERME LARI,, Italia, Italy",Italy,Stone - Columns | Stone - Countertops | Stone - Cut-to-Size | Stone - Sinks | Tile - Glass,,STONEGLASS® is an Italian brand. It''s certified and guaranted. It''s a innovative product that you can use every where.,"STONEGLASS® was created to satisfy the many of the needs of today’s materials market. Throughout history, man has always strived to discover, or manufacture, new materials based on three criteria: aesthetics, versatility and availability. Today we live at a turning point – now we must also consider an additional criteria:  the environmental impact of our materials. STONEGLASS® is a new material that satisfies all four criteria."
Coverings,07/07/2021,2021,https://www.coverings.com/,DM,STN Ceramica,5130,,http://www.stnceramica.es,,,,"Nules,, Castellon, Spain",Spain,Tile - Ceramic (Glazed) | Tile - Floor | Tile - Wall,,STN Ceramica,"We waiti for you at COVERINGS 2021, stand 5130"
Coverings,07/07/2021,2021,https://www.coverings.com/,DM,Sarl SOFCONTRA,2928,,www.sofcontra.net,,,,"Tlemcen,, Algeria",Algeria,,,,
Coverings,07/07/2021,2021,https://www.coverings.com/,DM,SERANIT GRANIT SERAMIK SAN. TIC .A.S,237,,http://www.seranit.com.tr,,,,"ISTANBUL,, Turkey",Turkey,Tile,,SERANIT,Manufacturer of porcelain and ceramic tiles.
Coverings,07/07/2021,2021,https://www.coverings.com/,DM,Sichenia,2349,,http://www.sichenia.it,,,,"Sassuolo,, MO, Italy",Italy,Tile | Tile - Ceramic (Glazed) | Tile - Ceramic (Unglazed) | Tile - Floor | Tile - Wall,,"Sichenia
",The excellence and tradition of italian ceramic tiles.
Coverings,07/07/2021,2021,https://www.coverings.com/,DM,Sasso,4615,,http://www.sassomeccanica.it,,,,"San Benedetto del Tronto,, Ascoli Piceno, Italy",Italy,Equipment & Machinery - CNC Equipment | Equipment & Machinery - Cutting | Equipment & Machinery - Edging | Equipment & Machinery - Fabricating | Equipment & Machinery - Polishing | Equipment & Machinery - Profiling | Equipment & Machinery - Routing | Equipment & Machinery - Saws,,,SASSO Looks forward to greeting you at COVERINGS
Coverings,07/07/2021,2021,https://www.coverings.com/,DM,Sicer MX S de RL de CV,3034,,http://www.sicer.it,,,,"El Carmen,, Nuevo Leon, Mexico",Mexico,Tile - Porcelain,,,"A long-established manufacturer of glazes, dyes, and"
Coverings,07/07/2021,2021,https://www.coverings.com/,DM,Saloni,5932,,http://www.saloni.com,,,,"San Juan de Moro,, Castellon, Spain",Spain,Tile - Ceramic (Glazed) | Tile - Ceramic (Unglazed) | Tile - Floor | Tile - Porcelain | Tile - Wall,,SALONI,"SALONI is proud to show you our latest collections.
"
Coverings,07/07/2021,2021,https://www.coverings.com/,DM,SA. GE. VAN. Marmi Srl.,2315,,http://www.sagevanmarmi.com,,,,"Avenza, Carrara,, MS, Italy",Italy,Stone - Marble | Stone - Onyx | Stone - Slab | Stone - Stone Tile,,,"Since 1950, S.A. GE. VAN. Marmi Srl. is a quarry owner that has been extracting and producing Statuario, Statuario Venato, Calacatta, Venatino-Statuarietto, Bianco Carrara, Bardiglio, Paonazzo and Paonazzetto (directly from our quarries) and other types of marbles. New technological machinery lets us produce polished, honed, bush hammered and antique finished slabs, tiles, cut-to-size pieces, as well as special manufactured goods and custom-designed projects."
Coverings,07/07/2021,2021,https://www.coverings.com/,DM,"RYE-Corp, LLC",5612,,rodyork@tds.net,,,,"Lenoir City,, TN, United States",United States,,,,
Coverings,07/07/2021,2021,https://www.coverings.com/,DM,Rubi Tools USA Inc.,3730,,http://www.rubi.com/us,,,,"Hialeah,, FL, United States",United States,Allied Products - Tools | Equipment & Machinery - Cutting | Equipment & Machinery - Diamond Blades & Saws | Equipment & Machinery - Hand Tools | Equipment & Machinery - Saws,,,    
Coverings,07/07/2021,2021,https://www.coverings.com/,DM,SomerTile,5841,,http://www.somertile.com,,,,"Manalapan,, NJ, United States",United States,Tile | Tile - Ceramic (Glazed) | Tile - Ceramic (Unglazed) | Tile - Mosaic | Tile - Porcelain | Tile - Trims | Tile - Wall,,SomerTile,"We offer on-trend, emotionally inspiring, high-quality tiles"
Coverings,07/07/2021,2021,https://www.coverings.com/,DM,Settipani Srl,2215,,http://www.settipani.it,,,,"Alcamo (TP),, Sicilia, Italy",Italy,,,,
Coverings,07/07/2021,2021,https://www.coverings.com/,DM,Salens Inc.,625,,,,,,"Commerce,, CA, United States",United States,,,,
Coverings,07/07/2021,2021,https://www.coverings.com/,DM,"RFMS, Inc.",2832,,http://www.rfms.com,,,,"Tuscaloosa,, AL, United States",United States,Miscellaneous | Miscellaneous - Computer Equipment | Miscellaneous - Consulting Services | Miscellaneous - Measuring Devices | Miscellaneous – Software,,"RFMS Business Management System, Measure by RFMS, RFMS Mobile Apps, ECommerce/B2B, Business Insights, Client Management Module, BidPro, Schedule Pro, New Home Management System
",Welcome to RFMS - Business Management Software Systems!
Coverings,07/07/2021,2021,https://www.coverings.com/,DM,Rollmaster Software,3736,,http://www.rmaster.com,,,,"Hammond,, LA, United States",United States,Miscellaneous - Computer Equipment | Miscellaneous - Consulting Services | Miscellaneous - Training Group,,RollMaster: Flooring Business Management Software * Estimating Software * Wireless Barcode System w/ Android Device * Open API * RM Mobile App * RM5Star Online Reviews  * B2B Software,RollMaster Software: One flooring software to manage it all!
Coverings,07/07/2021,2021,https://www.coverings.com/,DM,Redwood Plastics and Rubber,3528,,https://www.redwoodplastics.com,,,,"Langley,, BC, Canada",Canada,Allied Products | Allied Products - Sound Abatement Membranes | Allied Products - Spacers | Allied Products - Underlayment | Miscellaneous | Miscellaneous – Sustainable Products,,"Redco
Dynamex
Rise-It's",Dynamex™ Rise-It''s from Redwood Plastics and Rubber
Coverings,07/07/2021,2021,https://www.coverings.com/,DM,RED Graniti/Vermont Quarries Corp,741,,http://www.vermontquarries.com,,,,"Mendon,, VT, United States",United States,Stone - Marble | Stone | Stone - Countertops | Stone - Cut-to-Size | Stone - Block,,"Vermont Danby marble, Imperial Danby, Eureka Danby, Montclair Danby, Mountain White Danby, Royal Danby, Olympian White Danby, Crystral Gray, Danby Grey, Appalachian Green Danby, Fantastico Danby","BEAUTY, DURABILITY & SUSTAINABILITY."
Coverings,07/07/2021,2021,https://www.coverings.com/,DM,Realonda,4634,,http://www.realonda.com,,,,"Onda,, Castellon, Spain",Spain,Tile - Ceramic (Glazed) | Tile - Floor | Tile - Porcelain | Tile - Stone | Tile - Wall,,"Realonda SA, with 65 years of experience, inspired by nature & tradition produces ceramics & based its work on beauty, originality and innovation, taking care in the details.
","Realonda produces ceramics made in Spain.
"
Coverings,07/07/2021,2021,https://www.coverings.com/,DM,Salem Fabrication Supplies,4611,,https://www.salemftg.com/shop/stone,,,,"Winston-Salem,, NC, United States",United States,Allied Products - Sealers | Allied Products - Tools | Equipment & Machinery - Hand Tools | Equipment & Machinery - Wastewater Treatment | Miscellaneous - Material Handling Equipment,,"MAKO™ & CUDA™ Tooling & Supplies, KDrills Tooling, The Patriot™ and MAKO™ Polishing Wheels, Material Handling -Wood's Vacuum Lifters, Groves Carts & Racks, Gorbel Cranes
",Welcome to Salem Fabrication Supplies!  Visit booth #4611.
Coverings,07/07/2021,2021,https://www.coverings.com/,DM,Qua Granite Hayal Yapı Ve Ürünleri Sanayi Tic. A.S.,830,,,,,,"Söke,, Aydin, Turkey",Turkey,Tile - Ceramic (Glazed) | Tile - Ceramic (Unglazed) | Tile - Pavers | Tile - Porcelain,,,QUArtz.. aQUA.. QUAlity..
Coverings,07/07/2021,2021,https://www.coverings.com/,DM,REKAZ STONE,2946,,http://www.rekaz.sa,,,,"Riyadh,, Saudi Arabia",Saudi Arabia,Stone - Countertops | Stone - Granite | Stone - Slab | Stone - Steps | Stone - Stone Tile,,"The factory was established in accordance with modern scientific principle, including the coordination of design, architecture, civil & structural arrangement.
in addition to the selection of machinery",RAKAZ STONE is factory & quarries owner for Saudi granite
Coverings,07/07/2021,2021,https://www.coverings.com/,DM,Quartz World USA,1733,,http://quartzworldusa.com,,,,"Chicago,, IL, United States",United States,Stone - Granite | Stone - Marble | Stone - Quartzite | Stone - Slab | Tile - Porcelain,,,Quartz World USA supplies high quality quartz/stone slabs.
Coverings,07/07/2021,2021,https://www.coverings.com/,DM,Questech Corporation,5832,,http://www.questech.com,,,,"Rutland,, VT, United States",United States,Allied Products - Sealers | Miscellaneous - Bath Accessories | Tile | Tile - Decorative | Tile - Metallic,,,Visit QUESTECH: New innovative products. Meeting Suite #5832
Coverings,07/07/2021,2021,https://www.coverings.com/,DM,Prodim International,4212,,https://www.prodim-systems.com,,,,"Ft. Pierce,, FL, United States",United States,Equipment & Machinery - Fabricating | Equipment & Machinery - Hand Tools | Miscellaneous - Measuring Devices | Equipment & Machinery | Miscellaneous – Software,,"Prodim, Proliner, Prodim Factory",Come and see why Proliner templating technology is the best!
Coverings,07/07/2021,2021,https://www.coverings.com/,DM,Quail Leasing Corp.,4711,,http://www.quailleasings.com,,,,"Granite Bay,, CA, United States",United States,Miscellaneous - Credit Services | Equipment & Machinery | Miscellaneous - Consulting Services,,,Finance your equipment with Quail Leasing
Coverings,07/07/2021,2021,https://www.coverings.com/,DM,PORTSAN MABLE,4219,,http://www.portsan.com,,,,"Burdur,, Turkey",Turkey,Stone - Limestone | Stone - Marble,,,Exploure Natural Beauty
Coverings,07/07/2021,2021,https://www.coverings.com/,DM,"Portobello America, Inc.",2541,,http://www.portobelloamerica.com,,,,"Pompano Beach,, FL, United States",United States,Tile | Tile - Ceramic (Glazed) | Tile - Floor | Tile - Porcelain | Tile - Wall,,"Portobello America, Inc.","
"
Coverings,07/07/2021,2021,https://www.coverings.com/,DM,PORCEMALL USA,5645,,porcemall.com,,,,"Deerfield Beach,, FL, United States",United States,,,,
Coverings,07/07/2021,2021,https://www.coverings.com/,DM,Prissmacer Ceramica,4245,,https://www.prissmacer.es/,,,,"ONDA,, CASTELLON, Spain",Spain,Tile - Ceramic (Glazed) | Tile - Ceramic (Unglazed) | Tile - Floor | Tile - Porcelain | Tile - Wall,,"Prissmacer
Porcesshine
Porcelux
Porcebloc
SSmall Collections
Twenty MM
White Body
Massales
Stones
WOODS 
Red Body",Prissmacer Cerámica | MADE WITH LOVE
Coverings,07/07/2021,2021,https://www.coverings.com/,DM,SESEMAR MARBLE & TRAVERTINE,4221,,http://www.sesemar.com,,,,"Afyonkarahisar,, Turkey",Turkey,Stone - Marble | Stone - Pavers | Stone - Slab | Stone - Travertine | Stone - Tumbled,,,
Coverings,07/07/2021,2021,https://www.coverings.com/,DM,Porcelanicos HDC,4641,,http://www.porcelanicoshdc.com,,,,"Villafames,, Castellon, Spain",Spain,Tile - Ceramic (Glazed) | Tile - Floor | Tile - Porcelain | Tile - Stone | Tile - Wall,,PORCELANICOS HDC,WELCOME TO DISCOVER OUR NEW PRODUCTS
Coverings,07/07/2021,2021,https://www.coverings.com/,DM,PinPoint Status,3031,,www.pinpointstatus.com,,,,"Bedford Heights,, OH, United States",United States,,,,
Coverings,07/07/2021,2021,https://www.coverings.com/,DM,PIMA STONE,4423,,http://www.pimastone.com,,,,"KONYA,, Turkey",Turkey,Stone - Limestone | Stone - Marble | Stone - Mosaic | Stone - Travertine | Tile,,"PEARL BEIGE SHELLSTONE
PIMA ICE WHITE MARBLE","WELCOME TO PIMA STONE
EXCLUSIVE STONE AND TILES"
Coverings,07/07/2021,2021,https://www.coverings.com/,DM,Polcart SpA,2243,,http://www.polcart.it,,,,"Fiorano Modenese,, MO, Italy",Italy,Miscellaneous - Display Systems,,,"POLCART is one of the biggest manufacturers of display systems all over the world with a 35 years experience and the most complete products range (from binders and sample-boards to MDF and iron displays, show-room fitting out) suitable for different materials.We also develop complete merchandising systems and shop-in-shop modular elements.We sell to the main manufacturers, wholesalers and dealers all over the world."
Coverings,07/07/2021,2021,https://www.coverings.com/,DM,PM QUARTZ SURFACES PRIVATE LIMITED,144,,http://www.pmquartz.in,,,,"Bangalore,, KA, India",India,Stone - Agglomerates | Stone - Countertops | Stone - Cut-to-Size | Stone - Granite | Stone - Pavers,,PM QUARTZ,PM QUARTZ SURFACES 
Coverings,07/07/2021,2021,https://www.coverings.com/,DM,PERONDA MUSEUM HARMONY,4845,,http://ww.peronda-group.com,,,,"Onda,, Castellon, Spain",Spain,Tile - Decorative | Tile - Floor | Tile - Mosaic | Tile - Porcelain | Tile - Wall,,PERONDA GROUP,Peronda is a manufacturer of ceramic wall and floor tiles
Coverings,07/07/2021,2021,https://www.coverings.com/,DM,Pedrini SpA Ad Unico Socio,4215,,http://www.pedrini.it,,,,"Carobbio Degli Angeli,, BG, Italy",Italy,Equipment & Machinery - Cutting | Equipment & Machinery - Grinding | Equipment & Machinery - Polishing | Equipment & Machinery - Profiling | Equipment & Machinery - Routing,,,"Hi, welcome to Pedrini! Your partner to process stones"
Coverings,07/07/2021,2021,https://www.coverings.com/,DM,Panaria Ceramica,1841,,http://www.panaria.it,,,,"Finale Emilia,, MO, Italy",Italy,Tile | Tile - Ceramic (Glazed) | Tile - Ceramic (Unglazed) | Tile - Floor | Tile - Porcelain,,,Ceramica Panaria: the beauty of feeling at home
Coverings,07/07/2021,2021,https://www.coverings.com/,DM,PAMESA DO BRASIL,5528,,http://www.pamesa.com.br,,,,"CABO SANTO AGOSTINHO,, PE, Brazil",Brazil,Tile - Ceramic (Glazed) | Tile - Floor | Tile - Porcelain | Tile - Stone | Tile - Wall,,,Welcome to Pamesa do Brasil S.A.!
Coverings,07/07/2021,2021,https://www.coverings.com/,DM,QFloors,352,,https://www.qfloors.com/,,,,"South Jordan,, UT, United States",United States,Miscellaneous – Business Services | Miscellaneous - Computer Equipment | Miscellaneous - Consulting Services | Miscellaneous – Software | Miscellaneous - Training Group,,"QPro, QFloors, QCloud, QProPay, QSched, QReporter, Document Manager, MeasureSquare
",User-friendly software ideal for flooring dealers!
Coverings,07/07/2021,2021,https://www.coverings.com/,DM,Park Industries Inc.,5119,,https://www.parkindustries.com,,,,"St. Cloud,, MN, United States",United States,Equipment & Machinery | Equipment & Machinery - CNC Equipment | Equipment & Machinery - Routing | Equipment & Machinery - Saws | Equipment & Machinery - Water-jet,,"SABERjet XP, VOYAGER XP, SABER, APEX, TITAN, ATLAS, FUSION, YUKON, SIERRA, PRO-EDGE, VELOCITY, HYDROCLEAR, THINSTONE, HYDRA-SPLIT, PATHFINDER, FASTBACK, OPTIMUS",Largest stoneworking solutions manufacturer in USA
Coverings,07/07/2021,2021,https://www.coverings.com/,DM,PBA Stones,4041,,http://www.pbastones.com.br,,,,"Serra,, ES, Brazil",Brazil,Stone | Stone - Block | Stone - Granite | Stone - Quartzite | Stone - Slab,,,"PBA Stones is a worldwide reference for stones nowadays. With its wide range of materials - including exclusive high end quartzites - the company is proudly part of the TOP 10 best ornamental stones brazilian exporters. This year''s collection covers all kinds of materials, from the continuous and high prodution classics to the most beautiful and singular ones. "
Coverings,07/07/2021,2021,https://www.coverings.com/,DM,Pacific Solutions,3934,,http://www.pacific-solutions.com,,,,"Escondido,, CA, United States",United States,Miscellaneous – Software,,,Welcome to an intuitively built ERP solution.
Coverings,07/07/2021,2021,https://www.coverings.com/,DM,Pamesa Ceramica,4841,,http://www.pamesa.com,,,,"Almazora,, Castellon, Spain",Spain,Tile - Ceramic (Glazed) | Tile - Ceramic (Unglazed) | Tile - Floor | Tile - Porcelain | Tile - Wall,,,PAMESA CERAMICA welcomes you to explore booth 4841.
Coverings,07/07/2021,2021,https://www.coverings.com/,DM,Progress Profiles SpA,3726,,http://www.progressprofiles.com,,,,"Randolph,, NJ, United States",United States,Allied Products - Anti-Fracture Membranes | Allied Products - Shower Pans | Allied Products - Waterproofing | Miscellaneous - Floor Heating Systems | Tile - Trims,,"PROSHOWER SYSTEM
PRODESO HEAT MEMBRANE 
PRODESO MEMBRANE
PRODESO HEAT GRIP SYSTEM
PROLEVELING SYSTEM
PROSHOWER SYSTEM
PROTERRACE SYSTEM
PROSUPPORT TUBE SYSTEM
PROLED
PRODESO SOUND SYSTEM
PROFOIL PANEL","Arrange a meeting : 973 584 2650 or 973 876 6262
"
Coverings,07/07/2021,2021,https://www.coverings.com/,DM,"Proflex Products, inc.",3428,,http://www.proflex.us,,,,"Haines City,, FL, United States",United States,Allied Products - Sound Abatement Membranes | Allied Products - Waterproofing | Allied Products - Mortars | Allied Products - Shower Pans | Allied Products - Grout | Allied Products - Backerboard | Allied Products - Acoustical Systems | Allied Products - Adhesives | Allied Products - Anti-Fracture Membranes,,"PROFLEX has been a pioneer for years in the development of products designed to make flooring and finished surfaces last longer then ever. By keeping at forefront of ever changing technology,","Welcome to Coverings, stop by our both to see our latest."
Coverings,07/07/2021,2021,https://www.coverings.com/,DM,"Omega Diamond, Inc.",6015,,www.omegadiamond.com,,,,"Newcastle,, CA, United States",United States,Equipment & Machinery | Equipment & Machinery - Cutting | Equipment & Machinery - Edging | Equipment & Machinery - Fabricating | Equipment & Machinery - Grinding | Equipment & Machinery - Hand Tools | Equipment & Machinery - Profiling | Equipment & Machinery - Routing | Equipment & Machinery - Saws | Equipment & Supplies,,"BlueRipper, BlueRipper Jr.,RedRipper,RedRipper Jr.,BlueRipper Deepcut, EagleEdger Jr., Mini 125, Lockness Vacuum clamp, PitBull StoneShear, PitBull BigDog, UBER Profiling systems.","See the finest tools in their class, for the stone industry."
Coverings,07/07/2021,2021,https://www.coverings.com/,DM,One Step Peru - Inca Stone,2227,,http://www.inca-stone.com,,,,"Sacramento,, CA, Peru",Peru,Stone | Stone - Cut-to-Size | Stone - Pavers | Stone - Travertine | Tile - Pavers,,,
Coverings,07/07/2021,2021,https://www.coverings.com/,DM,Nuovocorso SpA,1949,,http://www.nuovocorso.it,,,,"CARPINETI,, RE, Italy",Italy,Tile - Ceramic (Glazed) | Tile - Countertop | Tile - Floor | Tile - Quarry (Glazed) | Tile - Wall,,Big Slabs by Nuovocorso,Come and see our range of 160x320 slabs.
Coverings,07/07/2021,2021,https://www.coverings.com/,DM,OMAG SpA,5114,,http://www.omagspa.it,,,,"Zanica,, BG, Italy",Italy,Equipment & Machinery - Engraving | Equipment & Machinery - Milling | Equipment & Machinery - Polishing | Equipment & Machinery - Profiling | Equipment & Machinery - Saws,,,"CNC MACHINES Cutting, milling, polishing, turning contouring


"
Coverings,07/07/2021,2021,https://www.coverings.com/,DM,Onur Marble Co.,4419,,http://www.onurmarble.com,,,,"Finike,, Antalya, Turkey",Turkey,Stone - Cut-to-Size | Stone - Limestone | Stone - Marble | Stone - Slab | Tile,,"Onur Classic Limestone,Onur Cloudy Limestone,Juralime Limestone,Ozzy Grey, Yazır Spider Beige, Phellos, Icon Brown","We always guarantee the best quality and the best service.
"
Coverings,07/07/2021,2021,https://www.coverings.com/,DM,NUOVA MONDIAL MEC SRL,5112,,,,,,"Coriano,, RN, Italy",Italy,,,,Visit us to see the best & latest technologies & equipment!
Coverings,07/07/2021,2021,https://www.coverings.com/,DM,Noat,5823,,,,,,"Schio,, VI, Italy",Italy,Equipment & Machinery,,"NOAT 
ZONATO 
CERAGIOLI 
DAL FORNO 
TECNOMBM 
FILTERING SYSTEM",SPECIALISTS IN MARBLE MACHINE SINCE 45 YEARS.
Coverings,07/07/2021,2021,https://www.coverings.com/,DM,Oceanside Glass & Tile,6036,,http://www.glasstile.com,,,,"Carlsbad,, CA, United States",United States,Tile - Glass | Tile - Mosaic | Tile - Swimming Pool | Tile | Miscellaneous – Sustainable Products,,"Oceanside Glass & Tile, Oceancare",Bringing joy to your journey one glass tile at a time.
Coverings,07/07/2021,2021,https://www.coverings.com/,DM,Northwood Machine,5619,,http://www.northwoodstoneworks.com,,,,"Louisville,, KY, United States",United States,Equipment & Machinery - Carving | Equipment & Machinery - CNC Equipment | Equipment & Machinery - Fabricating | Equipment & Machinery - Milling | Equipment & Machinery - Saws | Equipment & Machinery - Water-jet | Equipment & Machinery,,,Northwood Machine
Coverings,07/07/2021,2021,https://www.coverings.com/,DM,Noble Company,2626,,http://www.noblecompany.com,,,,"Spring Lake,, MI, United States",United States,Allied Products - Anti-Fracture Membranes | Allied Products - Shower Pans | Allied Products - Sound Abatement Membranes | Allied Products - Waterproofing | Miscellaneous - Bath Accessories,,"NobleSeal TS, CIS, and SIS; Noble Deck; ValueSeal; Chloraloy;  FreeStyle Linear & Thin-Bed Drains; ProBase; PRO-SLOPE; Noble Niche, Bench, Curb; NobleFlex; NobleBond EXT; NobleBond 21; NobleSealant",The Leader in Sheet Membranes and Shower Products
Coverings,07/07/2021,2021,https://www.coverings.com/,DM,Nicolai North America,4309,,http://www.nicolai-na.com,,,,"Grand Rapids,, MI, United States",United States,Allied Products - Tools | Equipment & Machinery - Milling | Equipment & Machinery - Polishing | Equipment & Machinery - Profiling | Equipment & Machinery - Saws,,,"NICOLAI DIAMANT - ""THE YOU ORIENTED COMPANY"""
Coverings,07/07/2021,2021,https://www.coverings.com/,DM,Nemo Power Tools,3227,,http://www.Grabo.com,,,,"Las Vegas,, NV, United States",United States,Equipment & Machinery - Flooring Equipment | Equipment & Machinery - Hand Tools | Miscellaneous - Material Handling Equipment | Stone | Tile,,"Nemo Power Tools
Grabo","Designed for stone and tile crafters, Grabo (www.Grabo.com) is a patented handheld full powered, vacuum-assisted lifter designed to reduce physical exertion, minimize workload and to safely lift and handle construction materials. It can lift up to 375lbs (170kg) and grab almost almost any material surface whether wet, dry or porous. For heavy lifting jobs,  2 Grabo units can be used in tandem with lifting straps (provided).  "
Coverings,07/07/2021,2021,https://www.coverings.com/,DM,Neolith,4445,,http://www.neolith.com,,,,"Madrid,, Spain",Spain,Stone - Countertops | Stone - Cut-to-Size | Stone - Fireplace Surrounds/Mantels | Stone - Furniture | Stone - Slab,,,"Neolith, manufactured by TheSize, is a market leading Sintered Stone brand offering a high performance architectural surface made of a 100% natural material. Since its establishment in 2009 by the founders with decades of experience in the natural stone industry, Neolith has become the surfacing material choice of a vast range of interior and exterior applications. Composed of over 50 strikingly colored and patterned models, suitable for any sort of application as furniture, kitchen countertops, flooring, cladding and facades."
Coverings,07/07/2021,2021,https://www.coverings.com/,DM,NITCO Ltd. ( INDIA ),1030,,http://www.nitco.in,,,,"Mumbai,, Maharastra, India",India,Stone - Marble | Tile - Ceramic (Glazed) | Tile - Floor | Tile - Mosaic | Tile - Wall,,"Tiles, Marble, Natural Stone","Welcome to NITCO, India’s preferred surface design expert!"
Coverings,07/07/2021,2021,https://www.coverings.com/,DM,Old Mill Brick,3131,,http://www.oldmillbrick.com,,,,"Bluffdale,, UT, United States",United States,Miscellaneous - Wall Coverings | Stone | Tile | Tile - Brick | Tile - Floor,,"Old Mill Brick makes genuine, kiln-fired thin brick products that are versatile, adding the beauty of brick to virtually any surface.",We make it easier to add brick & stone veneer to any surface
Coverings,07/07/2021,2021,https://www.coverings.com/,DM,New Tiles,4646,,http://www.new-tiles.com,,,,"VILLAFAMES,, Castellón/Castelló, Spain",Spain,Tile | Tile - Ceramic (Glazed) | Tile - Floor | Tile - Porcelain,,NEW TILES,
Coverings,07/07/2021,2021,https://www.coverings.com/,DM,NAWIC Greater Orlando Chapter 73,2025,,http://www.nawicorlando.org/,,,,"Orlando,, FL, United States",United States,Miscellaneous - Trade Association,,,"For more than 55 years, NAWIC has helped women take advantage of the opportunities in construction. Whether you want to embark on a new career, establish a networking base, be a mentor/mentee, make a difference in your community, continue your education, or invest in great friendships, NAWIC offers a variety of opportunities; large and small. Whatever position you hold you you will get out what you put in and you can expect great value from your investment"
Coverings,07/07/2021,2021,https://www.coverings.com/,DM,Original Style Limited,5837,,http://www.originalstyle.com/us,,,,"Exeter,, Devon, United Kingdom",United Kingdom,Tile - Artisan | Tile - Ceramic (Glazed) | Tile - Floor | Tile - Hand Painted | Tile - Wall,,Winchester Tile Company / Living / Core Collection / Mosaics / Glassworks / Artworks / Victorian Floor Tiles / Tileworks / Odyssey / Earthworks /,"Original Style, one of the UK's leading tile suppliers."
Coverings,07/07/2021,2021,https://www.coverings.com/,DM,Nanda Tiles,4645,,,,,,"Onda,, Castellón, Spain",Spain,Tile | Tile - Ceramic (Glazed) | Tile - Floor | Tile - Porcelain | Tile - Wall,,," Nanda Tiles began as an artistic project founded by us, a few people who passionately believe in beautiful and unique ceramic tile. We combine artisanal and industrial techniques to achieve modern tiles with a hand crafted feel. Since the beginning we have set ourselves apart from other ceramic tile manufacturers by focusing on the artisanal side of production, not wanting to lose our artistic principles to mass production. Our main focus is small format ceramic wall tiles and porcelain floor tiles. We pride ourselves on the tiles we manufacture here in Spain, perfectly suited to all styles, including your own! Great design, quality and hand-made effect, all crafted at attractive prices. We like to think that our tiles are beyond extraordinary! "
Coverings,07/07/2021,2021,https://www.coverings.com/,DM,Navarti Ceramica,4236,,http://www.navarti.com,,,,"Onda,, Castellon, Spain",Spain,Tile | Tile - Ceramic (Glazed) | Tile - Floor | Tile - Porcelain | Tile - Wall,,NAVARTI,WELCOME TO NAVARTI
Coverings,07/07/2021,2021,https://www.coverings.com/,DM,NATURELMAR MINING,4424,,http://www.naturelmar.com,,,,"Istanbul,, Istanbul, Turkey",Turkey,Stone | Stone - Cut-to-Size | Stone - Limestone | Stone - Slab | Stone - Stone Tile,,"Naturelmar Myra,Naturelmar Perla, Naturelmar Santa, Anatolian Fiorito, Corintos Bianco",We hope our lime stones can make your project more enjoyable
Coverings,07/07/2021,2021,https://www.coverings.com/,DM,MS MARMO SERVICE SRL,2407,,http://www.marmoservice.com,,,,"APRICENA (FG),, PUGLIA, Italy",Italy,Stone - Block | Stone - Cut-to-Size | Stone - Marble | Stone - Pavers | Stone - Slab,,"We offer vary types: BIANCONE, FIORITO, BRONZETTO, SERPEGGIANTE with very high aesthetic and technical standards. And also a wide range of rustic stones, and original reclaimed stones.","Welcome to you, we’re glad you’re here!"
Coverings,07/07/2021,2021,https://www.coverings.com/,DM,Natucer,4441,,http://www.natucer.es,,,,"Onda,, Castellon, Spain",Spain,Tile - Brick | Tile - Decorative | Tile - Hand Painted | Tile - Porcelain | Tile - Wall,,,"NATUCER, NATURAL CERAMICS, LOVE FOR TILES"
Coverings,07/07/2021,2021,https://www.coverings.com/,DM,National Tile Contractors Association (NTCA),4030,,http://www.tile-assn.com,,,,"Jackson,, MS, United States",United States,Miscellaneous - Trade Association,,,"Established in 1947, the National Tile Contractors Association (NTCA) is a nonprofit trade association dedicated to the professional installation of ceramic tile and natural stone. With a membership made up of over 1,500 contractors, NTCA is one of the fastest growing trade associations in the U.S. construction industry. NTCA strives to improve the tile installation trade through education and training, participation in the development of standards and methods, and communication of our initiatives to related trades."
Coverings,07/07/2021,2021,https://www.coverings.com/,DM,Monopole Ceramica,4241,,http://www.monopoleceramica.com,,,,"Onda,, Castellon, Spain",Spain,Tile - Ceramic (Glazed) | Tile - Decorative | Tile - Floor | Tile - Porcelain | Tile - Wall,,MONOPOLE CERAMICA; MARITIMA CERAMICS,Be different. Be Monopole.
Coverings,07/07/2021,2021,https://www.coverings.com/,DM,Natural Stone Institute,4627,,https://www.naturalstoneinstitute.org,,,,"Oberlin,, OH, United States",United States,Miscellaneous - Trade Association,,,
Coverings,07/07/2021,2021,https://www.coverings.com/,DM,Modern Marble,1932,,http://www.modernmarble.com,,,,"cairo,, Egypt",Egypt,Stone - Cut-to-Size | Stone - Granite | Stone - Limestone | Stone - Marble | Stone - Sculpture,,,
Coverings,07/07/2021,2021,https://www.coverings.com/,DM,MODAMAR MARBLE,4223,,http://WWW.MODAMARMARBLE.COM,,,,"AFYONKARAHISAR,, Turkey",Turkey,Stone - Cut-to-Size | Stone - Pavers | Stone - Slab | Stone - Stone Tile | Stone - Tumbled,,,Wellcome to our stand to see our tile and slab collection.
Coverings,07/07/2021,2021,https://www.coverings.com/,DM,Metropolitan Ceramics,2950,,http://www.metroceramics.com,,,,"Canton,, OH, United States",United States,Tile | Tile - Brick | Tile - Ceramic (Unglazed) | Tile - Floor | Tile - Quarry (Unglazed),,"QUARRYBASICS®
Somerset™
Down to Earth®
Metro Tread®
QUARRYBASICS® XA Abrasive
Royal Thin Brick®

METROBRICK®",Metropolitan Ceramics® - Unglazed Ceramic Quarry Tile
Coverings,07/07/2021,2021,https://www.coverings.com/,DM,Modular Vanity Tops,3045,,http://kuartzsurfaces.com,,,,"Juarez,, Nuevo Leon, Mexico",Mexico,Stone - Countertops | Stone - Sinks | Stone - Slab | Tile - Trims | Tile - Wall,,"Kuartz Surfaces, Modular Vanity Tops, Shower Walls and Modul Woods","Group of companies of Tops, Quartz Slabs, Shower Walls."
Coverings,07/07/2021,2021,https://www.coverings.com/,DM,MEHTA STONE EXPORT HOUSE,1722,,www.decorcera.com,,,,"HARYANA,, HR, India",India,,,,
Coverings,07/07/2021,2021,https://www.coverings.com/,DM,Merkrete,3424,,http://www.merkrete.com,,,,"Anaheim,, CA, United States",United States,Allied Products - Underlayment | Allied Products - Waterproofing | Allied Products - Grout | Allied Products - Joint Sealants | Allied Products - Mortars,,,
Coverings,07/07/2021,2021,https://www.coverings.com/,DM,Marmi Ghirardi Srl,2411,,http://www.ghirardi.it,,,,"Carpenedolo (BS),, Lombardia, Italy",Italy,Miscellaneous - Consulting Services | Stone - Cut-to-Size | Stone - Granite | Stone - Limestone | Stone - Marble,,"G1938 - Italian Stone Maestro 
Ghirardi Italian Stone Contractor", is Italy's 
Coverings,07/07/2021,2021,https://www.coverings.com/,DM,MD DARIO SRL,5013,,http://www.md-dario.com/en,,,,"Motta di Livenza (TV),, Italy",Italy,Equipment & Machinery | Equipment & Machinery - Cutting | Equipment & Machinery - Diamond Blades & Saws | Equipment & Machinery - Milling | Equipment & Machinery - Polishing | Equipment & Machinery - Saws,,MD DARIO,"VISIT OUR STAND, MD DARIO is present nowadays worldwide!"
Coverings,07/07/2021,2021,https://www.coverings.com/,DM,"Matec America, Inc.",4412,,http://www.matecamerica.com,,,,"High Point,, NC, United States",United States,Equipment & Machinery | Equipment & Machinery - Wastewater Treatment | Equipment & Supplies,,Matec - Alfa Pompe,Come to discover the best solution for your needs.
Coverings,07/07/2021,2021,https://www.coverings.com/,DM,"Marmotech, S.A.",430,,http://www.marmotech.com.do,,,,"Santo Domingo,, Dominican Republic",Dominican Republic,Stone - Block | Stone - Columns | Stone - Cut-to-Size | Stone - Fireplace Surrounds/Mantels | Stone - Limestone | Stone - Marble | Stone - Moldings | Stone - Mosaic | Stone - Slab | Stone - Travertine,,,"Marmotech over 20 years of experience and is the leading firm extracting, cutting, polishing and distributing dimensioned stones in the Caribbean. We operate seven quarries of Coral Stone, Portoro, Travertine, Marble and Limestone, using the latest European technology, which guarantees precision cuts and designs produced by CAD-driven machines. Our design team of architects who specialize in CAD/CAM technologies use computers with 2D and 3D technology for high precision and efficient productivity. We produce tiles, slabs, blocks, pool copings, steps, columns, moldings, mosaics, fireplace surrounds and balustrades. We export to countries worldwide."
Coverings,07/07/2021,2021,https://www.coverings.com/,DM,Mediterranea,6029,,http://www.mediterranea-usa.com,,,,"Doral,, FL, United States",United States,Tile - Ceramic (Glazed) | Tile - Countertop | Tile - Floor | Tile - Porcelain | Tile - Wall,,,Italian Design & Craftsmanship - Made in the USA
Coverings,07/07/2021,2021,https://www.coverings.com/,DM,"Marmocazi, Lda.",1526,,http://www.marmocazi.com,,,,"Negrais,, Portugal",Portugal,Tile - Floor | Tile - Decorative | Stone - Sinks | Stone - Steps | Stone - Stone Tile | Stone - Countertops | Stone - Sills | Stone - Cut-to-Size | Stone - Limestone | Stone - Marble,,,Thank you for visiting Marmocazi's booth!
Coverings,07/07/2021,2021,https://www.coverings.com/,DM,Marmo Meccanica NA,5212,,http://www.marmo-na.com,,,,"Pontiac,, MI, United States",United States,Equipment & Machinery - Chamfering | Equipment & Machinery - Edging | Equipment & Machinery - Polishing | Equipment & Machinery - Profiling | Equipment & Machinery - Saws,,MARMO MECCANICA NA,"North America Sales Division
Steve Collick ph 2488539000 
"
Coverings,07/07/2021,2021,https://www.coverings.com/,DM,MAPEI,2827,,https://www.mapei.com,,,,"Deerfield Beach,, FL, United States",United States,Allied Products - Additives | Allied Products - Grout | Allied Products - Mortars | Allied Products - Waterproofing,,,"Installation Solutions for Tile, Stone and Floor Coverings"
Coverings,07/07/2021,2021,https://www.coverings.com/,DM,Marmoelettromeccanica,5014,,http://www.marmoelettro.it,,,,"Rignano Flaminio,, Rome, Italy",Italy,Equipment & Machinery - CNC Equipment | Equipment & Machinery - Diamond Blades & Saws | Equipment & Machinery - Hand Tools | Equipment & Machinery - Polishing | Equipment & Machinery - Profiling,,Frangistone - EHS - Razorstone - Longlife - Hyper Z - Master 3500,Welcome to MEM - Operated by Aramsco Inc. in the US
Coverings,07/07/2021,2021,https://www.coverings.com/,DM,Mainzu,5128,,http://www.mainzu.com,,,,"Villarreal,, Castellon, Spain",Spain,Tile | Tile - Ceramic (Glazed) | Tile - Decorative | Tile - Porcelain | Tile - Wall,,Porcelain decos and distressed lines in 6x12,MAINZU S.L. Factory since 1964 -
Coverings,07/07/2021,2021,https://www.coverings.com/,DM,Malbros Impex Pvt. Ltd.,3815,,http://www.malbros.com,,,,"New Delhi,, Delhi, India",India,Stone - Countertops | Stone - Quartzite | Stone - Sandstone | Stone - Slab | Stone - Slate,,"Malbros is a well-known brand in the stone industry all over the world for over 3 decades, for their superior quality products at the most competitive prices and on-time delivery of shipments.","Malbros-India, largest producers of natural stone tiles"
Coverings,07/07/2021,2021,https://www.coverings.com/,DM,Lumiron,3030,,http://www.lumiron.com,,,,"Miami,, FL, United States",United States,Miscellaneous | Miscellaneous - Display Systems,,"The DAKOTA G2 LED Light Panel series is the new innovative light source. It is slim,  can be applied in all types of markets to backlit stone, onyx, quartz, and translucent stone.",LUMIRON LED Lights since 2001 In Miami. Made in the USA
Coverings,07/07/2021,2021,https://www.coverings.com/,DM,Magratex Ltda.,1627,,http://www.magratex.pt,,,,"Cascais,, Portugal",Portugal,Stone - Columns | Stone - Cut-to-Size | Stone - Limestone | Stone - Marble | Stone - Slab,,,
Coverings,07/07/2021,2021,https://www.coverings.com/,DM,Lea Ceramiche,1844,,http://www.leausa.us,,,,"Charlotte,, NC, United States",United States,Tile | Tile - Ceramic (Glazed) | Tile - Ceramic (Unglazed) | Tile - Decorative | Tile - Floor | Tile - Porcelain | Tile - Wall,,"Lea Ceramiche, Lea North America LLC.",
Coverings,07/07/2021,2021,https://www.coverings.com/,DM,Marazzi/American Olean/Ragno,5844,,https://www.Marazzitile.com,,,,"Dallas,, TX, United States",United States,Tile - Ceramic (Glazed) | Tile - Decorative | Tile - Floor | Tile - Mosaic | Tile - Porcelain,,Marazzi and American Olean,Please visit Marazzi/American Olean in booth #3523.
Coverings,07/07/2021,2021,https://www.coverings.com/,DM,Marble Systems,6032,,http://www.marblesystems.com,,,,"Fairfax,, VA, United States",United States,Stone - Granite | Stone - Marble | Tile - Floor | Tile - Mosaic | Tile - Stone,,,Turning Nature's Vision Into Stunning Reality...
Coverings,07/07/2021,2021,https://www.coverings.com/,DM,"LATICRETE International, Inc.",3419,,https://www.laticrete.com,,,,"Bethany,, CT, United States",United States,Allied Products - Adhesives | Allied Products - Cleaning Products | Allied Products - Coatings | Allied Products - Grout | Allied Products - Mortars | Allied Products - Shower Pans | Allied Products - Underlayment | Allied Products - Waterproofing | Miscellaneous - Floor Heating Systems,,"LATICRETE®, SPECTRALOCK®, HYDRO BAN®, PERMACOLOR®, STONETECH®, BULLETPROOF®, SPARTACOTE®, NXT®, LATAPOXY®, SUPERCAP®",Globally Proven Construction Solutions
Coverings,07/07/2021,2021,https://www.coverings.com/,DM,LA PONTE MARMI MARBLE AND GRANITE,2307,,http://www.laponte.it,,,,"Grezzana,, Verona, Italy",Italy,Stone - Quartzite | Stone - Onyx | Stone - Cut-to-Size | Stone - Granite | Stone - Marble,,"La Ponte Marmi, Pura Slabs",Welcome to our Booth #2949
Coverings,07/07/2021,2021,https://www.coverings.com/,DM,Legendary Floors,2126,,www.legendaryfloors.us,,,,"Dalton,, GA, United States",United States,,,,
Coverings,07/07/2021,2021,https://www.coverings.com/,DM,Laser Products Industries,5424,,http://www.laserproductsus.com,,,,"Romeoville,, IL, United States",United States,Equipment & Machinery - Fabricating | Equipment & Supplies | Miscellaneous - Measuring Devices | Miscellaneous – Software,,"LT-2D3D Laser Templator, TemplatePro",The Leader in Digital Fabrication Solutions welcomes you!
Coverings,07/07/2021,2021,https://www.coverings.com/,DM,Live Installation Demo Stage (3022),3022,,,,,,"Arlington,, VA, United States",United States,,,,
Coverings,07/07/2021,2021,https://www.coverings.com/,DM,LITOKOL / The Tile Doctor,3737,,http://www.thetiledoctor.com,,,,"Marietta,, GA, United States",United States,Allied Products - Additives | Allied Products - Grout | Allied Products - Sealers | Allied Products - Waterproofing | Tile,,"Litokol, Starlike®, The Tile Doctor, Tile Doctor Shield, Grout Admix, Crystal Glass Grout®, ZHERORisk®",LITOKOL/Tile Doctor Starlike® tile and ZHERORisk® products
Coverings,07/07/2021,2021,https://www.coverings.com/,DM,Lamosa,3241,,https://www.lamosausa.com,,,,"DALLAS,, TX, United States",United States,Tile | Tile - Ceramic (Glazed) | Tile - Floor | Tile - Porcelain | Tile - Wall,,LAMOSA USA, 
Coverings,07/07/2021,2021,https://www.coverings.com/,DM,KERAMIKA INDIANA,1721,,https://mosaictileindia.com,,,,"MORBI,, Gujarat, India",India,Stone - Mosaic | Tile - Artisan | Tile - Brick | Tile - Ceramic (Glazed) | Tile - Decorative | Tile - Hand Painted | Tile - Metallic | Tile - Mosaic | Tile - Swimming Pool | Tile - Trims,,"KERAMIKA INDIANA,
MOSAICS,
PORCELAIN MOSAICS
",100% Made in India porcelain mosaic tiles by Keramika.
Coverings,07/07/2021,2021,https://www.coverings.com/,DM,Keramicos,2519,,http://www.keramikos.com.ec,,,,"Cuenca,, Azuay, Ecuador",Ecuador,Tile - Ceramic (Glazed) | Tile - Ceramic (Unglazed) | Tile - Porcelain,,Keramikos -  Ceramica Rialto -  Ecuaceramica -  Hypoo  -  Passarella,"Keramikos Company is located in Cuenca - Ecuador – South America and is constituted by the following factories and brands. “Ceramicas Rialto” , “Ecuaceramica” and ”Italpisos” specialist in red body ceramic tile for floor and wall and glazed and unglazed porcelain tile in different dimensions , “Passarella” is dedicated to produce listello, trims, bull nose and decorative ceramic , Hypoo is the producer of sanitary wear. Keramikos is the most important producer of ceramic and porcelain tiles in Ecuador and exporting to North, Central and South America. Keramikos has 50 years of experience working with a high technology with European machinery and the most advanced quality control processes which guarantee the high level of our products and international certificates of quality."
Coverings,07/07/2021,2021,https://www.coverings.com/,DM,Kertiles LLC,5430,,http://www.kertiles.com,,,,"DORAL,, FL, United States",United States,,,"Kertiles, Euroker, Kerdecora",
Coverings,07/07/2021,2021,https://www.coverings.com/,DM,KMT Waterjet Systems Inc.,4709,,http://www.kmtwaterjet.com,,,,"Baxter Springs,, KS, United States",United States,Equipment & Machinery - Water-jet,,"STREAMLINE SL-VI Pumps, AUTOLINE & IDE Cutting Nozzles, STREAMLINE PRO Pumps",KMT Waterjet for clean cutting in stone industry & much more
Coverings,07/07/2021,2021,https://www.coverings.com/,DM,KALE,1436,,https://www.kale.com.tr/en,,,,"ISTANBUL,, ISTANBUL, Turkey",Turkey,Tile | Tile - Decorative | Tile - Floor | Tile - Porcelain | Tile - Wall,,"KALE
CANAKKALE SERAMIK
KALEBODUR 
EDILCUOGHI EDILGRES
CAMPANI",
Coverings,07/07/2021,2021,https://www.coverings.com/,DM,"KTL CERAMICA,S.L",5448,,http://www.keratile.es,,,,"Moncofar,, Castellon, Spain",Spain,Tile - Ceramic (Glazed) | Tile - Floor | Tile - Mosaic | Tile - Porcelain | Tile - Wall,,"KTL , S.L",We are waiting for you at sbooth 5448
Coverings,07/07/2021,2021,https://www.coverings.com/,DM,Jeffrey Court,5935,,http://www.jeffreycourt.com,,,,"Norco,, CA, United States",United States,Tile - Mosaic | Tile - Stone | Stone - Mosaic | Tile - Decorative | Tile - Glass,,,Welcome from Jeffrey Court: Designer & Purveyor of Fine Tile
Coverings,07/07/2021,2021,https://www.coverings.com/,DM,Kar Maden,428,,http://www.karmaden.com,,,,"Yatagan,, Mugla, Turkey",Turkey,Stone | Stone - Marble | Stone - Slab | Stone - Steps | Tile - Floor,,"Using our sector knowledge and strong supply base, we source and market a noble stone “Grigio Pineta” and ancient heritage “Calacatta Leyne (dolomite)” to elegant consumers.",Kar Maden - Marbleous!
Coverings,07/07/2021,2021,https://www.coverings.com/,DM,ITT Ceramic,4433,,https://ittceramic.com/,,,,"Sant Joan de Moró,, Castellon, Spain",Spain,Miscellaneous - Wall Coverings | Tile | Tile - Ceramic (Glazed) | Tile - Floor | Tile - Porcelain,,"ITT Ceramic, Arklam, Creative, 2Dos, Opera, Manhattan Technical Porcelain",Welcome to ITT Ceramic
Coverings,07/07/2021,2021,https://www.coverings.com/,DM,JAS Forwarding Inc.,1423,,http://www.jas.com,,,,"Atlanta,, GA, United States",United States,Miscellaneous - Freight Forwarding,,JAS Forwarding (USA) Inc.,JAS USA is excited to meet you! Come visit us! Booth# 163!
Coverings,07/07/2021,2021,https://www.coverings.com/,DM,KARAMAN NATURAL STONE,4623,,http://www.karamannaturalstone.com,,,,"Çekmeköy,, Istanbul, Turkey",Turkey,Stone - Marble | Stone - Mosaic | Stone - Slab | Tile - Glass | Tile - Mosaic,,,"The motto of the Company is  "" Commitment to Quality Export"""
Coverings,07/07/2021,2021,https://www.coverings.com/,DM,"JIANGSU PARKMAN WOODS INDUSTRY CO.,LTD",2121,,http://www.pkmwood.com,,,,"CHANGZHOU,, JIANGSU, China",China,Miscellaneous - Cork Flooring | Tile - Floor,,,"OUR FACTORY IS PROFESSIONAL VINYL FLOORING MANUFACTURER INCLUDING WPC FLOORING, RIGID CORE, LVT AND LAMINATE FLOORING MANUFACTURER IN CHINA. OUR ANNUAL OUTPUT IS 1.5 MILLION M2. WE HAVE PROFESSIONAL INTERNATIONAL BUSINESS TEAM TO SUPPLY BEST SERVICE."
Coverings,07/07/2021,2021,https://www.coverings.com/,DM,Italmosaico,1430,,http://www.italmosaico.com,,,,"Rugao,, Jiangsu, China",China,Stone - Mosaic | Stone - Moldings,,,Welcome to ITALMOSAICO marble world!
Coverings,07/07/2021,2021,https://www.coverings.com/,DM,iTiles LLC,5752,,https://www.itilesllc.com/,,,,"Boca Raton,, FL, United States",United States,,,,
Coverings,07/07/2021,2021,https://www.coverings.com/,DM,Istanbul Mineral Exporters' Association,4619,,http://www.turkishstones.org,,,,"Istanbul,, Bahcelievler, Turkey",Turkey,Stone - Block | Stone - Limestone | Stone - Marble | Stone - Onyx | Stone - Travertine,,TURKISH STONES,Visit Us and Discover Turkish Stones!
Coverings,07/07/2021,2021,https://www.coverings.com/,DM,Italian Trade Commission,2213,,http://www.italtrade.com,,,,"Miami,, FL, United States",United States,Stone | Stone - Granite | Stone - Marble,,,Welcome to the Italian Trade Commission Information Center
Coverings,07/07/2021,2021,https://www.coverings.com/,DM,Italian Trade Agency,5115,,http://www.ice.it,,,,"Chicago,, IL, United States",United States,Equipment & Machinery | Equipment & Supplies,,"Dal Prete Engineering, IMS - Industrial Machines Solutions, Marmo Elettromeccanica, MD Dario, Nuova Mondial Mec, Omag, Confindustria Marmomacchine",Visit us to see the best & latest technologies & equipment!
Coverings,07/07/2021,2021,https://www.coverings.com/,DM,Italcrafts,1633,,www.italcrafts.it,,,,"Fiorano Modenese,, MO, Italy",Italy,,,,
Coverings,07/07/2021,2021,https://www.coverings.com/,DM,International Masonry Institute (IMI),3233,,http://www.imiweb.org,,,,"Addison,, IL, United States",United States,,,," (IMI’s) team of architects, engineers, and construction professionals offers free support for tile installations and masonry design and construction projects."
Coverings,07/07/2021,2021,https://www.coverings.com/,DM,"International Wholesale Tile, LLC",2634,,http://www.iwttesoro.com,,,,"Palm City,, FL, United States",United States,Allied Products | Stone | Tile | Tile - Glass | Tile - Swimming Pool,,Tesoro; Cornerstone; Nautilus Premium Architectural & Design Products; Tile Studio,Quality Products for Life!
Coverings,07/07/2021,2021,https://www.coverings.com/,DM,Inxeption,1625,,https://www.inxeption.com/,,,,"Brisbane,, CA, United States",United States,,,"EasyStore, EasyOrder, All-mode shipping.","Inxeption: online selling, logistics and financial services."
Coverings,07/07/2021,2021,https://www.coverings.com/,DM,IQ Power Tools,3723,,http://www.iqpowertools.com,,,,"Moreno Valley,, CA, United States",United States,Equipment & Machinery - Cutting | Equipment & Machinery - Diamond Blades & Saws | Equipment & Machinery - Saws | Stone | Tile,,,DRY Cut Tile Saws with Integrated Dust Collection
Coverings,07/07/2021,2021,https://www.coverings.com/,DM,Keramin,2822,,http://keramin.com,,,,"Minsk,, Belarus",Belarus,Tile - Borders | Tile - Brick | Tile - Ceramic (Glazed) | Tile - Ceramic (Unglazed) | Tile - Decorative | Tile - Floor | Tile - Glass | Tile - Mosaic | Tile - Porcelain | Tile - Wall,,Keramin,Keramin - the best ideas and reliable supplies!
Coverings,07/07/2021,2021,https://www.coverings.com/,DM,IMS USA LLC,5015,,http://www.imsusanc.com,,,,"WILMINGTON,, NC, United States",United States,Equipment & Machinery | Equipment & Machinery - CNC Equipment,,,Welcome to IMS USA!
Coverings,07/07/2021,2021,https://www.coverings.com/,DM,Impertek,2249,,http://www.impertek.com,,,,"Ceggia,, VE, Italy",Italy,Allied Products | Allied Products - Spacers | Allied Products - Waterproofing | Equipment & Machinery - Flooring Equipment | Tile - Roof,,"Impertek Srl
The company’s success is based on its constant and continuous technological products innovation, as well as on its attention to the daily needs of an evolving Market.","The right support for the building industry


"
Coverings,07/07/2021,2021,https://www.coverings.com/,DM,IDEALMARMI - DOMOS,2415,,http://www.idealmarmi.it,,,,"Verona,, Italy",Italy,Stone - Cut-to-Size | Stone - Marble | Stone - Sills | Stone - Stone Tile | Tile - Stone,,"IDEALMARMI --- DOMOS DESIGN 
Marble - Granite - Stone - Travertine - Engineered Stone","Come and visit our booth!!

IDEALMARMI & DOMOS Welcome You
"
Coverings,07/07/2021,2021,https://www.coverings.com/,DM,Infinity | The engineered surface,1827,,www.infinitysurfaces.it,,,,"Pavullo,, MO, Italy",Italy,,,,
Coverings,07/07/2021,2021,https://www.coverings.com/,DM,HUROK MARBLE,4521,,http://WWW.HUROK.COM,,,,"KUTAHYA,, Turkey",Turkey,Stone | Stone - Marble | Stone - Pavers | Tile,,,"Hurok Marble established in 1981, is one of the leading companies of the natural stone industry. We have created an esthetically, elegant and stylish difference in our products by combining the culture of old civilizations with the newest production technologies. We have production facilities in the City of Kutahya, Turkey with 24.000 m2 of enclosed production facilities and 80.000 m2 of open area where we cut and package our top quality natural stone products. We have a total of 120.000 square feet of well-organized U.S. based distribution centers in South Florida to give faster and efficient logistical support to our clients in the United States, Canada, Mexico, Central America, South America and the Caribbean."
Coverings,07/07/2021,2021,https://www.coverings.com/,DM,Hunt Tool Co.,1830,,http://Hunttoolco.com,,,,"Belton,, MO, United States",United States,Allied Products - Spacers | Allied Products - Tools | Equipment & Machinery - Hand Tools | Equipment & Supplies | Miscellaneous - Measuring Devices,,,
Coverings,07/07/2021,2021,https://www.coverings.com/,DM,Intermatex USA,5446,,http://www.intermatex-usa.com,,,,"Savannah GA,, United States",United States,Stone - Mosaic | Tile - Floor | Tile - Glass | Tile - Mosaic | Tile - Porcelain,,"Intermatex USA LLC,
Intermatex SL.

",Welcome to Intermatex USA
Coverings,07/07/2021,2021,https://www.coverings.com/,DM,Ibis Smart Marble Pvt Ltd,1027,,http://www.ibissmartmarble.com,,,,"Morbi,, GJ, India",India,Tile | Tile - Ceramic (Glazed) | Tile - Ceramic (Unglazed) | Tile - Countertop | Tile - Decorative | Tile - Floor | Tile - Mosaic | Tile - Pavers | Tile - Porcelain | Tile - Wall,,IBIS is the perfect combination of visionary designs and technological performance.,Welcome to the world of beautiful porcelain slabs and tiles.
Coverings,07/07/2021,2021,https://www.coverings.com/,DM,Infinity Drain,3426,,https://infinitydrain.com,,,,"Amityville,, NY, United States",United States,Allied Products - Shower Pans | Miscellaneous - Bath Accessories,,,Welcome to Infinity Drain''s virtual booth!
Coverings,07/07/2021,2021,https://www.coverings.com/,DM,Halcon Ceramicas,5335,,http://www.halconceramicas.com,,,,"Alcora,, Castellon, Spain",Spain,Tile - Ceramic (Glazed) | Tile - Floor | Tile - Mosaic | Tile - Porcelain | Tile - Trims,,"Halcón Cerámicas

",Halcón Cerámicas - live your tiles
Coverings,07/07/2021,2021,https://www.coverings.com/,DM,HAIFA ADHESIVES AND SEALERS,146,,http://www.haifalimestone.com,,,,"WEST PALM BEACH,, FL, United States",United States,,,,
Coverings,07/07/2021,2021,https://www.coverings.com/,DM,Grespania,5141,,http://www.grespania.com,,,,"Castellon,, Castellon, Spain",Spain,Tile | Tile - Ceramic (Glazed) | Tile - Floor | Tile - Porcelain | Tile - Wall,,"GRESPANIA
COVERLAM
BELLACASA",Visit us at www.grespania.com
Coverings,07/07/2021,2021,https://www.coverings.com/,DM,"Groves, Incorporated",5024,,http://www.grovesglassandstone.com,,,,"Woodstock,, IL, United States",United States,Equipment & Machinery - Fabricating | Equipment & Supplies | Miscellaneous - Material Handling Equipment | Miscellaneous | Stone,,"Fabrication Tables, Transport Racks, Miter Up, Bundle Racks, A-Frames, Transport Carts, Truck Racks, Shop Carts, Fabrication Carts, Drywall Carts, Install Carts, Cut-Out Stands, Spreader Beam",Groves manufactures stone storage & transportation products.
Coverings,07/07/2021,2021,https://www.coverings.com/,DM,Gruppo Romani SpA,6028,,http://www.grupporomanispa.com/,,,,"Casalgrande,, RE, Italy",Italy,Tile,,Serenissima - Cir - Cercom - Cerasarda - Isla Tiles,The company is a man who believes in the future
Coverings,07/07/2021,2021,https://www.coverings.com/,DM,GNC Meccanica,5012,,http://www.gncmeccanica.com,,,,"Pesaro,, Italy",Italy,Equipment & Machinery - CNC Equipment | Equipment & Machinery - Fabricating | Equipment & Machinery - Polishing | Equipment & Machinery - Profiling | Equipment & Machinery - Routing,,," was founded in 1996 in Pesaro, Italy, and from its early days began the manufacturing of suction-cups, tool forks, tool holders and CNC machines accessories for glass and stone processing."
Coverings,07/07/2021,2021,https://www.coverings.com/,DM,GMM SpA,4712,,http://www.gmm.it/uk/gmm_storia.asp,,,,"Gravellona Toce,, VB, Italy",Italy,Equipment & Machinery | Equipment & Machinery - Chamfering | Equipment & Machinery - CNC Equipment | Equipment & Machinery - Cutting | Equipment & Machinery - Cutting & Rolling Machine | Equipment & Machinery - Edging | Equipment & Machinery - Fabricating | Equipment & Machinery - Flooring Equipment,,"Eura, Tecna, Axia, Sirio, Giga, Brio CNC, Intra CNC, Extesa CNC, Egil CNC, Litox CNC and Zeda CNC
",GMM SPA - From Bridge Saws to Block Cutters.
Coverings,07/07/2021,2021,https://www.coverings.com/,DM,Intermac,6018,,http://www.intermac.com,,,,"Charlotte,, NC, United States",United States,Equipment & Machinery | Equipment & Machinery - CNC Equipment | Equipment & Machinery - Cutting | Equipment & Machinery - Edging | Equipment & Machinery - Engraving | Equipment & Machinery - Polishing | Equipment & Machinery - Routing | Equipment & Machinery - Saws | Equipment & Machinery - Water-jet | Miscellaneous – Software,,"Join us at Covering''s 2021 as we keep contributing to the strength and power of Industry 4.0 with new machines, software and tools. Visit our booth to learn more.",Join us at Coverings 2021! #livetheexperience
Coverings,07/07/2021,2021,https://www.coverings.com/,DM,Geotiles,4831,,http://www.geotiles.com,,,,"Vila-real,, España, Spain",Spain,Tile - Ceramic (Glazed) | Tile - Ceramic (Unglazed) | Tile - Floor | Tile - Porcelain | Tile - Wall,,,We are pleased to present our new catalogue 2020.
Coverings,07/07/2021,2021,https://www.coverings.com/,DM,Gianni Ruberti,5836,,,,,,"New York,, NY, United States",United States,,,,
Coverings,07/07/2021,2021,https://www.coverings.com/,DM,"Gulf Wave Custom Design, LLC",4511,,http://www.gulfwavecustomdesign.com,,,,"Indianapolis,, IN, United States",United States,Equipment & Machinery | Equipment & Machinery - Fabricating | Equipment & Machinery - Flooring Equipment | Miscellaneous - Material Handling Equipment,,Gulf Wave Custom Design will display a Patent Pending Fabrication Table that is unlike anything you''ve ever seen!  All of our products are MADE IN THE U.S.A.!,American Innovation and Superior Quality Have Joined Forces!
Coverings,07/07/2021,2021,https://www.coverings.com/,DM,Foshan Hengsheng New Material Co. Ltd.,625,,https://www.hengxingmosaic.com/,,,,"Foshan,, Guangdong, China",China,Stone - Mosaic | Tile - Decorative | Tile - Glass | Tile - Mosaic | Tile - Swimming Pool,,,Welcome to visit us! We're a mosaic factory from China.
Coverings,07/07/2021,2021,https://www.coverings.com/,DM,HAPPY HOUSE SRL,1849,,http://www.happyhouseitalia.com,,,,"FIORANO,, MO, Italy",Italy,Tile - Ceramic (Glazed) | Tile - Ceramic (Unglazed) | Tile - Decorative | Tile - Floor | Tile - Porcelain,,,Touch HH
Coverings,07/07/2021,2021,https://www.coverings.com/,DM,"Gaba Granite, Inc.",4814,,http://www.Gabagranite.com,,,,"Mechanicsville,, VA, United States",United States,,,,
Coverings,07/07/2021,2021,https://www.coverings.com/,DM,"Fujian Quanzhou Nanxing Marble CO.,LTD",2024,,http://www.dongxingstone.com,,,,"NAN'AN,, FUJIAN, China",China,Stone - Granite | Stone - Marble | Stone - Quartzite | Stone - Terrazzo,,"DONGXING TERRAZZO,RENATO","Dongxing Group, located in Shuitou Town Nanan city which is known as “China Stone City”, is a modernization enterprise in combining the Mineral Exploring, Product Design, Product R&D, Product Manufacturing with the Integrated Marketing. Dongxing involves in many industries like Stone Manufacturing and International Trading, Artistic Jade Sculpture, Jewelry Ornament, Finance Investment, Real Estate, and has created a cultural and creative industry-wide chain."
Coverings,07/07/2021,2021,https://www.coverings.com/,DM,"Florida Tile, Inc.",3741,,http://www.floridatile.com,,,,"Lexington,, KY, United States",United States,Stone - Stone Tile | Tile | Tile - Floor | Tile - Porcelain | Tile - Wall,,"HDP - High Definition Porcelain
DP - Digital Porcelain
Pietra Art
VitraArt 
MetalArt

","Florida Tile invites you to be our guest at booth 3741. 
"
Coverings,07/07/2021,2021,https://www.coverings.com/,DM,Flow Waterjet,5224,,https://www.FlowWaterjet.com,,,,"Kent,, WA, United States",United States,Equipment & Machinery - Cutting | Equipment & Machinery - Water-jet,,"Mach Waterjet Series
Dynamic XD®
Pivot+™
HyperPressure
Dynamic Waterjet®
UltraPierce™
HyperPressure™
Paser Mach4™
HyperJet®
Hyplex®
Paser®
FlowXpert® 2016
FlowPath™
FlowCut™
FlowNest®",See the world's most popular waterjet cutting in booth #5224
Coverings,07/07/2021,2021,https://www.coverings.com/,DM,Floor Coverings Education Foundation,3233,,wfca.org,,,,"Dalton,, GA, United States",United States,,,,
Coverings,07/07/2021,2021,https://www.coverings.com/,DM,La Fabbrica SpA,5827,,http://www.lafabbrica.it,,,,"Castel Bolognese,, RA, Italy",Italy,Tile - Ceramic (Glazed) | Tile - Ceramic (Unglazed) | Tile - Porcelain,,La Fabbrica - AVA Extraordinary Size,You are welcome at our booth number 2155
Coverings,07/07/2021,2021,https://www.coverings.com/,DM,Gallos Marmoleria S.A.,2127,,http://gallosmarmol.com.pe,,,,"Lurin,, Lima, Peru",Peru,Stone - Cut-to-Size | Stone - Pavers | Stone - Slab | Stone - Stone Tile | Stone - Travertine,,,"Welcome to Gallos Marble, travertine producers from Peru to the world. We market our products in more than 20 countries around the world, maintaining the highest standard of quality and service. Gallos marble is the result of over 140 years of experience in the stone industry.  All of our stones come from our own quarries that are located at more than 3500m.s.n.m. in the Andes of Peru. These quarries are operated by ourselves using the latest technology and with the best local workforce. Our stones have been selected over generations for its architectural features, excellent physical properties and the large size of its reserves. The unique stones that Gallos processes are distinguished by their character and physical endurance.  Four modern plants are responsible for the production of a complete line of products including Tiles, Slabs, Mosaics, Sinks, Molding, Pavers, Cut to size, among others. By working with us you will be sourced with unique and different to other travertines available, products that will distinguish you from the rest, giving you an edge over your competitors. To learn more about our stones and company please visit our website :  "
Coverings,07/07/2021,2021,https://www.coverings.com/,DM,Flexijet North America,4512,,http://www.myflexijet.com,,,,"Bad Oeynhausen,, Germany",Germany,Equipment & Machinery | Equipment & Machinery - CNC Equipment | Miscellaneous - Measuring Devices | Stone - Countertops | Stone - Fireplace Surrounds/Mantels,,Flexijet 3D Next Generation,"Schedule an online demo today to learn about Flexijet 3D!
"
Coverings,07/07/2021,2021,https://www.coverings.com/,DM,Ferrari & Cigarini Srl.,5215,,http://www.ferrariecigarini.com,,,,"Maranello,, MO, Italy",Italy,Equipment & Machinery - Chamfering | Equipment & Machinery - Cutting | Equipment & Machinery - Edging | Equipment & Machinery - Polishing | Equipment & Machinery - Profiling,,,100% MADE IN ITALY combining innovation and experience
Coverings,07/07/2021,2021,https://www.coverings.com/,DM,Floor Italia Ceramiche,2341,,http://www.flooritaliaceramiche.it,,,,"Salerno,, Italy",Italy,Tile - Ceramic (Glazed) | Tile - Floor | Tile - Porcelain | Tile - Wall | Tile,,"Floor Italia ceramiche is our unique Flag. Wherever we produce our wonderful tiles, we ship everywhere in the world. Under our distinctive Italian concept, you have only one top service worldwide.",WELCOME AT HOME... WE LOVE TO PAVE THE ROADS OF THE WORLD
Coverings,07/07/2021,2021,https://www.coverings.com/,DM,FH STONE SOURCE s.r.l.,2214,,,,,,"Camaiore (LU),, Toscana, Italy",Italy,Stone | Stone - Block | Stone - Marble | Stone - Statuary,,,"STATUARIO, CALACATTA, CARRARA and all ITALIAN MARBLES 
"
Coverings,07/07/2021,2021,https://www.coverings.com/,DM,Fethiye Marble,4724,,http://www.fethiyemermer.com,,,,"Mugla,, Turkey",Turkey,Stone | Stone - Onyx | Stone - Slab | Stone - Travertine | Tile - Floor | Tile - Stone | Stone - Block | Stone - Cut-to-Size | Stone - Limestone | Stone - Marble,,,It's an honour to welcome you in Orlando.We wish to see you.
Coverings,07/07/2021,2021,https://www.coverings.com/,DM,Fato Stone Srl,2309,,,,,,"Melpignano (LE) ,, Puglia, Italy",Italy,,,,
Coverings,07/07/2021,2021,https://www.coverings.com/,DM,"FE COVERINGS, INC.",625,,http://www.fecoverings.com,,,,"Vancouver,, BC, Canada",Canada,Tile - Ceramic (Glazed) | Tile - Glass | Tile - Murals | Tile - Porcelain | Tile,,"FE COVERINGS, INC.",
Coverings,07/07/2021,2021,https://www.coverings.com/,DM,Fabricator's Choice LLC,4415,,http://www.fabchoice.com,,,,"Cottage Grove,, MN, United States",United States,Equipment & Machinery - CNC Equipment | Equipment & Machinery - Edging | Equipment & Machinery - Saws | Miscellaneous - Consulting Services | Miscellaneous - Measuring Devices,,"PhotoTop + Organize Digital Templating 
Loffler & Burkhardt Stone Systems
Stone Business Software Systems  
Moraware Software
Fab Choice Stone Digital Manufacturing Consulting",Fab Choice Is #1 for Digital Manufacturing - Field to Finish
Coverings,07/07/2021,2021,https://www.coverings.com/,DM,Expo Obra Blanca S DE RL D,3233,,www.obrablancaexpo.com,,,,"Monterey,, NL, Mexico",Mexico,,,,
Coverings,07/07/2021,2021,https://www.coverings.com/,DM,Exotica Ceramic pvt ltd,1523,,http://Www.exoticaceramic.com,,,,"Morbi,, Gujrat, India",India,Tile - Ceramic (Glazed) | Tile - Floor | Tile - Porcelain | Tile - Wall,,,WELCOME TO EXOTICA
Coverings,07/07/2021,2021,https://www.coverings.com/,DM,Fantastic Glass Tile Inc,145,,http://FANTASTICGLASSTILE.COM,,,,"FARMINGDALE,, NY, United States",United States,,,,
Coverings,07/07/2021,2021,https://www.coverings.com/,DM,Eterno Ivica,2241,,http://www.eternoivica.com,,,,"Padova,, Italy",Italy,Allied Products - Spacers | Allied Products - Waterproofing | Equipment & Machinery - Flooring Equipment | Equipment & Machinery - Levelers,,PEDESTAL/WOODECK Outdoor raised floors,Welcome to the world of OUTDOOR RAISED FLOORS
Coverings,07/07/2021,2021,https://www.coverings.com/,DM,"EuroStone Machine USA, Inc.",4015,,https://www.eurostoneusa.com/,,,,"Hilton Head Island,, SC, United States",United States,Equipment & Machinery,,"Simec 
Fantini 
OMEC 
MEC 
Maema
Giacomini","Find the Quarry & Sone Fabricating Machines 

"
Coverings,07/07/2021,2021,https://www.coverings.com/,DM,Elios Ceramica,5927,,http://www.eliosceramica.com,,,,"Fiorano Modenese,, MO, Italy",Italy,Tile | Tile - Ceramic (Glazed) | Tile - Floor | Tile - Murals | Tile - Swimming Pool,,,"Elios Ceramica is renowed Brand part of the Italcer Group, always careful to satisfy the demands of the market."
Coverings,07/07/2021,2021,https://www.coverings.com/,DM,Energie Ker,1846,,http://www.energieker.com,,,,"Pavullo,, MO, Italy",Italy,Tile - Ceramic (Glazed) | Tile - Ceramic (Unglazed) | Tile - Countertop | Tile - Floor | Tile - Mosaic,,"EnergieKer 
EKxtreme slabs
TH2.0 20mm 
Gold Art Ceramica Spa","GOOD ITALIAN QUALITY TILES AT A REASONABLE PRICE !!
"
Coverings,07/07/2021,2021,https://www.coverings.com/,DM,Emotion Ceramics,5635,,http://www.emotionceramics.es,,,,"Alcora,, Castellon, Spain",Spain,Tile - Ceramic (Glazed) | Tile - Floor | Tile - Porcelain,,Emotion Ceramics,Emotion- Moved by feelings
Coverings,07/07/2021,2021,https://www.coverings.com/,DM,EM EUROMARMI STONE DESIGN SRL,2413,,https://www.euromarmi.eu,,,,"San Gregorio Magno,, Campania, Italy",Italy,Stone - Borders | Stone - Columns | Stone - Countertops | Stone - Cut-to-Size | Stone - Fireplace Surrounds/Mantels,,,"The activity of the company is facing the furniture industry, building and architectural projects and our product line includes wonderful water jet  floorings, wall cladding, intarsia inlays, columns, capitals, sculptures, fountains, vanity and kitchen countertops, fireplaces and cut-to-size tiles."
Coverings,07/07/2021,2021,https://www.coverings.com/,DM,Ege Seramik,2819,,http://www.egeseramik-usa.com,,,,"Norcross,, GA, United States",United States,Tile | Tile - Ceramic (Glazed) | Tile - Floor | Tile - Porcelain | Tile - Wall,,"Ege Seramik, Digital Tile, Duranite",We look forward to seeing you at our booth 2819!
Coverings,07/07/2021,2021,https://www.coverings.com/,DM,"Elastic Decorative Stone, LLC",623,,www.elasticdecorativestone.com,,,,"Ft. Meyers,, FL, United States",United States,,,,
Coverings,07/07/2021,2021,https://www.coverings.com/,DM,GDA Marmi,2311,,http://www.gdamarmi.com,,,,"Massa,, MS, Italy",Italy,Stone | Stone - Block | Stone - Slab,,,Come and visit with us in booth #2311
Coverings,07/07/2021,2021,https://www.coverings.com/,DM,Ecoceramic,4827,,http://www.ecoceramic.es,,,,"Castellon,, Onda, Spain",Spain,Tile - Ceramic (Glazed) | Tile - Floor | Tile - Stone | Tile - Wall,,Brand Ecoceramic,We are represented in more than 100 countries worldwide.
Coverings,07/07/2021,2021,https://www.coverings.com/,DM,"GV Service, Inc.",4509,,https://www.gvservice.com,,,,"Alpharetta,, GA, United States",United States,Equipment & Machinery | Equipment & Machinery - Cutting | Equipment & Machinery - Diamond Blades & Saws | Equipment & Machinery - Edging | Equipment & Machinery - Profiling,,"Brands: BRETON – Machinery; GVDT – Diamond Blades and Tooling; AZETAGOMMA - Belting; GAVAZZI – Glass Fiber Netting; Zafferani – Porcelain Pavers Machinery; SMALTOCHIMICA – Chemicals 
",BRINGING YOU TOMORROW'S TECHNOLOGY TODAY!
Coverings,07/07/2021,2021,https://www.coverings.com/,DM,Dune,4249,,https://duneceramics.com/,,,,"Jacksonville,, FL, United States",United States,Tile | Tile - Ceramic (Glazed) | Tile - Floor | Tile - Mosaic | Tile - Porcelain,,,
Coverings,07/07/2021,2021,https://www.coverings.com/,DM,Emac,4541,,http://www.emac-america.com,,,,"Miami,, FL, United States",United States,Allied Products - Anti-Slip Coatings | Allied Products - Finishes | Miscellaneous - Expansion Joint Systems | Tile - Borders | Tile - Decorative,,EMAC®,"Emac, High Quality Trims & Profiles for Tiles"
Coverings,07/07/2021,2021,https://www.coverings.com/,DM,Dimpomar,823,,http://www.dimpomar.com,,,,"Vila Vicosa,, Portugal",Portugal,Stone - Cut-to-Size | Stone - Limestone | Stone - Marble | Stone - Moldings | Stone - Slab,,"Rosa Aurora Marble, Moca Cream Limestone, CNC Fabrication, Natural Stone from Portugal and around the World",Dimpomar - Expert in Natural Stone
Coverings,07/07/2021,2021,https://www.coverings.com/,DM,Drama Marble,4133,,www.dramamarble.com,,,,"DR, Greece",Greece,,,,
Coverings,07/07/2021,2021,https://www.coverings.com/,DM,Emigres,4234,,http://www.emigres.es,,,,"Alcora,, Castellon, Spain",Spain,Tile | Tile - Porcelain | Tile - Wall | Tile - Ceramic (Glazed) | Tile - Floor,,EMIGRES,Welcome to Emigres!
Coverings,07/07/2021,2021,https://www.coverings.com/,DM,Easy Stone Shop,6021,,,,,,"Bolingbrook,, IL, United States",United States,Stone,,,
Coverings,07/07/2021,2021,https://www.coverings.com/,DM,DreamStone,140,,http://www.dreamstone.cr,,,,"SJ, Costa Rica",Costa Rica,,,,
Coverings,07/07/2021,2021,https://www.coverings.com/,DM,D'Stile Import Co.,4033,,http://DSTILEIMPORT.COM,,,,"Cutler Bay,, FL, United States",United States,Tile - Floor | Tile - Mosaic | Tile - Pavers | Tile - Porcelain | Tile - Wall,,,
Coverings,07/07/2021,2021,https://www.coverings.com/,DM,DFG NATURAL STONE,4430,,http://www.dfg.es,,,,"LA CABRERA,, Spain",Spain,Stone | Stone - Block | Stone - Granite | Stone - Quartzite | Tile - Stone,,,
Coverings,07/07/2021,2021,https://www.coverings.com/,DM,DECOVITA YAPI ÜRÜNLERİ SANAYİ VE TİCARET A.Ş,1033,,https://www.decovitausa.com/,,,,"Sterling,, VA, United States",United States,Tile - Ceramic (Glazed) | Tile - Floor | Tile - Pavers | Tile - Porcelain | Tile - Special Purpose,,, ​
Coverings,07/07/2021,2021,https://www.coverings.com/,DM,DC Industrial Controls,6020,,www.DCIndustrialControls.com,,,,"Naples,, FL, United States",United States,,,,
Coverings,07/07/2021,2021,https://www.coverings.com/,DM,DHL Procurement inc,2027,,www.DHLprocurement.co,,,,"Boca Raton,, FL, United States",United States,,,,
Coverings,07/07/2021,2021,https://www.coverings.com/,DM,"Del Conca USA, Inc.",1446,,http://www.delconcausa.com,,,,"Loudon,, TN, United States",United States,Tile | Tile - Floor | Tile - Pavers | Tile - Porcelain | Tile - Swimming Pool,,"Del Conca USA is located at 155 Del Conca Way, Loudon, TN, and is one of the leading industrial companies in the ceramic industry in the USA.",Effortless luxury porcelain for the modern space
Coverings,07/07/2021,2021,https://www.coverings.com/,DM,DENVER USA,4819,,https://www.denverusamachinery.com/,,,,"Winston Salem,, NC, United States",United States,Equipment & Machinery - CNC Equipment | Equipment & Machinery - Cutting | Equipment & Machinery - Fabricating | Equipment & Machinery - Saws | Equipment & Machinery - Water-jet,,"Including Quota multifunctional CNC work centers, 3-,4- and 5-axis bridge saws, 3- and 5-axis Aqua waterjets, and Vision single head surface polisher.",DENVER USA meets you with our complete machinery offering
Coverings,07/07/2021,2021,https://www.coverings.com/,DM,CREAPRAC USA INC.,3032,,http://www.creaprac.com,,,,"CHULA VISTA,, CA, United States",United States,Tile - Trims,,,"CREAPRAC, 
For an Impeccable and Durable Instalation."
Coverings,07/07/2021,2021,https://www.coverings.com/,DM,Crossville Inc.,2547,,http://www.crossvilleinc.com,,,,"Crossville,, TN, United States",United States,Tile | Tile - Floor | Tile - Glass | Tile - Mosaic | Tile - Porcelain,,"Porcelain Tile—Made in the USA | Crossville Porcelain Countertops | Designer Glass, Metal & Mosaic | Crossville Porcelain Tile Panels | Colorful Ceramic Wall Tile | The Most Modern Surfacing Solutions",Discover Crossville for Porcelain Tile & Surfacing Solutions
Coverings,07/07/2021,2021,https://www.coverings.com/,DM,CZN Tech,3328,,www.czntech.com,,,,"Highlands Ranch,, CO, United States",United States,,,,
Coverings,07/07/2021,2021,https://www.coverings.com/,DM,Dade Building Materials,5327,,http://dadetrade.com,,,,"Nules,, Castellón, Spain",Spain,Tile - Ceramic (Glazed) | Tile - Ceramic (Unglazed) | Tile - Floor | Tile - Mosaic | Tile - Porcelain,,,
Coverings,07/07/2021,2021,https://www.coverings.com/,DM,Comp-U-Floor Software,3130,,http://www.comp-u-floor.com/,,,,"Maitland,, FL, United States",United States,Miscellaneous - Computer Equipment | Miscellaneous - Consulting Services | Miscellaneous – Software,,"Comp-U-Floor ERP Software, Comp-U-Floor Estimator, Comp-U-Floor Wireless Warehousing.",Comp-U-Floor welcomes our International Clients!
Coverings,07/07/2021,2021,https://www.coverings.com/,DM,Cooperativa Ceramica D'Imola,1041,,http://www.ccimola.com,,,,"Imola,, BO, Italy",Italy,Tile - Ceramic (Glazed) | Tile - Ceramic (Unglazed) | Tile - Porcelain,,"Imola
LaFaenza
Leonardo

",Looking forward to an exciting Coverings 2018!
Coverings,07/07/2021,2021,https://www.coverings.com/,DM,Dal Prete,5113,,http://www.dalprete.com,,,,"SANT'AMBROGIO DI VALPOLICELLA,, VR, Italy",Italy,Equipment & Machinery - Wastewater Treatment,,,Visit us at the Italian Pavilion to learn more!
Coverings,07/07/2021,2021,https://www.coverings.com/,DM,CORTAG TOOLS USA,2926,,https://www.cortag.com.br/,,,,"Mogi Mirim,, SP, Brazil",Brazil,Allied Products - Tools | Equipment & Machinery - Cutting | Equipment & Machinery - Diamond Blades & Saws | Equipment & Machinery - Hand Tools | Equipment & Machinery - Saws,,CORTAG,Welcome to visit us in Coverings ''21
Coverings,07/07/2021,2021,https://www.coverings.com/,DM,Cotto D'Este USA,3741,,http://www.cottodesteusa.com,,,,"Lexington,, KY, United States",United States,Tile | Tile - Floor | Tile - Porcelain | Tile - Special Purpose | Tile - Wall,,"Kerlite
","COTTO D'ESTE
Beauty in Ceramics
"
Coverings,07/07/2021,2021,https://www.coverings.com/,DM,Compotite,3226,,,,,,"Los Angeles,, CA, United States",United States,Allied Products - Anti-Fracture Membranes | Allied Products - Shower Pans | Allied Products - Sound Abatement Membranes | Allied Products - Waterproofing | Miscellaneous - Bath Accessories,,"Frank Lloyd Wright Collection, ABS Linear Drain System, Composeal","Compotite Corp. is the innovator of 'The Original ' shower pan liner. Founded in 1938, Compotite is a fourth generation, family owned company. We produce 'Made in America ' products that are used for waterproofing, Crack isolation and sound abatement. We have been focused on bringing new innovative products such as our NEW Compotite Linear Drain System! It has multiple top options and many proprietary features: Grate Risers and Cut & Cap! The new company you've known for over 75 years! Compotite Corporation, a pioneer in the shower waterproofing industry, now offers a convenient, stand-up display showcasing the full collection of grates and tops from its ABS Linear Drain System, including the Frank Lloyd Wright Collection."
Coverings,07/07/2021,2021,https://www.coverings.com/,DM,Codicer 95,5641,,http://www.codicer95.es,,,,"Castellon,, Castellon, Spain",Spain,Tile | Tile - Ceramic (Glazed) | Tile - Floor | Tile - Porcelain | Tile - Wall,,TERMOKER,
Coverings,07/07/2021,2021,https://www.coverings.com/,DM,"Coraldom, C Por A",4227,,http://www.coraldom.com/eng/,,,,"Santo Domingo,, Dominican Republic",Dominican Republic,Stone - Block | Stone - Cut-to-Size | Stone - Fireplace Surrounds/Mantels | Equipment & Machinery - Fabricating | Stone - Pavers | Stone - Slab | Stone - Stone Tile | Stone - Marble | Stone - Moldings | Stone - Mosaic,,,"OUR QUARRIES

				WE ARE QUARRY OWNERS, THAT ALLOW US TO 
		OFFER PRODUCTS WITH THE SAME 
QUALITY ALL THE TIME

OUR PLANT

WE HAVE THE CAPACITY TO PRODUCE UP TO 
320,000 SQF PER MONTH OF CORAL STONE TILES. 
ALSO WE CAN  PRODUCE COLUMNS, BALLUSTERS, 
MOLDINGS, MOSAICS, PAVERS, POOL COPINGS AND 
CUT TO THE SIZE PRODUCTS."
Coverings,07/07/2021,2021,https://www.coverings.com/,DM,"Colorobbia USA, Inc.",2941,,https://www.colorobbia.com/,,,,"Cookeville,, TN, United States",United States,Miscellaneous - Raw Materials (Frits,,,Worldwide Company specialized in the production and distribution of raw materials and semifinished products for the ceramics and glass industry. The solutions proposed by the companies of the Group are able to satisfy the entire production process of each sector related to the industrial ceramics.
Coverings,07/07/2021,2021,https://www.coverings.com/,DM,Colorker,4436,,http://www.colorker.com,,,,"Alcora,, Castellon, Spain",Spain,Tile | Tile - Floor | Tile - Mosaic | Tile - Porcelain | Tile - Wall,,Colorker and ZYX,    
Coverings,07/07/2021,2021,https://www.coverings.com/,DM,Cifre Ceramica,4848,,https://www.cifreceramica.com,,,,"ONDA,, Castellon, Spain",Spain,Tile | Tile - Floor | Tile - Porcelain | Tile - Wall,,"CIFRE CERAMICA, ZENON SOLID SURFACE",Welcome to Cifre Ceramica | Always something new
Coverings,07/07/2021,2021,https://www.coverings.com/,DM,Coverings Lounge (3919),3919,,https://www.coverings.com/the-coverings-lounge,,,,"Arlington,, VA, United States",United States,,,,
Coverings,07/07/2021,2021,https://www.coverings.com/,DM,Comandulli NA,5419,,https://www.comandulli-na.com,,,,"Sarasota,, FL, United States",United States,Equipment & Machinery - Edging | Equipment & Machinery - Polishing | Equipment & Machinery - Saws,,,"Comandulli North America: HQ for sales, parts and service."
Coverings,07/07/2021,2021,https://www.coverings.com/,DM,CMS/Brembana,4612,,http://www.cmsna.com,,,,"Caledonia,, MI, United States",United States,Equipment & Machinery - CNC Equipment | Equipment & Machinery - Cutting | Equipment & Machinery - Water-jet | Equipment & Machinery - Profiling | Equipment & Machinery - Saws,,,"CMS/Brembana is one of the first companies to produce numerically controlled machines for stone working. Now, we are a worldwide leading designer and manufacturer of CNC high-speed machining centers for the machining of natural and engineered stone. We also manufacture a variety of bridge saws, ranging from a simple saw with tilting and rotating table to fully automatic bridge saws. Finally, we produce a water jet cutting system capable of processing a wide range of materials, as well as continuous production modules for high production."
Coverings,07/07/2021,2021,https://www.coverings.com/,DM,Cevica,4549,,http://www.cevica.es,,,,"CASTELLON,, CASTELLON, Spain",Spain,Tile | Tile - Ceramic (Glazed) | Tile - Decorative | Tile - Floor | Tile - Porcelain,,"CEVICA, CevicaLab
",CEVICA: SPANISH FACTORY SPECIALIST IN HANDMADE LOOKING TILES
Coverings,07/07/2021,2021,https://www.coverings.com/,DM,Chemical Concepts,4609,,http://www.chemical-concepts.com/,,,,"Huntingdon Valley,, PA, United States",United States,Allied Products - Adhesive Removers | Allied Products - Adhesives | Allied Products - Joint Sealants | Allied Products - Sealers | Equipment & Machinery,,"Chem-set™, CounterBalance, Integra, Dry Treat, Bondaflex™,  Surface Renu, SUREBONDER®",Try our adhesives for your particular application Booth#4609
Coverings,07/07/2021,2021,https://www.coverings.com/,DM,COBANLAR MARBLE,4224,,http://www.cobanlarmarble.com,,,,"Mugla,, Turkey",Turkey,Stone - Block | Stone - Cut-to-Size | Stone - Marble | Stone - Slab | Stone - Stone Tile,,,COBANLAR MERMER A.S. was established in the province of Mugla / Turkey in 1989 as a family company. Cobanlar Marble is a leading company in the terms of quality.
Coverings,07/07/2021,2021,https://www.coverings.com/,DM,ColorFast Industries,3430,,www.colorfastind.com,,,,"Alvarado,, TX, United States",United States,,,,
Coverings,07/07/2021,2021,https://www.coverings.com/,DM,Danesi Cargo,2414,,http://www.danesi.it,,,,"Marina di Carrara,, MS, Italy",Italy,Miscellaneous - Freight Forwarding,,,Visit us in the Italian Stone Pavilion - South Hall
Coverings,07/07/2021,2021,https://www.coverings.com/,DM,Ceres Ceramics,2119,,http://www.ceresceramics.com,,,,"Tunis,, Tunis, Tunisia",Tunisia,,,,
Coverings,07/07/2021,2021,https://www.coverings.com/,DM,Ceramicas Kantu,2228,,http://www.ceramicaskantu.com,,,,"Cusco,, Peru",Peru,Tile - Artisan | Tile - Ceramic (Glazed) | Tile - Decorative | Tile - Glass | Tile - Hand Painted,,,A peruvian ceramic company with 40 years of experience.
Coverings,07/07/2021,2021,https://www.coverings.com/,DM,Ceramics of Italy - The World Exposition of Ceramic Tile and Bathroom Furnishings Inc.,1441,,http://www.ceramica.info,,,,"Sassuolo,, MO, Italy",Italy,Tile,,," is the trademark that identifies tiles manufactured by members of Confindustria Ceramica, the Italian Association of Ceramics. If you are looking for a particular Italian product, or if you would like more information on Italian ceramic tiles, please visit our booth. Confindustria Ceramica staff members from Italy will be on hand to assist you. If you wish, you can also visit our website "
Coverings,07/07/2021,2021,https://www.coverings.com/,DM,Ceramica del Conca SpA,1446,,http://www.delconca.com,,,,"San Clemente,, Rimini, Italy",Italy,Tile | Tile - Ceramic (Glazed) | Tile - Ceramic (Unglazed) | Tile - Countertop | Tile - Floor,,"Del Conca USA
Pastorelli
Faetano
Del Conca USA

",Del Conca welcomes you to Coverings 2021!
Coverings,07/07/2021,2021,https://www.coverings.com/,DM,Ceramiche Refin SpA,6026,,https://www.refin-ceramic-tiles.com/,,,,"Casalgrande,, RE, Italy",Italy,Tile | Tile - Ceramic (Unglazed) | Tile - Floor | Tile - Porcelain | Tile - Wall,,Ceramiche Refin,Refin presents its elegant and unique porcelain floor tiles.
Coverings,07/07/2021,2021,https://www.coverings.com/,DM,Ceramicos Gala,2328,,http://www.ceramicosgala.com.pe,,,,"Lima,, Lima, Peru",Peru,Tile | Tile - Ceramic (Glazed),,Cerámicos Gala,"Cerámicos Gala is a peruvian brand belonging to Aris Industrial, a leading manufacturing corporation with over 76 years of experience providing state of the art solutions to industry clients. Cerámicos Gala offers the market ceramic tiles with modern and exclusive designs manufactured with the best quality clay and glazes. Our products are available both in a large variety of sizes and a wide range of colors, aligned with the latest international design trends. Each one of our products undergoes thoughtful consideration and development in order to provide our customers with the best designs and finishes."
Coverings,07/07/2021,2021,https://www.coverings.com/,DM,CERAMICA ITALIA S.A,1619,,https://www.ceramicaitalia.com/,,,,"CUCUTA,, NSA, Colombia",Colombia,,,,
Coverings,07/07/2021,2021,https://www.coverings.com/,DM,Ceramica Rondine,5830,,http://www.ceramicarondine.it,,,,"Rubiera,, RE, Italy",Italy,Tile | Tile - Ceramic (Glazed) | Tile - Ceramic (Unglazed) | Tile - Floor | Tile - Porcelain,,Logo of Rondine is the swallow a typical small bird of rural areas used to spend the Spring and Summer time in Italy and nesting,RONDINE CERAMICA is  a brand of ITALCER SPA produces gres porcelain tiles in defferent size:
Coverings,07/07/2021,2021,https://www.coverings.com/,DM,Centrorochas,3836,,www.centrorochas.org.br,,,,Brazil,Brazil,,,,
Coverings,07/07/2021,2021,https://www.coverings.com/,DM,Celima,2327,,http://www.celima-trebol.com,,,,"Lima,, Peru",Peru,Tile - Ceramic (Glazed) | Tile - Floor | Tile - Porcelain | Tile - Wall,,Celima,"With more than 50 years of experience, Celima has grown to become the 19th largest manufacturer of ceramic tile in the world."
Coverings,07/07/2021,2021,https://www.coverings.com/,DM,Cekicler Marble Inc.,4624,,http://www.cekicler.com.tr,,,,"Eskisehir,, Turkey",Turkey,Stone - Block | Stone - Limestone | Stone - Marble | Stone - Onyx | Stone - Slab,,"Marble, Limestone, Travertine, Onyx","CEKICLER MARBLE INC.
Marble, Limestone, Travertine, Onyx
"
Coverings,07/07/2021,2021,https://www.coverings.com/,DM,Casa Ceramica Inc.,3230,,http://www.casaceramica.com,,,,"West Palm Beach,, FL, United States",United States,Tile - Artisan | Tile - Decorative | Tile - Hand Painted | Tile - Murals | Tile - Swimming Pool,,,"Casa Ceramica, Inc. is the parent company of LTS Ceramics"
Coverings,07/07/2021,2021,https://www.coverings.com/,DM,Ceramic Tile Distributors Association (CTDA),3233,,http://www.ctdahome.org,,,,"Glen Ellyn,, IL, United States",United States,,,,We look forward to seeing you at our booth!
Coverings,07/07/2021,2021,https://www.coverings.com/,DM,Canteras Portofino,5835,,http://www.canterasportofino.com,,,,"Torreon,, Coahuila, Mexico",Mexico,Stone - Limestone | Stone - Marble | Stone - Pavers | Stone - Slab | Stone - Travertine,,,"Canteras Portofino, Mexican Natural Stone. Suite # 5835."
Coverings,07/07/2021,2021,https://www.coverings.com/,DM,Capucino by Max Glory,423,,http://www.capucino.cn,,,,"Foshan,, Guangdong, China",China,Tile - Ceramic (Glazed) | Tile - Ceramic (Unglazed) | Tile - Porcelain | Tile - Trims | Tile - Wall,,Capucino by Max Glory,Capucino by Max Glory
Coverings,07/07/2021,2021,https://www.coverings.com/,DM,Classic Marble Company Pvt Ltd (Kalingastone),526,,http://www.kalingastone.com,,,,"UT of D & NH,, Silvassa, India",India,Stone - Agglomerates | Stone - Countertops | Stone - Marble | Stone - Quartzite | Stone - Terrazzo,,,KalingaStone’s state of the art plant in Silvassa has the world’s finest polishing machines from SIMEC (Italy) with 36 polishing heads which imparts the desired glossiness to the finished products and is capable of producing 5000 sq.m. polished marble every day. The ultra-modern factory is well equipped with European automated machines and advanced processing technology. 
Coverings,07/07/2021,2021,https://www.coverings.com/,DM,Ceramica Artistica Due SpA,1949,,www.ceramicaartisticadue.it,,,,"Pigneto,, MO, Italy",Italy,,,,
Coverings,07/07/2021,2021,https://www.coverings.com/,DM,BY FIKRI STONE MADENCILIK SAN. VE TIC. LTD. STI,4622,,www.byfikristone.com,,,,"BALIKESİR,, Turkey",Turkey,,,,
Coverings,07/07/2021,2021,https://www.coverings.com/,DM,Ceramica Pastorelli,1446,,,,,,"Savignano Sul Panaro,, MO, Italy",Italy,Tile | Tile - Floor | Tile - Pavers | Tile - Swimming Pool,,,Pastorelli welcomes you to Coverings 2020
Coverings,07/07/2021,2021,https://www.coverings.com/,DM,BNP Media,4452,,http://www.bnpmedia.com,,,,"Troy,, MI, United States",United States,Equipment & Machinery | Miscellaneous - Consulting Services | Miscellaneous - Publication (Trade) | Stone | Tile,,"BNP Media offers these publications, eNewsletters and websites: TILE, Stone World, Contemporary Stone and Tile Design, Floor Trends and Floor Covering Installer",Welcome to BNP Media for the information you need to succeed
Coverings,07/07/2021,2021,https://www.coverings.com/,DM,BusyBusy,3119,,http://www.busybusy.com,,,,"St. George,, UT, United States",United States,,,,
Coverings,07/07/2021,2021,https://www.coverings.com/,DM,Breton,4509,,https://www.bretonusa.com/en/,,,,"Sarasota,, FL, United States",United States,Equipment & Machinery - Chamfering | Equipment & Machinery - CNC Equipment | Equipment & Machinery - Fabricating | Equipment & Machinery - Saws | Equipment & Machinery - Water-jet,,"Contourbreton NC 300, Contourfive NC 700, Shapemill 2000, Combicut, Breton Smartcut series, Easyedge, Platinumedge, Shapemill, Levibreton One, Bretonstone plants.",Born to Work Stone. Driven by Innovation.
Coverings,07/07/2021,2021,https://www.coverings.com/,DM,Campogalliano Ceramiche,2052,,http://www.ceramichecampogalliano.com,,,,"Fiorano Modenese,, MO, Italy",Italy,Tile - Ceramic (Glazed) | Tile - Ceramic (Unglazed) | Tile - Decorative | Tile - Floor | Tile - Porcelain,,"Ceramiche Campogalliano

Verde 1999

","Coverings 2020 - See you in Booth 2223!!


"
Coverings,07/07/2021,2021,https://www.coverings.com/,DM,Bloco B,1528,,www.blocob.com,,,,"Sítio cautela dos Aléns,, Portugal",Portugal,,,,
Coverings,07/07/2021,2021,https://www.coverings.com/,DM,BORA CELIK ESYA VE MOB.INS.MAL.SAN.TIC.LTD.STI.,630,,,,,,"Fiorano Modenese,, MO, Italy",Italy,,,,
Coverings,07/07/2021,2021,https://www.coverings.com/,DM,Bien Yapi Urunleri San. Tur. Tic. A.S.,1022,,http://www.bienseramik.com.tr,,,,"Istanbul,, Türkiye, Turkey",Turkey,Tile - Mosaic | Tile - Porcelain | Tile | Tile - Ceramic (Glazed) | Tile - Floor,,"BIEN SERAMIK YAPI URUNLERI

","Bien Seramik, the Pioneer Turkish Tile Manufacturer !"
Coverings,07/07/2021,2021,https://www.coverings.com/,DM,Blustyle,1842,,http://www.blustyle.it,,,,"Sassuolo,, MO, Italy",Italy,Tile - Ceramic (Unglazed) | Tile | Tile - Floor | Tile - Porcelain | Tile - Stone,,,"BLUSTYLE, forever beautiful"
Coverings,07/07/2021,2021,https://www.coverings.com/,DM,Blanke Corporation,3219,,http://www.blankecorp.com,,,,"Norcross,, GA, United States",United States,"Allied Products - Anti-Fracture Membranes | Allied Products - Moldings /Trim | Allied Products - Underlayment | Allied Products - Waterproofing | Miscellaneous | Miscellaneous - Expansion Joint Systems | Miscellaneous - Stair Treads, Nosing | Stone - Trims | Tile - Trims",,BLANKE PERMAT; BLANKE SECUMAT; BLANKE AQUA SHIELD; BLANKE Tile Trims; BLANKE Expansion Joints,"Blanke Corporation - Function. Design. Quality. 

"
Coverings,07/07/2021,2021,https://www.coverings.com/,DM,"Better Vacuum Cups, Inc.",4209,,http://BVCGroupinc.com,,,,"Chino,, CA, United States",United States,Equipment & Machinery | Equipment & Machinery - CNC Equipment | Equipment & Machinery - Cutting | Equipment & Machinery - Edging | Equipment & Machinery - Engraving | Equipment & Machinery - Fabricating | Equipment & Machinery - Hand Tools | Equipment & Machinery - Profiling | Equipment & Machinery - Routing | Equipment & Supplies,,"Better Vacuum Cups, BVC Group,",Stop by our booth for a live demo table experience!
Coverings,07/07/2021,2021,https://www.coverings.com/,DM,BKM MARBLE,4321,,,,,,"AFYONKARAHISAR,, AFYONKARAHISAR, Turkey",Turkey,,,,"THE ONLY QUARRY IN TURKEY for the PHILIDELPHIA & ROMANO TRAVERTINE is now owned by our company. 
 
We have polishing, brushing, tumbling, chiselling line for the production our factory in Afyon Turkey."
Coverings,07/07/2021,2021,https://www.coverings.com/,DM,Bestview International Company,825,,http://www.bestviewintl.com,,,,"Glenview,, IL, United States",United States,Stone - Marble | Stone - Mosaic | Stone - Stone Tile | Tile - Decorative | Tile - Stone,,"We offer an innovative collection ranging from furniture style vanities to waterjet and marble mosaics, let us help you build your dream space.",BESTVIEW CREATES LUXURY PRODUCTS FOR YOUR BATHROOM
Coverings,07/07/2021,2021,https://www.coverings.com/,DM,BLICK INDUSTRIES,5615,,https://www.blickindustries.com,,,,"Laguna Beach,, CA, United States",United States,Equipment & Machinery | Equipment & Machinery - CNC Equipment | Equipment & Machinery - Fabricating | Stone | Stone - Fireplace Surrounds/Mantels,,"BLICK, BLICK INDUSTRIES",The Leader in Vacuum Workholding Solutions
Coverings,07/07/2021,2021,https://www.coverings.com/,DM,Best of Everything—Primo Tools/A. Bottini/Omni Sealers/Sponga USA,3733,,http://www.Boe-Companies.com,,,,"Rancho Santa Margarita,, CA, United States",United States,Allied Products - Sealers | Allied Products - Sponges | Allied Products - Tools | Equipment & Machinery - Diamond Blades & Saws | Allied Products,,"Primo Tools…”Innovative Tools. Professional Results.”
A. Bottini ... ""Diamond Tough Tools""
OMNI Sealers…”Quality. Integrity. Support.”
SpongaUSA…”The World’s Greatest Grout Sponges.”
","Thank you for visiting Best Of Everything, Inc. (BOE)"
Coverings,07/07/2021,2021,https://www.coverings.com/,DM,BAYYURT DOĞAL TAŞ SAN. VE DIŞ.TİC.A.Ş.,1036,,http://www.bayyurt.com,,,,"Izmir,, Turkey",Turkey,Stone - Mosaic | Stone - Sinks | Stone - Slab | Stone - Moldings | Stone - Cut-to-Size | Stone - Limestone | Stone - Marble | Stone - Stone Tile | Stone - Travertine | Stone - Tumbled,,Bayyurt decozene decros,wellcome to superior natural stone products and services
Coverings,07/07/2021,2021,https://www.coverings.com/,DM,BATU MARBLE A.S.,4421,,http://www.batumarble.com,,,,"Bucak,, Burdur, Turkey",Turkey,Stone | Stone - Block | Stone - Cut-to-Size | Stone - Pavers | Stone - Slab,,,"Our company has been in operation since April 2005, has been relentlessly working to provide the best service in its field. Domestic and overseas marketing firm has an active network in the market, quality is to act with policy to offer an affordable price."
Coverings,07/07/2021,2021,https://www.coverings.com/,DM,Beno J. Gundlach Company,2934,,http://www.benojgundlachco.com,,,,"Belleville,, IL, United States",United States,Allied Products - Cleaning Products | Allied Products - Sealers | Allied Products - Spacers | Allied Products - Tools | Equipment & Machinery - Diamond Blades & Saws,,,Beno J. Gundlach Company is exhibiting in Booth No. 2934.
Coverings,07/07/2021,2021,https://www.coverings.com/,DM,"BB Industries, LLC",5412,,https://www.bbindustriesllc.com,,,,"Knoxville,, TN, United States",United States,Allied Products - Adhesives | Allied Products - Sealers | Equipment & Machinery | Stone | Tile,,"Raimondi, Alpha, Noble, Emmedue, Talon, Viper, Scorpion, Hercules, Stone Shield, Envy, Mark-E,",Welcome! We carry the products you need to run your business
Coverings,07/07/2021,2021,https://www.coverings.com/,DM,Berti Sisto & C.,2409,,http://www.bucinebluestone.com,,,,"Firenzuola,, FI, Italy",Italy,Stone | Stone - Cut-to-Size | Stone - Pavers | Stone - Sandstone | Stone - Slab,,,Welcome to our booth 2409 it will be a pleasure to serve you
Coverings,07/07/2021,2021,https://www.coverings.com/,DM,Alttoglass USA,4230,,http://www.alttoglass.com,,,,"Miami,, FL, United States",United States,Tile - Mosaic | Tile - Swimming Pool | Tile | Tile - Ceramic (Glazed) | Tile - Glass,,"FOG
SOLID
PLATINUM
IRIS
TITANIUM
INK
MATT
CHIC
NIGHT GLASS
COOL
TISSUE
MISCELANEA
VOLCANO
ITALY
ALPS
MUSEUM
PRECIOUS STONES
INK
BAHAMA
OCEAN
HEXAGONAL",ALTTOGLASS specializes in glass mosaic solutions.
Coverings,07/07/2021,2021,https://www.coverings.com/,DM,American Wonder Porcelain,5845,,http://wonderpocelain.com,,,,"Lebanon,, TN, United States",United States,Tile - Floor | Tile - Mosaic | Tile - Porcelain | Tile - Wall | Tile,,,"American Wonder Porcelain manufactures and distributes tile tile nationwide from its corporate headquarters and state-of-the-art Lebanon, Tennessee, production facilities.  All products are certified as porcelain by the Porcelain Tile Certification Agency and tested by the Tile Council of North America to verify performance standards. We are committed to the future of the tile industry in the United States and believe future growth depends upon increasing domestic manufacturing, adopting new techniques and continued research and development."
Coverings,07/07/2021,2021,https://www.coverings.com/,DM,"American Business Software, Inc.",2945,,http://www.AmericanBusinessSoftware.com,,,,"Quakertown,, PA, United States",United States,Miscellaneous – Software | Miscellaneous - Computer Equipment | Miscellaneous - Consulting Services,,FloorPro III ERP,Complete Low Cost User Friendly Industry-specific Software
Coverings,07/07/2021,2021,https://www.coverings.com/,DM,Altura Stone,2530,,http://www.alturastoneandtile.com,,,,"Norcross,, GA, United States",United States,Stone - Limestone | Stone - Marble | Stone - Mosaic | Stone - Onyx | Stone - Slab,,,
Coverings,07/07/2021,2021,https://www.coverings.com/,DM,Anatolia Tile & Stone Inc.,3747,,http://www.anatoliatile.com,,,,"Vaughan,, ON, Canada",Canada,Stone | Tile | Tile - Ceramic (Glazed) | Tile - Ceramic (Unglazed) | Tile - Porcelain,,"Aspen – Form - Industria – La Marca - Mjork - Nord - Plata - Marlow - Mayfair - Station

New Featured Product Lines: Soho - Raffino - Tapestri - Teramoda","Anatolia, industry leading tile and stone products."
Coverings,07/07/2021,2021,https://www.coverings.com/,DM,Alfagres,1832,,http://www.alfagres.com,,,,"MIAMI,, FL, United States",United States,Stone - Terrazzo | Tile - Ceramic (Glazed) | Tile - Floor | Tile - Quarry (Unglazed) | Tile - Wall,,,"Alfagres has 60 years experience in manufacturing wall and floor coverings. Our first product produced was the traditional Italian marble conglomerate floors (terrazzo) and after came, the quarry tile. We then started our ceramic factories, stone plant and Carpet Mill. Our new addition to our group of factories was the latest cutting edge Italian technology ceramic plant built in the Colombian Atlantic coast with capacity of 6 million SqFt. per month. Customers feel confident that they can find excellent durable ceramic tile, high density quarry tile and stone products in Alfagres. We offer our clients the possibility of “one stop shop” for a unique and various wall-floor coverings portfolio with the same provider. Since 1984 when Alfagres entered the North American market with it’s well known quarry tile, we have experienced great commercial expansion both domestically and internationally (products are sold thought the US, Canada, Caribbean, South and central America, Europe and Asia). We have specialized in offering our customers an integral solution of floor, wall and accent pieces as a single provider. High quality standards with multiple design solutions make Alfagres a leader in finishing products for the construction world. Alfagres'' head quarters are located in Bogota, Colombia. Our main shipping port is Barranquilla. We work alternative ports such as Cartagena, Santa Marta and Buenaventura (Pacific Ocean) in Colombia. Our geographic location poses a strategic advantage, allowing very low lead times to the North & Central American and Caribbean markets. Our sales for North America, the Caribbean, Europe & Asia are managed by OPA International dba ALFAGRES from Miami FL, USA. There are three distribution centers for the North American market: Miami, Los Angeles and Houston. "
Coverings,07/07/2021,2021,https://www.coverings.com/,DM,Alcalagres,4449,,http://www.alcalagres.com,,,,"Camarma de Esteruelas,, Madrid, Spain",Spain,Tile | Tile - Ceramic (Unglazed) | Tile - Mosaic | Tile - Pavers | Tile - Porcelain,,Alcalagres,
Coverings,07/07/2021,2021,https://www.coverings.com/,DM,AIA Orlando,2026,,https://www.aiaorlando.com,,,,"Orlando,, FL, United States",United States,Miscellaneous - Trade Association,,,Orlando Chapter of the American Institute of Architects
Coverings,07/07/2021,2021,https://www.coverings.com/,DM,AlinO Shower System,3028,,http://www.alino.com,,,,"Mississauga,, ON, Canada",Canada,Allied Products | Allied Products - Backerboard | Allied Products - Sealers | Allied Products - Shower Pans | Allied Products - Waterproofing,,"AlinO® Linear Shower System, AlinO® Linear Drain, AlinO® All-in-One Shower System,  AlinO® Drain, AlinO® Tray, AlinO® Gard Waterproof Membrane, AlinO-Niche, AlinO® Backer Board.",Pl's come to visit us at AlinO Shower Booth#8007.
Coverings,07/07/2021,2021,https://www.coverings.com/,DM,Alaplana,4648,,http://www.nuevaalaplana.es,,,,"Chilches,, Castellon, Spain",Spain,Tile - Ceramic (Glazed) | Tile - Floor | Tile - Porcelain | Tile - Wall,,Nueva Alaplana .,ALAPLANA Cerámica at COVERINGS 2021
Coverings,07/07/2021,2021,https://www.coverings.com/,DM,BESTILE SL,4631,,http://www.bestile.es,,,,"Alcora, l',, CAS, Spain",Spain,Tile - Ceramic (Glazed) | Tile - Decorative | Tile - Floor | Tile - Murals | Tile - Porcelain,,"BESTILE is a Spain-based company that deals with manufacturing and supplying of ceramic and porcelain tile products.

MARBLE CHARM  |  WOOD PHILOSOPHY  |  IN&OUT  |  DECORATIVE ARTS |  STONE SPRIT
",Welcome to our home! We invite you to discover BESTILE!
Coverings,07/07/2021,2021,https://www.coverings.com/,DM,ACL - A Cimenteira do Louro,1426,,https://aclweb.pt/pt,,,,"Vila Nova Famalicão,, Portugal",Portugal,Tile - Floor | Tile - Wall | Tile | Tile - Cement | Tile - Decorative,,,ACL is a Portuguese company with more than forty years.
Coverings,07/07/2021,2021,https://www.coverings.com/,DM,Acacia Tile Inc.,4427,,http://www.acaciatile.com,,,,"Delta,, BC, Canada",Canada,Tile - Countertop | Tile - Mosaic | Tile - Pavers | Tile - Porcelain | Tile - Wall,,"acacia, Gruppo Nueva","acacia lives and breathes creating leading tile designs.
"
Coverings,07/07/2021,2021,https://www.coverings.com/,DM,Bati-Orient,2236,,http://www.bati-orient-import.com,,,,"Houston,, TX, United States",United States,Tile - Stone | Tile - Borders | Tile - Mosaic | Stone - Mosaic | Stone - Stone Tile,,,"Pebbles, marbles, slates, quartzites mosaics, sinks."
Coverings,07/07/2021,2021,https://www.coverings.com/,DM,SunTouch Floor Heating & Snow Melting,2526,,http://www.suntouch.com,,,,"North Andover,, MA, United States",United States,Miscellaneous - Floor Heating Systems | Stone | Tile | Tile - Floor,,"SunTouch Mats, SunTouch WarmWire, SunTouch Underfloor Mat, ProMelt Mats, ProMelt Cable, SunTouch SunStat","SunTouch manufactures electric radiant heating systems in both a mat and a WarmWire cable system. We offer both a programmable and non programmable control for these systems. The most popular spaces to warm are bathrooms, kitchens, entries and sun rooms. We also offer an UnderFloor mat that hangs between your joists to warm an existing floor. Our electric snow melting line, ProMelt, is available in a mat and cable system. It minimizes accidents on slippery sidewalks and saves time and money from snow removal in driveways and parking lots."
Coverings,07/07/2021,2021,https://www.coverings.com/,DM,Shivam Enterprise,1019,,www.evolutionceramic.com,,,,"Morbi,, GJ, India",India,,,,
Coverings,07/07/2021,2021,https://www.coverings.com/,DM,ACHILLI SRL,5019,,https://www.achilli.com/en,,,,"Rimini,, RN, Italy",Italy,Equipment & Machinery - CNC Equipment | Equipment & Machinery - Cutting | Equipment & Machinery - Flooring Equipment | Equipment & Machinery - Grinding | Equipment & Machinery - Saws,,"All Achilli products are 100% designed and Made in Italy, sold through our U.S. operation branch in Charlotte NC, where we stock parts, machines and provide technical support.",Join us to discover our machinery for stone and ceramic!
Coverings,07/07/2021,2021,https://www.coverings.com/,DM,Allison Eden Studios,3530,,https://www.AllisonEden.com,,,,"Brooklyn,, NY, United States",United States,Tile | Tile - Artisan | Tile - Glass | Tile - Mosaic | Tile - Murals,,"Allison Eden Studios, Mixed-Up Mosaics by Allison",Welcome to Allison Eden Studios custom glass mosaic artwork.
Coverings,07/07/2021,2021,https://www.coverings.com/,DM,Alabama Marble Mineral & Mining Co.,2124,,https://www.am3stone.com/,,,,"Bessemer,, AL, United States",United States,Stone - Granite | Stone - Marble | Stone - Mosaic | Stone - Quartzite | Tile,,"Marble, Granite, Limestone and others; Flooring, Memorial Arts, Wall Cladding and others",
Coverings,07/07/2021,2021,https://www.coverings.com/,DM,SomerTile,5841,,http://www.somertile.com,,,,"Manalapan,, NJ, United States",United States,Tile | Tile - Ceramic (Glazed) | Tile - Ceramic (Unglazed) | Tile - Mosaic | Tile - Porcelain | Tile - Trims | Tile - Wall,,SomerTile,"We offer on-trend, emotionally inspiring, high-quality tiles"
Coverings,07/07/2021,2021,https://www.coverings.com/,DM,VELSAA VITRIFIED LLP,1831,,info@velsaavitrified.com,,,,"MORBI,, Gujarat, India",India,Tile | Tile - Ceramic (Glazed) | Tile - Ceramic (Unglazed) | Tile - Floor | Tile - Porcelain | Tile - Wall,,,
Coverings,07/07/2021,2021,https://www.coverings.com/,DM,Ceramica Alberdi S.A.,5848,,"http://www.alberdi.com.ar, www.viteporcellanato.com",,,,"Buenos Aires,, Argentina",Argentina,Tile - Ceramic (Glazed) | Tile - Porcelain,,"Cerámica Alberdi
Cerámica Allpa
www.alberdi.com.ar
Vite Porcellanato
www.viteporcellanato.com","Welcome to Ceramica Alberdi, perfection at its finest."
Coverings,07/07/2021,2021,https://www.coverings.com/,DM,ActionFlow,4409,,www.actionflow.net,,,,"St. Louis,, MO, United States",United States,,,,
Coverings,07/07/2021,2021,https://www.coverings.com/,DM,Aalto Marble Inlay,2948,,https://aaltomarbleinlay.com/,,,,"Fairfield,, IA, United States",United States,Stone - Borders | Stone - Marble | Stone - Mosaic | Tile - Mosaic | Tile - Murals,,,"Luxury handcrafted marble inlay, created in the USA."
