ShowName,ShowDate,ShowYear,ShowWebsite,SubmittedBy,ExhibitorName,BoothNumber,HallLocation,Website,Email,Phone,Fax,Address,Country,Categories,Manufacturers,Brands,Description
domotex,01/13/2022,2022,https://www.domotex.de,DM,Afshar Zarineh Carpet,D86,12,http://www.afsharzarineh.com,,+98 444 53572223,+98 444 5357224,"Shohada 2 5971848848 Miandoab Iran, Islamic Republic of Shohada 2 5971848848 Miandoab Iran, Islamic Republic of","Iran, Islamic Republic of",,,,
domotex,01/13/2022,2022,https://www.domotex.de,DM,Arka Hali ve Iplik,F27,5,http://www.arkacarpet.com,,+90 342 5023057,+90 342 5023058,3. OSB 83326 Nolu Cad. No:4 Sehitkamil No: 4 Baspinar OSB Mah. 27600 Baspinar Turkey 3. OSB 83326 Nolu Cad. No:4 Sehitkamil No: 4 Baspinar OSB Mah. 27600 Baspinar Turkey,Turkey,,,,Arka Carpet is one of the leading manufacturer and exporter of machine made rugs and carpets. We are serving you with the latest technology machinery facility and 20.000m2 production area.
domotex,01/13/2022,2022,https://www.domotex.de,DM,Adopen Plastik,E10,13,http://www.ado.com.tr,,+90 242 2362000,+90 242 2362090,OSB 2. Kisim 3 21 Cad. 07040 Dösemealti Turkey OSB 2. Kisim 3 21 Cad. 07040 Dösemealti Turkey,Turkey,,,,
domotex,01/13/2022,2022,https://www.domotex.de,DM,Apeks Tekstil,E64,11,http://www.apexhali.com,,+90 212 6750100,+90 212 6750696,"Ikitelli O.S.B., Masko 2A 34490 Basaksehir Turkey Ikitelli O.S.B., Masko 2A 34490 Basaksehir Turkey",Turkey,,,,
domotex,01/13/2022,2022,https://www.domotex.de,DM,ABC Italia,A02,2,http://www.abcitalia.net,,+39 0377 464311,+39 0377 832098,Strada Statale 234 26867 Somaglia Italy Strada Statale 234 26867 Somaglia Italy,Italy,,,,"Creativity, culture and commitment are the key components that have always bound art and trade together."
domotex,01/13/2022,2022,https://www.domotex.de,DM,ADESIV,,,http://www.adesiv.it,,+39 0424 566406,+39 0424 566473,Via delle Rose 31 36061 Bassano del Grappa Italy Via delle Rose 31 36061 Bassano del Grappa Italy,Italy,,,,"ADESIV, since 1971, produces glues, varnishes, oils and floor care products for parquet. It also has a range of adhesives for carpet, PVC, rubber and sports flooring. It is present in more than 40 countries around the world thanks to its excellent quality / price ratio."
domotex,01/13/2022,2022,https://www.domotex.de,DM,Arab Pioneers For Manufacturing,D56,11,http://www.ayntextile.com,,+962 6 4050066,+962 6 4051232,"Al Hatamiyyah Triangle Al Moaqqer Sahab, P.O. Box 179 11512 Amman Jordan Al Hatamiyyah Triangle Al Moaqqer Sahab, P.O. Box 179 11512 Amman Jordan",Jordan,,,,We are one of the leading carpet manufacturers in the Middle East Area
domotex,01/13/2022,2022,https://www.domotex.de,DM,Anmak Makina & Tekstil,F31,11,http://www.anmak.com.tr,,+90  3424771231,+90  3424771331,O.s.b. 3.bolge Mehmet Batalli Bulva 11-3 27620 Sehitkamil Turkey O.s.b. 3.bolge Mehmet Batalli Bulva 11-3 27620 Sehitkamil Turkey,Turkey,,,,
domotex,01/13/2022,2022,https://www.domotex.de,DM,Akkad,,,http://www.akkadcarpet.com,,+962 7 91384000,+962 7 91384000,Mowaqar Industrial Estate 1 11821 Amman Jordan Mowaqar Industrial Estate 1 11821 Amman Jordan,Jordan,,,,
domotex,01/13/2022,2022,https://www.domotex.de,DM,Akgün Yapi ve Zemin Kaplamalari,E56,13,,,+90 212 7712100,+90 212 7713437,"Cumhuriyet Mah, Firuze Sk. Avm 1. Bodr. 281-282-274-276-277 Istanbul Outlet Park 34500 Büyükcekmece Turkey Cumhuriyet Mah, Firuze Sk. Avm 1. Bodr. 281-282-274-276-277 Istanbul Outlet Park 34500 Büyükcekmece Turkey",Turkey,,,,
domotex,01/13/2022,2022,https://www.domotex.de,DM,Anlatici Makina San. Tic. Ltd.,,,http://www.anlaticimakina.com,,+90 342 2250910,+90 342 3570580,5. O.S.B. 83573 Nolu Cad. NO: 1/1 27120 Sehitkamil Turkey 5. O.S.B. 83573 Nolu Cad. NO: 1/1 27120 Sehitkamil Turkey,Turkey,,,,
domotex,01/13/2022,2022,https://www.domotex.de,DM,Almas Zarin Kashan,A39,11,http://www.keshmirgroup.con,,+98  0983155055,+98  0983155055,"1st km of Old Aran & Bidgol Road 0098315 8741633118 Kashan Iran, Islamic Republic of 1st km of Old Aran & Bidgol Road 0098315 8741633118 Kashan Iran, Islamic Republic of","Iran, Islamic Republic of",,,,
domotex,01/13/2022,2022,https://www.domotex.de,DM,Akdeniz Cam Alüminiyum,C02,11,http://www.akdenizhali.com,,+90 332 4441080,+90 332 2353877,Fevzi Cakmak Mah. Kosgeb Cad. 29 42050 Karatay Turkey Fevzi Cakmak Mah. Kosgeb Cad. 29 42050 Karatay Turkey,Turkey,,,,"Our company, Akdeniz Glass Marketing, was established in 1978 in Konya as a manufacturing and marketing company of glass products. Nowadays, our company has reached wide range of products and services such as glass, aluminium carpentry, curtain wall, building automation and glass siding systems."
domotex,01/13/2022,2022,https://www.domotex.de,DM,AIMMP,F45,13,http://www.aimmp.pt,,+351 223394 200,+351 223394 210,Rua Alvares Cabral 15 4050-041 Porto Portugal Rua Alvares Cabral 15 4050-041 Porto Portugal,Portugal,,,,
domotex,01/13/2022,2022,https://www.domotex.de,DM,AKSA Akrilik Kimya Sanayii,E44,11,http://www.aksa.com,,+90 226 3532545,+90 226 3533307,Merkez Mah. Yalova-Kocaeli Yolu Cad 34  Tasköprü 77602 Ciftlikköy Turkey Merkez Mah. Yalova-Kocaeli Yolu Cad 34  Tasköprü 77602 Ciftlikköy Turkey,Turkey,,,,"Aksa Akrilik Kimya Sanayii A.S. was established in Yalova in 1968 in order to meet the acrylic fiber needs of Turkey. Today, Aksa has around 300 clients in more than 50 countries, across 5 continents. 17 percent of the total acrylic fiber production on the world and 72 percent of the total consumption in Turkey is being served by its plant in Yalova. Aksa, which is a pioneer with its management systems, environmental applications as well as the social responsibility projects without a doubt is the leading manufacturer of acrylic fiber in the world."
domotex,01/13/2022,2022,https://www.domotex.de,DM,Bansal Carpets,,,http://www.bansalcarpet.com,,+91 562 4007919,+91 562 2230314,"Daya Nagar Pragati,, Shaheed Nagar Crossing Agra 282001 India Daya Nagar Pragati,, Shaheed Nagar Crossing Agra 282001 India",India,,,,"We have made massive involvement in India in the Indian designer carpets industry with our outstanding acquaintance of basics of making carpet. We have achieved considerable success as designer carpets and puja carpets manufacturer & exporter in India. The company ahs traversed new avenues under the proficient headship of our venerable CEO, Mr. Praveen Bansal. Our definitive aim is directed towards providing exquisite range of Home Furnishing Products that has enables us to build a broad based business network.The company boasts of state-of-the-art infrastructure which is equipped with technologically advanced tools and machinery. CAD and in-house dyeing facility is also made available to design most elegant and innovative range of products. Testing and R&D wing too is fully functional for endless innovation and improvisation of the products offered by us."
domotex,01/13/2022,2022,https://www.domotex.de,DM,Ambadi Enterprises,D46,12,http://www.ambadi.in,,+91 124 2398037,+91 124 2398032,"Udyog Vihar, Phase 5 5 Gurgaon 122016 India Udyog Vihar, Phase 5 5 Gurgaon 122016 India",India,,,,
domotex,01/13/2022,2022,https://www.domotex.de,DM,AGT Agac,E45,13,http://www.agt.com.tr,,+90 242 2491717,+90 242 2491727,"3. Kisim, 35. Cadde  Organize Sanayi. Bölgesi 07190 Dösemealti Turkey 3. Kisim, 35. Cadde  Organize Sanayi. Bölgesi 07190 Dösemealti Turkey",Turkey,,,,"The company has established since 1984 in Antalya with the dream that wood could be custom processed for individuals and companies by using developing technology. Today AGT is one of the leading companies operates in furniture sector by specializing in components. AGT provide services to furniture and decorations sector with MDF, Melamine Faced MDF, Panel, Profile and construction sector with Flooring, Door, Wall Panel and skirting in Antalya Organized Industrial Site with modern production facility. AGT, produces all the wooden products that can be needed in a living place, is in top 500 industrial enterprise with 400.000 million TL turnover, 50 million euro exports and over 1000 employment. Along with widespread dealer channel throughout the Turkey, AGT exports to more than 60 countries over 5 continents especially to Iran, Russia, Eastern Europe, Balkans, Libya. According to the Istanbul chamber of commerce, AGT rise 77 places to 267 from 344 in the 2014 ranking of industrial firms."
domotex,01/13/2022,2022,https://www.domotex.de,DM,"Barfuss, Manfred",B47,12,http://www.barfuss-teppich.at,,+43  69910993221,+43 2672 82311,Hainfelderstr. 108 2563 Pottenstein Austria Hainfelderstr. 108 2563 Pottenstein Austria,Austria,,,,
domotex,01/13/2022,2022,https://www.domotex.de,DM,"Ball, F.",C30,13,http://www.f-ball.co.uk,,+44 1538 361633,+44 1538 361115,"Station Road Cheddleton, Leek Churnetside Business Park Leek ST13 7RS United Kingdom Station Road Cheddleton, Leek Churnetside Business Park Leek ST13 7RS United Kingdom",United Kingdom,,,,"F. Ball and Co. Ltd. is a market leading manufacturer of subfloor preparation systems and specialist flooring adhesives for the installation of decorative floorcoverings. The range of products comprises floor levelling compounds, waterproof surface membranes, adhesives, primers and accessories, including"
domotex,01/13/2022,2022,https://www.domotex.de,DM,Ankamet Sergileme Sistemleri,,,http://www.ankamet.com,,+90 312 3950051,+90 312 3950251,1. O.S.B. Gazneliler Cad. 2 06930 Sincan Turkey 1. O.S.B. Gazneliler Cad. 2 06930 Sincan Turkey,Turkey,,,,"ANKAMET CARPET DISPLAY SYSTEMS CO. is proudly presenting itself as one of the leading manufacturer & exporter of CARPET , CERAMIC , LAMINATE  & PARQUET DISPLAY SYSTEMS from Turkey."
domotex,01/13/2022,2022,https://www.domotex.de,DM,Baglinox,,,http://www.baglinox.com,,+34 948 290552,+34 948 290553,Calle L 27 Pol. Comarca 1 31160 Orcoyen Spain Calle L 27 Pol. Comarca 1 31160 Orcoyen Spain,Spain,,,,"With more than 40 years of experience in the flooring sector, Basmat has developed the click assembly system for entrance mats. Basmat is Spain's leading company of entrance matting systems. Basmat exports its production to more than 30 countries in the 5 continents."
domotex,01/13/2022,2022,https://www.domotex.de,DM,A.N.G. Exports,D30,4,http://www.angexports.net,,+91  1806451632,+91  1802001631,"Sec. 29, Part II, Huda  Plot no. 70 & 73 Panipat 132103 India Sec. 29, Part II, Huda  Plot no. 70 & 73 Panipat 132103 India",India,,,,
domotex,01/13/2022,2022,https://www.domotex.de,DM,Bükücü Tekstil,D38,11,http://www.bukucu.com,,+90 342 3374410,+90 342 3372034,2. O.S.B. 83211 Nolu Cad. 27500 Sehitkamil Turkey 2. O.S.B. 83211 Nolu Cad. 27500 Sehitkamil Turkey,Turkey,,,,"Bukucu Textile, which started the carpet manufacture in 1978, has achieved great success and taste with its products of high quality with GIZA, DAISY,  CAYIRLI  brands."
domotex,01/13/2022,2022,https://www.domotex.de,DM,Brückner Trockentechnik,E26,11,http://www.brueckner-textile.com,,+49 7152 120,+49 7152 129254,Benzstr. 8-10 71229 Leonberg Germany Benzstr. 8-10 71229 Leonberg Germany,Germany,,,,
domotex,01/13/2022,2022,https://www.domotex.de,DM,Castro & Filhos,C41,13,http://www.castroefilhos.pt,,+351  253575555,+351  253575550,Rua Padre Joao Moreira Leite 1297 4800-611 Guimaraes Portugal Rua Padre Joao Moreira Leite 1297 4800-611 Guimaraes Portugal,Portugal,,,,"The main activity of the company CASTRO & FILHOS, S.A. is the transformation of wood to be used in the production of solid massive floors. To this end, it imports a wide range of inputs from all continents (African, European and American) and applies rigorous drying processes, a necessary condition to obtain floors with high quality. The final product is obtained through the utilisation of the most advanced technological processes available in the market."
domotex,01/13/2022,2022,https://www.domotex.de,DM,"Borgonovo, Renzo",B02,12,http://www.borgonovo.com,,+39 0362 901347,+39 0362 905901,Via Comasina 125 20843 Verano Brianza Italy Via Comasina 125 20843 Verano Brianza Italy,Italy,,,,"Renzo Borgonovo Srl, founded in 1961, engineers and manufactures wood and PVC surface finishing machinery. For more than 55 years a point of reference for the operators of the wood finishing sector, the company provides its customers operational know-how, attentive customer care, and more than 40 models of sturdy and technologically advanced machines."
domotex,01/13/2022,2022,https://www.domotex.de,DM,Canan Tekstile,,,http://www.canantekstil.com.tr,,+90 342 3570632,+90 342 3570635,4. Organize Sanayi Bölgesi 83413 No 27190 Sehitkamil Turkey 4. Organize Sanayi Bölgesi 83413 No 27190 Sehitkamil Turkey,Turkey,,,,Anatolian Weavers is a carpet division of Canan Tekstil San. ve Tic. A.S. Our production plant is established in 4th Industrial Zone of Gaziantep and furnished by all
domotex,01/13/2022,2022,https://www.domotex.de,DM,Aydin Tekstil,D48,11,http://www.aydintekstil.com.tr,,+90 212 5492060,+90 212 5492059,Ikitelli O.S.B. Mah. Eski Turgut Öz 34490 Basaksehir Turkey Ikitelli O.S.B. Mah. Eski Turgut Öz 34490 Basaksehir Turkey,Turkey,,,,"We are the one of biggest upholstery, drapery and mattress fabric and decorative carpets manufacturer of Turkey and Europe with our fifty-year experience, 48 million meters annual fabric production volume and expert team of 1200 people. We produce top-quality, technological and natural products by using most advanced production technologies and finest quality raw materials for our customers in our production line with vertical integration."
domotex,01/13/2022,2022,https://www.domotex.de,DM,Basaran Hali Tekstil,C05/1,11,http://www.basaranhali.com.tr,,+90 342 3570404,+90 342 3570403,4. O.S.B. 83403 Nolu Cad. 27120 Sehitkamil Turkey 4. O.S.B. 83403 Nolu Cad. 27120 Sehitkamil Turkey,Turkey,,,,"BASARAN HALI is pioneer producer and exporter of machine made woven AREA RUGS, WALL TO WALL, SHAGGY QUALITIES in PP HEAT-SET, POLYESTER, ACRYLIC, ACRYLIC CHENILLE, ART. VISCOSE, ART. VISCOSE CHENILLE with modern, classical and hand carved designs and colours. Some kind of POLYESTER SHAGGY CUT & LOOP (REGULAR, BUTTERFLY, LUREX, WITH LEATHER) is added also to our product range. In addition, we started produce Hand Look carpets/rugs with traditional designs, by newest and high technology machines, 5 meters width."
domotex,01/13/2022,2022,https://www.domotex.de,DM,Birko,,,http://www.birko.com.tr,,+90 388 2250000,+90 388 2250010,Bor Yolu 8 km 51070 Bor Turkey Bor Yolu 8 km 51070 Bor Turkey,Turkey,,,,
domotex,01/13/2022,2022,https://www.domotex.de,DM,Aubicon Industria e Comercio,,,http://www.aubicon.com.br,,+55  11983981136,,Av. Brasil 358 37640-000 Extrema MG Brazil Av. Brasil 358 37640-000 Extrema MG Brazil,Brazil,,,,
domotex,01/13/2022,2022,https://www.domotex.de,DM,Aselplast Ambalaj,F23,11,http://www.aselplast.com.tr,,+90 53110420 45,,"Baspinar (organize) O.S.B. Mah. O.S.B. 3. Bölge, 83303 Nolu Cad. No:14 27090 Sehitkamil Turkey Baspinar (organize) O.S.B. Mah. O.S.B. 3. Bölge, 83303 Nolu Cad. No:14 27090 Sehitkamil Turkey",Turkey,,,,
domotex,01/13/2022,2022,https://www.domotex.de,DM,BASAL TEKNIK TEKSTIL,E48,11,http://basal.com.tr,,+90 212 8754545,+90 212 8754547,Mermerciler San. Sit. 10. Cad. No: 22 Beylikdüzü OSB. Mh. 34520 Beylikduzu Turkey Mermerciler San. Sit. 10. Cad. No: 22 Beylikdüzü OSB. Mh. 34520 Beylikduzu Turkey,Turkey,,,,
domotex,01/13/2022,2022,https://www.domotex.de,DM,Arslan,,,http://www.arline.com.tr,,+90 232 3889494,+90 232 3880151,Izmir-Aydin Cad.  Yazibasi Mah. 35875 Torbali Turkey Izmir-Aydin Cad.  Yazibasi Mah. 35875 Torbali Turkey,Turkey,,,,
domotex,01/13/2022,2022,https://www.domotex.de,DM,Arora Halicilik Insaat Otelcilik,D64,12,,,+90 232 4253769,+90 232 44212490,Konak Mah. Milli Kütüphane Cad. 19/603 35250 Konak Turkey Konak Mah. Milli Kütüphane Cad. 19/603 35250 Konak Turkey,Turkey,,,,First in the world.
domotex,01/13/2022,2022,https://www.domotex.de,DM,Basaran Hali Tekstil,C05,11,http://www.basaranhali.com.tr,,+90 342 3570404,+90 342 3570403,4. O.S.B. 83403 Nolu Cad. 27120 Sehitkamil Turkey 4. O.S.B. 83403 Nolu Cad. 27120 Sehitkamil Turkey,Turkey,,,,"BASARAN HALI is pioneer producer and exporter of machine made woven AREA RUGS, WALL TO WALL, SHAGGY QUALITIES in PP HEAT-SET, POLYESTER, ACRYLIC, ACRYLIC CHENILLE with modern, classical and hand carved designs and colours. Some kind of POLYESTER SHAGGY CUT & LOOP (REGULAR, BUTTERFLY, LUREX, WITH LEATHER) is added also to our product range. In addition, we started produce Hand Look carpets/rugs with traditional designs, by newest and high technology machines, 5 meters width."
domotex,01/13/2022,2022,https://www.domotex.de,DM,Artex,E02,12,http://www.artex.net.in,,+91  9935147804,,Maryadpatti Near Mother Haleema Public School Bhadohi 221401 India Maryadpatti Near Mother Haleema Public School Bhadohi 221401 India,India,,,,
domotex,01/13/2022,2022,https://www.domotex.de,DM,Delta Rubber Imports,E63,4,http://www.deltamart.co.uk,,+44 19056135 00,,Unit 4 Snodsbury Farm Building Snodsbury Worcester WR7 4NQ United Kingdom Unit 4 Snodsbury Farm Building Snodsbury Worcester WR7 4NQ United Kingdom,United Kingdom,,,,
domotex,01/13/2022,2022,https://www.domotex.de,DM,DELASA,F54,5,http://www.delasadesign.com,,+90 535 0148854,+90 535 0148854,Ibrahim Topcu st Umut Street 10-12 Icerenkoy Mah. G floor No. 10-12 34752 Atasehir Turkey Ibrahim Topcu st Umut Street 10-12 Icerenkoy Mah. G floor No. 10-12 34752 Atasehir Turkey,Turkey,,,,
domotex,01/13/2022,2022,https://www.domotex.de,DM,DECORA,C47,13,http://www.decora.pl,,+48 61 2864200,+48 61 2854975,Pradzynskiego 24A 63-000 Sroda Wielkopolska Poland Pradzynskiego 24A 63-000 Sroda Wielkopolska Poland,Poland,,,,We are the FLOOR EXPERT
domotex,01/13/2022,2022,https://www.domotex.de,DM,Designers' Desire,C30,4,http://www.designersdesire.in,,+91 5414 278877,+91 5414 278877,Nai Bazar Bhadohi 221401 India Nai Bazar Bhadohi 221401 India,India,,,,Designers' Desire is a boutique rug manufacturing firm.
domotex,01/13/2022,2022,https://www.domotex.de,DM,Decor cera,C20,13,http://www.deoorcera.com,,+91  8285644444,,DLF City Phase-3 W 9/2 Gurgaon 122002 India DLF City Phase-3 W 9/2 Gurgaon 122002 India,India,,,,
domotex,01/13/2022,2022,https://www.domotex.de,DM,Drvoproizvod,,,http://www.drvoproizvod.hr,,+385 1 6281066,+385 1 6281980,Vjeceslava Holjevca 23 10450 Jastrebarsko Croatia Vjeceslava Holjevca 23 10450 Jastrebarsko Croatia,Croatia,,,,"""Drvoproizvod""d.d. Jastrebarsko was founded in 1970. The new factory, equipped with modern technology, was built in 1980. The factory complex is located next to the highway and the Zagreb - Karlovac railroad."
domotex,01/13/2022,2022,https://www.domotex.de,DM,Dotzauer Design Studios Suisse,,,,,+41 71 9441271,+41 71 9442439,Föhrenstr. 19 9514 Wuppenau Switzerland Föhrenstr. 19 9514 Wuppenau Switzerland,Switzerland,,,,
domotex,01/13/2022,2022,https://www.domotex.de,DM,Drvoprodex,C98,13,http://www.drvoprodex.com,,+387 51 427485,+387 51 427465,Karanovac 3 78000 Banja Luka Bosnia and Herzegovina Karanovac 3 78000 Banja Luka Bosnia and Herzegovina,Bosnia and Herzegovina,,,,With 28 years of experience in wood flooring industry our Family company had natural growth.Now we have 360 workers and two production sites in Bosnia and Herzegovina.Our annual production is about 600 000m2.
domotex,01/13/2022,2022,https://www.domotex.de,DM,Deutsche Messe,C58/1,4,http://www.messe.de,,+49 511 890,+49 511 8932626,Messegelände 30521 Hannover Germany Messegelände 30521 Hannover Germany,Germany,,,,
domotex,01/13/2022,2022,https://www.domotex.de,DM,Dörtdivan Cerceve,E40,13,http://www.dortdivan.com,,+90 312 8155560,+90 312 8155569,Aksoy Cad. Kazan Istanbul Yolu 23.km 06980 Sarayköy Turkey Aksoy Cad. Kazan Istanbul Yolu 23.km 06980 Sarayköy Turkey,Turkey,,,,"Dortdivan is a 40 years old company that makes wooden, plastic and composite mouldings for interior decoration including baseboards, cornices, wall panels, picture frame mouldings, furniture mouldings."
domotex,01/13/2022,2022,https://www.domotex.de,DM,Dinarsu Imalat ve Ticaret,C19,11,http://www.dinarsu.com.tr,,+90 282 7266020,+90 282 7266029,Yildirim Beyazit Mah. Barbaros Cad. Tekirdag 59500 Cerkezköy Turkey Yildirim Beyazit Mah. Barbaros Cad. Tekirdag 59500 Cerkezköy Turkey,Turkey,,,,"Dinarsu Imalat ve Ticaret was established in Istanbul in 195. We manufacture yarn and blankets. In 1975, Dinarsu started to manufacture tufting carpets by launching integrated factories in Cerkezkoy and has become one of the major industrial companies in Turkey."
domotex,01/13/2022,2022,https://www.domotex.de,DM,Deutsche Parkett und Fussbodenwerke,,,https://www.bennettandjones.com,,+49  28627010,,Schorlmerstr. 48 48686 Ahaus Germany Schorlmerstr. 48 48686 Ahaus Germany,Germany,,,,
domotex,01/13/2022,2022,https://www.domotex.de,DM,Dream Home Carpets,,,http://www.dreamhomecarpets.com,,+91 9 996543441,+91 180 2643441,Barsat Road  Bichpari Chowk Panipat 132103 India Barsat Road  Bichpari Chowk Panipat 132103 India,India,,,,"Just to give you a brief idea about our company - Dream Home Carpets is a team of highly experienced professionals and one of the leading companies manufacturing & exporting Handtufted & Handwoven Carpets, Shaggies, Textured Flat weaves, Leather Rugs & Hides, Bathmats, Poufs & Home Accessories since the last 2 decades. Having a vertically integrated infrastructure, an artistic in-house design studio and compliant factories with certifications like ISO 9001:2008, ISO 14001:2004 and SA-8000:2008, we take pride in being a prime vendor to premium brands such as RESTORATION HARDWARE-USA, TUESDAY MORNING-USA, SURYA RUGS-USA, COSTCO-USA, LIVERPOOL-MEXICO, KIBEK-GERMANY, NEXT-UK, JOHN LEWIS-UK, LINIE DESIGN-DENMARK,FREEDOM-AUSTRALIA.....just to name"
domotex,01/13/2022,2022,https://www.domotex.de,DM,Diamett Flooring,,,,,+48  517224778,,Tarkowo Dolne 55C 86-060 Nowa Wies Wielka Poland Tarkowo Dolne 55C 86-060 Nowa Wies Wielka Poland,Poland,,,,
domotex,01/13/2022,2022,https://www.domotex.de,DM,Craftex India,F17/1,12,,,+91 1251 2716100,+91 1251 271610,"18 km Stone, Bahadurgarh-Jhajjar Rd Opp. JIMS University Jhajjar 124104 India 18 km Stone, Bahadurgarh-Jhajjar Rd Opp. JIMS University Jhajjar 124104 India",India,,,,"M/s. Craftex India, established in the year 1984, by the Rathores', for manufacturing and exporting of Carpets, Durries, Rugs, Bath Mats and other Home Furnishing items of natural yarn and fibers."
domotex,01/13/2022,2022,https://www.domotex.de,DM,CD Design Studio,,,,,+41 71 3857151,+41 71 3853750,Alpsteinstr. 4 9204 Andwil Switzerland Alpsteinstr. 4 9204 Andwil Switzerland,Switzerland,,,,
domotex,01/13/2022,2022,https://www.domotex.de,DM,Covtex-Feizy Hali,B06,11,http://www.covtex-feizy.com,,+90 342 3591001,+90 342 3591005,Serbest Bölg. Aktoprak Serbest Bölg 1 Nolu Blv. No:26 Baspinar 27120 Sehitkamil Turkey Serbest Bölg. Aktoprak Serbest Bölg 1 Nolu Blv. No:26 Baspinar 27120 Sehitkamil Turkey,Turkey,,,,"Founded in 2000, Covtex-Feizy has utilized the most modern weaving techniques to become the most recognizable name in the power loomed floor covering industry. We have become well known for producing distinctive and innovative designs at a great value.  Always at the vanguard of the industry, Covtex-Feizys rugs can be woven in polypropylene, viscose, acrylic and wool fibers and are available in a vast array of vibrant colors, ground-breaking designs and rich textures. From new takes on classic designs to contemporary originals, Covtex-Feizy can produce it all.  With the most current finishing machines, a warehouse capacity of over 150,000 square meters and bar code tracking for each and every piece housed in our facility, it is easy to understand why Covtex-Feizy is the one and only resource for the finest power loomed rugs."
domotex,01/13/2022,2022,https://www.domotex.de,DM,EPW - Tecnologia de Extrusao,,,http://www.epw.pt,,+351 236 951421,+351 236 951421,Zona Industrial da Guia Lt. 7 3105-467 Guia - Pombal Portugal Zona Industrial da Guia Lt. 7 3105-467 Guia - Pombal Portugal,Portugal,,,,
domotex,01/13/2022,2022,https://www.domotex.de,DM,Filpa Ambalaj,C55,11,http://www.abco.com.tr,,+90 322 3943627,+90 322 3943737,Adana Haci Sabanci O.S.B. 08 O.S.B. Sabanci Cad. No:8/2 01310 Saricam Turkey Adana Haci Sabanci O.S.B. 08 O.S.B. Sabanci Cad. No:8/2 01310 Saricam Turkey,Turkey,,,,
domotex,01/13/2022,2022,https://www.domotex.de,DM,ESIGN Software,C31,12,http://www.e-sign.com,,+49 511 85614340,+49 511 85614343,Warmbüchenstr. 17 30159 Hannover Germany Warmbüchenstr. 17 30159 Hannover Germany,Germany,,,,Interiormarket - Flooring specific software solutions for supporting your Multi-Channel-Marketing
domotex,01/13/2022,2022,https://www.domotex.de,DM,Cezar,E85,13,http://www.cezar.eu,,+48 87 6209900,+48 87 6209988,ul. Strefowa 2 19-300 Elk Poland ul. Strefowa 2 19-300 Elk Poland,Poland,,,,"Cezar is the quality leader among producers of profiles for construction finish works. Cezar was the fist company to launch production of PVC skirting board in Poland under its own patent. Thanks to 50 year experience in development of décors with outstanding esthectics, Cezar sucessfully sales its products in numerous countries.  PVC profiles include skirting boards in 100 colors, trims for tiles, soffit panels and windows sills. METAL profiles are made from aluminium and brass. In 2011 Cezar launched production of underlays for laminats including heated floors, offered in rolls and sheets."
domotex,01/13/2022,2022,https://www.domotex.de,DM,Essgee Leather Goods,E39,12,http://www.leathercarpets.in,,+91 5692 225557,+91 5692 228310,Railway Road Farrukhabad 209625 India Railway Road Farrukhabad 209625 India,India,,,,"ESSGEE IS MANUFACTURER AND EXPORTER OF LEATHER HOME ACCENTS. HIGHLY SPECIALIZED IN LEATHER HIDE RUGS , LEATHER SHAGGY RUGS , LEATHER CUSHIONS, LEATHER OTTOMANS/PUFFS, LEATHER ACCESSORIES . BACKED BY OVER A DECADE OF INTERNATIONAL EXPERIENCE IN TRADE , HAVING ISO 9001 AND SA 8000 CERTIFICATION. WE BOAST OF A CLIENTELE COMPRISING SOME OF THE REPUTED BRANDS , STORES , CATALOGUE COMPANIES, INTERIOR DESIGNERS THROUGH OUT THE WORLD ."
domotex,01/13/2022,2022,https://www.domotex.de,DM,Falquon,B60,13,http://www.falquon.de,,+49 33986 502110,+49 33986 502119,Am Hünengrab 18 16928 Pritzwalk Germany Am Hünengrab 18 16928 Pritzwalk Germany,Germany,,,,The company Falquon is producer of niche products in the range of laminate flooring. Our specialities are:
domotex,01/13/2022,2022,https://www.domotex.de,DM,Entreprise Artisanal en Bâtiment,,,,,+213  549979718,,El Amir Abdelkader 35 bis 41000 Souk Ahras Algeria El Amir Abdelkader 35 bis 41000 Souk Ahras Algeria,Algeria,,,,
domotex,01/13/2022,2022,https://www.domotex.de,DM,Figli di Nando Trabattoni,B02,12,http://www.trabattonistampi.com,,+39 031 621303,+39 031 620618,Via delle Marcite 1 22030 Castelmarte Italy Via delle Marcite 1 22030 Castelmarte Italy,Italy,,,,
domotex,01/13/2022,2022,https://www.domotex.de,DM,Export Promotion Council,,,http://www.epch.in,,+91 11 26135256,+91 11 26135518,Pocket L.S.C. Vasant Kunj EPCH Hous Sector C 6&7 New Delhi 110070 India Pocket L.S.C. Vasant Kunj EPCH Hous Sector C 6&7 New Delhi 110070 India,India,,,,"Export Promotion Council for Handicrafts (EPCH) is an apex national organization of over 10,000 manufacturer exporters of handicrafts of India.  EPCH is a non-profit organization, which promote and support export of Handicrafts.  EPCH is an organizer of world largest Handicrafts & Gifts Fair i.e. “IHGF Delhi Fair” held biannually (Spring & Autumn edition)."
domotex,01/13/2022,2022,https://www.domotex.de,DM,Exportdrvo,,,http://www.exportdrvo.hr,,+385 1 4560222,+385 1 4560329,Marulicev Trg 18 10000 Zagreb Croatia Marulicev Trg 18 10000 Zagreb Croatia,Croatia,,,,"Exportdrvo was founded in 1948 as company dealing in export of wood and timber products. In these 70 years, Exportdrvo developed in a leading manufacturer, exporter and distributor of wood products in this part of Europe. The well known slavonian oak, unique steamed beech, fine ash, maple or cherry are just some of the raw material we use in production of flooring, panels and veneer. Combining the knowledge, experience, high quality raw materials and top quality technology, our parquet, panels and veneer take a very distinctive place on the european markets as well as on the markets all over the world."
domotex,01/13/2022,2022,https://www.domotex.de,DM,Exterpark,C94,13,http://www.yvyra.es,,+34 93 5086580,+34 93 3772864,Rambla Solanes 38-40 08940 Cornellà de Llobregat Spain Rambla Solanes 38-40 08940 Cornellà de Llobregat Spain,Spain,,,,Experience: 50 years on the market makes us one of the most traditional companies.
domotex,01/13/2022,2022,https://www.domotex.de,DM,Elda Hali Tekstil,D78,12,http://www.gumussuyu.com.tr,,+90 352 3330020,+90 352 3220589,8. Cad. O.S.B. No: 55 38070 Melikgazi Turkey 8. Cad. O.S.B. No: 55 38070 Melikgazi Turkey,Turkey,,,,
domotex,01/13/2022,2022,https://www.domotex.de,DM,Dy Hali,,,http://www.dyhali.com,,+90 352 5027000,+90 352 5027000,Mimarsinan OSB Mah. 13. Cad. No:14 38165 Melikgazi Turkey Mimarsinan OSB Mah. 13. Cad. No:14 38165 Melikgazi Turkey,Turkey,,,,
domotex,01/13/2022,2022,https://www.domotex.de,DM,Eva Life Hali,,,http://www.evalifehali.com,,+90 212 6716382,,"Ikitelli O.S.B. Milas Caddesi 13/A, 301 Milas Is Merkezi Milas Business Center 34306 Basaksehir Turkey Ikitelli O.S.B. Milas Caddesi 13/A, 301 Milas Is Merkezi Milas Business Center 34306 Basaksehir Turkey",Turkey,,,,
domotex,01/13/2022,2022,https://www.domotex.de,DM,Eltex of Sweden,F37,11,http://www.eltex.se,,+46 479 536300,+46 479 536399,Södra Portgatan 19 283 50 Osby Sweden Södra Portgatan 19 283 50 Osby Sweden,Sweden,,,,Eltex of Sweden is the world's leading manufacturer of Stop Motion Equipment for textile machines.
domotex,01/13/2022,2022,https://www.domotex.de,DM,Egyptian Fibers Company EFCO,C42,11,http://www.efcocarpets.com,,+20 15 410161,+20 15 410165,First Industrial Zone A1 44629 10th of Ramadan City Egypt First Industrial Zone A1 44629 10th of Ramadan City Egypt,Egypt,,,,"We proudly introduce ourselves as EFCO Modern Fibers Company, one of the leading. Non Woven carpet manufacturers of the World, EFCO is part of the OW Group. We currently export our production to More than 50 countries worldwide. EFCO specializes in the production of MasterBatch,PP StapleFiber & Needle Felt Carpet products that include In/Outdoor Carpets, Rolls, under lay and much more.    We are glad to inform that we are already producing the GEOTEXTILE It is a sort of wall to wall needle felt rolls and it is used for industrial/infrastructure projects It is mainly used  for  lining water proofing, artificial  lakes (prevent water leak and also prevent the growing of harmful plants & shells)   , channels  ,roads ,industrial  filters, rail ways infrastructure projects , sewage  ,  play grounds ,bridge protections ,isolation  -  heat  /soundsIt got lot of privileges that make those projects mush more efficient and also participates in protecting the environment."
domotex,01/13/2022,2022,https://www.domotex.de,DM,Dustcontrol,,,http://www.dustcontrol.de,,+49 7032 97560,+49 7032 975633,Siedlerstr. 2 71126 Gäufelden Germany Siedlerstr. 2 71126 Gäufelden Germany,Germany,,,,
domotex,01/13/2022,2022,https://www.domotex.de,DM,D.C. Mills,F10,11,https://www.dcmills.net/,,+91 477 2251016,+91 478 2865273,"Valavanad, Kalavoor P.O. . M. O. Ward Alleppey 688522 India Valavanad, Kalavoor P.O. . M. O. Ward Alleppey 688522 India",India,,,,"DC Mills’ competence in the floor covering exports is a magnificent example of growth, rooted in determination of a management with a foresighted vision. Attentiveness to customer tastes and preferences, commitment to quality, dedication to timely delivery and extensive range of products make DC Mills the “numero uno” in floor covering business."
domotex,01/13/2022,2022,https://www.domotex.de,DM,Duracryl International,E22,13,http://www.duracryl.com,,+31  104505231,,Elandstraat 91 2901 BK Capelle Aan Den Ijssel Netherlands Elandstraat 91 2901 BK Capelle Aan Den Ijssel Netherlands,Netherlands,,,,
domotex,01/13/2022,2022,https://www.domotex.de,DM,DRW - Verlag Weinbrenner,,,http://www.drw-verlag.de,,+49 71 175910,+49 71 17591348,Fasanenweg 18 70771 Leinfelden-Echterdingen Germany Fasanenweg 18 70771 Leinfelden-Echterdingen Germany,Germany,,,,
domotex,01/13/2022,2022,https://www.domotex.de,DM,Gaziantep Destek Egitim Danismanlik,,,http://www.gto.org.tr,,+90 342 2203030,+90 342 2311041,Incilipinar Mah. 16 Nolu Sk. 27090 Sehitkamil Turkey Incilipinar Mah. 16 Nolu Sk. 27090 Sehitkamil Turkey,Turkey,,,,
domotex,01/13/2022,2022,https://www.domotex.de,DM,Galleria Battilossi,F19,3,http://www.battilossi.it,,+39 011 4546081,+39  11343526,Via Giovanni Giolitti 45/g 10123 Torino Italy Via Giovanni Giolitti 45/g 10123 Torino Italy,Italy,,,,
domotex,01/13/2022,2022,https://www.domotex.de,DM,Durkar Hali Tekstil,,,http://www.durkarcarpet.com,,+90 342 3379390,+90 342 3379395,5.org.san.bol. 83539 Nolu Cd. #33 27500 Sehitkamil Turkey 5.org.san.bol. 83539 Nolu Cd. #33 27500 Sehitkamil Turkey,Turkey,,,,
domotex,01/13/2022,2022,https://www.domotex.de,DM,Fortemix,E29,13,http://www.fortemix.eu,,+420 55 8638326,+420 55 8638310,Kirilovova 812 739 21 Paskov Czech Republic Kirilovova 812 739 21 Paskov Czech Republic,Czech Republic,,,,"Fortemix s.r.o. is a Czech company specializing in the manufacture of industrial floor systems. Based on this specialization, good quality, price policy and innovation we have developed a modern enterprise which has well established in 9 countries of Central and Eastern Europe."
domotex,01/13/2022,2022,https://www.domotex.de,DM,Hangzhou Hongying Digital,D50,11,http://www.atexco.com,,+86 571 86731850,+86 571 86731890,Juyuan Road Binjiang District Rm. 402 Bldg. 2 310052 Hangzhou China Juyuan Road Binjiang District Rm. 402 Bldg. 2 310052 Hangzhou China,China,,,,"Atexco (Hangzhou Honghua Digital Technology Stock Co., Ltd.) specializes in the R&D, manufacturing sales and service of digital ink-jet printing technology and equipment."
domotex,01/13/2022,2022,https://www.domotex.de,DM,Gardenya Plastik,F11,11,http://www.gardenyapaspas.com,,+90 332 2515550,+90 332 2515558,2. O.S.B. Günestepe Sok. 42050 Karatay Turkey 2. O.S.B. Günestepe Sok. 42050 Karatay Turkey,Turkey,,,,"Gardenya Plastik San. Tic. Ltd. Sti.  is a member of the very well known Plastic and Rubber Industry Company Group from Konya / Turkey. With our proficiency of 27 years in PVC manufacturing our company had started a very new field for PVC Mats, with our newly introduced and officially registered brand ""Karmasik"" in 2012. With increasing our sales volume,  the company had moved to its new place of 15.000 sqm at Konya Organized Industrial Area in 2013. The production volume and variety of products have been expanding since then."
domotex,01/13/2022,2022,https://www.domotex.de,DM,Hands with Art,,,http://www.handswithart.com,,,,"Patiyala House, Hazratganj 16A Lucknow 226001 India Patiyala House, Hazratganj 16A Lucknow 226001 India",India,,,,
domotex,01/13/2022,2022,https://www.domotex.de,DM,HAMILTON RIOS IND COM E EXP,,,http://www.elemensis.com.br,,+55  71988660612,,Rod Ba 411 KM 45 48730-000 Conceição Do Coité BA Brazil Rod Ba 411 KM 45 48730-000 Conceição Do Coité BA Brazil,Brazil,,,,
domotex,01/13/2022,2022,https://www.domotex.de,DM,Gürteks Pazarlama,E49,11,http://www.gurteks.com.tr,,+90 342 3373828,+90 342 3371460,"4. O.S.B., 83413 Nolu Cad. 27500 Sehitkamil Turkey 4. O.S.B., 83413 Nolu Cad. 27500 Sehitkamil Turkey",Turkey,,,,Gürteks Group was established for yarn manufacturing Gaziantep-Turkey since 1970. Our yarn production capacity is average 4000 ton/monthly.
domotex,01/13/2022,2022,https://www.domotex.de,DM,Gökkusagi 2000 Mensucat,,,http://www.gokkusagi2000.com,,+90 212 7711667,+90 212 7711684,Yassiören Mah. Mediha Sok. No. 10 34277 Arnavutköy Turkey Yassiören Mah. Mediha Sok. No. 10 34277 Arnavutköy Turkey,Turkey,,,,
domotex,01/13/2022,2022,https://www.domotex.de,DM,Gülsan Sentetik Dokuma,C70,11,http://www.gulsan-group.com,,+90 342 3371180,+90 342 3372528,O.S.B. 2. Cad. 18 27500 Sehitkamil Turkey O.S.B. 2. Cad. 18 27500 Sehitkamil Turkey,Turkey,,,,LEADING PRODUCER OF HIGH QUALITY PP CARPET YARN AND ARTIFICIAL GRASS YARN IN EVERY DTEX AND COLOR.
domotex,01/13/2022,2022,https://www.domotex.de,DM,Grass Tech Solutions,D04,11,http://www.grasstech.com,,+32 10 486565,+32 10 486575,Rue Granbonpré  Building E 1348 Louvain-la-Neuve Belgium Rue Granbonpré  Building E 1348 Louvain-la-Neuve Belgium,Belgium,,,,ASTROTURF® : the World best selling outdoor doormat.
domotex,01/13/2022,2022,https://www.domotex.de,DM,Gheytaran Talaee Kashan Carpet,C64,12,http://www.gheytarancarpet.com,,+98 31 54750570,+98 31 54750575,"Shahidan Arbabi Sq. 103 Soleiman Sobahi Ind. Zone,, Aran & Bidgo 8741711783 Kashan Iran, Islamic Republic of Shahidan Arbabi Sq. 103 Soleiman Sobahi Ind. Zone,, Aran & Bidgo 8741711783 Kashan Iran, Islamic Republic of","Iran, Islamic Republic of",,,,"Gheytaran Carpet Company is one of the greatest manufacturers of high quality carpets and rugs in the Middle East. This company benefits from modern and updated weaving machines which enable us to produce different kinds of carpets in various designs, colors and sizes. We produce 500, 700, 1000 reeds hand-look carpets and rugs with high quality material."
domotex,01/13/2022,2022,https://www.domotex.de,DM,Güneydogu Anadolu Ihracatci Birlikleri,,,http://www.gaib.org.tr,,+90 342 2110500,+90 342 2110509,Mücahitler Mh. Sehit Ertugrul Polat Cad. No:3 27090 Sehitkamil Turkey Mücahitler Mh. Sehit Ertugrul Polat Cad. No:3 27090 Sehitkamil Turkey,Turkey,,,,"The Exporters Association, in Turkey, have been established"
domotex,01/13/2022,2022,https://www.domotex.de,DM,Global Overseas,,,http://www.globaloverseas.in,,+91 5414 233825,+91 5414 232225,"G.T. Road Shiv Nagar, Gopiganj Bhadohi 221303 India G.T. Road Shiv Nagar, Gopiganj Bhadohi 221303 India",India,,,,"We manufacture hand knotted woolen carpets & rugs in varied qualities & designs. We are established in the carpet industry from three generations. The company is owned by Mr. P.D.Gupta, Mr. Brijesh Gupta, Mr. Santosh Gupta and Mr. Sanjay Gupta."
domotex,01/13/2022,2022,https://www.domotex.de,DM,Flo.it,E45,13,http://www.florianinc.com,,+39 0423 4532,+39 0423 746588,Via Castellana 26 31039 Vallà di Riese Pio X Italy Via Castellana 26 31039 Vallà di Riese Pio X Italy,Italy,,,,FLO.IT_AN EXCELLENT PRODUCER OF ENGINEERED - MADE IN ITALY WOOD FLOORING.
domotex,01/13/2022,2022,https://www.domotex.de,DM,Genesis Global Systems,,,http://www.genesis-gs.com,,+44 1642 713000,+44 1642 713777,Ellerbeck Way 7  Stokesley Business Park Stokesley TS9 5JZ United Kingdom Ellerbeck Way 7  Stokesley Business Park Stokesley TS9 5JZ United Kingdom,United Kingdom,,,,"Established in 1989 in the ceramic and accessories market, Genesis quickly became a leading brand in the UK and around the world. We have been exporting since 1990 and are now available in over 70 countries, winning the Queens award in the process."
domotex,01/13/2022,2022,https://www.domotex.de,DM,FOGE - Stanislaw Cudny,D34,12,http://www.foge.pl,,,+48 58 3334865,Oliwska 2 80-209 Chwaszczyno Poland Oliwska 2 80-209 Chwaszczyno Poland,Poland,,,,
domotex,01/13/2022,2022,https://www.domotex.de,DM,Flokser Tekstil,E32,11,http://www.flokser.com.tr,,+90  5322627475,+90 212 7713237,Hadimkoy Mh.urguplu Cd.no.7 7 34555 Istanbul Turkey Hadimkoy Mh.urguplu Cd.no.7 7 34555 Istanbul Turkey,Turkey,,,,
domotex,01/13/2022,2022,https://www.domotex.de,DM,GEOCARPET,C55/1,11,http://www.geocarpet.com.tr,,+90  3122671621,,Maliköy Baskent Osb 42. Cad. No: 1 00960 Sincan Turkey Maliköy Baskent Osb 42. Cad. No: 1 00960 Sincan Turkey,Turkey,,,,
domotex,01/13/2022,2022,https://www.domotex.de,DM,Flament Textile,C71,11,http://www.flament.com.tr,,+90 342 3374480,+90 342 3374482,"Baspinar O.S.B. Mah. O.S.B., 2. Böl 2. O.S.B. Dursan Bak Blv. No:12 27620 Sehitkamil Turkey Baspinar O.S.B. Mah. O.S.B., 2. Böl 2. O.S.B. Dursan Bak Blv. No:12 27620 Sehitkamil Turkey",Turkey,,,,
domotex,01/13/2022,2022,https://www.domotex.de,DM,Interfloor,B56,11,http://www.interfloor.com,,+44 1706 213131,+44 1706 224915,Broadway Haslingden Rossendale BB4 4LS United Kingdom Broadway Haslingden Rossendale BB4 4LS United Kingdom,United Kingdom,,,,"Interfloor is Europe's largest manufacturer of carpet underlay and flooring accessories and we supply our products to flooring retailers, distributors and flooring contractors in the UK and around the world."
domotex,01/13/2022,2022,https://www.domotex.de,DM,Isik Kadife,E58,12,http://www.isikkadife.com,,+90  5325610278,+90 224 3730006,Nilüfe Osb.ali Osman Sönmez Bulvari 16140 Bursa Turkey Nilüfe Osb.ali Osman Sönmez Bulvari 16140 Bursa Turkey,Turkey,,,,
domotex,01/13/2022,2022,https://www.domotex.de,DM,Ipek Vizyon El Dokuma Hali,,,http://www.sultanhali.com.tr,,+90 212 6514860,+90 212 4754212,Orta Mah. Abdi Ipekei Cad. No: 9/3 34030 Bayrampasa Turkey Orta Mah. Abdi Ipekei Cad. No: 9/3 34030 Bayrampasa Turkey,Turkey,,,,
domotex,01/13/2022,2022,https://www.domotex.de,DM,Istanbul Mensucat,A29,6,http://www.ismen.com,,+90 282 7461200,+90 282 7461204,Sanayi Yolu Osman Uzun Cad. 40 Veliköy 59500 Cerkezköy Turkey Sanayi Yolu Osman Uzun Cad. 40 Veliköy 59500 Cerkezköy Turkey,Turkey,,,,"Since the beginning of 1970s, as ISTANBUL MENSUCAT SANAYI A.S."
domotex,01/13/2022,2022,https://www.domotex.de,DM,Ipek Mekik Hali Tekstil,,,http://www.ipekcarpet.com,,+90 342 3378375,+90 342 3378378,3 O.S.B. Kamil Serbetci Bulvari No: 27600 Gaziantep Turkey 3 O.S.B. Kamil Serbetci Bulvari No: 27600 Gaziantep Turkey,Turkey,,,,
domotex,01/13/2022,2022,https://www.domotex.de,DM,Indesign Rugs & Carpets,E50,12,,,+91 82 95910017,+91 18 2611445,Sanoli Road 1 Ugra Kheri Panipat 132103 India Sanoli Road 1 Ugra Kheri Panipat 132103 India,India,,,,
domotex,01/13/2022,2022,https://www.domotex.de,DM,Intercontinental Trading Company,D19,11,http://www.itcnaturalluxuryflooring.com,,+31 38 3861160,+31 38 3861161,Schering 45 8281 JW Genemuiden Netherlands Schering 45 8281 JW Genemuiden Netherlands,Netherlands,,,,"Whether you need a beautiful carpet or rug for your home or business, ITC Natural Luxury Flooring matches your aspirations with a breathtaking choice, sourced from around the world."
domotex,01/13/2022,2022,https://www.domotex.de,DM,Ind. e Comercio de Molduras Santa Luzia,A02,12,http://www.santaluziamouldings.eu,,+55  300145130,,Rua Heriberto Effting 555 88750-000 Braço Do Norte SC SC Brazil Rua Heriberto Effting 555 88750-000 Braço Do Norte SC SC Brazil,Brazil,,,,
domotex,01/13/2022,2022,https://www.domotex.de,DM,HD DESIGN,,,http://www.hdesign.com.tr,,,,"Baspinar, 5. O.S.B. 83509 Nolu Cad No: 15 27480 Sehitkamil Turkey Baspinar, 5. O.S.B. 83509 Nolu Cad No: 15 27480 Sehitkamil Turkey",Turkey,,,,
domotex,01/13/2022,2022,https://www.domotex.de,DM,Hangzhou Yunjia Decorative,,,http://www.yunjiadecor.com,,,,"Shenhgdao S206 Lingxi Villiage, Linan Distr. 311300 Hangzhou China Shenhgdao S206 Lingxi Villiage, Linan Distr. 311300 Hangzhou China",China,,,,
domotex,01/13/2022,2022,https://www.domotex.de,DM,HOMAYOUNI CARPET,D38,2,,,+98  9131824456,,"Roodsar Ave, Hafez Ave. 0218890540 1593667914 Tehran Iran, Islamic Republic of Roodsar Ave, Hafez Ave. 0218890540 1593667914 Tehran Iran, Islamic Republic of","Iran, Islamic Republic of",,,,
domotex,01/13/2022,2022,https://www.domotex.de,DM,ITKIB - Istanbul Tekstil ve Konfeksiyon,,,http://www.itkib.org.tr,,+90 212 4540200,+90 212 4540201,"Cobancesme Mevkii, Sanayi Cad. Dis Tic. Kompleksi B Blok Kat. 5, Bahcel 34196 Yenibosna Turkey Cobancesme Mevkii, Sanayi Cad. Dis Tic. Kompleksi B Blok Kat. 5, Bahcel 34196 Yenibosna Turkey",Turkey,,,,"Young Turkish Designers who have captured prizes in ""Carpet Design Competition"" arranged by ITKIB,  continue their studies home textile and carpet designing area."
domotex,01/13/2022,2022,https://www.domotex.de,DM,Impalo Halicilik Teks. Tur. Ins. ve,E63,12,,,+90  2324253769,+90  2324412490,Milli Kütüphane Cad. 19/603 35090 Konak Turkey Milli Kütüphane Cad. 19/603 35090 Konak Turkey,Turkey,,,,First in the world.
domotex,01/13/2022,2022,https://www.domotex.de,DM,Heritage Carpet,A43,2,http://www.heritagecarpetdubai.com,,+971 4 2226463,+971 4 2217271,"PO Box 23463  Baniyas Tower, Block A. Dubai United Arab Emirates PO Box 23463  Baniyas Tower, Block A. Dubai United Arab Emirates",United Arab Emirates,,,,Heritage Carpet with 73 showrooms in 29countries has the world's largest collection and stock of handmade Iranian carpets.
domotex,01/13/2022,2022,https://www.domotex.de,DM,IIEC,,,http://www.iranfair.com,,+98 21226626 90,+98 21226626 84,"Chamran Express Way 19395 Tehran Iran, Islamic Republic of Chamran Express Way 19395 Tehran Iran, Islamic Republic of","Iran, Islamic Republic of",,,,
domotex,01/13/2022,2022,https://www.domotex.de,DM,Jordan Carpet,A34,5,http://www.jordancarpet.com,,+98 3154759 190,+98 3154759 119,"Omid Blvd, Kargar Blvd 295 874171168 Aran & Bidgol Iran, Islamic Republic of Omid Blvd, Kargar Blvd 295 874171168 Aran & Bidgol Iran, Islamic Republic of","Iran, Islamic Republic of",,,,
domotex,01/13/2022,2022,https://www.domotex.de,DM,LOOMS N ART,,,http://www.loomsnart.com,,+91  9215040063,,"Sec. 29, Part-2, Huda, Panipat PLOT# 103 Panipat 132103 India Sec. 29, Part-2, Huda, Panipat PLOT# 103 Panipat 132103 India",India,,,,
domotex,01/13/2022,2022,https://www.domotex.de,DM,Madhu India Deco,F25,11,http://www.madhuindia.com,,+91 522 4000013,+91 522 4052444,Mahanagar -C  B-723. Sector-C Lucknow 226006 India Mahanagar -C  B-723. Sector-C Lucknow 226006 India,India,,,,Manufacturer and Exporter of Floor Coverings.
domotex,01/13/2022,2022,https://www.domotex.de,DM,Madeicentro,B59,13,http://www.golden-parquet.pt/,,+351 234 730700,+351 234 730708,Avelãs De Caminho 5 3781-901 Avelas de Caminho Portugal Avelãs De Caminho 5 3781-901 Avelas de Caminho Portugal,Portugal,,,,
domotex,01/13/2022,2022,https://www.domotex.de,DM,Ja-Ge Tekstil,A19,6,http://www.jage.com.tr,,+90 224 2416250,+90 224 2416254,O.S.B. Kahverengi Cad. 16140 Nilüfer Turkey O.S.B. Kahverengi Cad. 16140 Nilüfer Turkey,Turkey,,,,High Quality Production
domotex,01/13/2022,2022,https://www.domotex.de,DM,Javi Home (P),,,http://www.javihome.com,,+91 99967 89621,+91 180 2633804,"Vill. Alipur Khalsa, Khotpura Road Kaimla Ghauranda Karnal 132114 India Vill. Alipur Khalsa, Khotpura Road Kaimla Ghauranda Karnal 132114 India",India,,,,
domotex,01/13/2022,2022,https://www.domotex.de,DM,Mac Carpet,C35,11,http://www.maccarpet.com,,+20 554 499250,+20 554 499255,Industrial Zone 44629 10th of Ramadan City Egypt Industrial Zone 44629 10th of Ramadan City Egypt,Egypt,,,,MAC Carpet was established in 1981 in Egypt with a capital of one million dollars and a total annual production of one million square meters.
domotex,01/13/2022,2022,https://www.domotex.de,DM,LENTEX,D09,13,http://www.lentex.com.pl,,+48 34 3515600,+48 34 3515601,ul. Powstancow Slaskich 54 42-700 Lubliniec Poland ul. Powstancow Slaskich 54 42-700 Lubliniec Poland,Poland,,,,"LENTEX is a company with tradition that dates back to 1911, which marked the founding of Union Textile S.A., LENTEX's predecessor. Union Textile specialized in the production of worsted wool yarn."
domotex,01/13/2022,2022,https://www.domotex.de,DM,Keshari Exports,E33,12,http://www.keshariexports.com,,+91 5414 225710,+91 5414 225712,Civil Line Road Pakari Bhadohi 221401 India Civil Line Road Pakari Bhadohi 221401 India,India,,,,"KESHARI EXPORTS started the manufacturing of Indo Nepalese Carpets in 1991 and was regularly producing for some of Indian exporters, who exported to Europe and U.S.A. Now, we are searching for new customers all over world to enlarge our business.Ever latest designs and colors are our Motto."
domotex,01/13/2022,2022,https://www.domotex.de,DM,Leitl Furniere und Laubschnittholz,,,http://www.leitl-veneer.com,,+43 2242 32266,,Hauptstraße 10 3423 Wördern Austria Hauptstraße 10 3423 Wördern Austria,Austria,,,,
domotex,01/13/2022,2022,https://www.domotex.de,DM,Kizilay Group Tekstil,,,http://www.kizilaygroup.com,,+90 212 8070644,,Üniversite Mah. E-5 Yanyol Cad. Tepe Home Blok No:6 Ic Kapi No:43 34320 Avcilar Turkey Üniversite Mah. E-5 Yanyol Cad. Tepe Home Blok No:6 Ic Kapi No:43 34320 Avcilar Turkey,Turkey,,,,
domotex,01/13/2022,2022,https://www.domotex.de,DM,Lantana Parke,E32,13,http://www.lantanaparke.com,,+90 216 4144457,+90 216 3480995,"Fenerbahce Mah., Fener Kalamis Cad. 34726 Kadiköy Turkey Fenerbahce Mah., Fener Kalamis Cad. 34726 Kadiköy Turkey",Turkey,,,,
domotex,01/13/2022,2022,https://www.domotex.de,DM,Ladik Orman,,,http://www.ladix.com.tr,,+90 216 6121255,+90 216 6121355,Faitih Sultan Mehmet Mah. Balkan Ca 34774 Ümraniye Turkey Faitih Sultan Mehmet Mah. Balkan Ca 34774 Ümraniye Turkey,Turkey,,,,"First established in 2005, LADIK ORMAN ÜRÜNLERI INS PLASTIK SAN ve TIC LTD. STI by continous investments and growing its product range such as mattres, styrofoam and skirt board, has gained a respectable place among other companies in parquet industry."
domotex,01/13/2022,2022,https://www.domotex.de,DM,Kosifler Deri,,,http://www.kosiflerderi.com,,+90 224 3272742,+90 224 3262542,Ahmet Vefik Pasa Mh. Bahtiyar Sk. 3 16450 Kestel Turkey Ahmet Vefik Pasa Mh. Bahtiyar Sk. 3 16450 Kestel Turkey,Turkey,,,,"Dekosif is an exclusive project for patchwork design accessories, hair on cowhide leather and sheep fur, hanging marvellously somewhere between art and design: these are the most finely created works of art, handcrafted limited editions, for those who are passionate about refined taste, keeped alive by Kosifler Deri since 1991."
domotex,01/13/2022,2022,https://www.domotex.de,DM,Kermit Plastik,D43,13,http://www.kermit.com.tr,,+90 262 6589729,,Cumhuriyet Mh. Chian Sk. No:4/1 41420 Cayirova Turkey Cumhuriyet Mh. Chian Sk. No:4/1 41420 Cayirova Turkey,Turkey,,,,
domotex,01/13/2022,2022,https://www.domotex.de,DM,Karupannya,F08,12,http://www.karupannya.com.bd,,+880 521 61293,+880 521 62033,Road 1 Jnc South Guptapara 74/A 5400 Rangpur Bangladesh Road 1 Jnc South Guptapara 74/A 5400 Rangpur Bangladesh,Bangladesh,,,,Karupannya Rangpur Ltd is one of the leading Rugs Manufacturer in South Asia based in Bangladesh. We are having 5 Production units with 6000 active workforce.
domotex,01/13/2022,2022,https://www.domotex.de,DM,Kaleidoscope Surface Design,,,http://ww.kaleidoscope-sd.com,,+49 49 017647041436,,Dornröschenstr. 2 12555 Berlin Germany Dornröschenstr. 2 12555 Berlin Germany,Germany,,,,
domotex,01/13/2022,2022,https://www.domotex.de,DM,MED CARPET,,,http://www.med-carpet.ma,,+212 5 39950181,+212 5 39955001,"Z.I. Gzenaya, lot. 140 Route Boukhalef 90030 Tanger Morocco Z.I. Gzenaya, lot. 140 Route Boukhalef 90030 Tanger Morocco",Morocco,,,,
domotex,01/13/2022,2022,https://www.domotex.de,DM,Jute Textiles Mills,F32,11,http://www.jutetextile.com,,,,Khulna 461 9222 Khulna Bangladesh Khulna 461 9222 Khulna Bangladesh,Bangladesh,,,,
domotex,01/13/2022,2022,https://www.domotex.de,DM,Mehta Stone Consortium,,,http://www.mehtastoneconsortium.com,,+91 124 4320100,,DLF Phase-III T-7/7 Gurgaon 122002 India DLF Phase-III T-7/7 Gurgaon 122002 India,India,,,,
domotex,01/13/2022,2022,https://www.domotex.de,DM,MASSIVE HOLDING,D02,13,http://www.pozgaj.com,,+385 4240660 0,,Dravska Ulica 24 42231 Veliki Bukovec Croatia Dravska Ulica 24 42231 Veliki Bukovec Croatia,Croatia,,,,"With yearly production of almost half a million square meters of finished 3-layer, 2-layer and solid parquet flooring, POŽGAJ GROUP is one of the leading parquet producers in Croatia and this part of Europe."
domotex,01/13/2022,2022,https://www.domotex.de,DM,Mashhad Hali,D68,12,http://www.mashhadhali.com,,+98 2154 101770,+98 2154 101772,"15th Km of Makhsous Road No.485 1398813311 Tehran Iran, Islamic Republic of 15th Km of Makhsous Road No.485 1398813311 Tehran Iran, Islamic Republic of","Iran, Islamic Republic of",,,,
domotex,01/13/2022,2022,https://www.domotex.de,DM,JR Export Industries,F14,11,http://www.jrexport.com,,+91 477 2260768,+91 477 2260770,C.C.S.B. Road Civil Station Ward JR House Alleppey 688001 India C.C.S.B. Road Civil Station Ward JR House Alleppey 688001 India,India,,,,"We are manufacturers and exporters of Coir door mats both Rubber and PVC backed, Coir and Jute Runners and Rugs, Rubber Mats for various uses, Rubber Animal House Mats, Polypropylene Mats, PVC Coil Mats and Cotton Chindies in all colours designs and sizes."
domotex,01/13/2022,2022,https://www.domotex.de,DM,J.I. International,,,http://www.wani.co.in,,+91 11 29814018,+91 11 29819991,"Lajpat Nagar- part  F- 160, Basement New Delhi 110024 India Lajpat Nagar- part  F- 160, Basement New Delhi 110024 India",India,,,,"J.I. International is a family business house which deals with Oriental Silk and Modern rugs, Our family has been into the art of making carpets for 100 years and we entered commercialization in 1960 with the logo 'Wani'. Our oriental silk carpet manufacturing centers are based in Kashmir and having an ancestral carpet weaving background we have a niche in sourcing raw material for silk carpets and weaving the finest carpets in a truly traditional style, thus every carpet being manufactured radiates a mesmerizing presence. We entered modern carpet weaving in 2005 and have two manufacturing centers one in Panipat for Shaggy, Cotton ,Tufted carpets and the other in Bhadohi for Wool carpets. We at J.I international pay extreme attention to sourcing of raw materials, dyeing procedure and weaving and to meet this perfection we have three manufacturing centers set up in regions which specialize in the art of making those products. Presently our client base is in Europe, Middle East & USA."
domotex,01/13/2022,2022,https://www.domotex.de,DM,Marathon United Technology (MUT),C22,13,,,+20 103390 5771,,Km3 Cairo Belbies Desert Rd. S3 Elsalam City 11767 Cairo Egypt Km3 Cairo Belbies Desert Rd. S3 Elsalam City 11767 Cairo Egypt,Egypt,,,,
domotex,01/13/2022,2022,https://www.domotex.de,DM,Nepal Art Gallery,,,http://wwww.nepalartgallery.com,,+977  14370015,,"Ganeshthan-09, Tokha 2160 44600 Kathmandu Nepal Ganeshthan-09, Tokha 2160 44600 Kathmandu Nepal",Nepal,,,,
domotex,01/13/2022,2022,https://www.domotex.de,DM,Negin Mashhad Taban,,,http://www.negintabancarpet.com,,+98 31 55880,+98 31 55880,"East 1st Boulevard Ravand Industrial Town 8731754171 Kashan Iran, Islamic Republic of East 1st Boulevard Ravand Industrial Town 8731754171 Kashan Iran, Islamic Republic of","Iran, Islamic Republic of",,,,
domotex,01/13/2022,2022,https://www.domotex.de,DM,Net Plastik,E02,13,http://www.netfloorcoverings.com,,+90 212 8865335,+90 212 8865209,1. Kisim Mah. Akasya 16 Sit. 1606A Apt. No:11 34488 Basaksehir Turkey 1. Kisim Mah. Akasya 16 Sit. 1606A Apt. No:11 34488 Basaksehir Turkey,Turkey,,,,"Net Floor Coverings Company,"
domotex,01/13/2022,2022,https://www.domotex.de,DM,Negin Dibay Shadman,D42,5,https://shadmancarpet.com/,,+98  3155535383,,"Amir Kabir Industrial Town 1 Blvr Shademan, Eshragh 1 8735186181 Kashan Iran, Islamic Republic of Amir Kabir Industrial Town 1 Blvr Shademan, Eshragh 1 8735186181 Kashan Iran, Islamic Republic of","Iran, Islamic Republic of",,,,
domotex,01/13/2022,2022,https://www.domotex.de,DM,Naziri,H20,3,http://www.mnaziri.com,,+49 40 337899,+49 40 337180,Brooktorkai 15 20457 Hamburg Germany Brooktorkai 15 20457 Hamburg Germany,Germany,,,,"When there is no joy, there will be no light. All that remains is darkness in our hearts. But beauty can save mankind. We have devoted ourselves to create timeless rugs that bring harmony in peoples homes. The heart of our company beats for the beauty."
domotex,01/13/2022,2022,https://www.domotex.de,DM,Naid Hali,F47,11,http://www.naidcarpet.com,,+90  5427678472,,Akcaburgaz Mah. 1573 Sk. No:1 Ic Kapi No:48 34538 Esenyurt Turkey Akcaburgaz Mah. 1573 Sk. No:1 Ic Kapi No:48 34538 Esenyurt Turkey,Turkey,,,,
domotex,01/13/2022,2022,https://www.domotex.de,DM,M.A. Trading,,,http://www.matthebasics.com,,+91 5414 225388,+91 5414 4225188,Noorkhanpur 221401 Bhadohi 221401 India Noorkhanpur 221401 Bhadohi 221401 India,India,,,,"MA Trading Company (MAT) is a 70 year old business that operates worldwide and is synonymous with innovative design, modern ambiance, the latest trends and lifestyle products."
domotex,01/13/2022,2022,https://www.domotex.de,DM,Mittal International,E28,12,http://www.mittal-india.com,,+91 180 6612600,+91 180 6612606,"Sector 29 Part 2, Huda 275 Panipat 132103 India Sector 29 Part 2, Huda 275 Panipat 132103 India",India,,,,
domotex,01/13/2022,2022,https://www.domotex.de,DM,M.A. Trading,,,http://www.matthebasics.com,,+1 310 3765358,+1 310 6340424,"S Susana Road 17727 Rancho Dominguez, CA 90221 United States of America S Susana Road 17727 Rancho Dominguez, CA 90221 United States of America",United States of America,,,,
domotex,01/13/2022,2022,https://www.domotex.de,DM,MF TIMBER,F45,13,,,+351  918206362,,Rua Dr. Pereira Junior 19 4480-813 Vila Do Conde Portugal Rua Dr. Pereira Junior 19 4480-813 Vila Do Conde Portugal,Portugal,,,,
domotex,01/13/2022,2022,https://www.domotex.de,DM,Multy Home Europe,E12,11,http://www.multyhome.com,,+48 2277819 30,,Calowanie 05-480 Karczew Poland Calowanie 05-480 Karczew Poland,Poland,,,,"Multy Home LP is a leading supplier of floor coverings in the North America, and has now opened a new division in Poland to better service the European market.  Now with manufacturing and distribution facilities in the  greater Warsaw area,we provide a comprehensive and diverse selection of floor coverings, featuring mats and tiles, made from recycled car tires. Our products are REACH compliant and can be at your door in days, instead of on a boat, arriving sometime in the future. We will keep you in stock and lower your freight costs."
domotex,01/13/2022,2022,https://www.domotex.de,DM,Merinos,C13,11,http://www.merinos.com,,+90 342 2114000,+90 342 3290019,Vali Lütfullah Bilgin Bulv.  4.Org. San. Böl. 27200 Sehitkamil Turkey Vali Lütfullah Bilgin Bulv.  4.Org. San. Böl. 27200 Sehitkamil Turkey,Turkey,,,,The story of Merinos brand begins in the early 70s with the production of kilim  by the father Mehmet Erdemoglu in 2 single-shot-manual looms.
domotex,01/13/2022,2022,https://www.domotex.de,DM,Mirac Hali,B25,11,http://www.mirachali.com,,+90 342 5020048,+90 342 3375183,Baspinar Mah. 5. O.S.B. 83540 Nolu 6 27500 Sehitkamil Turkey Baspinar Mah. 5. O.S.B. 83540 Nolu 6 27500 Sehitkamil Turkey,Turkey,,,,
domotex,01/13/2022,2022,https://www.domotex.de,DM,MIO,C69,13,http://www.floordiffusion.it,,+39 0421 204709,+39 0421 702252,Via Sant' Isidoro 27 30026 Summaga Di Portogruaro Italy Via Sant' Isidoro 27 30026 Summaga Di Portogruaro Italy,Italy,,,,"Floor Diffusion - Mio S.r.l., company leader in the commercial sector of wood flooring distribution, born at the end of '90 when his founder and current titular, after a lot of years spent in the sector of distribution of floors, choose to try to carry out new bold corporate policy.Ideas like stock management and commercial network, allowed to our company of obtain always baggers market share; with the time, company become a specialist about commercialization of pre-finished wood flooring, noble and antique material, ideal for a lot of interior decorations, modern or classic always able to give rise a pleasant sensations.Pre-finished wood flooring is today the best solutions: easy to treat and durable in the years.Today, our stock-house include 100.000 sqm of material, so we can satisfy in short time, all the customers' requests.We are happy to accept all the challenges that the market is able to propose, always keeping in mind our characteristics: quality and correctness."
domotex,01/13/2022,2022,https://www.domotex.de,DM,Networking Lounge,C42,12,http://www.messe.de,,+49 511 890,+49 511 8932626,Messegelände 30521 Hannover Germany Messegelände 30521 Hannover Germany,Germany,,,,
domotex,01/13/2022,2022,https://www.domotex.de,DM,Neuhofer Holz,C17,12,http://www.fnprofile.com,,+43 6234 85000,+43 6234 850034,Haslau 56 4893 Zell am Moos Austria Haslau 56 4893 Zell am Moos Austria,Austria,,,,"FN Neuhofer is an international operating company, the core-business is the manufacturing and distribution of accessories for floor, wall and ceiling. There are in special skirtings in hundreds of different shapes, made of solid wood, with MDF, spruce or plastic carrier, covered with different surfaces, from decor-foil (among others also produced with digital printing) to veneer up to white varnish. The further assortment contains flooring profiles made of HDF, aluminium and plastics, covered with decorative surfaces with the highest abrasion resistance. Numerous accessories like corners, mounting systems, installation devices and radiator rosettes. As a global supplier FN operates in 70 countries worldwide, with an Export ratio of 94%.The production capacity is 165 million running meter per year. FN Neuhofer was established in 1650, is 100% family-owned and is performed in the 10th generation."
domotex,01/13/2022,2022,https://www.domotex.de,DM,Pan Parket,,,http://www.pan-parket.hr,,+385 33 400982,+385 33 400981,Glavna 140 33514 Cacinci Croatia Glavna 140 33514 Cacinci Croatia,Croatia,,,,"Company PAN PARKET d.o.o. was founded in 1996 and main business was parquet production, within group of wood industry. Company is basing its development on staff potential, came out of tradition in wood industry in local area and region. We have based our production on final products, and now doing around 700.000 m2 of finished products over the year. We are exporting around 90% of our products, and according to that we can get better conditions when buying raw materials."
domotex,01/13/2022,2022,https://www.domotex.de,DM,Palm Fibre (India),E03,11,http://www.palmfibreindia.com,,+91 484 2217091,+91 484 2217546,Calvethy Road Ernakulam Cochin 682001 India Calvethy Road Ernakulam Cochin 682001 India,India,,,,"The saga of Palm Fibre India Pvt. Ltd, began in  the early 19th century. The Company in those days made coir yarn which found a safe market among the Europeans in the Industry. From a simple beginning of Coir, the Company today has branched over to many other products such as Entrance Doormats, Floor Coverings, Area Rugs, Geo Textiles, Garden Articles and Decorative Accessories made from various Natural Fibre materials like Jute, Wool, Natural Rubber, Sisal and Seagrass.Today, it is the 5th generation of fruitful business existence.An 100% Manufacturer Exporter with in-house facilities having a built-up area of 30,850 sqmtrs and 568 employees; consisting of Design Studio, Dyeing, Rubber Production, Looms, Carpet Backing, Stitching and Printing Units.Clientele includes Pottery Barn, Costplus World Mart, Ballard Designs, John Lewis, Target Australia Pty Ltd, Bunnings, System U, Carrefour, Hornbach, Edgars, Marubeni Intex etc."
domotex,01/13/2022,2022,https://www.domotex.de,DM,Oriental Weavers Carpet,C37,11,http://www.orientalweavers.com,,+20 2226 72121,+20 2226 72241,Zakaria Khalil Street Heliopolis Oriental Weavers Building 11361 Cairo Egypt Zakaria Khalil Street Heliopolis Oriental Weavers Building 11361 Cairo Egypt,Egypt,,,,"Oriental Weavers (OW) is one of the most recognized brands in the machine woven rug and carpet industry today. Established in 1980 by Mr. Mohamed Farid Khamis, a leading Egyptian entrepreneur and industrialist, the company has grown under his leadership to become the largest machine made rug and carpet manufacturer in the world."
domotex,01/13/2022,2022,https://www.domotex.de,DM,Okkiran Tekstil Gida,,,http://www.okkirancarpet.com,,+90 342 3379036,+90 342 3379039,4.Org. San. Böl. 83424. Cd. No: 4 27600 Sehitkamil Turkey 4.Org. San. Böl. 83424. Cd. No: 4 27600 Sehitkamil Turkey,Turkey,,,,
domotex,01/13/2022,2022,https://www.domotex.de,DM,Ovan Carpet,,,http://www.ovancarpet.com,,+98 21 55615418,+98 21 56550889,"End Of Bazar Kafash Grand Baz 51 116364 Tehran Iran, Islamic Republic of End Of Bazar Kafash Grand Baz 51 116364 Tehran Iran, Islamic Republic of","Iran, Islamic Republic of",,,,
domotex,01/13/2022,2022,https://www.domotex.de,DM,Optimum Digital,F22,11,http://www.optimumdigital.com,,+90 216 3139200,+90 216 3139782,Yukari Dudullu Mah. Necip Fazil Blv D1 Blok No:44/49 34775 Ümraniye Turkey Yukari Dudullu Mah. Necip Fazil Blv D1 Blok No:44/49 34775 Ümraniye Turkey,Turkey,,,,
domotex,01/13/2022,2022,https://www.domotex.de,DM,Otto Hali,,,http://www.ottohali.com,,+90 342 3570226,+90 342 3570224,43426 Nolu Sk. No:6  4. O.S.B. 27120 Sehitkamil Turkey 43426 Nolu Sk. No:6  4. O.S.B. 27120 Sehitkamil Turkey,Turkey,,,,
domotex,01/13/2022,2022,https://www.domotex.de,DM,"Öztürk Osmanli Hali, Tuna",E13,12,,,,,Emin Sinan Mah. Tasdirek Cesmesi So NO:2 34126 Fatih Turkey Emin Sinan Mah. Tasdirek Cesmesi So NO:2 34126 Fatih Turkey,Turkey,,,,
domotex,01/13/2022,2022,https://www.domotex.de,DM,Özerdem Mensucat,C25,11,http://ozerdem.com.tr,,+90 276 2667247,+90 276 2667250,OSB 101. Cad. 43  Tepe Damlarl Mahallesi 64100 Merkez Turkey OSB 101. Cad. 43  Tepe Damlarl Mahallesi 64100 Merkez Turkey,Turkey,,,,
domotex,01/13/2022,2022,https://www.domotex.de,DM,Örnek Hali Tekstil,,,http://www.tugrahali.com,,+90 212 6303115,+90 212 6308960,"Mahmutbey Mah., Inonu Cad. 51/A 34218 Bagcilar Turkey Mahmutbey Mah., Inonu Cad. 51/A 34218 Bagcilar Turkey",Turkey,,,,"We are the producer  and exporter of  artificial fur  leather carpet, bath mats and children&art rugs   and  also wholeseller  of machine made carpets.   Our production capacity is 15000 mt/month. We are exporting in over 40 countries."
domotex,01/13/2022,2022,https://www.domotex.de,DM,OCI Orient Carpet Import,B26,12,http://www.oci-carpets.de,,+49 2541 84270,+49 2541 8427100,Stockum 2a 48653 Coesfeld Germany Stockum 2a 48653 Coesfeld Germany,Germany,,,,
domotex,01/13/2022,2022,https://www.domotex.de,DM,Örnek Makina,E24,11,http://www.ornekmakine.com,,+90 342 3378601,+90 342 3378604,Haci Sani Konukoglu Bul.  2. Org. San. Böl. 27120 Sehitkamil Turkey Haci Sani Konukoglu Bul.  2. Org. San. Böl. 27120 Sehitkamil Turkey,Turkey,,,,"Örnek Makine San. Tic. A.S. was established in 1963 by Bahattin Dabaniyasti. The company which is in the front row among the leading companies in the sector, the carpet weaving machines and yarn process machinery production has fixed in the broader market volume. The company's product range meet the demands of industrialist to cover all needs; heat-set and frieze systems, high bulk and fine yarn steaming machines and also cake winders for the polypropylene, polyester, polyamide, acrylic, wool, etc... yarns mainly for carpet, upholstery and knitting. As a result, the company has an extensive customer protfolio by first and second generation members to make new investments to meet increasing production capacity at the new plant will continue to produce."
domotex,01/13/2022,2022,https://www.domotex.de,DM,Nurteks Hali,E23,11,https://nurteks.com.tr,,+90 212 5111986,+90 212 5192017,Yesilkoy Mah. Atatürk Cad. 12 EGS BusinessPark B2 Kat.4 D.179 Bakirkoy 34149 Istanbul Turkey Yesilkoy Mah. Atatürk Cad. 12 EGS BusinessPark B2 Kat.4 D.179 Bakirkoy 34149 Istanbul Turkey,Turkey,,,,Nurteks is a leading company in its sector. With high quality and technology it developed synthetic grass and wall to wall carpets. We have over 40 years of experience. Nurteks has begun wall-to-wall carpet production in 2000 and is acting not as the tracer but the dominant of the sector. Thanks to the investment that it actualized with the sense of responsibility. Nurteks has secured its position among the pioneer firms in the wall-to-wall carpet production in Turkey. Nurteks has added a new product to its product range on Oct. 2011. The printed Polyamide Carpet CHROMOJET/ZIMMER.
domotex,01/13/2022,2022,https://www.domotex.de,DM,N. C. John & Sons,,,http://www.ncjohn.com,,+91  9447033255,+91 477 2242375,Vazhicherry Alleppey 688001 India Vazhicherry Alleppey 688001 India,India,,,,"NCJ  is  a premier name in the floor covering industry which  has a market presence in more than 35 countries.  Quality excellence, Outstanding creativity, Eco-friendly manufacturing policy and  superior customer service are our  hallmarks. NCJ factories have  SA 8000, BSCI, and ISO 9000 certifications.  We have vast in-house manufacturing facility with skilled work force and a factory space exceeding 1.25 million sq.ft.."
domotex,01/13/2022,2022,https://www.domotex.de,DM,North Carpet,C18,12,http://www.northcarpet.se,,+46 8 6630409,+46 8 6630408,Frihamnsgatan  Magasin 6-2tr 115 56 Stockholm Sweden Frihamnsgatan  Magasin 6-2tr 115 56 Stockholm Sweden,Sweden,,,,For over 25 years North Carpet has been one of the most successful carpet producers and designers that offer highly unique original hand-knotted rugs. You may decorate your room by choosing great artfully designed rugs by deeply talented weavers working from generation to generation and from tradition to modern.
domotex,01/13/2022,2022,https://www.domotex.de,DM,Rajgharana Rugs & Homes,F01,12,http://www.rajgharanarugs.com,,,,Bhagwat Katra 101 Mirzapur 231001 India Bhagwat Katra 101 Mirzapur 231001 India,India,,,,
domotex,01/13/2022,2022,https://www.domotex.de,DM,Norm Hali Mobilya Tekstil Ürünleri,C49,11,http://www.normhali.com,,+90 216 3589595,,"Nato Yolu Cad. Yolcu Sok. Yukon Dudullu Mah., Nato Yolu Cad. 34775 Ümraniye Turkey Nato Yolu Cad. Yolcu Sok. Yukon Dudullu Mah., Nato Yolu Cad. 34775 Ümraniye Turkey",Turkey,,,,
domotex,01/13/2022,2022,https://www.domotex.de,DM,NIKOTEX CARPETS,A33,5,http://www.nikotex.gr,,+30 2310 684400,+30 2310 684410,Anthokipi N. Efkarpias 56010 Thessaloniki Greece Anthokipi N. Efkarpias 56010 Thessaloniki Greece,Greece,,,,"NIKOTEX CARPETS is a manufacturer of runners, rugs, mats and wall to wall carpets."
domotex,01/13/2022,2022,https://www.domotex.de,DM,NEW SKETCH,F21,13,http://www.newsketch.de,,+49 40 22852025,,Heegbarg 12 22391 Hamburg Germany Heegbarg 12 22391 Hamburg Germany,Germany,,,,
domotex,01/13/2022,2022,https://www.domotex.de,DM,Rana Hasir Tekstil,,,http://www.ranahasir.com,,+90 342 3372704,+90 342 3372703,"2. Org. San. Bol., 83226 Cad. No:18 Bati 2. Cadde 27560 Sehitkamil Turkey 2. Org. San. Bol., 83226 Cad. No:18 Bati 2. Cadde 27560 Sehitkamil Turkey",Turkey,,,,
domotex,01/13/2022,2022,https://www.domotex.de,DM,Ramchander Motilal,,,http://www.rmexim.com,,+91 141 2572033,+91 141 2566521,Ramganz Bazar 61 Jaipur 302003 India Ramganz Bazar 61 Jaipur 302003 India,India,,,,
domotex,01/13/2022,2022,https://www.domotex.de,DM,Prizma Tekstil,,,http://www.prizmatekstil.com,,+90 212 5122069,+90 212 5121508,Asirefendi Cad. Ticaret Han 301 Sultanhamam 34112 Fatih Turkey Asirefendi Cad. Ticaret Han 301 Sultanhamam 34112 Fatih Turkey,Turkey,,,,Prizma Textile has a history of 120 years in manufacturing home textile fabrics and carpets.
domotex,01/13/2022,2022,https://www.domotex.de,DM,Repex Floor,B53,12,http://www.repex.fr,,+33 1 46800392,+33 1 16801209,avenue des Roses 2 94380 Bonneuil-sur-Marne France avenue des Roses 2 94380 Bonneuil-sur-Marne France,France,,,,"Repex is a french manufacturer of Sanding Machines since 1946. Domotex’s professional visitors are invited to discover on the Repex Floor booth the new range of machinery of the French manufacturer: belt sanders including the dust-free «Cyclone», validated by the BG BAU control office, the famous «Original» Edger and the new «4D monobrush» sander. With 52 Kg, three motors of 1100, 1500 and 2200 kwh, many trays, mono, 4 and 5 discs, and rotation speeds ranging from 150 to 600 round/minute, it also allows sanding, polishing, grinning and cleaning of wood, concrete and mineral floors. In standard version, it benefits from a fully aluminium frame, a perfectly ergonomic aluminium handle and exceptional strength. In addition its large diameter wheels make its movement easy, including in the stairs."
domotex,01/13/2022,2022,https://www.domotex.de,DM,Safari Rugs,C47,2,http://safari-rugs.com,,+98 521 55162066,,"Khayyam St. 20 Shahrokhshahi Alley 12345678 Tehran Iran, Islamic Republic of Khayyam St. 20 Shahrokhshahi Alley 12345678 Tehran Iran, Islamic Republic of","Iran, Islamic Republic of",,,,Safari Rug is a leading weaver of handmade Persian Rugs. We're excited to present our new line of Decorative Persian Mahal Rugs and Art Deco Persian Tabriz's at Domotex 2017.
domotex,01/13/2022,2022,https://www.domotex.de,DM,Recoll International,D26,12,http://www.recoll.it,,+39 042 4471189,+39 042 4471196,Via T.A. Edison 23 Zona Ind. Anconetta 36063 Marostica Italy Via T.A. Edison 23 Zona Ind. Anconetta 36063 Marostica Italy,Italy,,,,"With our activity began in 1987, the aim of Recoll is to produce the best adhesives and paints mainly used for wood floorings with advanced technologies."
domotex,01/13/2022,2022,https://www.domotex.de,DM,Rasoul Isfahan,D41,5,http://www.solomon-carpet.com,,+98 21 43434000,+98 21 43434444,"Khoramshahr (Apadana) St. 57 Northern Sohrevardi St 1533758817 Tehran Iran, Islamic Republic of Khoramshahr (Apadana) St. 57 Northern Sohrevardi St 1533758817 Tehran Iran, Islamic Republic of","Iran, Islamic Republic of",,,,
domotex,01/13/2022,2022,https://www.domotex.de,DM,Rugs In Style,E27,12,http://www.rugsinstyle.in,,+91 120 4370699,,"Sector-6, Vasundhara 1/65 Ssgt Rd. Ind. Area, Lalkuan C-104, Aditya Garden City Ghaziabad 201012 India Sector-6, Vasundhara 1/65 Ssgt Rd. Ind. Area, Lalkuan C-104, Aditya Garden City Ghaziabad 201012 India",India,,,,"Rugs in Style is growing professional floor covering brand today which expertise in manufacturing & exporting of Cotton Rugs, Cotton Bathmats, Leather rugs, Hair-on rugs, Woolen Carpets, Polyester Rugs, etc. and the success has largely been the results of its expertise, a decade of manufacturing experiences and enviable infrastructural set-up. Our Prompt, Personalised & Hassel-free delivery has made us one of the known manufacturing company among top customers within a very short span of time. With market presence in over 20 countries around the globe, catering to requirements of many wholesalers, importers & retailers, we are amongst  the fastest emerging brand in hand made floor covering sector from India."
domotex,01/13/2022,2022,https://www.domotex.de,DM,Rugs,E42,12,http://www.rugsinc.in,,+91 120 4152869,+91 120 4152869,First And Second Floor Sector 63 63 Noida 201301 India First And Second Floor Sector 63 63 Noida 201301 India,India,,,,"Incorporated in the year 2010, at Noida (Uttar Pradesh, India) and manufacturing Unit In SITAPUR (U.P.)  , Rugs Inc., has gained recognition as the noteworthy manufacturer, exporter and supplier of an exclusive collection of Handloom Items like as Cotton Rugs, Chenille Rugs, Polyester Shaggy Rugs, etc. To fulfill the different requirements of our clients, we offer Bath Mat, Carpet & Rugs, Polyester Shaggy Rugs, Cotton Rugs, Stripe Border Rugs, Polyester Shaggy Rugs, etc. Our offered products are extremely valued among the clients for their beautiful designs, skin-friendliness, softness, shrink resistance and excellent finish. Due to their diverse quality attributes, we have captured a massive market base across the national as well as international market. These are fabricated under the supervision of our creative team of designers using finest quality fabrics and sophisticated technology."
domotex,01/13/2022,2022,https://www.domotex.de,DM,Rodolfo Comerio,F81,13,http://www.comerio.it,,+39 0331 641680,+39 0331 641666,Via IV Novembre 165 21058 Solbiate Olona Italy Via IV Novembre 165 21058 Solbiate Olona Italy,Italy,,,,"RODOLFO COMERIO, leader in designing and manufacturing tailor-made plants and machineries for plastics and rubber films production, offers its Know-How for the flooring industry which includes rotogravure printing machines using solvent or water based inks, laminating machines for plastic films and fabrics, embossing lines also for embossing in register, every kind of winders, re-reeling/inspecting machines, laboratory machines as well as revamping of existing plants and calender roll reconditioning."
domotex,01/13/2022,2022,https://www.domotex.de,DM,RUGS MART,D28,12,http://www.rugsmart.in,,+91 5414 224444,+91 5414 225305,Peerkhanpur Road Bhadohi 221401 India Peerkhanpur Road Bhadohi 221401 India,India,,,,
domotex,01/13/2022,2022,https://www.domotex.de,DM,Prado Egypt Rugs,B47,11,http://www.pradoegypt.com,,+20 2 35730580,+20 2 35730606,"Charles de Gaulle Street 21 Giza 19th Floor, Nile Tower 11311 Cairo Egypt Charles de Gaulle Street 21 Giza 19th Floor, Nile Tower 11311 Cairo Egypt",Egypt,,,,"Prado Rugs is one of the world's leading manufacturers and exporters of machine woven rugs offered to more than 20 countries across the globe. We, at Prado,offer modern yet timeless products by integrating avant-garde designs with refined materials. Certified by Wool mark, Prado's synthetic rug collections ..."
domotex,01/13/2022,2022,https://www.domotex.de,DM,Persian Homa Carpet,,,http://www.homacarpet.com,,+98 21 88920816,+98 21 88920817,"Nejatollahi Ave., Labbaf St. 4/7  Narang Alley 1598777133 Tehran Iran, Islamic Republic of Nejatollahi Ave., Labbaf St. 4/7  Narang Alley 1598777133 Tehran Iran, Islamic Republic of","Iran, Islamic Republic of",,,,
domotex,01/13/2022,2022,https://www.domotex.de,DM,Polat Iplik Tekstil,A70,11,http://www.polatbattaniye.com.tr,,+90 276 2667267,+90 276 2667268,Organize Sanayi Bölgesi 101. Cadde 27 64050 Usak Turkey Organize Sanayi Bölgesi 101. Cadde 27 64050 Usak Turkey,Turkey,,,,"Producer of regenerated (recycled) cotton yarn in cotton, polyester and acrylic blends, cotton / polyester blankets and woven fabric, Polat Iplik Tekstil San. Tic. Ltd. Sti. was founded in 2003 in Usak/Turkey."
domotex,01/13/2022,2022,https://www.domotex.de,DM,Polyteks Tekstil,E42,11,http://www.tasdelengroup.com,,+90 224 2610270,+90 224 2610276,DOSAB Gül Sokak 2 16369 Osmangazi Turkey DOSAB Gül Sokak 2 16369 Osmangazi Turkey,Turkey,,,,"POLYTEKS was founded in 1986, in the Demirtas Industrial Zone of Bursa. The factory, specialized in the manufacturing of synthetic yarns, has never lost the focus of top-quality."
domotex,01/13/2022,2022,https://www.domotex.de,DM,PPS-Majur,,,http://www.galekovic.hr,,+385 44 859163,+385 44 859164,Ul. Zrtava Domovinskog rata 23a 44430 Majur Croatia Ul. Zrtava Domovinskog rata 23a 44430 Majur Croatia,Croatia,,,,"We are parquet producers from Croatia that employ over 200 people in two factories. Our production is based only on solid parquet (massive) and we are leading producer of solid parquet in Croatia. Mainly we are oriented to Croatian wood species like oak, beech, and ash(that we get only from Croatian forests) and we have FSC certificate. We are constantly investing in innovative technologies like thermo chambers with which we can produce thermally treated wooden floors and floor coverings. So our production program also consists of innovative thermo oak, thermo ash, thermo beech and thermo hornbeam in light and dark version.All our parquet and floors can be unfinished or finished : lacquered or oiled and brushed in our factory. We are also lacquering and oiling in different colors."
domotex,01/13/2022,2022,https://www.domotex.de,DM,Plastic Extruders,,,http://www.plastexmatting.com,,+44 1268 571116,+44 1268 560027,Russell Gardens Wickford SS11 8DN United Kingdom Russell Gardens Wickford SS11 8DN United Kingdom,United Kingdom,,,,"Plastex Frontrunner Entrance matting not only delivers excellent slip resistance (DIN 51130 R12), but is designed to efficiently remove, trap and hide dirt, until it is easily removed during cleaning. The range consists of primary entrance matting which features aggressive surface patterns and nylon brushes to remove dirt and debris. Our secondary matting products feature absorbent inserts to clean and dry shoes or wheels."
domotex,01/13/2022,2022,https://www.domotex.de,DM,SELCUKLU HALI,D14,12,,,+90  2125168260,,Binbirdirek Mah. Tasdirekcesme Sok. No: 34211 Fatih Turkey Binbirdirek Mah. Tasdirekcesme Sok. No: 34211 Fatih Turkey,Turkey,,,,
domotex,01/13/2022,2022,https://www.domotex.de,DM,Sellers Textile Engineers,A54,11,http://www.sellerstextileengineers.com,,+44  7720559500,,Leeds Road  Trident Business Park Huddersfield HD2 1UA United Kingdom Leeds Road  Trident Business Park Huddersfield HD2 1UA United Kingdom,United Kingdom,,,,
domotex,01/13/2022,2022,https://www.domotex.de,DM,Sapana Polyweave,E06,11,http://www.sapanamats.com,,+91 22 26850143,+91 22 26852366,Guru Gobind Singh Ind.Estate Off. Western Express Highway Goregaon(East) Mumbai 400063 India Guru Gobind Singh Ind.Estate Off. Western Express Highway Goregaon(East) Mumbai 400063 India,India,,,,"Incorporated in 1984, Sapana Polyweave Private Limited has a rich history of bringing millions of satisfied customers, a delightful bevy of products. Production is always abreast with technology and demand through three manufacturing plants - two in Aurangabad and one in PithampurSapana's mainstay is polypropylene mats. By using PP tubes that are woven together with PP yarn; Sapana's design cell is able to produce an eclectic & exhaustive variety of Mats; in exquisite patterns & designs. The strong research & development combined with creative design yields products that are distinctly carpet-like!Today, Sapana is well known not just in India, but the world over. Our products can be found at discerning stores all over the country. Overseas, more than 25 countries across the USA, Europe, New Zealand, Australia, the Middle East & Africa enjoy Sapana products through strategic supply-partnerships with premium stores like House Doctor & Pier 1."
domotex,01/13/2022,2022,https://www.domotex.de,DM,Sandudd,F04,11,http://www.finnturf.com,,+358 201 541444,+358 3 5424324,Kurvolantie 5c 37800 Akaa Finland Kurvolantie 5c 37800 Akaa Finland,Finland,,,,The company Sandudd Oy is one of the major world producers of plastic artificial door mats.
domotex,01/13/2022,2022,https://www.domotex.de,DM,Sangat Overseas,,,http://www.sangatoverseas.com,,+91 180 2654213,+91 180 2652213,1st Purewal Colony Near Malik Garden Ground Floor Panipat 132103 India 1st Purewal Colony Near Malik Garden Ground Floor Panipat 132103 India,India,,,,"Sangat Overseas is a reputed name engaged in export of home furnishing textile products with in-house manufacturing facility. Sangat Overseas is a export house based in Panipat city engaged in Manufacturing of Home Furnishing Textile products for decades. The company after serving the domestic market for years decided to export its products & in the perfect guidance of visionary Mr. Sarabjeet Arora, company is now exporting its fine products to clientele across the globe.Do send us your enquiries related to customized designs or stock offers, we assure you of our honest & consistent services all the time"
domotex,01/13/2022,2022,https://www.domotex.de,DM,SASA Polyester,C26,11,http://sasa.com.tr/en,,+90 32 24410053,+90 32 24410114,Turhan Cemal Beriker Bulv. 559 Sarihamzali Mah. 01355 Seyhan Turkey Turhan Cemal Beriker Bulv. 559 Sarihamzali Mah. 01355 Seyhan Turkey,Turkey,,,,"SASA Polyester Sanayi A.Ş. is a leading producer in the world for polyester staple fibers, filament yarns, polyester-based and specialty polymers and intermediates (DMT). The main production facility is located in Adana and established on a field of 1.800.000 m².SASA increased its sales amount, which was 380.000 tons in 2019, by 89% in 2020, to 719.000 tons, and increased its turnover by 82% compared to 2019. SASA reached a production capacity of 1.370.000 tons/year in 2021.SASA plans to activate its second step investments in polyester staple fiber, textile chips, bottle chips,POY production with an investment cost of 730 Million EUR and an additional capacity of 1.045.000 tons/year till 2024.SASA  plans to be fully integrated polyester manufacturer producing raw materials in-house.PTA facility ,the main raw material of SASA,with a capacity of 1.5 million tons/year, is planned to be commissioned in 2023/Q1."
domotex,01/13/2022,2022,https://www.domotex.de,DM,Satar Carpet,C27,12,http://www.satar-carpet.com,,+49 40 36809812,+49 40 36809813,Brooktorkai  II. OG 20457 Hamburg Germany Brooktorkai  II. OG 20457 Hamburg Germany,Germany,,,,
domotex,01/13/2022,2022,https://www.domotex.de,DM,Strong Export,F45,13,http://www.strongexport.com/pt,,+351  253947104,+351  253947104,"Rua de Porto d' Ave  012 D10 4830-755 Taide, Povoa De Lanhoso Portugal Rua de Porto d' Ave  012 D10 4830-755 Taide, Povoa De Lanhoso Portugal",Portugal,,,,"Following up the know-how acquired over several years, Strong Export was born in 2011, with the installation of a manufacturing industry of hardwood floor in northern Portugal. Nowadays the company is steadily growing, backed by close partnerships in the wood exploration and commercialization areas, as well as with research and development institutions. As a result, we are proud to offer a large and distinctive product range, supported by excellent technical and professional advice and providing an adequate response to most aesthetic and functional requirements. Quality is our operating philosophy, and our goal is to access increasingly demanding markets. For this, Strong applies a continuous internationalization strategy, with an important investment in R&D for new product and business design. It is in this context that Strong Export stands out in the industry, continuously exploring new technologies and seeking investment opportunities around the world."
domotex,01/13/2022,2022,https://www.domotex.de,DM,Samaro Global Industries,F60,13,http://www.samaro.in,,+91 22 67669999,,"Hubtown Solaris, N.S. Phadke Marg. 213-2 Andheri (East) Mumbai 400069 India Hubtown Solaris, N.S. Phadke Marg. 213-2 Andheri (East) Mumbai 400069 India",India,,,,
domotex,01/13/2022,2022,https://www.domotex.de,DM,Sam Antep Gilam,E38,11,http://www.sag.uz,,+998 66 2304145,+998 66 2308023,Katta Uzbek Trakt 14 140124 Samarkand Uzbekistan Katta Uzbek Trakt 14 140124 Samarkand Uzbekistan,Uzbekistan,,,,"The joint venture Sam Antep Gilam, founded in 2000, is one of the most modern and innovative enterprises specialized in production of carpets in Uzbekistan and takes one of leading positions in the carpet and rug manufacturing industry in Central Asia. Carpets and rugs for the most pretentious tastes, of different sizes, which can be chosen according to the size of the room, with different colors and designs - traditional, with a strong national flavor, or a modern contemporary design are regularly being developed by our specialists. The company's products are made on modern equipment using advanced technology. For the production of carpets is used only high quality and environmentally friendly raw materials, including the own ones. Technological standards and regulations for manufactured products match to international standards, so all products are always in demand, both in the Republic of Uzbekistan and in abroad."
domotex,01/13/2022,2022,https://www.domotex.de,DM,Stäubli Bayreuth,D14,11,http://www.staubli.com,,+49 921 8830,+49 921 8831460,Theodor-Schmidt-Str. 19 95448 Bayreuth Germany Theodor-Schmidt-Str. 19 95448 Bayreuth Germany,Germany,,,,"Producer of most flexible and modern double rapier weaving machines ALPHA 500 with highest quality ""made in Germany""."
domotex,01/13/2022,2022,https://www.domotex.de,DM,SRI Color System,,,http://www.sricolors.com,,+91 5414 226346,+91 5414 226346,"Dulamdaspur, Sarroi 101 Bhadohi 221401 India Dulamdaspur, Sarroi 101 Bhadohi 221401 India",India,,,,
domotex,01/13/2022,2022,https://www.domotex.de,DM,Sossna,F19,11,http://www.sossna.de,,+49 2362 993710,+49 2362 9937120,Fürst-Leopold-Allee 96 46284 Dorsten Germany Fürst-Leopold-Allee 96 46284 Dorsten Germany,Germany,,,,"For 25 years now, SOSSNA GMBH - SOSSNA Spinnerets ® - is the worldwide leading manufacturer of spinnerets."
domotex,01/13/2022,2022,https://www.domotex.de,DM,Sondermann Profile,,,http://www.sondro.de,,+49 2761 8393771,+49 2761 8393760,Bergstr. 2 57489 Drolshagen Germany Bergstr. 2 57489 Drolshagen Germany,Germany,,,,
domotex,01/13/2022,2022,https://www.domotex.de,DM,Sörnsen Wood,,,http://www.soernsen.de,,+49 4641 92100,+49 4641 921050,Flensburger Damm 14 24392 Süderbrarup Germany Flensburger Damm 14 24392 Süderbrarup Germany,Germany,,,,
domotex,01/13/2022,2022,https://www.domotex.de,DM,STAUF Klebstoffwerk,D40,12,http://www.stauf.de,,+49 2739 3010,+49 2739 301200,Oberhausener Str. 1 57234 Wilnsdorf Germany Oberhausener Str. 1 57234 Wilnsdorf Germany,Germany,,,,We’ve stayed on the ground
domotex,01/13/2022,2022,https://www.domotex.de,DM,Soest  Ingenieursbureau,C58,12,http://www.soestbv.nl,,+31 75 6211780,+31 75 6286669,Kikkertweg 1 1521 RE Wormerveer Netherlands Kikkertweg 1 1521 RE Wormerveer Netherlands,Netherlands,,,,We offer a complete range of parquet finishing machinery for the world-wide parquet industry.
domotex,01/13/2022,2022,https://www.domotex.de,DM,Shyam Cotsyn India,,,http://www.overseascarpets.com,,+91 11 46664400,,Bharat Nagar 85 New Fried Colony New Delhi 110025 India Bharat Nagar 85 New Fried Colony New Delhi 110025 India,India,,,,
domotex,01/13/2022,2022,https://www.domotex.de,DM,Shahkar Safavieh,D94,12,http://www.zartoshtcarpet.com,,+98 31 55503666,+98 31 55503339,"West Sohrab Sepehri Street 180 Amirkabir Industrial Zone 8735177744 Kashan Iran, Islamic Republic of West Sohrab Sepehri Street 180 Amirkabir Industrial Zone 8735177744 Kashan Iran, Islamic Republic of","Iran, Islamic Republic of",,,,Zartosht carpet with more than 25 years of experience in producing of machinery carpet is one of the most famous companies in Iran .
domotex,01/13/2022,2022,https://www.domotex.de,DM,THE CORK MAGICIANS,F45,13,http://www.corkmagicians.pt,,+351  960172189,,Praceta Vasco De Ataide 12 3885-427 Espinho Portugal Praceta Vasco De Ataide 12 3885-427 Espinho Portugal,Portugal,,,,
domotex,01/13/2022,2022,https://www.domotex.de,DM,Shandong Taoda,,,,,+86  18663405118,,Changshao North Road No.01 271100 Jinan City China Changshao North Road No.01 271100 Jinan City China,China,,,,
domotex,01/13/2022,2022,https://www.domotex.de,DM,The Nicoman,E11,11,http://nicoman.co.uk/,,+44  1213285582,,"Unit 2C, Mucklow Park 17 Birmingham B11 3RE United Kingdom Unit 2C, Mucklow Park 17 Birmingham B11 3RE United Kingdom",United Kingdom,,,,
domotex,01/13/2022,2022,https://www.domotex.de,DM,S. Mansukhlal & Co.,,,,,+91  9819370737,,Kalbadevi Road 395 Mumbai 400002 India Kalbadevi Road 395 Mumbai 400002 India,India,,,,
domotex,01/13/2022,2022,https://www.domotex.de,DM,Tisca-Textil,B53,12,https://www.tiscarugs.com,,+43 5550 23110,+43 5550 231125,Werkstr. 5 6712 Thüringen/Vbg. Austria Werkstr. 5 6712 Thüringen/Vbg. Austria,Austria,,,,"For more than fifty years Tisca has been manufacturing woollen rugs of the highest quality. The Austrian family business supplies predominantly bespoke manufactured items to customers in German-speaking markets, northern Europe and overseas. These customers appreciate the many and varied styles of rugs which are created in the in-house weaving mill and are subject to continuous enhancement."
domotex,01/13/2022,2022,https://www.domotex.de,DM,Teksture Tekstil,E50,11,http://www.teksturetekstil.com,,+90 342 3378321,+90 342 3378322,Nolu Cadde No: 1  5. OSB 83501 27600 Sehitkamil Turkey Nolu Cadde No: 1  5. OSB 83501 27600 Sehitkamil Turkey,Turkey,,,,
domotex,01/13/2022,2022,https://www.domotex.de,DM,Sun Deep Exports,B44,4,http://www.sundeepexports.com,,+91 5442 221207,+91 5442 266097,Katra Bazi Rao Mirzapur 231001 India Katra Bazi Rao Mirzapur 231001 India,India,,,,"SUN-DEEP EXPORTS is into manufacturing of Dhurries and Carpets of fascinating designs and new shades. We make exclusive special varieties of 60'c 5ply, 60'c 3ply,60'c 1ply 80'c 2ply & 30'c 2ply Dhurries. We are specialized in making Antique Washed KAZAK KILIMS EXPORT TO:Our buyers belong to countries like Europe, Brasil and USA and our annual turnover is around USD 12,50,000.PROMOTION AND SALES POLICY:We believe in having long-terms association with individuals who believe in honesty and transparency in their dealing. We promote export thru trade Journals, Internet and Trade Fairs.It is our commitment to provide quality stuff to each and every penny of our buyers hard earned money."
domotex,01/13/2022,2022,https://www.domotex.de,DM,Unifam,,,http://www.unifam.es,,+34 96 6681979,+34 96 5402747,Calle Jaume Balmes 03330 Crevillente Spain Calle Jaume Balmes 03330 Crevillente Spain,Spain,,,,
domotex,01/13/2022,2022,https://www.domotex.de,DM,Tulsiram Gaya Prasad,,,http://www.tulsiramrugs.com,,+91 514 262408,+91 514 262281,"Babusarai, Maharajgunj Bhadohi 221314 India Babusarai, Maharajgunj Bhadohi 221314 India",India,,,,"We are the leading Hand Made Carpet &amp; Rug manufacturer and Exporter with a Slogan ""Flooring With Ten Fingers"". We have been in this business since last sixty years and exporting wide range of textile floor-covering products through-out the Globe. Our product portfolio contains wide range of products from low-cost to high-end products. Hand Tufted Carpets, Hand Loom Carpets, Pit &amp; Punja loom durry, shags &amp; including various qualities of Hand Knotted Carpets &amp; many promotional type products. We are also specialized in custom orders, fashion and designer rugs. We have in house facility from wool to finished rug. Altogether we commit LOW COST, HIGH QUALITY, TIMELY DELIVERY."
domotex,01/13/2022,2022,https://www.domotex.de,DM,Vielaris,,,http://www.vielaris.lt,,+370  65068386,,Barsukynes g. 47 13106 Vilnius Lithuania Barsukynes g. 47 13106 Vilnius Lithuania,Lithuania,,,,"For more than 25 years Vielaris factory is top quality wood floor panels manufacturer in Lithuania. We specialize in the production of authentic classic and modern wood flooring and we are proud that Vielaris highest quality, two-layer inspirational custom floors can be found in private homes, apartments and commercial areas worldwide."
domotex,01/13/2022,2022,https://www.domotex.de,DM,VTC Floors&Walls,A60,13,http://www.eurotradeflooring.com,,+34 93 7746913,+34 93 7715201,C/Galileo  Pol. Ind. Can Estella 08635 Sant Esteve Sesrovires Spain C/Galileo  Pol. Ind. Can Estella 08635 Sant Esteve Sesrovires Spain,Spain,,,,VTC Industry Wuxi Co.Ltd (VTC) born as a new generation covering industry to seize the challenges of flooring and wall panels have to afford in a fast changing environmental market.
domotex,01/13/2022,2022,https://www.domotex.de,DM,Valerian Hali,,,,,,,Baspinar 2. Osb 83211 Nolu Cad. No: 5/1 27120 Sehitkamil Turkey Baspinar 2. Osb 83211 Nolu Cad. No: 5/1 27120 Sehitkamil Turkey,Turkey,,,,
domotex,01/13/2022,2022,https://www.domotex.de,DM,Tufko International,F13,11,http://www.tufkomats.com,,+91  4828205647,,Anakkal P.O. Kanjirapally Kollamkulam Building Kottayam 686507 India Anakkal P.O. Kanjirapally Kollamkulam Building Kottayam 686507 India,India,,,,"Tufko International was established in 2009, to produce customized world class quality Floor covering solutions including rubber backed tufted mats, vinyl backed mats and molded mats."
domotex,01/13/2022,2022,https://www.domotex.de,DM,Üstünsoy Hali,E14,11,http://www.ustunsoycarpet.com,,+90 533 7242801,+49 89 89160919,"Baspinar Mah. 2OSB, 83211 Nolu Cad. 27120 Sehitkamil Turkey Baspinar Mah. 2OSB, 83211 Nolu Cad. 27120 Sehitkamil Turkey",Turkey,,,,
domotex,01/13/2022,2022,https://www.domotex.de,DM,Tümer Hali,C48,11,http://www.tumercarpet.com,,+90 342 3372400,+90 342 3372403,Nolu Cd No:3/1  Göksüncük Mah. 5. O.S.B. 83528 27600 Baspinar Turkey Nolu Cd No:3/1  Göksüncük Mah. 5. O.S.B. 83528 27600 Baspinar Turkey,Turkey,,,,
domotex,01/13/2022,2022,https://www.domotex.de,DM,TREEVEN,D86,13,http://www.treeven.eu,,+48 5069847 77,,Obozowa 21 E 30-383 Krakow Poland Obozowa 21 E 30-383 Krakow Poland,Poland,,,,
domotex,01/13/2022,2022,https://www.domotex.de,DM,Trade Development Authority of Pakistan,,,http://www.tdap.gov.pk,,+92 21 9920648790,,"Shahrah-e-Faisal  5th Floor, Block-A, FTC-Building 75200 Karachi Pakistan Shahrah-e-Faisal  5th Floor, Block-A, FTC-Building 75200 Karachi Pakistan",Pakistan,,,,"The Trade Development Authority of Pakistan (TDAP), which was established on November 8, 2006, under a Presidential Ordinance, shall have Ministry of Commerce as its administrative ministry. TDAP is the successor organization to the Export Promotion Bureau (EPB) and is mandated to have a holistic view of global trade development rather than only the 'export promotion' perspective of its predecessor. Designated as the premier trade organization of the country, TDAP shall be a dedicated, effective, and an empowered organization, which shall be professionally managed."
domotex,01/13/2022,2022,https://www.domotex.de,DM,Zarindelan Kashan,D34,2,,,+98  9124443136,+98  2126206506,"Sardaran Alley No.586 Fatholmobin Industrial Park, Kashan 8717787798 Tehran Iran, Islamic Republic of Sardaran Alley No.586 Fatholmobin Industrial Park, Kashan 8717787798 Tehran Iran, Islamic Republic of","Iran, Islamic Republic of",,,,
domotex,01/13/2022,2022,https://www.domotex.de,DM,Xetma Vollenweider,E26,11,http://www.xetma.com,,+49 3771 2930,+49 3771 293100,Basteiweg 6 08280 Aue Germany Basteiweg 6 08280 Aue Germany,Germany,,,,"Since more than 130 years, the brand Xetma Vollenweider has been a byword for maximum quality, reliablity and durability in shearing worldwide. This applies to all kinds of woven and tufted carpets, needle felts and artificial turf."
domotex,01/13/2022,2022,https://www.domotex.de,DM,ZEKI MENSUCAT,C20,11,http://www.zekimensucat.com.tr,,,+90 342 3378914,3 Org. San. Bol. Mehmet Batalli Blv No:3 27300 Sehitkamil Turkey 3 Org. San. Bol. Mehmet Batalli Blv No:3 27300 Sehitkamil Turkey,Turkey,,,,
domotex,01/13/2022,2022,https://www.domotex.de,DM,Yakar Tekstil,B13,11,http://www.yakar.com,,+90 212 8671300,+90 212 8671329,Akpinar San. Sit. Firat Sk. Hadimköy Yassi Ören Mh. 34555 Arnavutköy Turkey Akpinar San. Sit. Firat Sk. Hadimköy Yassi Ören Mh. 34555 Arnavutköy Turkey,Turkey,,,,"YakarTekstil is one of the leading decorative and upholstery fabric manufacturers and exporters in Turkey with over 40 years of experience. We have adopted the philosophy of superior quality in production and reliable service to our customers worldwide, therefore we have been constantly working on improving our infrastructure, organization and research and development over the years. YakarTekstil operates on a production facility of 40.000 sqm and an administration area of 5000 sqm, and realizes the pattern and design works in house."
domotex,01/13/2022,2022,https://www.domotex.de,DM,ZARGAR,,,http://www.kelimshop.nl,,+31 6 14545999,,Keersluisweg 33 1332 EE Almere Netherlands Keersluisweg 33 1332 EE Almere Netherlands,Netherlands,,,,We provide a variety of the finest handmade Afghan and Pakistani rugs and carpets with traditional and modern designs at an affordable price. Each of our rug and carpet designs have been carefully and creatively handwoven and hand knotted using the ancient techniques of Afghan carpet weaving and hand knotting which has been already a part of our family tradition for centuries.
domotex,01/13/2022,2022,https://www.domotex.de,DM,Ziadi Brother Carpet,D40,2,http://www.ziadirug.com,,+98 21 55981880,+98 21 55815072,"Khayyam St. Bakhtiari Ghamarkhan 1199893314 Tehran Iran, Islamic Republic of Khayyam St. Bakhtiari Ghamarkhan 1199893314 Tehran Iran, Islamic Republic of","Iran, Islamic Republic of",,,,"Ziadi Brothers Company has started the business as a producer and dealer of traditional and modern Persian carpet from 1986. Since then, they have been adapting themselves to the needs of market and customers. Through these years the company and its staff have gathered a magnificent collection of both knowledge and experience."
domotex,01/13/2022,2022,https://www.domotex.de,DM,Welspun Global Brands,C56,11,http://www.welspunflooring.in,,+91 22 66136000,,"Botanical Garden Road, Mohan Elite 190 Chandanvelly Village, Next To Hythabad V Shabad Mandal, Ranga Reddy District Hyderabad 500084 India Botanical Garden Road, Mohan Elite 190 Chandanvelly Village, Next To Hythabad V Shabad Mandal, Ranga Reddy District Hyderabad 500084 India",India,,,,
domotex,01/13/2022,2022,https://www.domotex.de,DM,Wellmann Flooring Industries,,,http://www.wellmann-flooring.com,,,,Kunstlaan 56 1000 Brussels Belgium Kunstlaan 56 1000 Brussels Belgium,Belgium,,,,
domotex,01/13/2022,2022,https://www.domotex.de,DM,Weavinghands Rugs,G48,4,http://www.weavinghands.co.in,,+91 120 4256876,,Sector 80 A 112 Noida 201306 India Sector 80 A 112 Noida 201306 India,India,,,,
