ShowName,ShowDate,ShowYear,ShowWebsite,SubmittedBy,ExhibitorName,BoothNumber,HallLocation,Website,Email,Phone,Fax,Address,Country,Categories,Manufacturers,Brands,Description
BDNY,10/21/2021,2021,https://bdny.com/,DM,Interiors From Spain,1935,,,,,,"New York, NY United States",United States,Furniture | Outdoor Furniture | Seating,,,Expormim
BDNY,10/21/2021,2021,https://bdny.com/,DM,ArtStar,1143,,http://artstar.com,,,,"New York, NY United States",United States,Artwork,,,
BDNY,10/21/2021,2021,https://bdny.com/,DM,ATLAS CONCORDE USA,1161,,http://www.atlasconcorde.com,,,,"Franklin, TN United States",United States,Architectural Materials | Carpet & Flooring | Furniture | Wallcoverings & Surfacing,,,
BDNY,10/21/2021,2021,https://bdny.com/,DM,Attitude Furnishings,1330,,http://www.attitudefurnishings.com,,,,"Pineville, NC United States",United States,Furniture,,,"Attitude Furnishings specializes in custom Dining, Conference, Communal, and Accent tables. We work in Residential, Corperate Boardrooms, Multi Family Clubhouses, Hotel Lobbies, and Restaurents. All made to your specifications."
BDNY,10/21/2021,2021,https://bdny.com/,DM,AVA by Novalis International LLC,301,,http://www.avaflor.com,,,,"Dalton, GA United States",United States,Carpet & Flooring | Wallcoverings & Surfacing,,,"With three unique wood patterns sharing six common base colors, RSRV provides a variety of registered embossed plank styles to mix and match, along with four concrete patterned tiles. Choose from wood grain collections that include the fine lines and bold size of Kyoto, the rugged aged look of Komma and the pure grains of Washed. Acoustical backing makes RSRV a perfect selection for busy hospitality aand retail locations where style and consumer comfort are key."
BDNY,10/21/2021,2021,https://bdny.com/,DM,Arteriors,1828,,http://www.arteriorscontract.com,,,,"Lewisville, TX United States",United States,Accessories | Furniture | Lighting | Mirrors | Seating,,,"For more than 30 years, Arteriors' pursuit of extraordinary product design, impeccable style and artisanal quality craftsmanship have built our foundation as a premier resource within the lighting, furniture, wall decor and decorative accessory categories. Arteriors Contract, a division of Arteriors Home, will soon celebrate our 15th anniversary, a journey that has led us to the intersections of innovation and artistry, focused on both the preservation of craft and the evolution of technology.  The result is a vast assortment of Contract suitable products that provide solutions for countless environments - whether it be in a hotel, restaurant, corporate campus or active adult community.  Today, Arteriors continues to evolve our product offering, forming objects of perfect proportion and scale, resulting in bold interiors, influenced by art, architecture and fashion.  Arteriors.  The Fine Balance Between Art and Interiors."
BDNY,10/21/2021,2021,https://bdny.com/,DM,"Ashley Lighting, Inc.",1900,,http://www.ashleylighting.com,,,,"Trumann, AR United States",United States,,,,
BDNY,10/21/2021,2021,https://bdny.com/,DM,Atelier Bolyar,2722,,http://www.atelierbolyar.com,,,,"New York, NY United States",United States,Accessories | Artwork | Beds & Bedding | Fabric | Wallcoverings & Surfacing,,,Atelier Bolyar
BDNY,10/21/2021,2021,https://bdny.com/,DM,Astro Lighting,924,,http://us.astrolighting.com,,,,"Somerville, NJ United States",United States,Lighting,,,
BDNY,10/21/2021,2021,https://bdny.com/,DM,"Astek Wallcovering, Inc.",1728,,http://www.astek.com,,,,"Van Nuys, CA United States",United States,Artwork | Wallcoverings & Surfacing,,,"Astek is your direct source for custom artwork and custom digitally printed wallcoverings, murals and graphics."
BDNY,10/21/2021,2021,https://bdny.com/,DM,Arte USA Inc.,407,,http://www.arte-international.com,,,,"Kennesaw, GA United States",United States,Wallcoverings & Surfacing,,,Since 1981 Arte has combined passion for design and a drive for technological innovation in elegant wallcoverings that complement a range of interiors.
BDNY,10/21/2021,2021,https://bdny.com/,DM,Artline Group,1441,,http://www.artlinegroup.com,,,,"Hicksville, NY United States",United States,Accessories | Artwork | Mirrors | Wallcoverings & Surfacing,,,"Providing mirrors and artwork since 1978.  Capabilities include custom mirror and art consulting with production on various materials such as acrylic, aluminum, wall covering, LED light panels, and Laser Cut"
BDNY,10/21/2021,2021,https://bdny.com/,DM,Arkansas Lighting,1941,,https://www.arkansaslighting.com,,,,"Van Buren, AR United States",United States,Lighting | Mirrors,,,
BDNY,10/21/2021,2021,https://bdny.com/,DM,YUNO DESIGN STUDIO,1230,,http://www.yunodesignstudio.com,,,,"Seoul, Korea (South)",Korea (South),Artwork | Carpet & Flooring | Wallcoverings & Surfacing,,,
BDNY,10/21/2021,2021,https://bdny.com/,DM,Zafferano America,656,,http://www.zafferanoitalia.com/,,,,"Hillside, NJ United States",United States,Accessories | Electronics | Lighting | Tabletop | Technology,,,"Zafferano America is the exclusive North American distributor of the award-winning lighting and glassware designs of Federico de Majo of Venice, Italy."
BDNY,10/21/2021,2021,https://bdny.com/,DM,X-Chair,1047,,http://www.xchair.com,,,,"Beltsville, MD United States",United States,Furniture,,,"Finally! An office chair with 21st-century technology and design. There is no need to compromise, X-Chair enables users to both look good and be more productive."
BDNY,10/21/2021,2021,https://bdny.com/,DM,World Wide Iozza Ltd,1242,,http://www.worldwideiozza.com,,,,"Toronto, ON Canada",Canada,Accessories | Beds & Bedding | Fabric | Window Treatments,,,"World Wide Iozza Ltd. is a leading manufacturer and supplier of window treatments, bedding products, fabrics, hardware, and automation, always focused on delivering quality products and services at competitive pricing."
BDNY,10/21/2021,2021,https://bdny.com/,DM,Woodbridge Furniture,1051,,http://www.woodbridgefurniture.com,,,,"Thomasville, NC United States",United States,Furniture | Mirrors | Outdoor Furniture | Seating,,,"Woodbridge is a prominent supplier to the hospitality industry and found in several of the leading resorts and clubs around the world.  We build timeless furniture including bar stools, chairs, case goods and outdoor furniture."
BDNY,10/21/2021,2021,https://bdny.com/,DM,Woodard Furniture/ Craftmade Int’l,1719,,http://www.woodard-furniture.com,,,,"Coppell, TX United States",United States,Furniture | Lighting | Outdoor Furniture,,,"Woodard is a leading manufacturer of iron, aluminum, and all-weather woven outdoor furniture, as well as umbrellas and outdoor accessories.  Craftmade offers an unparalleled variety of indoor and outdoor ceiling fans and lighting."
BDNY,10/21/2021,2021,https://bdny.com/,DM,Wolf Gordon,741,,http://www.wolfgordon.com,,,,"New York, NY United States",United States,Fabric | Wallcoverings & Surfacing | Window Treatments,,,"Founded in 1967, Wolf-Gordon is an American design company that inspires outstanding interiors with high performing contract wallcovering, upholstery textiles, RAMPART"
BDNY,10/21/2021,2021,https://bdny.com/,DM,Art of Floors,1236,,http://artoffloors.com,,,,"Cartersville, GA United States",United States,Carpet & Flooring,,,Art of Floors designs and manufactures custom rugs for luxury hotels and commercial spaces. We help designers achieve the look they want and the quality of construction they need without having to worry about the details.
BDNY,10/21/2021,2021,https://bdny.com/,DM,Williams Sonoma Inc,2219,,http://wsitradeandcontract.com,,,,"San Francisco, CA United States",United States,Accessories | Furniture | Lighting | Outdoor Furniture | Seating,,,
BDNY,10/21/2021,2021,https://bdny.com/,DM,"Willow Tex, LLC.",2540,,http://www.izitleather.com,,,,"Mt. Airy, NC United States",United States,Fabric | Outdoor Furniture | Seating | Wallcoverings & Surfacing,,,
BDNY,10/21/2021,2021,https://bdny.com/,DM,Zenith Rugs,1904,,http://www.zenithrugs.com,,,,"Los Angeles, CA United States",United States,Carpet & Flooring,,,"Zenith Rugs is an award winning supplier of high quality custom rugs for the hospitality industry. Our distinctive rugs are featured in hotels worldwide and used in lobbies, suites, guestrooms and outdoor spaces."
BDNY,10/21/2021,2021,https://bdny.com/,DM,Waterworks,1551,,http://www.waterworks.com,,,,"Danbury, CT United States",United States,Accessories | Bath & Spa | Lighting | Mirrors | Wallcoverings & Surfacing,,,"Since 1978, Waterworks has provided a comprehensive,one-stop design destinationfor the two most important rooms of the home the bath and kitchen. Our products and services offer a level of distinction and recognizable value that enhances your property. We partner with exceptional properties around the world, including five-star resorts, urban condominiums and boutique hotels."
BDNY,10/21/2021,2021,https://bdny.com/,DM,wells Industries,1150,,http://www.wellsind.com/,,,,"El Paso, TX United States",United States,Accessories | Artwork | Bath & Spa | Beds & Bedding | Furniture | Mirrors | Outdoor Furniture | Seating | Tabletop,,,"Wells Industries is a furnishings supplier to the Hospitality Market. We have been building furniture in El Paso Texas for over 25 years using all metal types. Manufacturing custom, brand programs and metal components in large and small quantities. Visit our booth or El Paso facility and let's discuss what Wells can do for you and the advantages of sourcing product Made in the USA."
BDNY,10/21/2021,2021,https://bdny.com/,DM,Wildwood,2709,,http://www.wildwoodhome.com,,,,"Rocky Mount, NC United States",United States,Furniture | Lighting | Mirrors,,,
BDNY,10/21/2021,2021,https://bdny.com/,DM,WALTERS,2301,,http://www.walterswicker.com,,,,"Teterboro, NJ United States",United States,Furniture | Outdoor Furniture,,,
BDNY,10/21/2021,2021,https://bdny.com/,DM,Vincent Sheppard,2519,,www.vincentsheppard.com,,,,"Spiere, Belgium",Belgium,,,,
BDNY,10/21/2021,2021,https://bdny.com/,DM,Zenna Hospitality,955,,http://www.zennahospitality.com,,,,"New Castle, DE United States",United States,Accessories | Bath & Spa | Tabletop,,,"We are a new name in the hospitality industry, but are backed by a legcy of over 75 years experience in retail. Our mission is to bring imaginative concepts to life as we provide innovative shower curtains & bathroom/guestroom accessories."
BDNY,10/21/2021,2021,https://bdny.com/,DM,Wishing Lights,2727,,http://www.thewishinglights.com,,,,"New Fairfield, CT United States",United States,,,,
BDNY,10/21/2021,2021,https://bdny.com/,DM,Ariston Hospitality,935,,http://www.aristonhospitality.com,,,,"Alhambra, CA United States",United States,Furniture | Seating,,,"Ariston is a family owned, multinational furniture mfg. with factories in CA, NC and overseas. At Ariston,we create custom seating and casegood solutions for high traffic environments from boutique hotels to corporate offices."
BDNY,10/21/2021,2021,https://bdny.com/,DM,Arhaus,1957,,https://www.arhaus.com/,,,,"Boston Heights, OH United States",United States,Accessories | Furniture | Lighting | Outdoor Furniture | Seating,,,"Arhaus has a passion to provide sustainable, well designed furnishings. We travel the globe working directly with artisans to craft pieces that can only be found at Arhaus, ensuring that every piece meets our high quality standards."
BDNY,10/21/2021,2021,https://bdny.com/,DM,Vermont Islands,1031,,http://www.vermontislands.com,,,,"Battleboro, VT United States",United States,Furniture | Outdoor Furniture,,,"Mobile and modular bars, wait stations & outdoor kitchens.  Offering standard products and fully customizable work to match your needs & budget.  Handcrafted in Vermont, ships fully turn key to start serving on arrival."
BDNY,10/21/2021,2021,https://bdny.com/,DM,Van Teal Inc,1030,,http://www.vanteal.com,,,,"Miami, FL United States",United States,,,,
BDNY,10/21/2021,2021,https://bdny.com/,DM,VISMA CONTRACT SRL,545,,http://www.vismacontract.com,,,,"SARCEDO (VI), Vicenza Italy",Italy,Accessories | Furniture | Lighting | Outdoor Furniture | Seating,,,
BDNY,10/21/2021,2021,https://bdny.com/,DM,Vermont Quarries Corp.,2311,,http://www.vermontquarries.com,,,,"Mendon, VT United States",United States,Architectural Materials | Bath & Spa | Carpet & Flooring | Wallcoverings & Surfacing,,,Known World Wide for the beautiful Vermont Danby Marble quarried from THE LARGEST underground marble quarry in the world.
BDNY,10/21/2021,2021,https://bdny.com/,DM,Wall&Deco srl,541,,www.wallanddeco.com,,,,"Savio di Cervia, Italy",Italy,,,,
BDNY,10/21/2021,2021,https://bdny.com/,DM,Vaask,2507,,http://www.vaask.com,,,,"Ausitn, TX United States",United States,Accessories | Amenities | Bath & Spa | Electronics,,,
BDNY,10/21/2021,2021,https://bdny.com/,DM,Uniboard,1239,,http://www.uniboard.com,,,,"Laval, QC Canada",Canada,Furniture,,,Uniboard will bring a sense of luxurious realism to your space. We are redefining wood.
BDNY,10/21/2021,2021,https://bdny.com/,DM,Ulster,319,,http://www.ulstercarpets.com,,,,"Marietta, GA United States",United States,Carpet & Flooring,,,
BDNY,10/21/2021,2021,https://bdny.com/,DM,Ultrafabrics Inc.,2056,,http://www.ultrafabricsinc.com,,,,"TARRYTOWN, NY United States",United States,Fabric | Wallcoverings & Surfacing,,,MADE IN JAPAN. ENJOYED ALL OVER THE WORLD.
BDNY,10/21/2021,2021,https://bdny.com/,DM,TUUCI,1521,,http://www.tuuci.com,,,,"Hialeah, FL United States",United States,Outdoor Furniture,,,
BDNY,10/21/2021,2021,https://bdny.com/,DM,TuffSkin Surface Protection LLC,2204,,http://www.tuffskinprotection.com,,,,"Las Vegas, NV United States",United States,Architectural Materials | Tabletop | Wallcoverings & Surfacing,,,
BDNY,10/21/2021,2021,https://bdny.com/,DM,VIGO,1942,,,,,,"New York, NY United States",United States,,,,
BDNY,10/21/2021,2021,https://bdny.com/,DM,Tudelu,2641,,,,,,"Brooklyn, NY United States",United States,,,,
BDNY,10/21/2021,2021,https://bdny.com/,DM,Trove,1661,,http://www.troveline.com,,,,"Brooklyn, NY United States",United States,Wallcoverings & Surfacing,,,
BDNY,10/21/2021,2021,https://bdny.com/,DM,Valley Forge Fabrics Inc,1751,,http://www.valleyforge.com,,,,"Fort Lauderdale, FL United States",United States,Bath & Spa | Beds & Bedding | Fabric | Window Treatments,,,
BDNY,10/21/2021,2021,https://bdny.com/,DM,Tropitone Furniture,841,,http://www.tropitone.com,,,,"Irvine, CA United States",United States,Accessories | Furniture | Outdoor Furniture | Seating,,,"Tropitone Furniture is a leader in the outdoor furniture industry with headquarters in Irvine, CA, and manufacturing in both Irvine, CA and Sarasota, FL."
BDNY,10/21/2021,2021,https://bdny.com/,DM,Thermomat Sanline s.r.l.,644,,www.thermomat.com,,,,"Borgo Virgilio, Italy",Italy,,,,
BDNY,10/21/2021,2021,https://bdny.com/,DM,The Container Store,2123,,http://www.containerstore.com,,,,"Coppell, TX United States",United States,Accessories | Amenities | Furniture,,,
BDNY,10/21/2021,2021,https://bdny.com/,DM,Townsend Leather Company,624,,http://www.townsendleather.com,,,,"Johnstown, NY United States",United States,Accessories | Fabric | Seating | Wallcoverings & Surfacing,,,"Over 50 years of providing high-end, design-driven leathers to the interior design industry including hundreds of in-stock offerings, custom color and pattern capabilities & the ablility to value-engineer to meet project budgets."
BDNY,10/21/2021,2021,https://bdny.com/,DM,Tiger Leather,2119,,http://www.tigerleather.com,,,,"Greensboro, NC United States",United States,Accessories | Carpet & Flooring | Fabric | Wallcoverings & Surfacing,,,"For over 20 years, Tiger Leather has served the hospitality industry in the U.S. and abroad. Our fine Italian fashion leather is graded in the 97th percentile, which represents the highest standard of quality within the rawhide market."
BDNY,10/21/2021,2021,https://bdny.com/,DM,"UNICHAIRS, Inc.",2423,,http://www.unichairs.com,,,,"Woodbridge, ON Canada",Canada,Amenities | Furniture | Outdoor Furniture | Seating | Tabletop,,,"Unichairs is a contract furniture manufacturer and supplier of stylish, functional and comfortable contract essentialsthat define hospitality and public living spaces. We welcome the opportunity to serve you and your unique project"
BDNY,10/21/2021,2021,https://bdny.com/,DM,Terrestre Surfaces,1354,,https://terrestresurfaces.com/,,,,"Morganton, NC United States",United States,Architectural Materials | Carpet & Flooring | Furniture | Signage | Wallcoverings & Surfacing,,,"Terrestre – designs and manufactures surfaces for Architectural applications. Unique, organic texture and linear metals by technology artisans. Our hands and your imagination combined."
BDNY,10/21/2021,2021,https://bdny.com/,DM,The Chair Market,1261,,http://www.thechairmarket.com,,,,"Brooklyn, NY United States",United States,Furniture | Outdoor Furniture | Seating,,,
BDNY,10/21/2021,2021,https://bdny.com/,DM,turkishtowelcompany.com,2440,,http://www.turkishtowelcompany.com,,,,"Fletcher, NC United States",United States,Amenities | Bath & Spa | Fabric,,,
BDNY,10/21/2021,2021,https://bdny.com/,DM,Taffard Fabrics,2610,,http://www.taffard.com,,,,"Long Island City, NY United States",United States,Artwork | Fabric | Wallcoverings & Surfacing | Window Treatments,,,"Established in 2003, Taffard Fabrics is an independent, family owned company headquartered in New York City. We design, manufacture and distribute fine fabrics for residential and hospitality projects."
BDNY,10/21/2021,2021,https://bdny.com/,DM,Table Topics,2328,,http://www.tabletopics.biz,,,,"Elberta, AL United States",United States,Furniture | Tabletop,,,Table Topics is the industry leader in Hospitality Tables & Bars.   Our exclusive AcralyteX Finish paired with our exceptional quality designs and construction makes Table Topics the only choice for Hospitality Tables and Bars.
BDNY,10/21/2021,2021,https://bdny.com/,DM,Surya,1626,,http://www.surya.com,,,,"White, GA United States",United States,Accessories | Carpet & Flooring | Lighting | Mirrors | Wallcoverings & Surfacing,,,"Designed to withstand the challenges of hospitality settings, Surya offers custom rug designs and an extensive in-stock inventory to help express the personality of your brand regardless of budget, style, and timeline."
BDNY,10/21/2021,2021,https://bdny.com/,DM,Surfacing Solution,939,,https://www.surfacingsolution.com,,,,"Chaska, MN United States",United States,Architectural Materials | Wallcoverings & Surfacing,,,"We cater to Architects, Interior Designers, Cabinet Makers, and Millworkers, working on commercial and high end residential applications."
BDNY,10/21/2021,2021,https://bdny.com/,DM,Sunbrite Outdoor Furniture,410,,http://www.sunbritefurniture.com,,,,"Orlando, FL United States",United States,Accessories | Furniture | Outdoor Furniture | Seating | Tabletop,,,
BDNY,10/21/2021,2021,https://bdny.com/,DM,Teaki Tiles / Island Living,1758,,http://www.islandlivingdesigns.com,,,,"Lahaina , HI United States",United States,,,,
BDNY,10/21/2021,2021,https://bdny.com/,DM,Tempur Sealy International,1951,,https://www.tempursealyhospitality.com/,,,,"Trinity, NC United States",United States,Beds & Bedding,,,"Tempur Sealy International, Inc. is the world’s largest bedding provider. Tempur Sealy develops, manufactures and markets mattresses, foundations, pillows and other products — including a full line of hospitality mattresses."
BDNY,10/21/2021,2021,https://bdny.com/,DM,Terrain,529,,http://www.terrainmaterials.com,,,,"Ventura, CA United States",United States,Architectural Materials | Bath & Spa | Carpet & Flooring | Wallcoverings & Surfacing,,,"The premise of Terrain is simple: produce beautiful, hard surfaces for hospitality. We specialize in porcelain, natural stone, glass, cement, ceramic + concrete. Terrain works with you to provide a solution for your design + budget."
BDNY,10/21/2021,2021,https://bdny.com/,DM,Uttermost Company,2444,,http://www.uttermost.com,,,,"Rocky Mount, VA United States",United States,Accessories | Artwork | Furniture | Lighting | Mirrors,,,
BDNY,10/21/2021,2021,https://bdny.com/,DM,Wallquest - Seabrook – DuPont,635,,http://www.wallquest.com,,,,"Wayne, PA United States",United States,Wallcoverings & Surfacing,,,"In our commercial/contract wallcovering range, we offer a wealth of design options for the interior design and architectural markets."
BDNY,10/21/2021,2021,https://bdny.com/,DM,Stylenations,1232,,https://www.stylenations.com/,,,,"Dallas, TX United States",United States,Furniture | Outdoor Furniture | Seating | Tabletop,,,
BDNY,10/21/2021,2021,https://bdny.com/,DM,Studio Twist,1709,,http://www.studiotwist.net,,,,"Kennesaw, GA United States",United States,Accessories | Bath & Spa | Beds & Bedding | Fabric,,,"We create top-of-bed knits with style, luxury, durability, & easy maintenance. All colorfast, anti-bacterial, anti-microbial, stain/mold/mildew resistant, bleachable, eco-friendly, and pass all fire codes for Hospitality."
BDNY,10/21/2021,2021,https://bdny.com/,DM,Summer Classics,1427,,http://www.summerclassicscontract.com,,,,"Pelham, AL United States",United States,Furniture | Outdoor Furniture,,,
BDNY,10/21/2021,2021,https://bdny.com/,DM,SUD LEGNO GROUP SRL,646,,,,,,"Padova, Italy",Italy,,,,
BDNY,10/21/2021,2021,https://bdny.com/,DM,SPAZIO 81 - WALLPEPPER,435,,,,,,"MILANO (MI), Milan Italy",Italy,,,,
BDNY,10/21/2021,2021,https://bdny.com/,DM,Tarkett Hospitality,1635,,http://www.tarketthospitality.com,,,,"Dalton, GA United States",United States,Carpet & Flooring,,,"Tarkett Hospitality helps you create unforgettable guest experiences.  Our unmatched custom design capabilities for carpet and LVT help you showcase each property's signature style.  Tarkett Hospitality's portfolio of flooring solutions for every space, includes Axminster woven carpet, tufted broadloom carpet, LVT, rubber tile, wall base, just to name a few.  Whether you combine our running-line products and accessories in new and unexpected ways, or customize one of our patterns, you'll find the perfect blend of lasting performane and beautiful aesthetics."
BDNY,10/21/2021,2021,https://bdny.com/,DM,Stone and Sawyer,2725,,http://www.stoneandsawyer.com,,,,"Delhi, NY United States",United States,Lighting,,,"Custom-designed, hand-produced, American-Made stoneware ceramic table and floor lamps for hospitality and home. Our lamps are UL Listed and we produce for small to large scale hospitality projects."
BDNY,10/21/2021,2021,https://bdny.com/,DM,Studio M,2307,,http://www.studiomlighting.com,,,,"City of Industry, CA United States",United States,Furniture | Lighting | Mirrors | Outdoor Furniture,,,
BDNY,10/21/2021,2021,https://bdny.com/,DM,Spacia Group - an IMC Company,1342,,http://www.thespaciagroup.com,,,,"LOUISVILLE, KY United States",United States,Architectural Materials | Artwork | Mirrors | Wallcoverings & Surfacing,,,Spacia Group is in the business of defining unique spaces. We provide
BDNY,10/21/2021,2021,https://bdny.com/,DM,Suite 22,2143,,http://www.suite22.com,,,,"Toronto, ON Canada",Canada,Furniture | Outdoor Furniture | Seating,,,CUSTOM SEATING MANUFACTURER & DEALER OF ITALIAN BRANDS SPECIALIZING IN CONTRACT SEATING AND TABLES.
BDNY,10/21/2021,2021,https://bdny.com/,DM,Stickley,2335,,http://www.stickley.com,,,,"Manlius, NY United States",United States,Beds & Bedding | Furniture | Mirrors | Seating,,,
BDNY,10/21/2021,2021,https://bdny.com/,DM,Smith & Fong Plyboo,2118,,http://www.plyboo.com,,,,"Novato, CA United States",United States,Architectural Materials | Wallcoverings & Surfacing,,,"Smith & Fong Co. Plyboo provides textured and acoustical panels for wall, ceiling and millwork application. Offering full panels and modular design in natural bamboo tones along with multiple color option."
BDNY,10/21/2021,2021,https://bdny.com/,DM,Society6,2505,,http://www.society6.com,,,,"Santa Monica, CA United States",United States,Accessories | Artwork | Furniture | Wallcoverings & Surfacing,,,
BDNY,10/21/2021,2021,https://bdny.com/,DM,SleepNest Beds,1252,,http://SleepNestBeds.com,,,,"Ontario, CA United States",United States,Beds & Bedding | Fabric | Furniture | Window Treatments,,,SleepNest manufactures hospitality grade platform beds. Choose from painted or wood-grain platform beds made 100% from steel. Enhance your room décor & guest satisfaction with SleepNest platform beds.
BDNY,10/21/2021,2021,https://bdny.com/,DM,Sika Design,2519,,https://www.sikadesignusa.com,,,,"Minneapolis, MN United States",United States,Furniture | Mirrors | Outdoor Furniture | Seating,,,
BDNY,10/21/2021,2021,https://bdny.com/,DM,Source Direct,324,,http://www.sourcedirectimports.com,,,,"Phoenix, AZ United States",United States,Architectural Materials | Bath & Spa | Mirrors,,,"Source Direct specializes in the manufacturing and importation of custom construction related products (barn doors, vanities, backlit mirrors, and more) for hospitality projects."
BDNY,10/21/2021,2021,https://bdny.com/,DM,Source Direct,319,,http://www.sourcedirectimports.com,,,,"PHOENIX, AZ United States",United States,Architectural Materials | Bath & Spa | Mirrors,,,"Source Direct specializes in the manufacturing and importation of custom construction related products (barn doors, vanities, backlit mirrors, and more) for hospitality projects."
BDNY,10/21/2021,2021,https://bdny.com/,DM,Splashworks,2061,,http://www.splash-works.com,,,,"High Point, NC United States",United States,Accessories | Artwork | Fabric | Wallcoverings & Surfacing,,,"SPLASHWORKS was founded in 2016 in High Point, North Carolina. At our studio a dedicated team of designers, graphic artists and craftsmen and women create beautiful objects that add warmth, texture and color to hospitality settings. We take pride in knowing that our products are American made. The entire process from concept development to graphic design, printing, pressing, sewing, frame building and final assembly are all expertly executed under one roof at our studio. Having all these capabilities in-house helps us be flexible and responsive to guarantee a quick turnaround for our clients."
BDNY,10/21/2021,2021,https://bdny.com/,DM,Stile Societa' Cooperativa,434,,http://www.stile.com/eng,,,,"Trestina, Italy",Italy,Carpet & Flooring,,,"Today Stile is a well-known brand in Italy and all around the world Stile is synonymous with quality and elegance. The Choosing a Stile product, you don’t only buy a wooden floor, but you also make a lifestyle choice."
BDNY,10/21/2021,2021,https://bdny.com/,DM,Simplehuman,1751,,http://www.simplehuman.com/hospitality,,,,"Torrance, CA United States",United States,,,,
BDNY,10/21/2021,2021,https://bdny.com/,DM,Signature Flooring,735,,http://www.signatureflooring.com,,,,"Dalton, GA United States",United States,Carpet & Flooring,,,
BDNY,10/21/2021,2021,https://bdny.com/,DM,SFERRA,1053,,www.sferra.com,,,,"New York, NY United States",United States,,,,
BDNY,10/21/2021,2021,https://bdny.com/,DM,Senova Seating,2451,,http://www.senovaseating.com,,,,"San Diego, CA United States",United States,,,,
BDNY,10/21/2021,2021,https://bdny.com/,DM,Serta Hospitality,2005,,,,,,"Hoffman Estates, IL United States",United States,,,,
BDNY,10/21/2021,2021,https://bdny.com/,DM,Seura Inc,413,,http://www.seura.com,,,,"Green Bay, WI United States",United States,Electronics | Lighting | Mirrors | Technology,,,
BDNY,10/21/2021,2021,https://bdny.com/,DM,Sensaria,2529,,http://www.sensaria.com,,,,"Longmont, CO United States",United States,Artwork | Mirrors | Signage | Wallcoverings & Surfacing,,,Introducing
BDNY,10/21/2021,2021,https://bdny.com/,DM,Sierra Nevada Hospitality by Gary Platt,2451,,www.sierranevadahospitality.com,,,,"Reno, NV United States",United States,,,,
BDNY,10/21/2021,2021,https://bdny.com/,DM,"SELF Electronics Co, Ltd",1556,,http://www.self-electronics.com,,,,"Peachtree Corners, GA United States",United States,Lighting,,,
BDNY,10/21/2021,2021,https://bdny.com/,DM,Shelby Williams Industries,1809,,http://www.shelbywilliams.com,,,,"Newport, TN United States",United States,Furniture | Seating | Tabletop,,,"Catering to all areas of hospitality including Hotels, Restaurants, Casinos, Country Clubs, Time Share Properites & Senior Living, Shelby Williams is leading provider in seating, tables and more with custom capabilities."
BDNY,10/21/2021,2021,https://bdny.com/,DM,Sectis Design,1360,,http://www.sectisdesign.com,,,,"Miami, FL United States",United States,Architectural Materials | Artwork | Outdoor Furniture | Signage | Wallcoverings & Surfacing,,,
BDNY,10/21/2021,2021,https://bdny.com/,DM,SARTORETTO VERNA SRL,547,,,,,,"ROMA, Rome Italy",Italy,,,,
BDNY,10/21/2021,2021,https://bdny.com/,DM,Scott Lamp Co Inc,2501,,http://www.scottlamp.com,,,,"Fairfield, CA United States",United States,Lighting | Mirrors,,,
BDNY,10/21/2021,2021,https://bdny.com/,DM,Seasonal Living Trading Company,1907,,http://www.seaonalliving.com,,,,"Austin, TX United States",United States,,,,
BDNY,10/21/2021,2021,https://bdny.com/,DM,Santorus,2441,,http://santorus.com,,,,"Wimbledon, London United Kingdom",United Kingdom,Accessories | Artwork | Fabric | Wallcoverings & Surfacing,,,"Santorus is a luxury design house based in London. Inspired by two family generations of unique Indian/Italian hertiage, they are known for their inimiatable bold and quirky statement collections, with a hint of added mischief!"
BDNY,10/21/2021,2021,https://bdny.com/,DM,Schluter Systems LP,1457,,http://www.schluter.com,,,,"Plattsburgh, NY United States",United States,Accessories | Architectural Materials | Bath & Spa | Carpet & Flooring | Wallcoverings & Surfacing,,,Schluter
BDNY,10/21/2021,2021,https://bdny.com/,DM,Sancal Diseno SL,2019,,http://www.sancal.com,,,,"Yecla, Murcia, Spain",Spain,Furniture | Seating,,,
BDNY,10/21/2021,2021,https://bdny.com/,DM,Samuel & Sons Passementerie,1808,,http://www.samuelandsons.com,,,,"New York, NY United States",United States,,,,
BDNY,10/21/2021,2021,https://bdny.com/,DM,Safemark,1805,,http://www.safemark.com,,,,"Orlando, FL United States",United States,Minibars & Safes,,,"Safemark's in-room safe installations range from luxury to economy properties with models crafted to accommodate case goods, walls, closets, and more. To learn more about Safemark’s security solutions, visit www.safemark.com."
BDNY,10/21/2021,2021,https://bdny.com/,DM,Sacco Carpet,2518,,http://www.saccocarpet.com,,,,"New York, NY United States",United States,,,,
BDNY,10/21/2021,2021,https://bdny.com/,DM,RS Barcelona,2029,,http://www.rs-barcelona.com,,,,"Barcelona, Spain",Spain,Accessories | Furniture | Outdoor Furniture | Seating,,,"We design driven by passion to create iconic pieces. Unique, and exceptional game tables and furniture for hotels, restaurants, offices and homes. Designs that transform any space bringing an exclusivity touch. For indoor and outdoor."
BDNY,10/21/2021,2021,https://bdny.com/,DM,Royal Custom Designs,1844,,http://www.royalcustomdesigns.com,,,,"Chino, CA United States",United States,Furniture | Seating,,,"RCD has been manufacturing furniture in California since 1970. Serving hospitality, multifamily, and senior living. Our  goal is to create unique experiences through partnership, honesty, and excellent communication."
BDNY,10/21/2021,2021,https://bdny.com/,DM,Roselli Trading Company,931,,http://www.roselitradingcompany.com,,,,"New Canaan, CT United States",United States,Accessories | Bath & Spa | Furniture,,,"Roselli Trading Company creates its own design bath accessories, luggage strands, ice buckets and trays for upscale boutiques hotels, resorts, and yachts."
BDNY,10/21/2021,2021,https://bdny.com/,DM,ROU MATERIAAL,642,,,,,,"RAVENNA, Ravenna Italy",Italy,,,,
BDNY,10/21/2021,2021,https://bdny.com/,DM,SANDALYECI A.S.,1861,,http://www.sandalyeci.com,,,,"Dulles, VA United States",United States,Furniture | Outdoor Furniture | Seating | Tabletop,,,Manufacturer of contract furniture offering catalog selections and full custom capabilities. Long term durability and exceptional design make Sandalyeci a prefered supplier of the world's leading hospitality brands.
BDNY,10/21/2021,2021,https://bdny.com/,DM,Sandler Seating,751,,http://www.sandlerseating.com,,,,"Atlanta, GA United States",United States,Furniture | Outdoor Furniture | Seating,,,
BDNY,10/21/2021,2021,https://bdny.com/,DM,Samuel Lawrence Hospitality,742,,http://www.slh-co.com/,,,,"High Point, NC United States",United States,Furniture | Seating,,,
BDNY,10/21/2021,2021,https://bdny.com/,DM,Samuelson Furniture,2605,,http://www.samuelsonfurniture.com,,,,"Paterson, NJ United States",United States,Beds & Bedding | Furniture | Seating,,,"Samuelson Furniture is the only fourth generation family-owned company solely dedicated to the hospitality sector, providing high-end case goods and seating for 4- and 5-Star projects"
BDNY,10/21/2021,2021,https://bdny.com/,DM,"Sampson Mills, Ltd.",1251,,http://www.sampsonmills.com,,,,"New York, NY United States",United States,Architectural Materials | Fabric | Window Treatments,,,"Our projects consist of Hospitality, Healthcare, work spaces, Residential, Cruise line, Aero, as well as many other project categories. If a solution isn't available in the market our dedicated specialists can help design one for you."
BDNY,10/21/2021,2021,https://bdny.com/,DM,room360˚ by FOH®,1729,,http://www.roomthreesixty.com,,,,"Miami, FL United States",United States,Accessories | Bath & Spa,,,
BDNY,10/21/2021,2021,https://bdny.com/,DM,Richloom Contract,1621,,http://www.richloomcontract.com,,,,"New York, NY United States",United States,Beds & Bedding | Fabric | Window Treatments,,,"Headquarters in NY & a Shanghai subsidiary facilitates access to our full product line. Upholstery, sheers, drapery & vinyl, plus manufactured decorative bedding available as stock program & fully custom. All pass industry standards."
BDNY,10/21/2021,2021,https://bdny.com/,DM,Samelson-Chatelane,1638,,http://www.csamelson.com,,,,"New York, NY United States",United States,Accessories | Fabric | Outdoor Furniture | Seating | Window Treatments,,,
BDNY,10/21/2021,2021,https://bdny.com/,DM,Rigo Wallcoverings,1145,,http://www.rigowall.com,,,,"Paterson, NJ United States",United States,Architectural Materials | Fabric | Wallcoverings & Surfacing,,,
BDNY,10/21/2021,2021,https://bdny.com/,DM,Renwil Hospitality,1819,,http://www.renwilhospitality.com,,,,"Lasalle, QC Canada",Canada,Artwork | Bath & Spa | Carpet & Flooring | Lighting | Mirrors,,,
BDNY,10/21/2021,2021,https://bdny.com/,DM,Room & Board Business Interiors,2357,,http://www.roomandboard.com/bicontract,,,,"Minneapolis, MN United States",United States,Bath & Spa | Beds & Bedding | Furniture | Lighting | Minibars & Safes | Mirrors | Outdoor Furniture | Seating,,,"— Adding to its ample collection of contract-grade products,"
BDNY,10/21/2021,2021,https://bdny.com/,DM,Raphael Porcelain,851,,www.raphaelporcelain.com,,,,"Lodi, NJ United States",United States,,,,
BDNY,10/21/2021,2021,https://bdny.com/,DM,Ratana Contract,319,,http://www.ratana.com,,,,"Vancouver, BC Canada",Canada,Outdoor Furniture,,,"RATANA offer timeless design and exceptional quality of outdoor furniture. Our line of contract furniture can be seen globally, from hotel resorts to restaurants, and international golf courses."
BDNY,10/21/2021,2021,https://bdny.com/,DM,Provado Inc.,928,,http://www.provadoinc.com,,,,"Tucker, GA United States",United States,Furniture,,,Casegoods
BDNY,10/21/2021,2021,https://bdny.com/,DM,PTY Lighting,1751,,http://www.ptylighting.com,,,,"Hillside, NJ United States",United States,Lighting,,,
BDNY,10/21/2021,2021,https://bdny.com/,DM,REAL PIEL SRL,441,,,,,,"SAN ZENONE DEGLI EZZELLINI (TV), Treviso Italy",Italy,,,,
BDNY,10/21/2021,2021,https://bdny.com/,DM,Posh Textiles,1926,,http://poshtextiles.com,,,,"SYOSSET, NY United States",United States,Fabric,,,"Post Textiles is the American division of an Indian family of mill owners, in business for over 60 years. We produce performance fabrics in a modern, ISO 14001 certified factory in Bangalore with vast design capabilities."
BDNY,10/21/2021,2021,https://bdny.com/,DM,PierPoint,1823,,http://www.pierpointusa.com,,,,"Orlando, FL United States",United States,Accessories | Carpet & Flooring | Fabric,,,"PierPoint is a boutique company that specializes in custom textiles, area rugs and unique accessories.   The company is a market focused, process-centered organaization that develops and delivers innovative products and solutions."
BDNY,10/21/2021,2021,https://bdny.com/,DM,"POINT, S.L.",1919,,http://www.point1920.com,,,,"Jalon, Alicante, Spain",Spain,Furniture | Outdoor Furniture | Seating,,,
BDNY,10/21/2021,2021,https://bdny.com/,DM,Phillip Jeffries Ltd.,1810,,http://www.phillipjeffries.com,,,,"Fairfield, NJ United States",United States,Wallcoverings & Surfacing,,,"Now in its fourth decade, Phillip Jeffries has emerged as the industry leader in natural, textured and specialty wallcoverings.  A manufacturer and importer of unique and fine quality textured wallcoverings, the company was founded in 1976 with just 10 grasscloths.  From the humble beginnings of the family garage, Phillip Jeffries now stocks more than 1000 ready-to-ship wallcoverings in their 60,000+ square foot headquarters.  Working hand-in-hand with skilled artisans, Phillip Jeffries creates the design world’s most beautiful and sought-after wallcoverings. For more information, visit"
BDNY,10/21/2021,2021,https://bdny.com/,DM,Pioneer Millworks,1044,,http://www.pioneermillworks.com,,,,"Farmington, NY United States",United States,Carpet & Flooring | Furniture | Tabletop | Wallcoverings & Surfacing,,,
BDNY,10/21/2021,2021,https://bdny.com/,DM,Paradigm Trends,747,,http://www.paradigmtrends.com,,,,"New York, NY United States",United States,Accessories | Bath & Spa | Furniture | Mirrors | Seating,,,"Our Extensive range of style and materials- including metal, resin, sustainable wood, and faux leather- allows our clients to choose bar, bathroom and other accessories tailored to someone's current needs. We're excited to see you!"
BDNY,10/21/2021,2021,https://bdny.com/,DM,Palecek,1325,,http://www.palecek.com,,,,"Richmond, CA United States",United States,Accessories | Furniture | Lighting | Outdoor Furniture | Seating,,,"Palecek, an award winning manufacturer of distinctive furniture, lighting, wall dcor, and accessories. Palecek creates its signature look by designing unique items using a wide range of natural materials from all over the world. Our California factory and distribution center holds inventory ready to ship, upholster, finish or custom modify to meet your Hospitality needs. We can handle any project, large or small, and can produce custom items with low minimums."
BDNY,10/21/2021,2021,https://bdny.com/,DM,P/Kaufmann Contract,2319,,http://www.pkcontract.com,,,,"New York, NY United States",United States,Fabric,,,
BDNY,10/21/2021,2021,https://bdny.com/,DM,Paragon,224,,http://www.paragonpg.com,,,,"Albertville, AL United States",United States,Artwork | Lighting | Mirrors,,,"Paragon offers a large selection of wall art including canvas, metal, plexiglass & wood.  We also offer lamps and custom size mirrors. All products ship from AL."
BDNY,10/21/2021,2021,https://bdny.com/,DM,Perennials & Sutherland,551,,http://www.perennialsandsutherland.com,,,,"Dallas, TX United States",United States,Fabric | Outdoor Furniture | Seating,,,"The Perennials and Sutherland, LLC companies are icons and acknowledged leaders in the international design industry. Chairman of the Board David Sutherland and CEO Ann Sutherland share an ingenious talent for creating the finest interior and exterior collections of luxury furniture, fabrics, rugs and accessories. Based in Dallas, Texas, the company is comprised of Sutherland Furniture®, Perennials Luxury Performance Fabrics® and David Sutherland Showrooms."
BDNY,10/21/2021,2021,https://bdny.com/,DM,Phillips Collection,1745,,http://www.phillipscollection.com,,,,"High Point, NC United States",United States,Accessories | Artwork | Furniture | Outdoor Furniture | Seating,,,
BDNY,10/21/2021,2021,https://bdny.com/,DM,Prism Hardscapes,861,,http://PrismHardscapes.com,,,,"Cerritos, CA United States",United States,Furniture | Outdoor Furniture,,,
BDNY,10/21/2021,2021,https://bdny.com/,DM,Pollack / Weitzner,2225,,"http://www.pollackassociates.com, www.weitznerlimited.com",,,,"New York, NY United States",United States,Fabric | Wallcoverings & Surfacing,,,
BDNY,10/21/2021,2021,https://bdny.com/,DM,Remington Lighting,319,,http://www.remingtonlighting.com,,,,"Camp Hill, PA United States",United States,Lighting,,,
BDNY,10/21/2021,2021,https://bdny.com/,DM,RH Contract,835,,http://www.rh.com/contract,,,,"Corte Madera, CA United States",United States,Fabric | Furniture | Lighting | Mirrors | Outdoor Furniture | Seating,,,"RH Contract is a multi-category supplier of luxury furnishings and a single-source, business-to-business FF&E partner."
BDNY,10/21/2021,2021,https://bdny.com/,DM,OutDesign Group,829,,http://www.outdesigngroup.com,,,,"Boca Raton, FL United States",United States,Outdoor Furniture,,,"OutDesign Group offers an array of outdoor furniture, lounge seating, poolside or beach seating, dining tables, chairs and bar stools, umbrellas, swings, ocean beds cabanas and much more.  Our goal is to make your outdoor space stylish."
BDNY,10/21/2021,2021,https://bdny.com/,DM,Oxford Garden,2060,,http://www.oxfordgarden.com,,,,"Simpsonville, KY United States",United States,Furniture | Outdoor Furniture | Seating,,,
BDNY,10/21/2021,2021,https://bdny.com/,DM,NOW Carpets Design Inc,2435,,http://www.nowcarpets.com,,,,"New York, NY United States",United States,Carpet & Flooring,,,
BDNY,10/21/2021,2021,https://bdny.com/,DM,Nonstop,1244,,http://www.nonstopproducts.com,,,,"Reno, NV United States",United States,Electronics,,,
BDNY,10/21/2021,2021,https://bdny.com/,DM,Nourison Hospitality,2319,,http://www.nourisonhospitality.com,,,,"Saddle Brook, NJ United States",United States,,,,
BDNY,10/21/2021,2021,https://bdny.com/,DM,Numera Lighting,1243,,http://www.numeralighting.com,,,,"Baltimore, MD United States",United States,Lighting | Signage,,,
BDNY,10/21/2021,2021,https://bdny.com/,DM,Old Dominion Furniture Company,525,,http://www.olddominionfurniture.com,,,,"Lynchburg, VA United States",United States,Furniture | Seating,,,Old Dominion Furniture Co. is a Virginia-based manufacturing company producing high-quality handcrafted furniture for the hospitality industry. Each piece is made-to-order and built from premium materials for lasting durability.
BDNY,10/21/2021,2021,https://bdny.com/,DM,OmniDecor,534,,http://www.omnidecor.it,,,,"Mosciano Sant'Angelo (TE), Italy",Italy,,,,
BDNY,10/21/2021,2021,https://bdny.com/,DM,Nine Dot Arts,319,,,,,,"Denver, CO United States",United States,,,,
BDNY,10/21/2021,2021,https://bdny.com/,DM,"Nicheo USA, Inc.",2419,,http://www.polartdesigns.com,,,,"Houston, TX United States",United States,Accessories | Furniture | Mirrors | Outdoor Furniture | Seating,,,NICHEO is a unique furniture manufacturer known for its avant-garde proposals.
BDNY,10/21/2021,2021,https://bdny.com/,DM,New Leaf™ Performance Veneers – A Wilsonart Company,651,,,,,,"Temple, TX United States",United States,,,,
BDNY,10/21/2021,2021,https://bdny.com/,DM,Neil Kerman Gallery,1137,,https://www.neilkermangallery.com/,,,,"Brooklyn, NY United States",United States,Accessories | Artwork | Wallcoverings & Surfacing,,,"The Neil Kerman Gallery specializes in luxurious color-enticing abstract expressionism. From originals and reproductions, to resizings and meticulous customization, Neil creates art to enrich, vitalize, and colorize your space."
BDNY,10/21/2021,2021,https://bdny.com/,DM,Naturalist,1754,,http://www.naturalist.us,,,,"Hoboken, NJ United States",United States,Beds & Bedding | Furniture | Seating | Wallcoverings & Surfacing,,,"Naturalist Interiors is all about letting nature in, we also offer 100% Maintenance Fre Wall Gardens!"
BDNY,10/21/2021,2021,https://bdny.com/,DM,New Growth Designs,660,,http://www.newgrowthdesigns.com,,,,"Greenville, NC United States",United States,Accessories | Architectural Materials | Outdoor Furniture,,,
BDNY,10/21/2021,2021,https://bdny.com/,DM,NEWH Inc,2635,,http://www.newh.org,,,,"Shawano, WI United States",United States,Association,,,
BDNY,10/21/2021,2021,https://bdny.com/,DM,National Lighting Corp,1154,,http://www.nationallighting.com,,,,"Cerritos, CA United States",United States,Accessories | Electronics | Lighting | Technology,,,"Eddie Tinoco, Marketing"
BDNY,10/21/2021,2021,https://bdny.com/,DM,My Mosaic Inc.,1034,,http://www.my-mosaic.com,,,,"New York, NY United States",United States,Wallcoverings & Surfacing,,,
BDNY,10/21/2021,2021,https://bdny.com/,DM,Native Trails,1857,,http://www.nativetrailshome.com,,,,"San Luis Obispo, CA United States",United States,Bath & Spa | Mirrors,,,"Native Trails' fixtures for the kitchen and bath make a grand visual impression with a small ecological footprint. We work with artisans around the world to handcraft our kitchen and bath products from natural, sustainable materials."
BDNY,10/21/2021,2021,https://bdny.com/,DM,Nanimarquina,2028,,http://www.nanimarquina.com,,,,"Barcelona, Spain",Spain,Carpet & Flooring,,,
BDNY,10/21/2021,2021,https://bdny.com/,DM,MTS Seating,1535,,http://www.mtsseating.com,,,,"Temperance, MI United States",United States,Furniture | Seating | Tabletop,,,"MTS is the leading manufacturer of metal framed hospitality seating. Our made in the USA products include stackable banquet chairs, folding products, guest room, public space and restaurant seating."
BDNY,10/21/2021,2021,https://bdny.com/,DM,Nardi USA,2751,,http://www.nardioutdoor.com,,,,"Quincy, MA United States",United States,Furniture | Outdoor Furniture,,,"For 25 years, Nardi has been a leader in the outdoor furniture industry.  With timeless elegant designs made of polypropylene resins, Nardi's furniture will stand up to the harshest environmental conditions.  Made in Italy."
BDNY,10/21/2021,2021,https://bdny.com/,DM,"MunnWorks, LLC",2211,,http://www.munnworks.com,,,,"Mount Vernon, NY United States",United States,Accessories | Bath & Spa | Lighting | Mirrors,,,
BDNY,10/21/2021,2021,https://bdny.com/,DM,Nalesso SRL,542,,http://www.nalesso.it,,,,"Rubano (PD), Italy",Italy,,,,
BDNY,10/21/2021,2021,https://bdny.com/,DM,Montague,727,,http://www.williammontague.com,,,,"Englewood, FL United States",United States,Furniture,,,
BDNY,10/21/2021,2021,https://bdny.com/,DM,Modern Forms / WAC Lighting / Schonbek,2351,,http://www.waclighting.com,,,,"Port Washington, NY United States",United States,Electronics | Lighting,,,"Modern Forms, WAC Lighting, and Schonbek are innovative brands of upscale luminaires and smart interior/exterior ceiling fans, delivering high quality, functional illumination for the luxury design and hospitality community."
BDNY,10/21/2021,2021,https://bdny.com/,DM,Minted Art,1938,,minted.com/art,,,,"San Francisco, CA United States",United States,,,,
BDNY,10/21/2021,2021,https://bdny.com/,DM,MLE Srl,540,,http://www.mlelighting.com,,,,"Campi Bisenzio (FI), Italy",Italy,Bath & Spa | Lighting | Mirrors,,,
BDNY,10/21/2021,2021,https://bdny.com/,DM,Motivo,935,,http://www.motivofurniture.com,,,,"High Point, NC United States",United States,Furniture | Seating,,,"Motivo Furniture, offers an extensive, curated collection of over 200 European designed frames, American-made seating styles and occasional tables to the North American hospitality, design, contract and related trade markets."
BDNY,10/21/2021,2021,https://bdny.com/,DM,"Monstruosus, Inc.",1256,,http://monstruosus.com,,,,"Miami, FL United States",United States,Accessories | Outdoor Furniture,,,
BDNY,10/21/2021,2021,https://bdny.com/,DM,Moen,429,,http://www.moen.com,,,,"North Olmsted, OH United States",United States,Accessories | Architectural Materials | Bath & Spa | Lighting | Technology,,,"Moen offers kitchen & bath faucets, showerheads, accessories, bath safety products, garbage disposals & kitchen sinks delivering the best combination of innovation, useful features, and lasting value."
BDNY,10/21/2021,2021,https://bdny.com/,DM,Mirror Image,2245,,http://www.mirrorimageinc.com,,,,"Los Angeles, CA United States",United States,Mirrors,,,"At Mirror Image, we believe in ingenuity and the power of design. We embrace and motivate the creative spirit and pride ourselves on having the best customer service in the industry."
BDNY,10/21/2021,2021,https://bdny.com/,DM,MTI Baths,1634,,http://www.mtiwhirlpools.com,,,,"Sugar Hill, GA United States",United States,Bath & Spa,,,"MTI Baths is a premier manufacturer of tubs, shower pans, a variety of sink types, ADA products and custom furniture in SculptureStone, mineral composite and cross-linked cast acrylic. MTI offers unparalleled premium customization."
BDNY,10/21/2021,2021,https://bdny.com/,DM,Mid Atlantic Surfaces,1156,,www.midatlanticsurfaces.com,,,,"Oilville, VA United States",United States,,,,
BDNY,10/21/2021,2021,https://bdny.com/,DM,Minibar Systems,1151,,http://www.minibarna.com,,,,"Rockville, MD United States",United States,Amenities | Bath & Spa | Minibars & Safes | Technology,,,"Minibar Systems is the global leader in certified hospitality-grade guestroom Fridges, Safes and Minibars for over 47 years. Our product lines have become the brand standard for many of the world’s leading hotel brands ensuring design, quality, low noise, Energy-Star rating efficiency and guest satisfaction to millions of hotel guests. Please stop by our Booth #1959 and see our new products for 2019 including our new “slim line” Fridges with 16” depth (a new standard for the industry). We look forward to seeing you!"
BDNY,10/21/2021,2021,https://bdny.com/,DM,Maya Romanoff,1751,,http://www.mayaromanoff.com,,,,"Skokie, IL United States",United States,,,,
BDNY,10/21/2021,2021,https://bdny.com/,DM,"Materials, Inc",2235,,http://www.materials-inc.com,,,,"Hackensack, NJ United States",United States,Carpet & Flooring | Wallcoverings & Surfacing,,,
BDNY,10/21/2021,2021,https://bdny.com/,DM,Marset,1929,,http://www.marset.com,,,,"New York, NY United States",United States,Lighting,,,"At Marset, we do more than lamps—we take care of light and its various nuances and effects to improve people’s quality of life. Design is what sets us apart."
BDNY,10/21/2021,2021,https://bdny.com/,DM,Marquis Seating,621,,http://www.marquisseating.com,,,,"High Point, NC United States",United States,Furniture,,,Marquis forms itself around you and your unique needs to bring your ideas to life. Give us a call. Share your vision. Let's...MAKE YOUR MARQ.
BDNY,10/21/2021,2021,https://bdny.com/,DM,Mario Contract Lighting,1050,,http://www.mariocontractlighting.com,,,,"Roanoke, VA United States",United States,Lighting,,,"Mario Contract Lighting manufacturers domestically, as well as importing, and has a proven track record with many satisfied repeat customers, including established programs with several Brands."
BDNY,10/21/2021,2021,https://bdny.com/,DM,Mario Bongio SRL,437,,http://www.bongio.it,,,,"San Maurizio d'Opaglio, Novara Italy",Italy,Accessories | Bath & Spa | Mirrors,,,"Since 1936 Bongio means Quality & Luxury Made in Italy faucets showers bathroom accessories with hundred of prestigious references in the world. Design, care of details, craftmanship are focus for the company located in north of Italy"
BDNY,10/21/2021,2021,https://bdny.com/,DM,Marc Phillips Rugs,1843,,http://www.marcphillipsrugs.com,,,,"New York, CA United States",United States,Carpet & Flooring,,,
BDNY,10/21/2021,2021,https://bdny.com/,DM,MANDY LI COLLECTION,1527,,http://www.mandylicollection.com,,,,"Alhambra, CA United States",United States,Architectural Materials | Bath & Spa | Furniture | Lighting | Seating,,,"Since 1997, Mandy Li Collection continues to be a driving force in the Hospitality Industry. Our product lines now encompass numerous fine furniture items, interior door as well as cut to size natural stone and quartz products."
BDNY,10/21/2021,2021,https://bdny.com/,DM,Malar Contract Lighting,620,,http://www.malarlighting.com,,,,"Morristown, TN United States",United States,Lighting,,,
BDNY,10/21/2021,2021,https://bdny.com/,DM,Mertson Design LLC,1245,,https://mertsonhome.com/,,,,"Miami Beach, FL United States",United States,Accessories | Artwork | Fabric | Furniture | Outdoor Furniture,,,
BDNY,10/21/2021,2021,https://bdny.com/,DM,"Metro Light and Power, LLC",1655,,http://www.metrolightandpower.com,,,,"Teaneck, NJ United States",United States,Electronics | Lighting | Technology,,,
BDNY,10/21/2021,2021,https://bdny.com/,DM,Mincey Marble Mfg,2205,,http://www.minceymarble.com,,,,"Gainesville, GA United States",United States,Architectural Materials | Bath & Spa | Wallcoverings & Surfacing,,,"Since 1977, Mincey Marble has been known as a leader in design and production of cast marble wall panels, shower pans and shower accessories for Hospitality, Multi-family, Military, Senior and Student Housing markets. Made in the U.S.A."
BDNY,10/21/2021,2021,https://bdny.com/,DM,Mindclick,319,,mindclick.com,,,,"Bend, OR United States",United States,,,,
BDNY,10/21/2021,2021,https://bdny.com/,DM,Mayer Fabrics,1838,,http://www.mayerfabrics.com,,,,"Indianapolis, IN United States",United States,Fabric,,,"Mayer Fabrics is a commercial contract textile company. While our product line is constantly evolving, our commitment to customers remains unchanged: create exceptional products at an excellent price."
BDNY,10/21/2021,2021,https://bdny.com/,DM,Majestic,2135,,http://www.majesticmirror.com,,,,"Miami, FL United States",United States,Accessories | Electronics | Lighting | Mirrors,,,"Majestic Mirror & Frame is a leading manufacturer, distributor, and innovator of mirrors for the hospitality design industry. Their collection includes back-lit mirrors, framed decorative mirror, makeup mirrors, and TV-mirrors."
BDNY,10/21/2021,2021,https://bdny.com/,DM,M. & A. SRL,443,,,,,,"Altamura, Italy",Italy,,,,
BDNY,10/21/2021,2021,https://bdny.com/,DM,MDC Interior Solutions,1625,,http://www.mdcwall.com,,,,"Glendale Heights, IL United States",United States,Artwork | Mirrors | Wallcoverings & Surfacing,,,MDC Interior Solutions is known for curated solutions that met the needs of the commercial design industry both in style an performance.
BDNY,10/21/2021,2021,https://bdny.com/,DM,Lodging Concepts Manufacturing,1751,,http://www.lodgingcm.com,,,,"Irvine, CA United States",United States,Furniture | Seating,,,"Since 2009 our family has provided Casegoods and Seating to full-service 3 and 4-star properties, our focus is the hospitality industry.  LCM has delivered over 600 custom and prototypical projects for the following brands:"
BDNY,10/21/2021,2021,https://bdny.com/,DM,Loftie,1158,,http://byloftie.com,,,,"NEW YORK, NY United States",United States,Accessories | Bath & Spa | Beds & Bedding | Electronics | Technology,,,
BDNY,10/21/2021,2021,https://bdny.com/,DM,Living Ceramics,2511,,http://livingceramics.com,,,,"Vilarreal, Castellon Spain",Spain,Architectural Materials,,,"Living Ceramics arises with the desire to provide unique ceramic solutions for the world of interior design and architecture providing life and inspiration our homes and public spaces. Innovation and design are fundamental pillars in our day to day, present in all areas of our organization that is reflected in the values that give meaning to our team: people (betting on creativity, personal and professional development), quality, (search for excellence) , teamwork (empower collective talent), innovation in all areas of our organization and passion for our work, our profession."
BDNY,10/21/2021,2021,https://bdny.com/,DM,Living by Samuelson,2705,,http://www.samuelsonfurniture.com,,,,"Paterson, NJ United States",United States,Furniture | Seating,,,Samuelson Furniture presents LIVING... embracing a modern senior lifestyle with distinctive furniture solutions and innovations.
BDNY,10/21/2021,2021,https://bdny.com/,DM,"Livex Lighting, Inc.",220,,http://www.livexlighting.com,,,,"Somerset, NJ United States",United States,Lighting,,,
BDNY,10/21/2021,2021,https://bdny.com/,DM,Lite Tops / Stiffel,2604,,http://www.cuttingedgecatalog.com,,,,"Linden, NJ United States",United States,Lighting | Signage,,,
BDNY,10/21/2021,2021,https://bdny.com/,DM,Liora Manne,1738,,http://www.lioramanne.com,,,,"New York, NY United States",United States,Artwork | Carpet & Flooring | Fabric | Wallcoverings & Surfacing,,,"Liora Manné offers uniquely artistic, highly versatile, and fully customizable rugs, wall & ceiling coverings, fabric, pillows, and artwork. Her Lamontage and LUSH collections capture the color, texture, & dimension of any design."
BDNY,10/21/2021,2021,https://bdny.com/,DM,Lilly Kral,1157,,http://www.lillykral.com,,,,"Plano, TX United States",United States,Fabric | Wallcoverings & Surfacing,,,"Lilly Kral is a supplier of high-performance, upholstery materials in both faux leather and genuine leather category for hospitlaity market."
BDNY,10/21/2021,2021,https://bdny.com/,DM,Light Annex,825,,http://www.lightannexus.com,,,,"Los Angeles, CA United States",United States,Lighting,,,
BDNY,10/21/2021,2021,https://bdny.com/,DM,LI&PRA SPA,544,,,,,,"BOSCO DI SCANDIANO (RE), Reggio Emilia Italy",Italy,,,,
BDNY,10/21/2021,2021,https://bdny.com/,DM,Loloey s.r.l.,943,,http://www.loloey.com,,,,"Corsico, Milan Italy",Italy,Amenities | Carpet & Flooring | Fabric | Furniture,,,
BDNY,10/21/2021,2021,https://bdny.com/,DM,LIXIL Water Technology Americas,721,,http://www.lixil.com,,,,"Piscataway, NJ United States",United States,Bath & Spa,,,From creating exceptional guest experiences to helping property managers reduce
BDNY,10/21/2021,2021,https://bdny.com/,DM,Lewis Mittman,2345,,http://www.lewismittman.com,,,,"High Point, NC United States",United States,Furniture | Minibars & Safes | Seating | Tabletop,,,
BDNY,10/21/2021,2021,https://bdny.com/,DM,Lefroy Brooks/Cooper & Graham,1334,,http://www.lefroybrooks.com,,,,"New York, NY United States",United States,Bath & Spa,,,
BDNY,10/21/2021,2021,https://bdny.com/,DM,LEA North America,1424,,http://www.leausa.us,,,,"Charlotte, NC United States",United States,Carpet & Flooring,,,"Lea North America is the brand marketing and selling Lea Ceramiche in the US market. Lea, part of Panariagroup Industrie Ceramiche S.P.A., designs and creates ceramic materials for floors and walls in every kind of environment."
BDNY,10/21/2021,2021,https://bdny.com/,DM,Lioli Glass Tiles,1835,,http://www.lioliglass.com,,,,"Houston, TX United States",United States,Architectural Materials | Artwork | Bath & Spa | Carpet & Flooring | Wallcoverings & Surfacing,,,"LIOLI Glass Tiles manufactures high-end commercial grade glass tiles that can be used on most surfaces. We are specialist in creating stunning glass tiles that combine innovative technology, producing a unique shimmering effect."
BDNY,10/21/2021,2021,https://bdny.com/,DM,LacquerCraft Hospitality,1735,,http://www.lacquercrafthospitality.com,,,,"High Point, NC United States",United States,Furniture | Minibars & Safes | Mirrors,,,LacquerCraft Hospitality provides custom casegoods of exceptional quality to the U.S. and International markets. Our unparalleled design expertise and exclusive consultative approach bring vision to life in extraordinary forms.
BDNY,10/21/2021,2021,https://bdny.com/,DM,Kriskadecor,2124,,http://www.kriskadecor.us,,,,"Miami, FL United States",United States,Architectural Materials | Lighting | Wallcoverings & Surfacing,,,"Kriskadecor creates highly customized design solutions made with aluminum chains. You can choose between space dividers, wallcoverings, ceiling features, lighting elements or any other special structure you can imagine."
BDNY,10/21/2021,2021,https://bdny.com/,DM,Lloyd Flanders,521,,http://www.lloydflanders.com,,,,"Menominee, MI United States",United States,Accessories | Fabric | Furniture | Outdoor Furniture | Seating,,,"Since 1906, Lloyd Flanders has been manufacturing luxury all weather woven furniture.   Our Lloyd Loom ( made in the USA and  available in 20 finishes ) and our Vinyl that couples style with superior quality;  LLoyd Flanders #nextproject"
BDNY,10/21/2021,2021,https://bdny.com/,DM,Kingston Krafts,1560,,www.kingstonkrafts.com,,,,"Cranston, RI United States",United States,,,,
BDNY,10/21/2021,2021,https://bdny.com/,DM,Kimball Hospitality,1335,,http://www.kimballhospitality.com,,,,"Jasper, IN United States",United States,Furniture | Seating,,,
BDNY,10/21/2021,2021,https://bdny.com/,DM,Kravet Contract,1911,,http://www.kravetcontract.com,,,,"Bethpage, NY United States",United States,Accessories | Beds & Bedding | Fabric | Furniture | Wallcoverings & Surfacing,,,
BDNY,10/21/2021,2021,https://bdny.com/,DM,Leftbank Art Company,1744,,http://www.leftbankart.com,,,,"La Mirada, CA United States",United States,Artwork | Wallcoverings & Surfacing,,,
BDNY,10/21/2021,2021,https://bdny.com/,DM,Kettal Group,2735,,http://www.kettal.com,,,,"Coral Gables, FL United States",United States,Fabric | Furniture | Lighting | Outdoor Furniture | Seating,,,
BDNY,10/21/2021,2021,https://bdny.com/,DM,Kenneth Cobonpue USA,2506,,http://www.kennethcobonpue.com,,,,"New York, NY United States",United States,Furniture | Lighting | Mirrors | Outdoor Furniture | Seating,,,"KENNETHCOBONPUE designs, develops and manufactures luxurious and superior quality organic modern furniture, lighting, and home accessories for both indoor & outdoor applications."
BDNY,10/21/2021,2021,https://bdny.com/,DM,Kenco Hospitality Inc,319,,http://www.kencohospitality.com,,,,"Ft Lauderdale, FL United States",United States,Fabric | Window Treatments,,,"With Kenco's capabilities we are able to print anything you can imagine, roller shades both solar and blackout, wall covering and vinyl for upholstery using state of the art wide format digital print equipment."
BDNY,10/21/2021,2021,https://bdny.com/,DM,Kellex Seating,2051,,http://www.kellex.com,,,,"Hickory, NC United States",United States,Furniture | Outdoor Furniture | Seating,,,
BDNY,10/21/2021,2021,https://bdny.com/,DM,KB Contract,1321,,http://www.kbcontract.com,,,,"Roswell, GA United States",United States,Fabric,,,
BDNY,10/21/2021,2021,https://bdny.com/,DM,Karndean Designflooring,2127,,http://www.karndean.com,,,,"Export, PA United States",United States,Carpet & Flooring,,,Globally inspired luxury vinyl visuals that can be tailored to fit regional styles. Achieve your vision with LVT specialist Karndean Designflooring.
BDNY,10/21/2021,2021,https://bdny.com/,DM,K10 European Collection,1235,,http://K10euro.com,,,,"Lake Geneva, WI United States",United States,Architectural Materials | Bath & Spa | Furniture | Lighting | Wallcoverings & Surfacing,,,"K10 European Collection sources materials from across the globe to provide unique, high quality finishes and products. We offer tiles, slabs, sinks, tubs, furniture, cabinetry, LED lighting, windows, doors, and atriums."
BDNY,10/21/2021,2021,https://bdny.com/,DM,John Curtis Design,1250,,http://www.johncurtisdesign.com,,,,"Centennial, CO United States",United States,Signage,,,
BDNY,10/21/2021,2021,https://bdny.com/,DM,Lumwi,951,,http://www.globalfurnitureusa.com,,,,"East Brunswick, NJ United States",United States,,,,
BDNY,10/21/2021,2021,https://bdny.com/,DM,Jimeco,2160,,www.jimeco.com,,,,"Miami Shores, FL United States",United States,,,,
BDNY,10/21/2021,2021,https://bdny.com/,DM,iWorks,651,,http://www.iworksus.com,,,,"Los Angeles, CA United States",United States,,,,
BDNY,10/21/2021,2021,https://bdny.com/,DM,JF Fabrics Inc,1338,,https://www.jffabrics.com/,,,,"Oakville, ON Canada",Canada,Fabric | Wallcoverings & Surfacing,,,"JF Fabrics is a second generation family owned perveyor of the finiest exclusive fabrics. JF Fabrics has been dedicated to servicing the hospitality, healthcare, wholesaler & distributor market in North America."
BDNY,10/21/2021,2021,https://bdny.com/,DM,Italian Trade Agency,434,,http://www.universalmarketing.it,,,,"Rome, Italy",Italy,,,,
BDNY,10/21/2021,2021,https://bdny.com/,DM,Lavender Oriental Carpets,2160,,http://www.locrugs.com,,,,"New York, NY United States",United States,Carpet & Flooring | Wallcoverings & Surfacing,,,
BDNY,10/21/2021,2021,https://bdny.com/,DM,iSiMAR,2035,,http://www.isimar.es/en,,,,"New York, NY United States",United States,Furniture | Outdoor Furniture | Seating,,,"iSiMAR is a Spanish manufacturarer of wire metal furniture for in&outdoor use. Our Mediterranean designs are trendy, durable and comfortable. HQ are located in Spain and we serve the American market through our permanent office in NYC."
BDNY,10/21/2021,2021,https://bdny.com/,DM,Interlam Design,2251,,http://www.interlam-design.com,,,,"Mount Airy, NC United States",United States,Accessories | Architectural Materials | Furniture | Signage | Wallcoverings & Surfacing,,,
BDNY,10/21/2021,2021,https://bdny.com/,DM,Interiors From Spain,1925,,http://www.interiorsfromspain.com,,,,"New York, NY United States",United States,Architectural Materials | Carpet & Flooring | Fabric | Furniture | Lighting | Outdoor Furniture | Seating | Tabletop | Wallcoverings & Surfacing,,,"IfS mission is the promotion of Spanish design furniture, lighting and textiles. We have national pavilions at ICFF, HD Expo and BDNY, organize trade missions to Spain and support Spanish companies looking for distribution in the US."
BDNY,10/21/2021,2021,https://bdny.com/,DM,Interiors From Spain,2029,,,,,,"New York, NY United States",United States,Accessories | Amenities | Furniture | Outdoor Furniture | Tabletop,,,
BDNY,10/21/2021,2021,https://bdny.com/,DM,Interiors From Spain,2019,,,,,,"New York, NY United States",United States,Furniture | Seating,,,Sancal
BDNY,10/21/2021,2021,https://bdny.com/,DM,Kosta Furniture,2010,,http://www.kostafurniture.com,,,,"Miami, FL United States",United States,Furniture | Seating,,,"Kosta Furniture is known for being able to bring to life the ideas and meticulous concepts and details sought out by leading Hospitality designers and purchasing firms nationwide. We brings to our clients twenty five years of experience, crafting case goods with a multitude or forms and mixture of materials geared for the hospitality industry exclusively. Let us bring your concepts and ideas to life."
BDNY,10/21/2021,2021,https://bdny.com/,DM,Interiors From Spain,2025,,,,,,"New York, NY United States",United States,Architectural Materials | Carpet & Flooring | Wallcoverings & Surfacing,,,Grato
BDNY,10/21/2021,2021,https://bdny.com/,DM,Lazzoni,2257,,https://lazzoni.us/,,,,"New York, NY United States",United States,Accessories | Artwork | Beds & Bedding | Carpet & Flooring | Furniture | Lighting | Mirrors | Outdoor Furniture | Seating | Tabletop | Wallcoverings & Surfacing,,,We are LAZZONI and LAZZONI is much more than a furniture design house.
BDNY,10/21/2021,2021,https://bdny.com/,DM,Italian Trade Agency,538,,,,,,"Miami, FL United States",United States,Furniture,,,
BDNY,10/21/2021,2021,https://bdny.com/,DM,Interiors From Spain,1929,,,,,,"New York, NY United States",United States,Lighting,,,Marset
BDNY,10/21/2021,2021,https://bdny.com/,DM,Interiors From Spain,1919,,,,,,"New York, NY United States",United States,Furniture | Outdoor Furniture | Seating,,,Point
BDNY,10/21/2021,2021,https://bdny.com/,DM,Interiors From Spain,2035,,,,,,"New York, NY United States",United States,Furniture | Outdoor Furniture | Seating,,,iSiMAR
BDNY,10/21/2021,2021,https://bdny.com/,DM,Interiors From Spain,1935,,,,,,"New York, NY United States",United States,Furniture | Outdoor Furniture | Seating,,,Expormim
BDNY,10/21/2021,2021,https://bdny.com/,DM,Interiors From Spain,2124,,,,,,"New York, NY United States",United States,Accessories | Architectural Materials | Signage | Technology | Wallcoverings & Surfacing,,,Kriskadecor
BDNY,10/21/2021,2021,https://bdny.com/,DM,Innovative Hospitality Concepts Inc,1561,,http://experienceinnovative.com,,,,"Coral Springs, FL United States",United States,Accessories | Amenities | Minibars & Safes,,,"Innovative Hospitality Concepts produces high performance, design focused safes and mini-fridges at competitve prices. Choose from a large selection of colors, custom sizes and personalized branding - at no extra cost!"
BDNY,10/21/2021,2021,https://bdny.com/,DM,Innovations,1447,,http://www.innovationsusa.com,,,,"New York, NY United States",United States,Wallcoverings & Surfacing,,,"For over 45 years, Innovations has been committed to forward-thinking design and creating"
BDNY,10/21/2021,2021,https://bdny.com/,DM,Inova LLC,1804,,http://www.inovabed.com,,,,"Guilderland Center, NY United States",United States,Furniture,,,
BDNY,10/21/2021,2021,https://bdny.com/,DM,In2green LLC,1800,,http://www.in2green.com,,,,"Hastings, NY United States",United States,Accessories | Bath & Spa | Beds & Bedding,,,"in2green is a design and manufacturing company specializing in luxurious custom textile accessories for hospitality.  Our throws, bed scarves and pillows are all knit in the USA with sutainable yarns."
BDNY,10/21/2021,2021,https://bdny.com/,DM,Jaclo Industries,2719,,http://www.jaclo.com,,,,"Cranford, NJ United States",United States,Accessories | Bath & Spa,,,"JACLO offers a full range of decorative plumbing fixtures. Faucets, showerheads, handshowers, grab bars, channel drains, bathroom accessories, traps, tank leavers, all available in 35+ finishes with a minimum of one."
BDNY,10/21/2021,2021,https://bdny.com/,DM,Innovations in Lighting,2241,,http://www.innovationsinlighting.com,,,,"City of Industry, CA United States",United States,Lighting,,,"Considered the first choice in the hospitality industry for their custom work, Innovations in Lighting is proud to be the preeminent vendor for 4-5 star properties. We specialize in guestroom, corridor and bespoke public area lighting."
BDNY,10/21/2021,2021,https://bdny.com/,DM,Interiors From Spain,2028,,,,,,"New York, NY United States",United States,Carpet & Flooring | Fabric | Wallcoverings & Surfacing,,,nanimarquina
BDNY,10/21/2021,2021,https://bdny.com/,DM,Interiors From Spain,2024,,,,,,"New York, NY United States",United States,Beds & Bedding | Fabric | Tabletop | Wallcoverings & Surfacing,,,Comersan
BDNY,10/21/2021,2021,https://bdny.com/,DM,HOTELSIGNS.com,643,,http://www.hotelsigns.com,,,,"Chattanooga, TN United States",United States,Architectural Materials | Signage,,,"HOTELSIGNS.com works closely with hospitality facilities across the country to maintain brand standard specification while offering countless benefits, providing the best ADA-compliant signage solutions for the hotel industry."
BDNY,10/21/2021,2021,https://bdny.com/,DM,HSM / Hickory Springs Manufacturing,2161,,http://www.hickorysprings.com,,,,"Hickory, NC United States",United States,Beds & Bedding | Furniture | Seating,,,"American manufacturer of bedding and furniture components specializing in sleeper mechanisms, mattresses, bed rails, and seating solutions for residential and hospitality markets."
BDNY,10/21/2021,2021,https://bdny.com/,DM,Indo Puri,1543,,http://www.indopuri.com,,,,"Atlanta, GA United States",United States,Artwork | Furniture | Mirrors | Outdoor Furniture | Seating,,,
BDNY,10/21/2021,2021,https://bdny.com/,DM,HMI,856,,http://www.hmiglass.com,,,,"Louisville, KY United States",United States,Architectural Materials | Artwork | Bath & Spa | Mirrors | Tabletop,,,
BDNY,10/21/2021,2021,https://bdny.com/,DM,Holsag & MityLite,2401,,http://www.mitylite.com,,,,"Orem, UT United States",United States,Furniture,,,
BDNY,10/21/2021,2021,https://bdny.com/,DM,Grosfillex,2234,,http://www.grosfillexfurniture.com,,,,"Robesonia, PA United States",United States,Furniture | Outdoor Furniture | Seating,,,
BDNY,10/21/2021,2021,https://bdny.com/,DM,GSC LIGHTING & CONSULTING SRL,640,,https://gsclight.com/,,,,"ITALIA, Padua Italy",Italy,Lighting,,,"GSC LIGHTING is a manufacturer of ""tailor-made decorative lighting"" for professional lighting. Leader in custom made lighting solutions for the hospotaloty and luxury sector."
BDNY,10/21/2021,2021,https://bdny.com/,DM,LUX LED Lighting,1539,,http://www.luxledlights.com,,,,"Santa Barbara, CA United States",United States,Lighting | Technology,,,"LUX designs and makes modern integrated-LED lights, desk lamps, and floor lamps for hospitality, workplace, and residential interiors. We make floor lights, desk lights, task lights, wall and ceiling mounted lights too!"
BDNY,10/21/2021,2021,https://bdny.com/,DM,GRACCIOZA,2651,,http://www.graccioza.com/,,,,"Atlanta, GA United States",United States,Bath & Spa,,,"This Portuguese-based company is a three-generation family-owned business that takes pride in quality and attention to detail. With 45 years of experience, Graccioza has gained the reputation they deserve. Innovation, design, and dedication have set Graccioza at the top of the luxury bath market."
BDNY,10/21/2021,2021,https://bdny.com/,DM,Gold Leaf Design Group Inc,329,,http://www.goldleafchicago.com,,,,"Chicago, IL United States",United States,Accessories | Artwork | Furniture,,,
BDNY,10/21/2021,2021,https://bdny.com/,DM,"Gloster Furniture, Inc.",1947,,http://www.gloster.com,,,,"South Boston, VA United States",United States,Fabric | Furniture | Lighting | Outdoor Furniture | Seating,,,
BDNY,10/21/2021,2021,https://bdny.com/,DM,Global Views,2427,,http://www.globalviews.com,,,,"Dallas, TX United States",United States,Accessories | Furniture | Lighting | Mirrors | Seating,,,"Global Views is a go to resource for all home furnishings needs, offering product in accent decor, lighting, furniture, seating, and textiles. Global Views offers over 3,000 items made by skilled artisans from all corners of the globe."
BDNY,10/21/2021,2021,https://bdny.com/,DM,Global Safe Corporation,2229,,http://www.hotelsafes.com/,,,,"Boca Raton, FL United States",United States,Accessories | Amenities | Minibars & Safes,,,For 21 years Global Safe has been a leading provider of hotel room safes. Our safes have been installed in every major hotel brand and meet the specifications of every hotel brand in the USA. Please contact us to learn more about our products.
BDNY,10/21/2021,2021,https://bdny.com/,DM,Honeywell | Inncom,1042,,http://www.inncom.com,,,,"Northford, CT United States",United States,Amenities | Electronics | Lighting | Tabletop | Technology,,,"From select-service hotels to luxury resorts, INNCOM has built a 30-year reputation for delivering world class energy management and IoT solutions while creating delightful guest experiences."
BDNY,10/21/2021,2021,https://bdny.com/,DM,Gilcrest,406,,drgilcrest.com,,,,"Holland, MI United States",United States,,,,
BDNY,10/21/2021,2021,https://bdny.com/,DM,Gate House Furniture,1134,,http://www.gatehousefurniture.com,,,,"Chestnut Hill, MA United States",United States,Accessories | Amenities | Beds & Bedding | Furniture | Outdoor Furniture,,,"Gate House Furniture is a woman-owned, domestic manufacturer of high quality and attractively-designed in-room amenities, outdoor furnishings and food service accessories made from ECO recycled plastic materials."
BDNY,10/21/2021,2021,https://bdny.com/,DM,Gerber Plumbing Fixtures LLC,2341,,http://www.gerberonline.com,,,,"Woodridge, IL United States",United States,,,,
BDNY,10/21/2021,2021,https://bdny.com/,DM,Garrett Leather Corp,2047,,http://www.garrettleather.com,,,,"Buffalo, NY United States",United States,Accessories | Fabric | Wallcoverings & Surfacing,,,Garrett Leather provides clients with the highest quality products and superior experience. We maintain over two million square feet of inventory in more than 600 colors. We have advanced capabilities to fulfill bespoke requests.
BDNY,10/21/2021,2021,https://bdny.com/,DM,HB Lighting,727,,http://www.hblighting.com,,,,"Bronx, NY United States",United States,Architectural Materials | Lighting,,,"HB Lighting is a custom lighting manufacturer creating high-end decorative fixtures for public spaces and guest rooms. Based in NYC, they have domestic and overseas capabilities that help them meet various timelines and budgets."
BDNY,10/21/2021,2021,https://bdny.com/,DM,Gar Products,2157,,http://www.garproducts.com,,,,"Lakewood, NJ United States",United States,Bath & Spa | Furniture | Outdoor Furniture | Seating | Tabletop,,,"For over 65 years, GAR Products has produced high quality furniture made by some of the most talented designers and craftsmen in America. We are dedicated to providing quality and modern design, in everything that we produce."
BDNY,10/21/2021,2021,https://bdny.com/,DM,Furniture Atelier Inc.,2551,,http://www.furniture-atelier.com,,,,"Vaughan, ON Canada",Canada,Beds & Bedding | Fabric | Furniture | Lighting | Mirrors | Outdoor Furniture | Seating | Tabletop,,,"Furniture Atelier was founded on the passion and collective experience of two highly invested partners, who identified and responded to a need for superior results-oriented experience in the industry."
BDNY,10/21/2021,2021,https://bdny.com/,DM,Furniture Design Studios Inc,1147,,http://www.fdstudios.com,,,,"Plainview, NY United States",United States,Furniture | Mirrors | Seating | Tabletop,,,"Furniture Design Studios has been manufacturing and suppling custom casegoods, seating and kitchens/vanities since 1960. FDS has extraordinary capabilites and resources to meet all specifications and deliver the ultimate package."
BDNY,10/21/2021,2021,https://bdny.com/,DM,FrameWorks,1557,,http://www.frameworkshospitality.com,,,,"Miami, FL United States",United States,Artwork | Signage,,,
BDNY,10/21/2021,2021,https://bdny.com/,DM,Fourbro Frames Inc,1061,,http://www.fourbroframes.com,,,,"Woodbridge, ON Canada",Canada,Accessories | Artwork | Lighting | Mirrors,,,"Established in 1991 Fourbro manufactures as well as imports distinctive collection of wall art, framed mirrors, LED mirrors and lighting, serving the hospitality industry throughout North America."
BDNY,10/21/2021,2021,https://bdny.com/,DM,Foundation Art Services,1152,,http://www.foundationartservices.com,,,,"Fort Lauderdale, FL United States",United States,,,,
BDNY,10/21/2021,2021,https://bdny.com/,DM,Formr,1060,,theformr.com,,,,"San Francisco, CA United States",United States,,,,
BDNY,10/21/2021,2021,https://bdny.com/,DM,Forbo Flooring Systems,1751,,http://www.forboflooringna.com,,,,"Hazleton, PA United States",United States,Carpet & Flooring | Wallcoverings & Surfacing,,,
BDNY,10/21/2021,2021,https://bdny.com/,DM,Giardini,1254,,http://www.giardiniwallcoverings.it,,,,"NYC, NY United States",United States,Accessories | Architectural Materials | Wallcoverings & Surfacing,,,
BDNY,10/21/2021,2021,https://bdny.com/,DM,Foliot Furniture Inc,960,,http://www.foliot.com,,,,"Las Vegas, NV United States",United States,Furniture,,,Foliot Furniture is a leading North American manufacturer of casegoods and upholstered seating for guestrooms and lobbies—each crafted for quality and durability. Partner with us for complete peace of mind!
BDNY,10/21/2021,2021,https://bdny.com/,DM,"Garden on the Wall, LLC",1827,,http://www.gardenonthewall.com,,,,"Livingston, NJ United States",United States,Wallcoverings & Surfacing,,,". As the originator and undisputed leader of this new ecological genre in the U.S. Architectural & Design field – and over 55,000 Sqf of Garden installations since inception at 58 of Fortune 500 Companies, major Retail and Hospitality Giants – we help achieve our client’s biophilic design aspirations while eliminating all hassles of maintaining a living wall or plants (an automatic time and investment savings). Garden on the Wall is  awarded with"
BDNY,10/21/2021,2021,https://bdny.com/,DM,Foglizzo Leather Srl,546,,http://www.foglizzo.com,,,,"Torino, Italy",Italy,Accessories | Furniture,,,
BDNY,10/21/2021,2021,https://bdny.com/,DM,Florida Seating,2535,,http://www.floridaseating.com,,,,"Clearwater, FL United States",United States,Furniture | Outdoor Furniture | Seating | Tabletop,,,"Florida Seating is a leading supplier of commercial hospitality furniture.  Our commitment to provide durable seating, short lead times, and the most competitive prices is as strong as today as it was in 1997 when the company was founded."
BDNY,10/21/2021,2021,https://bdny.com/,DM,Gabby Contract,1427,,http://www.gabbyhome.com,,,,"Pelham, AL United States",United States,,,,
BDNY,10/21/2021,2021,https://bdny.com/,DM,Fil Doux Textiles,727,,http://www.fildoux.com,,,,"Brooklyn, NY United States",United States,Fabric | Window Treatments,,,"Fil Doux originated in Chile, with a long legacy in producing luxury fabrics.  Specializing in wovens, sheers, vinyl, leather and digital textile printing, we create our own base yarn, spin, weave, dye and finish all products in house."
BDNY,10/21/2021,2021,https://bdny.com/,DM,Grato,2025,,https://gratoparquet.com/?locale=en,,,,"Santander, Spain",Spain,Architectural Materials | Carpet & Flooring | Wallcoverings & Surfacing,,,"We are Grato! Known for our beautiful hardwood floors, we also make extraordinary engineered oak flooring, parquet, stairs, doors, paneling, and millwork with the best European White Oak to please any design style and aesthetic."
BDNY,10/21/2021,2021,https://bdny.com/,DM,Identity Group Interior Sign Solutions,1038,,http://www.identitygroup.com,,,,"Nashville, TN United States",United States,Architectural Materials | Artwork | Signage,,,
BDNY,10/21/2021,2021,https://bdny.com/,DM,FLOEMA PANELS SRL,438,,,,,,"PESARO (PU), Pesaro and Urbino Italy",Italy,,,,
BDNY,10/21/2021,2021,https://bdny.com/,DM,Fleetwood Fine Furniture,821,,http://www.fleetwoodfinefurniture.com,,,,"Vaughan, ON Canada",Canada,Furniture,,,"For over 40 years Fleetwood Fine Furniture International has furnished the finest hotels around the world.  Working with owners, designers and purchasers, Fleetwood has delivered hundreds of thousands of rooms."
BDNY,10/21/2021,2021,https://bdny.com/,DM,FireFarm-by-ElSol,341,,http://www.firefarm.com,,,,"St Joseph, MI United States",United States,Fabric | Furniture | Lighting | Seating | Window Treatments,,,
BDNY,10/21/2021,2021,https://bdny.com/,DM,Featherbeams.com,2541,,http://Featherbeams.com,,,,"Norwalk, CT United States",United States,Architectural Materials | Wallcoverings & Surfacing,,,
BDNY,10/21/2021,2021,https://bdny.com/,DM,Fabric Innovations,2105,,http://www.fabricinnovations.com,,,,"MIAMI, FL United States",United States,Beds & Bedding | Fabric | Window Treatments,,,
BDNY,10/21/2021,2021,https://bdny.com/,DM,Fabricut Contract,1435,,http://www.fabricutcontract.com,,,,"Tulsa, OK United States",United States,Fabric | Wallcoverings & Surfacing | Window Treatments,,,
BDNY,10/21/2021,2021,https://bdny.com/,DM,Fairmont Designs,319,,http://www.fairmontdesigns.com,,,,"Buena Park, CA United States",United States,Bath & Spa | Furniture | Seating,,,
BDNY,10/21/2021,2021,https://bdny.com/,DM,Fiberbuilt Umbrellas,2344,,http://www.fiberbuiltumbrellas.com,,,,"Pompano Beach, FL United States",United States,Accessories,,,"Manufacturer of high quality replacement cushions and wind resistant umbrellas. We offer a variety of models, sizes, fabrics and finishes to fit any budget and decor. Our cushions are all custom made according to your specifications."
BDNY,10/21/2021,2021,https://bdny.com/,DM,Illumination Lighting,1629,,http://illuminatinlighting.com,,,,"Lachine, QC Canada",Canada,Lighting | Mirrors | Signage,,,Illumination Lighting is a leading upscale custom lighting manufacturer in the Hospitality and Commercial markets.  We have 30+ years of experience and are well known in the industry.
BDNY,10/21/2021,2021,https://bdny.com/,DM,"EMUAmericas, LLC",1428,,http://www.emuameicas.com,,,,"Wheat Ridge, CO United States",United States,Furniture | Outdoor Furniture | Seating,,,"is the North American marketer, seller and distributor for all"
BDNY,10/21/2021,2021,https://bdny.com/,DM,Emser Tile,738,,http://www.emser.com,,,,"Los Angeles, CA United States",United States,Carpet & Flooring,,,"Established in 1968, Emser Tile offers unparalleled service and a dynamic selection of interior and exterior products that include porcelain, ceramic, metal, glass, quarry, decorative accents and mosaics, and cutom products."
BDNY,10/21/2021,2021,https://bdny.com/,DM,Elegant Lighting,1645,,http://www.elegantlighting.com,,,,"Philadelphia, PA United States",United States,,,,
BDNY,10/21/2021,2021,https://bdny.com/,DM,EJ Victor,2160,,http://www.ejvictor.com/hospitality,,,,"Morganton, NC United States",United States,Carpet & Flooring | Fabric | Furniture | Lighting | Mirrors | Seating | Tabletop,,,"Where Contract meets Luxury… EJ Victor | Hospitality channels our legacy to bring you elegant solutions for your contract spaces.  For over thirty years EJ Victor has been synonymous with luxury, service, and value.  Our tried-and-true practices give every piece of EJ Victor furniture an unmistakable, timeless quality.  From inception to completion, every element of our product is carefully considered.  Skilled artisans attend to every detail of our products, assuring each piece is specifically crafted to your expectations.  EJ Victor Hospitality invites you to be a part of the experience, bringing your design concepts to life."
BDNY,10/21/2021,2021,https://bdny.com/,DM,"EEC Industries, Ltd.",1924,,http://www.eecind.com,,,,"North Vancouver, BC Canada",Canada,Signage,,,"Since 1973 EEC Industries has been the leader in the fabrication, design and planning of signage for hotels, resorts, residential towers, commercial buildings or any project that requires quality custom signage."
BDNY,10/21/2021,2021,https://bdny.com/,DM,Eclipse Hospitality,341,,http://www.eclipsecontractfurniture.com,,,,"Phoenix, AZ United States",United States,Furniture | Mirrors | Seating | Window Treatments,,,
BDNY,10/21/2021,2021,https://bdny.com/,DM,Dyer Royce Manufacturing LLC,1135,,http://www.dyerroyce.com,,,,"Dandridge, TN United States",United States,Furniture,,,
BDNY,10/21/2021,2021,https://bdny.com/,DM,Enhance A Colour,234,,http://www.eacgs.com,,,,"Danbury, CT United States",United States,Carpet & Flooring | Fabric | Lighting | Signage | Wallcoverings & Surfacing,,,Offering full visual solutions from concept to completion.  Creating immersive unique branded environments from custom 16' wide carpets to wallcoverings to custom glass and more!
BDNY,10/21/2021,2021,https://bdny.com/,DM,Ersah Madeni Esya San. Tic. Ltd. sti.,351,,http://www.parladesign.com,,,,"Istanbul, Kucukkoy VD  370 0035 475 Turkey",Turkey,,,,
BDNY,10/21/2021,2021,https://bdny.com/,DM,Erica Shamrock Textiles,651,,www.ericashamrocktextiles.com,,,,"Brooklyn, NY United States",United States,,,,
BDNY,10/21/2021,2021,https://bdny.com/,DM,ESSEQUATTRO SPA,439,,http://www.essequattro.it,,,,"Vicenza, Italia Italy",Italy,Accessories | Furniture | Lighting | Signage | Tabletop,,,
BDNY,10/21/2021,2021,https://bdny.com/,DM,Durkan,1711,,http://www.durkan.com,,,,"Calhoun, GA United States",United States,Carpet & Flooring,,,"From the hotel lobby and corridors to guest rooms, ballrooms and convention centers, Durkan is an industry leader in innovative design solutions and stylish, high-performance hospitality carpet and hard surface flooring solutions."
BDNY,10/21/2021,2021,https://bdny.com/,DM,Doug Mockett & Co,1639,,https://www.mockett.com,,,,"Manhattan Beach, CA United States",United States,Accessories | Architectural Materials | Technology,,,"Doug Mockett & Company provides Architectural Hardware with a timeless blend of classic and contemporary style, creating beautiful complementary accents that add function and value to your furniture. The details define a great design"
BDNY,10/21/2021,2021,https://bdny.com/,DM,Dometic Corp.,1255,,http://www.dometic.com,,,,"Rosemont, IL United States",United States,Accessories | Minibars & Safes,,,"Dometic is a global market leader in branded solutions for mobile living in the areas of Food & Beverage, Climate, Power & Control and Other Applications. Dometic operates in the Americas, EMEA and Asia Pacific, providing products for use in hotels, recreational vehicles, trucks and premium cars, pleasure and workboats, and for a variety of other uses. Our motivation is to create smart and reliable products with outstanding design. We sell our products in approximately 100 countries. Dometic employs approximately 6,500 people worldwide. Headquarter is in Stockholm, Sweden"
BDNY,10/21/2021,2021,https://bdny.com/,DM,Dowel Furniture,1130,,,,,,"New York, NY United States",United States,Furniture,,,
BDNY,10/21/2021,2021,https://bdny.com/,DM,DÔME DECO,2542,,https://www.domedeco.us/,,,,"New York, NY United States",United States,Accessories | Furniture | Lighting | Mirrors | Seating,,,
BDNY,10/21/2021,2021,https://bdny.com/,DM,Designform Furnishings,235,,http://www.designformfurnishings.com,,,,"Irvine, CA United States",United States,,,,
BDNY,10/21/2021,2021,https://bdny.com/,DM,Distinction Hospitality,1701,,http://www.dh-us.com,,,,"High Point, NC United States",United States,Beds & Bedding | Furniture,,,Distinction Hospitality is committed to providing exceptional service across a broad range of projects.We would welcome the opportunity to help develop and deliver your next project.
BDNY,10/21/2021,2021,https://bdny.com/,DM,Designmaster Furniture,1155,,http://www.designmasterhospitality.com,,,,"Hickory, NC United States",United States,Furniture | Outdoor Furniture | Seating,,,"Designmaster Hospitality offers styling, comfort, impeccable craftsmanship, and exceptional customer service for your commerical dining seating needs."
BDNY,10/21/2021,2021,https://bdny.com/,DM,Designerie,2519,,http://www.designerie.com,,,,"Minneapolis, MN United States",United States,Furniture | Mirrors | Outdoor Furniture | Seating,,,
BDNY,10/21/2021,2021,https://bdny.com/,DM,DEX by GATE,757,,http://www.dexindustries.com,,,,"Atlanta, GA United States",United States,Amenities | Architectural Materials | Bath & Spa | Outdoor Furniture | Tabletop,,,
BDNY,10/21/2021,2021,https://bdny.com/,DM,DeRUCCI Bedding NY Ltd,1456,,http://www.derucciusa.com,,,,"Flushing, NY United States",United States,,,,
BDNY,10/21/2021,2021,https://bdny.com/,DM,Demar Leather,1918,,http://www.demarleather.com,,,,"Kew Gardens, NY United States",United States,Architectural Materials | Carpet & Flooring | Fabric | Furniture | Wallcoverings & Surfacing,,,"Demar Leather designs and manufactures the most innovative and sophisticated high-quality leathers for the interior design community.  A division of Milton Sokol & Co. Inc., a family business founded in 1927 in New York City, we are committed to offering our clients the highest standards of professionalism, service, and ethics."
BDNY,10/21/2021,2021,https://bdny.com/,DM,Dedon Inc,401,,http://www.dedon.us,,,,"Greensboro, NC United States",United States,Outdoor Furniture,,,"The world’s premier manufacturer of outdoor furniture, DEDON brings together leading design talent with the best in traditional craftsmanship to create products of unsurpassed quality and appeal."
BDNY,10/21/2021,2021,https://bdny.com/,DM,"EE Sewing, Inc.",1237,,http://eesewing.com,,,,"Chelsea, OK United States",United States,Window Treatments,,,"EE Sewing is a manufacturer of bedding & window products offering full Field Services and Project Management all with in-house teams.  EE Sewing is three time winner of Best Western Hotels and Resorts ""FF&E Supplier of the Year"" award."
BDNY,10/21/2021,2021,https://bdny.com/,DM,Eunoia Modern Art Consulting,651,,http://www.eunoiamodern.com,,,,"SAN FRANCISCO, CA United States",United States,Accessories | Artwork | Mirrors | Signage | Wallcoverings & Surfacing,,,"Art is more than just a visual experience. In a world inundated with artwork, Eunoia Modern is here to inspire, create, and elevate your hospitality space."
BDNY,10/21/2021,2021,https://bdny.com/,DM,Decolav Hospitality a ALLofIT Company,2319,,,,,,"Boca Raton, FL United States",United States,,,,
BDNY,10/21/2021,2021,https://bdny.com/,DM,Daniel Paul Chairs LLC,734,,http://www.danielpaulchairs.com,,,,"Morristown, TN United States",United States,Furniture | Outdoor Furniture | Seating | Tabletop,,,"Daniel Paul Chairs serves the hospitality industry with seating products for banquet, conference, food service, lobby, and lounge and guestroom facilities.  In addition we provide folding tables along with table tops and bases."
BDNY,10/21/2021,2021,https://bdny.com/,DM,Danao Living,847,,http://www.danaoliving.com,,,,"Pennington, NJ United States",United States,,,,
BDNY,10/21/2021,2021,https://bdny.com/,DM,Culp Hospitality,2156,,http://www.culphospitality.com,,,,"High Point, NC United States",United States,Accessories | Beds & Bedding | Fabric | Furniture | Window Treatments,,,"Culp Hospitality offers high-performance upholstery fabrics, window treatments and decorative soft goods for hospitality design projects of all sizes, segments and price points. Visit www.culphospitality.com to learn more."
BDNY,10/21/2021,2021,https://bdny.com/,DM,Expormim,1935,,http://www.expormim.com,,,,"New York, NY United States",United States,Furniture | Outdoor Furniture | Seating,,,"Expormim is a company with great tradition in the production and distribution of indoor and outdoor furniture. Founded in 1960, it is a third-generation family owned company. We use craftsmanship combined with cutting-edge technology to deliver life-lasting furniture. Customization, comfort and durability are our key values. We promote designs for versatile spaces in hotels, restaurants, multi-family developments and workplaces."
BDNY,10/21/2021,2021,https://bdny.com/,DM,Currey & Company,2109,,http://www.curreyco.com,,,,"Atlanta, GA United States",United States,Accessories | Furniture | Lighting | Outdoor Furniture,,,
BDNY,10/21/2021,2021,https://bdny.com/,DM,DAC Art Consulting,2319,,http://www.dacartconsulting.com,,,,"Atlanta, GA Georgia",Georgia,Artwork,,,
BDNY,10/21/2021,2021,https://bdny.com/,DM,Crypton LLC,2324,,http://www.crypton.com,,,,"Bloomfield Hills, MI United States",United States,Fabric,,,"Our heritage is performance. It is what we do. Crypton fabrics are stain, spill, and odor-resistant, with a durability that is engineered on a molecular level."
BDNY,10/21/2021,2021,https://bdny.com/,DM,Dal-Tile Corporation,319,,http://www.daltile.com,,,,"Dallas, TX United States",United States,Carpet & Flooring | Wallcoverings & Surfacing,,,"The Daltile name has been synonymous with quality products and outstanding service for over 70 years, offering the most multifaceted selection of tile and slab/countertop products in the industry. Visit www.daltile.com"
BDNY,10/21/2021,2021,https://bdny.com/,DM,Creative Touch,1724,,http://www.creativetouchrugs.com,,,,"Fairfield, NJ United States",United States,Accessories | Carpet & Flooring | Furniture,,,
BDNY,10/21/2021,2021,https://bdny.com/,DM,Crate & Barrel / CB2,2619,,http://www.crateandbarrel.com,,,,"Northbrook, IL United States",United States,Accessories | Artwork | Furniture | Lighting | Outdoor Furniture,,,"At Crate and Barrel and CB2 we're two brands with distinct points of view. Together, with our shared Business Sales team, we can create a look that's perfectly on-point for your place of business. Let's talk business."
BDNY,10/21/2021,2021,https://bdny.com/,DM,Coveworks The,1246,,http://www.coveworks.com,,,,"Chatsworth, GA United States",United States,Carpet & Flooring,,,"The Coveworks is America's best source for carpet base and rubber wall base. Our 100% US made products carry consistent quality, short lead times, competitive pricing and the best customer service in the Hospitality Industry since 1997."
BDNY,10/21/2021,2021,https://bdny.com/,DM,CROMOLOGY ITALIA SPA,536,,,,,,"PORCARI (LU), Lucca Italy",Italy,,,,
BDNY,10/21/2021,2021,https://bdny.com/,DM,Couristan Inc.,1351,,http://www.couristan.com,,,,"Fort Lee, NJ United States",United States,Carpet & Flooring,,,"Established by the Couri Family in 1926, recognized as the pre-eminent designer and supplier of fine custom carpeting for the contract and hospitality industries offering Axminster, ColourOptics Prints, Machine-Tufted Rugs."
BDNY,10/21/2021,2021,https://bdny.com/,DM,Creative Matters,2208,,http://www.creativemattersinc.com,,,,"TORONTO, ON Canada",Canada,Carpet & Flooring | Wallcoverings & Surfacing,,,
BDNY,10/21/2021,2021,https://bdny.com/,DM,Cortina Leathers,2443,,http://www.cortinaleathers.com,,,,"NEW YORK, NY United States",United States,Fabric,,,
BDNY,10/21/2021,2021,https://bdny.com/,DM,County Draperies Inc.,651,,http://www.drape.com,,,,"Middletown, NY United States",United States,Beds & Bedding | Window Treatments,,,County Draperies has been manufacturing distinctive window and bedding treatments for 40 years.  Our expertise in fabricating treatments includes custom printed solar shades to incorporating motorized hardware.
BDNY,10/21/2021,2021,https://bdny.com/,DM,Delos,651,,http://www.thedeloscompany.com,,,,"Calhoun, GA United States",United States,Carpet & Flooring,,,"Delos is an American Manufacturer and Importer of Custom Area Rugs to the trade.  American Made rugs are available in 6 weeks in up to a 13’6”x60’ and 15’6”x40’ without a seam. Delos’ U.S. production is known for textural pattern that is created by mixing boutique yarns such as: NZ Wool, Felted Wool, ECONYL Regenerated Nylon, and Solution-dyed Poly. Delos additionally imports quality hand-tufted and hand-knotted. It starts with one phone call with an idea of styling, budget, and delivery to get your next project started. Custom renderings are available free-of-charge in 48 hours."
BDNY,10/21/2021,2021,https://bdny.com/,DM,Coronet LED,1159,,,,,,"Totowa, NJ United States",United States,,,,
BDNY,10/21/2021,2021,https://bdny.com/,DM,Delta Faucet Co,1421,,http://www.deltafaucet.com,,,,"Indianapolis, IN United States",United States,Accessories | Bath & Spa,,,"Since 1954, Delta Faucet has had a commitment to design, innovation and service in the plumbing industry.  Our Brizo"
BDNY,10/21/2021,2021,https://bdny.com/,DM,CINOVA SRL,440,,,,,,"PESARO (PU), Pesaro and Urbino Italy",Italy,,,,
BDNY,10/21/2021,2021,https://bdny.com/,DM,Christopher Fareed Design Studios,1824,,http://ChristopherFareed.com,,,,"Harrisburg, PA United States",United States,Carpet & Flooring,,,Christopher Fareed Design Studios specializes in luxury residential and hospitality-quality rugs.
BDNY,10/21/2021,2021,https://bdny.com/,DM,Chemetal / Treefrog / Interior Arts,628,,http://www.chemetal.com,,,,"Easthampton, MA United States",United States,Architectural Materials | Bath & Spa | Furniture | Tabletop | Wallcoverings & Surfacing,,,
BDNY,10/21/2021,2021,https://bdny.com/,DM,"Corsicana Bedding, Inc",2151,,http://www.corsicanamattress.com,,,,"Corsicana, TX United States",United States,Beds & Bedding,,,Corsicana Mattress has been handcrafting mattresses since 1971. Our 10 factories produce more units annually than anyone in the US. Our goal is to deliver better products at 20-40% savings & provide better sleep for your guests.
BDNY,10/21/2021,2021,https://bdny.com/,DM,Design and Direct Source,2728,,http://www.designanddirectsource.com,,,,"Portland, OR United States",United States,Architectural Materials | Wallcoverings & Surfacing,,,"Designers, developers, and contractors rely upon us to deliver creative products that are affordable and on time. Our goal is to be the company that allows you to focus on other things once you have chosen us to provide your tile and stone."
BDNY,10/21/2021,2021,https://bdny.com/,DM,Concrete-LCDA / Ober Surfaces,2526,,https://www.concrete-beton.com/,,,,"NYC, NY United States",United States,Architectural Materials | Tabletop | Wallcoverings & Surfacing,,,"Concrete LCDA is the leader in Europe in the fibre-reinforced concrete interior fittings sector with prestigious references. Based in France, the company make its exclusive Panbeton®, Slimbeton® and Beton Lege® technologies available worldwide with offices in Europe, Asia and North America."
BDNY,10/21/2021,2021,https://bdny.com/,DM,CM Hospitality,2319,,http://www.clayton-miller.com,,,,"Dalton, GA United States",United States,Carpet & Flooring,,,
BDNY,10/21/2021,2021,https://bdny.com/,DM,Chelsom Ltd,1131,,http://www.chelsom.co.uk,,,,"Blackpool, Lancashire, LANCASHIRE United Kingdom",United Kingdom,Lighting,,,"Chelsom is one of the world’s leading designers, manufacturers & suppliers of decorative lighting to the international hospitality and marine markets and in particular to the USA with all products in the latest collection UL approved."
BDNY,10/21/2021,2021,https://bdny.com/,DM,Concretti Designs,1241,,http://Concrettidesigns.com,,,,"Las Vegas, NV United States",United States,Bath & Spa,,,
BDNY,10/21/2021,2021,https://bdny.com/,DM,COMERSAN FABRICS CORP,2024,,http://www.comersan.com,,,,"Miami, FL United States",United States,Beds & Bedding | Fabric | Furniture | Tabletop | Window Treatments,,,"Establish in 1969 Comersan is a desig-driven FABRIC company ,providing top of the bed , draperies and upholstery fabrics ."
BDNY,10/21/2021,2021,https://bdny.com/,DM,Construction Specialties,1062,,http://www.c-sgroup.com,,,,"Muncy, PA United States",United States,Architectural Materials | Artwork | Carpet & Flooring | Wallcoverings & Surfacing,,,
BDNY,10/21/2021,2021,https://bdny.com/,DM,Charter Furniture,1451,,http://www.charterfurniture.com,,,,"Liberty, NC United States",United States,Furniture | Seating,,,
BDNY,10/21/2021,2021,https://bdny.com/,DM,Charleston Forge Hospitality,1035,,http://www.charlestonforge.com,,,,"Boone, NC United States",United States,Furniture | Outdoor Furniture | Seating,,,Custom American Made Furnishings for the Hospitality Industry are our specialty.  Specific capabilities include:
BDNY,10/21/2021,2021,https://bdny.com/,DM,CF Kent Contract,2218,,http://www.cfkent.com,,,,"City Of Commerce, CA United States",United States,Furniture | Seating,,,"Family owned and operated for over 30 years, CF Kent is an industry leading manufacture of contract quality furniture for the hospitality industry. We focus on building relationships through professional and personalized service"
BDNY,10/21/2021,2021,https://bdny.com/,DM,Cal Lighting,2625,,http://www.calighting.com,,,,"Ontario, CA United States",United States,Lighting | Mirrors,,,Whether it’s for guest rooms or common areas-Think Cal Lighting!
BDNY,10/21/2021,2021,https://bdny.com/,DM,Cane-Line A/S,2743,,https://cane-line.us/,,,,"Rynkeby, Denmark",Denmark,Furniture | Outdoor Furniture | Seating,,,Cane-line is a Danish design company with 30 years of experience in designing and manufacturing functional and comfortable furniture. Cane-line outdoor collection is designed with the purpose to have a comfortable outdoor lifestyle.
BDNY,10/21/2021,2021,https://bdny.com/,DM,Century Bathworks,1056,,http://www.centurybathworks.com,,,,"Woodland park, NJ United States",United States,Bath & Spa | Mirrors,,,Century Bathworks Inc-  Shower Enclosures and Medicine Cabinets
BDNY,10/21/2021,2021,https://bdny.com/,DM,Cerno,1739,,http://www.cernogroup.com,,,,"Irvine, CA United States",United States,Lighting,,,
BDNY,10/21/2021,2021,https://bdny.com/,DM,Ceramic Technics,651,,http://www.ceramictechnics.com,,,,"Alpharetta, GA United States",United States,Wallcoverings & Surfacing,,,"CTL is dedicated to resourcing distinctive collections of tile and stone for the A & D community throughout North America.  Our primary focus is the commercial arena of retail, hospitality, healthcare, corporate and educational venues."
BDNY,10/21/2021,2021,https://bdny.com/,DM,Chapman Hospitality Lighting,2331,,http://www.chapmanco.com,,,,"Avon, MA United States",United States,Lighting,,,"Chapman Hospitality Lighting provides custom portable and hard wired fixtures for upscale hotel guestrooms, corridors, baths. We take great pride in our partnerships with prestigious design firms, owners, and purchasing firms."
BDNY,10/21/2021,2021,https://bdny.com/,DM,brooklinen,1642,,http://www.brooklinen.com,,,,"Brooklyn, NY United States",United States,Accessories | Bath & Spa | Beds & Bedding,,,
BDNY,10/21/2021,2021,https://bdny.com/,DM,Brand Standard Furnishings,651,,http://www.brandstandardfurnishings.com,,,,"The Woodlands, TX United States",United States,Furniture | Seating,,,"BSF is a custom case good and seating manufacturer specializing in 3-5 star hospitality environments. With domestic and international manufacturing capabilities, BSF is positioned to meet most budget and lead time requirements."
BDNY,10/21/2021,2021,https://bdny.com/,DM,Brandstand Products,1440,,http://www.brandstandproducts.com,,,,"Richardson, TX United States",United States,Electronics,,,
BDNY,10/21/2021,2021,https://bdny.com/,DM,Brentano,2160,,http://www.brentanofabrics.com,,,,"Wheeling, IL United States",United States,Fabric | Wallcoverings & Surfacing,,,"The Brentano Design Studio, led by Iris Wang, has grown from a modest eight patterns in 1990, into an international source for residential, hospitality, commercial, upholstery and drapery fabrics."
BDNY,10/21/2021,2021,https://bdny.com/,DM,Brown Jordan Company,920,,http://www.brownjordan.com,,,,"St. Augustine, FL United States",United States,Fabric | Furniture | Outdoor Furniture | Seating | Tabletop,,,"Since 1945, Brown Jordan has designed casual furnishings that transformed an industry. Recognized as a distinguished legacy brand, the company has developed a culture of excellence and innovatio"
BDNY,10/21/2021,2021,https://bdny.com/,DM,BRAND MILANO TESSUTI,1153,,http://www.brandmilano.it,,,,"LEGNANO, Italy",Italy,Carpet & Flooring | Fabric | Furniture,,,"BRAND MILANO TESSUTI is a producer of fabrics specilized on the hotels, cruise ship, residential and fashion. From the collaboration with the creative designers, through the production to the final project. Made in Italy"
BDNY,10/21/2021,2021,https://bdny.com/,DM,Bright on Presidio + Luxciole,639,,http://www.brightonpresidio.com,,,,"San Francisco, CA United States",United States,Accessories | Lighting | Outdoor Furniture | Tabletop,,,"The cordless Luxciole lamp by Hisle provide up to 40 hours of glare-free warm LED light. Designed and made in France, it's available in 3 sizes and 5 finishes, it is ideal for bars and restaurants in indoor and outdoor settings."
BDNY,10/21/2021,2021,https://bdny.com/,DM,Boca Terry,2222,,http://www.bocaterry.com,,,,"Deerfield Beach, FL United States",United States,Accessories | Bath & Spa,,,"Manufacturerer of bathrobes, slippers, and towels.  We ship world wide."
BDNY,10/21/2021,2021,https://bdny.com/,DM,Bryan Ashley Inc.,535,,http://www.bryanashley.com,,,,"Deerfield Beach, FL United States",United States,Beds & Bedding | Furniture | Mirrors | Outdoor Furniture | Seating,,,
BDNY,10/21/2021,2021,https://bdny.com/,DM,Blue Bell Mattress Co.  Circa 28,1760,,http://www.BlueBellMattress.com,,,,"East Windsor, CT United States",United States,Furniture,,,
BDNY,10/21/2021,2021,https://bdny.com/,DM,Bloom Lighting Group,2510,,http://www.bloomlightinggroup.com,,,,"Dollard-Des-Ormeaux, QC Canada",Canada,Lighting,,,manufactures custom decorative lighting for the Hospitality Industry.  We are an industry leader in custom Hospitality Lighting.  Working hand-in-hand with designers and architects we provide the right blend of technical experience to turn a vision into reality.
BDNY,10/21/2021,2021,https://bdny.com/,DM,Bokara Rug Company,2407,,http://www.bokara.com/index.aspx,,,,"Secaucus, NJ United States",United States,Carpet & Flooring | Fabric | Wallcoverings & Surfacing,,,"Bokara are one of the leading companies in the rug business. We have one of the country’s largest collections of fine rugs—from antique, to contemporary-"
BDNY,10/21/2021,2021,https://bdny.com/,DM,Bijou Coverings,1160,,http://www.bijoucoverings.com/,,,,"Syosset, NY United States",United States,,,,
BDNY,10/21/2021,2021,https://bdny.com/,DM,Bittel Americas,230,,http://www.bittelamericas.com,,,,"San Jose, CA United States",United States,Electronics | Technology,,,
BDNY,10/21/2021,2021,https://bdny.com/,DM,Bernhardt Hospitality,2319,,http://www.bernhardthospitality.com,,,,"Lenoir, NC United States",United States,Beds & Bedding | Furniture | Mirrors | Seating,,,
BDNY,10/21/2021,2021,https://bdny.com/,DM,Bellino Fine Linens,1041,,http://www.bellinofinelinens.com,,,,"Englewood, NJ United States",United States,Bath & Spa | Beds & Bedding | Fabric | Tabletop,,,
BDNY,10/21/2021,2021,https://bdny.com/,DM,Bend Goods,1725,,https://bendgoods.com/,,,,"Los Angeles, CA United States",United States,Accessories | Furniture | Outdoor Furniture | Seating,,,"Bend has reshaped people's perceptions of mid-century modern design with bright colors and appealing forms. By using a specialized process of bending wire, Bend makes sure its products are structurally strong and uniquely geometric"
BDNY,10/21/2021,2021,https://bdny.com/,DM,"Bramson House, Inc.",1350,,http://www.bramsonhouse.com,,,,"Freeport, NY United States",United States,Beds & Bedding | Fabric | Window Treatments,,,
BDNY,10/21/2021,2021,https://bdny.com/,DM,BOVI Fine Linens,2750,,http://www.bovigraccioza.com,,,,"Atlanta, GA United States",United States,Bath & Spa | Beds & Bedding,,,"Bovi Fine Linens has been making luxury bedding since the 1950's. Using only a long-staple cotton, Bovi offers only a superior quality product. We are based in Portugal however we stock all of our products in the USA."
BDNY,10/21/2021,2021,https://bdny.com/,DM,BOKSER HOME,2611,,http://www.boksertextiles.com,,,,"Minneapolis, MN United States",United States,Bath & Spa | Beds & Bedding,,,
BDNY,10/21/2021,2021,https://bdny.com/,DM,Bear Mattress,961,,http://www.bearmattress.com,,,,"Hoboken, NJ United States",United States,Beds & Bedding | Furniture | Technology,,,
BDNY,10/21/2021,2021,https://bdny.com/,DM,"Beachley Furniture Co., Inc.",1260,,http://www.beachley.com,,,,"Hagerstown, MD United States",United States,Outdoor Furniture | Seating,,,"Beachley works closely with clients to design and build custom furniture and millwork.  Our expert craftsmen are skilled at combining comfort, style and durability into unique and unconventional customer-driven designs."
BDNY,10/21/2021,2021,https://bdny.com/,DM,Beaufurn,1651,,http://www.beaufurn.com,,,,"Advance, NC United States",United States,Furniture | Outdoor Furniture | Seating,,,"Beaufurn designs and manufactures high quality commerical furnishings that are environmentally responsible and fits a variety of budgets, projects and design needs.  We bring fashion forward, functional design to commercial spaces."
BDNY,10/21/2021,2021,https://bdny.com/,DM,BEACON Custom Lighting,2160,,http://www.beaconcustomlighting.com,,,,"High Point, NC United States",United States,Lighting,,,"BEACON Custom Lighting solutions are exclusively available in the US to Architects, Designers & the Hospitality Industry.  US distribution and our corporate office are based in High Point, NC. All products & parts are 100%  EU made!"
BDNY,10/21/2021,2021,https://bdny.com/,DM,Bartech Systems,1238,,http://www.bartech.com,,,,"Las Vegas, NV United States",United States,,,,
BDNY,10/21/2021,2021,https://bdny.com/,DM,Bashian,1231,,http://www.bashianrug.com,,,,"Ridgefield, NJ United States",United States,Carpet & Flooring,,,
BDNY,10/21/2021,2021,https://bdny.com/,DM,Baker Interiors Group,1839,,http://www.bakerfurniture.com,,,,"Connelly Springs, NC United States",United States,,,,
BDNY,10/21/2021,2021,https://bdny.com/,DM,Belstone Products,2319,,http://www.projectstone.com,,,,"Van Nuys, CA United States",United States,,,,
BDNY,10/21/2021,2021,https://bdny.com/,DM,Axxess Industries Inc,1234,,https://www.axxind.com,,,,"Kelowna, BC Canada",Canada,Electronics | Lighting | Signage | Technology,,,
BDNY,10/21/2021,2021,https://bdny.com/,DM,"Axis Hospitality, Design . Purchasing . Logistics",2057,,http://www.axiswwsc.com,,,,"Chesterfield, MO United States",United States,Accessories,,,"Axis Worldwide Hospitality is your complete and direct provider of domestic and international FF&E / OS&E freight management, purchase order expediting, warehouse and installation services We specialize in logistic solutions and technology managing hotel, restaurant, casino and assisted living centers projects throughout the mainland Hawaii and the Caribbean. Visit us at www.axiswwsc.com or contact us direct at 636-787-0000."
BDNY,10/21/2021,2021,https://bdny.com/,DM,BambrellaUSA Inc.,2629,,http://www.bambrellausa.com,,,,"Deerfield Beach, FL United States",United States,Accessories | Architectural Materials | Furniture | Outdoor Furniture,,,Bambrella the leading commercial umbrella maker from the UK. Made from sustainable solid laminated Bamboo or anodized Aluminum
BDNY,10/21/2021,2021,https://bdny.com/,DM,Beautyrest Hospitality,2005,,https://beautyresthospitality.com/,,,,"Doraville, GA United States",United States,Beds & Bedding,,,"Providing distinctive bedding solutions to the hospitality industry is what we do best. Decades of innovation help hotel customers deliver an exceptional and comfortable night’s sleep to guests, night after night, stay after stay."
BDNY,10/21/2021,2021,https://bdny.com/,DM,Architectural Concepts LLC,300,,https://www.archconceptsllc.com,,,,"Parker, CO United States",United States,Accessories | Architectural Materials | Bath & Spa,,,"We are the premier distributor, manufacturer and installer of doors, frames, hardware, glass shower enclosures, cultured marble, aluminum storefront, curtain wall and architectural glass in the hospitality industry"
BDNY,10/21/2021,2021,https://bdny.com/,DM,American Leather,1347,,http://www.americanleatherhospitality.com,,,,"Dallas, TX United States",United States,Furniture,,,
BDNY,10/21/2021,2021,https://bdny.com/,DM,American Atelier Inc.,1801,,http://www.aaihospitality.com,,,,"Allentown, PA United States",United States,Amenities | Furniture | Seating,,,"AAI a custom furniture manufacturer, specializing in the hospitality and institutional markets. Fourth-generation, family-owned enterprise employing approximately 240 employees. AWI Certified for Premium Grade manufacturing."
BDNY,10/21/2021,2021,https://bdny.com/,DM,ALPI/BROOKSIDE VENEERS LTD,1922,,http://www.veneers.com,,,,"CRANBURY, NJ United States",United States,Architectural Materials | Wallcoverings & Surfacing,,,Alpi is the world leader in the production of manmade wood veneers
BDNY,10/21/2021,2021,https://bdny.com/,DM,Apadana Fine Rugs,1040,,http://www.apadanainc.com,,,,"Norwalk, CT United States",United States,Carpet & Flooring | Fabric,,,
BDNY,10/21/2021,2021,https://bdny.com/,DM,Andaaz Manufacturing,451,,http://www.andaazmfg.com,,,,"Houston, TX United States",United States,Furniture | Lighting | Seating,,,"We are a manufacturer of custom hospitality Casegoods, Seating, and Lighting. Our knowledgeable staff of furniture designers and lighting engineers can help realize your beautiful ideas, as you envisioned them, in budget and on time."
BDNY,10/21/2021,2021,https://bdny.com/,DM,"AlphaTheta Music Americas, Inc",2319,,http://www.pioneerproaudio.com,,,,"Torrance, CA United States",United States,Technology,,,"Pioneer's consumer and professional systems have delivered clear, powerful sound reproduction to generations of music lovers, theatregoers and producers all over the world since 1938."
BDNY,10/21/2021,2021,https://bdny.com/,DM,Amtrend Corporation,2011,,http://www.amtrend.com,,,,"Fullerton, CA United States",United States,Furniture | Outdoor Furniture | Seating | Tabletop,,,
BDNY,10/21/2021,2021,https://bdny.com/,DM,ANNIE CLAIRE  QUALITY FURNITURE SRL,447,,,,,,"SCHIAVON (VI), Vicenza Italy",Italy,,,,
BDNY,10/21/2021,2021,https://bdny.com/,DM,Architectural Systems Inc,2041,,http://www.archsystems.com,,,,"New York, NY United States",United States,Architectural Materials | Carpet & Flooring | Tabletop | Wallcoverings & Surfacing,,,"ASI | Architectural Systems is a leading global source for innovative, disctinctive and sustainable interior finishes providing hospitality brands with wall surfaces and flooring that define a sense of place in branded environments."
BDNY,10/21/2021,2021,https://bdny.com/,DM,Bedford Collections,1140,,http://www.bedfordcollections.com,,,,"Suncook, NH United States",United States,Accessories | Bath & Spa | Beds & Bedding,,,"Custom made bedding for the hospitality industry including embroidery.  Manufacture throws, blankets, bed scarves, and pillows, all made domestically. No job is too big or too small."
BDNY,10/21/2021,2021,https://bdny.com/,DM,Berkshire Hospitality,1960,,http://www.berkshirehospitality.com,,,,"Ware, MA United States",United States,Accessories | Beds & Bedding,,,
BDNY,10/21/2021,2021,https://bdny.com/,DM,AKDO,1961,,http://www.akdo.com,,,,"Bridgeport, CT United States",United States,Architectural Materials | Carpet & Flooring | Wallcoverings & Surfacing,,,"AKDO has been offering the very best slabs, tiles, handcrafted mosaics, hardwood and carpet for over 30 years."
BDNY,10/21/2021,2021,https://bdny.com/,DM,ADRIANA HOYOS Hospitality,229,,http://www.adrianahoyos.com/hospitality,,,,"MIAMI GARDENS, FL United States",United States,Furniture | Seating,,,
BDNY,10/21/2021,2021,https://bdny.com/,DM,"AlphaTheta Music Americas, Inc",1751,,http://www.pioneerproaudio.com,,,,"Torrance, CA United States",United States,Technology,,,"Pioneer's consumer and professional systems have delivered clear, powerful sound reproduction to generations of music lovers, theatregoers and producers all over the world since 1938."
BDNY,10/21/2021,2021,https://bdny.com/,DM,Agile Fabrics,341,,https://agilefabrics.com,,,,"Milwaukee, WI United States",United States,Fabric | Window Treatments,,,"Unlike vinyl, Agile Fabrics Pure Silicone & Hybrid Silicone upholstery performance fabrics can be cleaned with Bleach, 60%-90% Alcohol, 409, Virex/Virox, Lysol, and other strong disinfectants & cleaners WITHOUT ruining the fabric"
BDNY,10/21/2021,2021,https://bdny.com/,DM,"AlphaTheta Music Americas, Inc",319,,http://www.pioneerproaudio.com,,,,"Torrance, CA United States",United States,Technology,,,"Pioneer's consumer and professional systems have delivered clear, powerful sound reproduction to generations of music lovers, theatregoers and producers all over the world since 1938."
BDNY,10/21/2021,2021,https://bdny.com/,DM,2nd Ave Lighting,218,,http://www.2ndave.com,,,,"Yorkville, NY United States",United States,Accessories | Lighting,,,Your One Stop Shop for custom lighting. We make your concept a reality with a full engineering team and nearly every manufacturing process under one roof. Quality & lead time control is our specialty.
BDNY,10/21/2021,2021,https://bdny.com/,DM,ABG Hospitality,211,,http://ABGHospitality.com,,,,"Savannah, TN United States",United States,Bath & Spa,,,ABG Hospitality provides a one stop source of bathware solutions for every hospitality need. We have the largest portfolio of products available for the Hospitality industry. Our Cast Marble products are approved with the major brands.
BDNY,10/21/2021,2021,https://bdny.com/,DM,13 Ricrea Sas Di Mensi Angela Santa & C,445,,http://www.13ricrea.com,,,,"Serralunga Di Crea, Alessandria Italy",Italy,,,,
BDNY,10/21/2021,2021,https://bdny.com/,DM,NOW Carpets Design Inc,2435,,http://www.nowcarpets.com,,,,"New York, NY United States",United States,Carpet & Flooring,,,
BDNY,10/21/2021,2021,https://bdny.com/,DM,Access Product Incorporated,2340,,http://www.accessproductinc.com,,,,"Caledonia, MI United States",United States,Electronics | Furniture | Tabletop | Technology,,,"Access Product provides unique and smart solutions to the power/data needs of those within hospitality, education, and office environments. We sell modern products at affordable prices that are visually pleasing and functional."
BDNY,10/21/2021,2021,https://bdny.com/,DM,Above View Inc,2411,,https://www.aboveview.com,,,,"Milwaukee, WI United States",United States,Architectural Materials | Wallcoverings & Surfacing,,,
BDNY,10/21/2021,2021,https://bdny.com/,DM,COMERSAN FABRICS CORP,2024,,http://www.comersan.com,,,,"Miami, FL United States",United States,Beds & Bedding | Fabric | Furniture | Tabletop | Window Treatments,,,"Establish in 1969 Comersan is a desig-driven FABRIC company ,providing top of the bed , draperies and upholstery fabrics ."
BDNY,10/21/2021,2021,https://bdny.com/,DM,1429 mfg,1144,,http://www.1429mfg.com,,,,"Annapolis, MD United States",United States,Accessories | Artwork | Bath & Spa | Beds & Bedding | Furniture | Lighting | Tabletop | Wallcoverings & Surfacing,,,
BDNY,10/21/2021,2021,https://bdny.com/,DM,GRACCIOZA,2651,,http://www.graccioza.com/,,,,"Atlanta, GA United States",United States,Bath & Spa,,,"This Portuguese-based company is a three-generation family-owned business that takes pride in quality and attention to detail. With 45 years of experience, Graccioza has gained the reputation they deserve. Innovation, design, and dedication have set Graccioza at the top of the luxury bath market."
BDNY,10/21/2021,2021,https://bdny.com/,DM,Room & Board Business Interiors,2357,,http://www.roomandboard.com/bicontract,,,,"Minneapolis, MN United States",United States,Bath & Spa | Beds & Bedding | Furniture | Lighting | Minibars & Safes | Mirrors | Outdoor Furniture | Seating,,,"— Adding to its ample collection of contract-grade products,"
BDNY,10/21/2021,2021,https://bdny.com/,DM,"AlphaTheta Music Americas, Inc",651,,http://www.pioneerproaudio.com,,,,"Torrance, CA United States",United States,Technology,,,"Pioneer's consumer and professional systems have delivered clear, powerful sound reproduction to generations of music lovers, theatregoers and producers all over the world since 1938."
BDNY,10/21/2021,2021,https://bdny.com/,DM,Accord Lighting,1146,,http://www.accordlighting.com,,,,"Miami, FL United States",United States,Lighting,,,"Accord was born in the countryside of southern Brazil. Using wood as our raw material, we apply manual finishing and high-end technology to bring the best wooden luminaires of Brazil all over the world, one lamp at a time."
BDNY,10/21/2021,2021,https://bdny.com/,DM,Akula Living,627,,http://www.akulaliving.com,,,,"Wetherby, West Yorkshire United Kingdom",United Kingdom,Furniture | Outdoor Furniture | Seating | Tabletop,,,"Serving the global hospitality & contract market for over a decade, Akula are leaders in the manufacture of hospitality"
