ShowName,ShowDate,ShowYear,ShowWebsite,SubmittedBy,ExhibitorName,BoothNumber,HallLocation,Website,Email,Phone,Fax,Address,Country,Categories,Manufacturers,Brands,Description
"Hearth, Patio, & BBA Expo",03/03/2022,2022,https://www.hpbexpo.com/show-info/,DM,A.W. Perkins Co.,2135,,http://www.awperkins.com,,,,"Rutland, VT United States",United States,Brushes | Fire Lighters | Gloves & Mitts | Thermometers | Tools | Fire Suppressant | Firestarters/ Fatwood | Pellet Starters | Ash Removal Vacuums | Gloves & Mitts | Thermometers | Barbecue & Grill Paint | Brushes & Rods | Creosote & Soot Cleaner | Gaskets | Glass Cleaner | Hearth Paint | Masonry/Stone Cleaner | Mortar | Polish | Sealants & Sealers | Silicone | Stove Cement | Stove Insulation | Stove Paint | Surrounds & Facings Paint | Touch-Up Paint | Fire Brick,,"ButtonLok, Rovac, Perkins, Magicolor, BigStick, Slick Rods, Medusa, PterodacTILE","A.W. Perkins Company, best in class chimney cleaning tools."
"Hearth, Patio, & BBA Expo",03/03/2022,2022,https://www.hpbexpo.com/show-info/,DM,Buck Stove,1735,,http://www.buckstove.com,,,,"Spruce Pine, NC United States",United States,Gas Vent-Free | Wood | Gas Vented | Gas Vent-Free | Gas Vent-Free | Wood | Mantels,,,
"Hearth, Patio, & BBA Expo",03/03/2022,2022,https://www.hpbexpo.com/show-info/,DM,Big Green Egg,759,,http://www.biggreenegg.com,,,,"Atlanta, GA United States",United States,,,,"Big Green Egg is the world’s largest producer and international distributor of ceramic outdoor cookers. From one original single product, the Big Green Egg has grown to include seven sizes of EGGs and over one hundred accessories and related products. Often copied, never equaled, the Big Green Egg is the Ultimate Cooking Experience."
"Hearth, Patio, & BBA Expo",03/03/2022,2022,https://www.hpbexpo.com/show-info/,DM,Blaze,1459,,http://www.blazegrills.com,,,,"Baton Rouge, LA United States",United States,Cabinets | Carts | Griddles | Grill Covers | Rotisseries | Sideburners | Smoker Trays | Charcoal | Electric | Infrared | Natural Gas | Portable | Propane | Smokers | Pizza Ovens | Gas Vented | Electric | Decorative Glass & Stones | Gas Vented | Gas Hose,,"Blaze Outdoor Products, Firenado","We understand how important it is to have a high quality, outdoor living space that people of all ages can truly enjoy. To many, the ultimate summer entertainment activity is a big picnic with family and friends while cooking great food on the grill. That is why we have poured thousands of hours into developing our line of grills and other outdoor living products. Our engineers work tirelessly to make the perfect grill for each person’s cooking situation. Whether you need to feed your family or the entire neighborhood, we have the perfect grill for you. In the same regard, it doesn’t matter if you are new to grilling or a seasoned expert. We make a grill that will fit your skill set so that you can truly get the most out of your cooking."
"Hearth, Patio, & BBA Expo",03/03/2022,2022,https://www.hpbexpo.com/show-info/,DM,BBQ King,1659,,http://bbqking.mx,,,,"Cuauhtemoc, Chihuahua Mexico",Mexico,Charcoal | Fireplace | Infrared | Propane | Smokers | Gas Cookstoves | Gas/Propane Cookstoves | Outdoor,,"bbq king,","Welcome to BBQ King, we are a leading manufacturer in Mexico"
"Hearth, Patio, & BBA Expo",03/03/2022,2022,https://www.hpbexpo.com/show-info/,DM,BBQ Butler,2247,,http://www.thebbqbutler.com,,,,"Clearfield, UT United States",United States,"Aprons | Cookware | Gloves & Mitts | Grill Covers | Spices, Sauces, & Seasonings | Tools",,BBQ Butler offers a great selection of unique and affordable BBQ/Grilling accessories.,"Bear Paws are THE ORIGINAL dedicated pork pulling tool! Bear Paws are ergonomically designed to fit your hands, and act as an extension of your arms. The claws are strategically spaced so that you can quickly and finely pull the perfect pork or chicken without meat getting caught between them. Bear Paws are made out of Nylon, making them MUCH stronger & more heat resistant than plastic. While Bear Paws were originally designed for pulling pork, they are the perfect tool for lifting, shredding, pulling or assisting in carving any meat. They are also excellent for tossing salads."
"Hearth, Patio, & BBA Expo",03/03/2022,2022,https://www.hpbexpo.com/show-info/,DM,Bad Dog Tools,2429,,http://www.BadDogTools.com,,,,"Bristol, RI United States",United States,,,"Rover, Biter, Versa, HDII, Saw Dog, Iron Dog, Handi Disc,",Tools with less bark - MORE BITE!
"Hearth, Patio, & BBA Expo",03/03/2022,2022,https://www.hpbexpo.com/show-info/,DM,"Berlin Gardens, LLC",741,,http://www.berlingardensllc.com,,,,"Berlin, OH United States",United States,Gazebos | Adirondack Chairs | Bar Stools | Chaises | Fire Pits | Gliders & Swings | Islands/Enclosures | Picnic Tables/Benches | Tables | Umbrella Bases | Umbrellas,,,
"Hearth, Patio, & BBA Expo",03/03/2022,2022,https://www.hpbexpo.com/show-info/,DM,Associated Energy Systems,2149,,http://www.aes4home.com,,,,"Kent, WA United States",United States,Charcoal | Electric | Natural Gas | Propane | Chimney Liner | Direct-Vent Kits | Flashing | Stove Pipe | Wood Cookstoves | Electric | Gas Vented | Gas Vent-Free | Pellet | Wood | Electric | Gas Vented | Gas Vent-Free | Outdoor | Pellet | Wood | Charcoal | Coal Hods | Decorative Glass & Stones | Firebacks | Floor Protectors | Gas Log Lighters | Gloves & Mitts | Grates | Hearth Pads | Log Bags | Log Baskets | Log Carriers | Log Lighters | Log Racks | Pine Cones | Remote Controls | Scents & Oils | Smoke Guards | Stove Fans | Stove Handles | Thermometers | Thermostats | Wall Protectors | Electric | Gas Vented | Gas Vent-Free | Stove Cement | Stove Paint | Stove Parts | Surrounds & Facings Paint | Touch-Up Paint | Adapters/Fittings | Burners | Ceramic Briquettes | Ceramic Grills and Smokers | Controls/Valves | Cooking Grids | Gas Hose | Gas Valve Conversion Kits | Handles | Hinges/Hardware | Ignitors | Lava Rock | Auger Assemblies | Blower Fans | Ceramic Fiber Logs | Fire Brick | Flexible Gas Piping | Gas Burners | Gas Connectors | Gas Tubing | Infrared Burners | Manifolds | Pilot Assemblies | Pressure Regulators/Valves | Refractory Panels | Screws | Thermocouples | Thermopiles | Fire Pits | Patio Heaters | Refrigerators | Electric | Infrared | Corn | Gas Vented | Pellet | Wood,,"American Fyre Designs, AOG, Barbara Jean, Big Green Egg, Dimplex, Duravent, Empire, Enervex, Enviro, Everdure, Firegear, Fire Magic, Graysen Woods, Hargrove, ICC, Infratech, Kingsman Marquis, Modern Flames, Pacific Energy, Real Fyre, Renaissance, RH Peterson, RSF, Rutland, Skytech, Stove Bright, Town & Country, True North, Urbana, Z Flex",
"Hearth, Patio, & BBA Expo",03/03/2022,2022,https://www.hpbexpo.com/show-info/,DM,"ZGRILLS, INC.",2509,,http://www.zgrills.com,,,,"Ontario, CA United States",United States,Flavored Wood Pellets | Grill Covers | Hybrid Grilling System | Pellet | Portable | Wood | Pellets | Pellet,,Z Grills,Welcome to Z Grills! Your last pellet grill you will buy!
"Hearth, Patio, & BBA Expo",03/03/2022,2022,https://www.hpbexpo.com/show-info/,DM,"Better Wood Products/Wood Products International, Inc.",1426,,http://www.betterwoodproducts.com,,,,"Savannah, GA United States",United States,Cookware | Fire Lighters | Charcoal | Fireplace | Campfires | Chimeneas | Wood | Charcoal | Firestarters/ Fatwood | Wood,,,"""Better” is not just a philosophy – it is the foundation of everything we do at Better Wood"
"Hearth, Patio, & BBA Expo",03/03/2022,2022,https://www.hpbexpo.com/show-info/,DM,WPPO LLC,1225,,http://www.wppollc.com,,,,"Orangeville, IL United States",United States,Aprons | Brushes | Tools | Charcoal | Cookers | Hybrid Grilling System | Pellet | Portable | Camp Cookstoves | Gas Cookstoves | Gas/Propane Cookstoves | Multi-Fuel Cookstoves | Pizza Ovens | Wood Cookstoves | Pellet | Wood,,"WPPO LLC, Karma, Stainless & Stone",MFG. of Wood Fired Pizza Ovens and Accessories.
"Hearth, Patio, & BBA Expo",03/03/2022,2022,https://www.hpbexpo.com/show-info/,DM,West End Brick N' Fire,2107,,http://www.webricknfire.com,,,,"Ontario, CA United States",United States,Fireplace | Natural Gas | Caps & Covers | Chimney Liner | Chimneys | Clean-Out Doors | Fireplace Dampers | Stove Pipe | Electric | Gas Vented | Wood | Gas Vented | Masonry/Modular | Wood | Gelled Fuel | Gas Vented | Brushes & Rods | Gas Valves | Masonry/Stone Cleaner | Stove Cement | Stove Paint | Touch-Up Paint | Cooking Grids | Fire Brick | Electric | Gas Vented | Pellet | Wood | Mantels,,"M/C Refractory, R.H. Peterson Products, Dura-Vent, Napoleon Fireplace Products, Astria Fireplace Products, Montigo Fireplaces, Empire Fireplaces, Jotul Stoves and Inserts, Ironstrike Stoves & Inserts, Sky-Tech Remotes, Metalbest Chimney, Metal-Fab Products, Hearthcraft Doors, PRIMO Grills, HY-C Chimney Caps, Masonlite Masonry Fireplaces.",West End Brick N Fire says welcome to New Orleans HPBExpo 2020!
"Hearth, Patio, & BBA Expo",03/03/2022,2022,https://www.hpbexpo.com/show-info/,DM,AZ Patio Heaters,2142,,http://www.azpatioheaters.com,,,,"TOLLESON, AZ United States",United States,Smokers | Gas Valves | Tempered Glass | Thermocouples | Fire Pits | Patio Heaters | Electric | Infrared | Portable,,"Hiland, PrimeGlo",SPECS:
"Hearth, Patio, & BBA Expo",03/03/2022,2022,https://www.hpbexpo.com/show-info/,DM,BBQube Grill Innovations,863,,http://www.bbqube.us,,,,"Tucker, GA United States",United States,Rotisseries | Thermometers | Tools | Charcoal | Portable | Smokers | Camp Cookstoves,,"BBQube, TempMaster, Kamado-Go Grills","Innovative and Award-Winning BBQ Products from Atlanta, GA"
"Hearth, Patio, & BBA Expo",03/03/2022,2022,https://www.hpbexpo.com/show-info/,DM,Weatherstrong Outdoor Cabinetry,543,,http://www.weatherstrong.com,,,,"Bartow, FL United States",United States,Cabinets | Sideburners | Propane | Cabinetry,,,"With the desire to spend more quality time outdoors, WeatherStrong Outdoor Cabinetry is designed with your lifestyle in mind. Our cabinets are manufactured in the U.S.A. with a 3/4"" All‑Weatherboard® composite material to stand up to the harsh elements Mother Nature can send your way. Pounding rain, hot summers, and cold snowy winters are no problem."
"Hearth, Patio, & BBA Expo",03/03/2022,2022,https://www.hpbexpo.com/show-info/,DM,Warming Trends,1125,,http://www.warming-trends.com,,,,"Englewood, CO United States",United States,Decorative Glass & Stones | Remote Controls | Gas Burners | Manifolds | Fire Pits,,,Warming Trends is proud to exhibit CROSSFIRE Brass Burners
"Hearth, Patio, & BBA Expo",03/03/2022,2022,https://www.hpbexpo.com/show-info/,DM,"Z-Flex US, Inc.",2217,,http://www.z-flex.com,,,,"Bedford, NH United States",United States,Chimney Liner | Chimney Liner Insulation | Chimneys | Connectors | Direct-Vent Kits | Pipe Fittings | Stove Pipe,,"Z-Flex Triple-Lock Chimney Liner,  DVI Co-Linear Liner Kits,  Insul-Vent Liner,  Insul-Vent Liner Connector,  Z-DENS Polypropylene Flue Systems,  Z-VENT Stainless Steel Special Gas Vent,  NovaVent, Z-Rigid Liner.",Please stop by our booth to say hello and see what is new.
"Hearth, Patio, & BBA Expo",03/03/2022,2022,https://www.hpbexpo.com/show-info/,DM,BILT Incorporated,435,,http://www.biltapp.com,,,,"Grapevine, TX United States",United States,Replacement Parts | Charcoal | Cookers | Electric | Hybrid Grilling System | Infrared | Natural Gas | Propane | Smokers | Turkey Fryer | Wood Replacement | Biomass | Boilers | Corn | Furnaces | Barometric Dampers | Chimney Fans | Connectors | Direct-Vent Kits | Pipe Fittings | Microwave Ovens | Multi-Fuel Cookstoves | Pizza Ovens | Wood Cookstoves | Electric | Gas Vented | Gas Vent-Free | Gelled Fuel | Masonry/Modular | Oil | Outdoor | Pellet | Wood | Glass Doors | Bar/Tea Carts | Bartending Centers | Ceiling Fans | Dishwashers | Mail Boxes | Pools/Spas/Saunas | Protective Gates | Gazebos | Electric | Adapters/Fittings | Gas Valve Conversion Kits | Auger Assemblies | Gas Train Assemblies | Motors | Speed Controls | Thermocouples | Boilers | Furnaces | Adirondack Chairs | Aluminum (Cast) Furniture | Aluminum (Tubular) Furniture | Aluminum (Wrought) Furniture | Awnings/Canopies/Sunscreens | Bartending Centers | Chaises | Gliders & Swings | Lighting | Patio Fans | Patio Heaters | Serving Carts | Tables | Wood Furniture | Computer Software | Marketing | Coal | Corn | Densified Fuel Log | Electric | Gas Vented | Gas Vent-Free | Gelled Fuel | Oil | Pellet | Wood,,,"The award-winning BILT app revolutionizes the assembly, installation, maintenance, repair & warranty experience with 3D interactive Intelligent Instructions® that are voice & text-guided. BILT’s product overview includes tools required, parts included, then gently directs the procedure step by step. Tap. Zoom. Rotate. Register the product. Track the warranty. Instructions are never obsolete & can be updated live. BILT increases top line revenue 5% per SKU. BILT reduces assembly-related returns 30-70% & lowers customer support costs up to 30%. BILT increases NPS (customer sentiment ratings) 30% & positive product reviews up to 88%. Download the free BILT app on iOS/Android."
"Hearth, Patio, & BBA Expo",03/03/2022,2022,https://www.hpbexpo.com/show-info/,DM,Wellspring Components LLC,1322,,http://www.wellspringbbq.com,,,,"Shipshewana, IN United States",United States,"Cabinets | Carts | Grill Covers | Rotisseries | Spices, Sauces, & Seasonings | Charcoal | Portable | Smokers | Aluminum (Wrought) Furniture | Fire Pits | Picnic Tables/Benches",,"Wellspring, Tri-Flame 60, Big Ben, Expandable Generation Cabinets.",Welcome to our inspirations. We desire to be a team member.
"Hearth, Patio, & BBA Expo",03/03/2022,2022,https://www.hpbexpo.com/show-info/,DM,Vectis by Weber Knapp,2417,,https://info.weberknapp.com/drumsmoker,,,,"Jamestown, NY United States",United States,Hinges/Hardware,,"Vectis™, Weber Knapp, Smokin' Ugly™",Thank you for your interest in Vectis by Weber Knapp!
"Hearth, Patio, & BBA Expo",03/03/2022,2022,https://www.hpbexpo.com/show-info/,DM,"Blaze King Industries, Inc.",1609,,http://www.blazeking.com,,,,"Walla Walla, WA United States",United States,Gas Vented | Wood | Gas Vented | Gas Vented | Wood,,"Blaze King, Valley Comfort, Clarity, Pegasus",100% 2020 EPA Compliant and Displaying new gas products
"Hearth, Patio, & BBA Expo",03/03/2022,2022,https://www.hpbexpo.com/show-info/,DM,Valor Fireplaces/Miles Industries Ltd.,1907,,https://www.valorfireplaces.com,,,,"North Vancouver, BC Canada",Canada,Gas Vented | Electric | Gas Vented | Masonry/Modular | Outdoor,,"Valor Gas Fireplaces
Valor Electric Fireplaces
British Fires",Welcome to the Valor Fireplaces HPBExpo 2022 booth!
"Hearth, Patio, & BBA Expo",03/03/2022,2022,https://www.hpbexpo.com/show-info/,DM,VitaliaTEA,1846,,,,,,"Chatsworth, CA United States",United States,,,,
"Hearth, Patio, & BBA Expo",03/03/2022,2022,https://www.hpbexpo.com/show-info/,DM,USD Products Inc.,1229,,http://www.usdproducts.com,,,,"Santa Ana, CA United States",United States,,,,"Manufacturer of Gas connector, Valves and Brass/ Stainless Steel and Malleable fittings."
"Hearth, Patio, & BBA Expo",03/03/2022,2022,https://www.hpbexpo.com/show-info/,DM,"Twin Eagles, Inc. / Dometic Corporation",2113,,http://www.twineaglesgrills.com,,,,"Cerritos, CA United States",United States,Carts | Grill Covers | Rotisseries | Sideburners | Charcoal | Infrared | Natural Gas | Pellet | Portable | Propane | Smokers | Refrigerators | Patio Heaters | Refrigerators | Electric | Infrared,,"Twin Eagles, Delta Heat, Delsol","Step into an aficionado’s outdoor kitchen. Admire the sleek, luxurious, meticulously engineered equipment, as beautiful as it is high performance.  Twin Eagles embraces the very highest standards in our design and manufacturing. All of our products are made in the USA – designed and manufactured at our own state-of-the-art workplace in California.  Enjoy grilling, eating and spending time together as much as we do – making memories that linger long after the grill cools down."
"Hearth, Patio, & BBA Expo",03/03/2022,2022,https://www.hpbexpo.com/show-info/,DM,Blackstone Products,1215,,http://www.blackstoneproducts.com,,,,"Logan, UT United States",United States,"Carts | Cookware | Spices, Sauces, & Seasonings | Propane",,Blackstone Products,Blackstone Products: the Worlds Leading Griddle Manufacture
"Hearth, Patio, & BBA Expo",03/03/2022,2022,https://www.hpbexpo.com/show-info/,DM,Turbo Trusser,662,,http://Turbotrusser.com,,,,"Canton, OH United States",United States,Cookware | Tools,,"The Turbo Trusser is a poultry trussing device for use with whole chicken, ducks and turkey's. Just hook & cook for a perfect bird every time . 

No more butchers twine or slippery hands!!

Just Hook & Cook for a perfect, juicy bird every time.

#Trussyourbird - cooks more evenly and produces a juicier chicken or turkey.

Use in Ovens, Smokers, Grills, Air Fryers, Roasters, Rotisserie’s and Deep Fryers. 

Stainless Steel : Dishwasher Safe",Hello!!  We are looking forward to connecting with you!
"Hearth, Patio, & BBA Expo",03/03/2022,2022,https://www.hpbexpo.com/show-info/,DM,Top Hat Metalworks,2251,,http://tophatsheetmetal.com,,,,"Smyrna, TN United States",United States,Caps & Covers,,Custom,Top Hat Welcomes you to the HPBExpo of 2022!
"Hearth, Patio, & BBA Expo",03/03/2022,2022,https://www.hpbexpo.com/show-info/,DM,The Outdoor Plus,2235,,http://www.theoutdoorplus.com,,,,"Ontario, CA United States",United States,Gas Vented | Gas Vent-Free | Gas Vented | Gas Vent-Free | Masonry/Modular | Outdoor | Gas Burners | Gas Connectors | Manifolds | Pilot Assemblies | Tempered Glass | Thermocouples | Thermopiles | Fire Pits | Tables,,THE OUTDOOR PLUS IS DEDICATED TO GIVE YOU TOP QUALITY HEARTH PRODUCTS. WE MANUFACTURE EVERYTHING IN ONTARIO CALIFORNIA. THE OUTDOOR PLUS HAS PAVED ITS WAY INTO THE OUTDOOR FEATURES ARENA THROUGH OUR QUALITY PRODUCTS. WE HAVE OVER 30 YEARS OF PROFESSIONAL EXPERIENCE IN DESIGNING & INSTALLING OUR PRODUCTS. DO YOU HAVE A UNIQUE JOB? NO LOOK FURTHER WE DO CUSTOM JOBS FROM A SIMPLE BURNER TO FULLY CONTAINED FIRE FEATURES.,THE OUTDOOR PLUS IS DEDICATED TO GIVE YOU TOP QUALITY HEARTH PRODUCTS. WE MANUFACTURE EVERYTHING IN ONTARIO CALIFORNIA. THE OUTDOOR PLUS HAS PAVED ITS WAY INTO THE OUTDOOR FEATURES ARENA THROUGH OUR QUALITY PRODUCTS. WE HAVE OVER 30 YEARS OF PROFESSIONAL EXPERIENCE IN DESIGNING & INSTALLING OUR PRODUCTS. DO YOU HAVE A UNIQUE JOB? NO LOOK FURTHER WE DO CUSTOM JOBS FROM A SIMPLE BURNER TO FULLY CONTAINED FIRE FEATURES.
"Hearth, Patio, & BBA Expo",03/03/2022,2022,https://www.hpbexpo.com/show-info/,DM,Brunswick Billiards,525,,,,,,"Bristol, WI United States",United States,,,,
"Hearth, Patio, & BBA Expo",03/03/2022,2022,https://www.hpbexpo.com/show-info/,DM,StoveTeam International,1908,,http://www.stoveteam.org/hpba,,,,"Portland, OR United States",United States,Wood Cookstoves | Wood,,,Help us demonstrate the true power of the hearth industry!
"Hearth, Patio, & BBA Expo",03/03/2022,2022,https://www.hpbexpo.com/show-info/,DM,Synchrony,440,,http://www.synchrony.com,,,,"Liberty Township, GA United States",United States,,,,
"Hearth, Patio, & BBA Expo",03/03/2022,2022,https://www.hpbexpo.com/show-info/,DM,SMG Hearth and Home/Comfortbilt,2435,,http://www.comfortbilt.net,,,,"Morrisville, NC United States",United States,Pellet | Pellet | Hearth Pads | Pellet,,"Comfortbilt Pellet Stoves provide an efficient and cost effective method to heat homes comfortably. Our models on display at this show are the HP61 Charcoal, HP22i Insert, HP22-N Charcoal, and the HP22 Red.",Comfortbilt Pellet Stoves- Energy Efficient - Great Pricing!
"Hearth, Patio, & BBA Expo",03/03/2022,2022,https://www.hpbexpo.com/show-info/,DM,"Skytech II, Inc.",2035,,http://www.skytechpg.com,,,,"Fort Wayne, IN United States",United States,Remote Controls | Thermostats | Adapters/Fittings | Burners | Controls/Valves | Gas Hose | Gas Valve Conversion Kits | Ignitors | Lava Rock | Regulators | Flexible Gas Piping | Gas Connectors | Pilot Assemblies | Pressure Regulators/Valves | Thermocouples | Thermopiles,,,"Based in Fort Wayne, IN, Skytech has built an excellent reputation as a wireless control systems and gas valve company. Skytech is a growing international supplier of wireless control systems and gas valves. Established in 1996, Skytech has grown to become the most trusted name in remote controls for the hearth industry. Unparalleled customer service, proven reliability, timely delivery and outstanding product quality have earned Skytech its coveted reputation throughout the hearth industry."
"Hearth, Patio, & BBA Expo",03/03/2022,2022,https://www.hpbexpo.com/show-info/,DM,Tagwood BBQ,353,,http://www.tagwoodbbq.com,,,,"Miami, FL United States",United States,Charcoal,,TAGWOOD BBQ,Welcome to the TAGWOOD BBQ COMMUNITY!
"Hearth, Patio, & BBA Expo",03/03/2022,2022,https://www.hpbexpo.com/show-info/,DM,"Weber, Inc.",1415,,http://www.weber.com,,,,"Palatine, IL United States",United States,"Aprons | Brushes | Carts | Cookbooks | Cookware | Fire Lighters | Flavored Wood Chips | Flavored Wood Pellets | Gloves & Mitts | Griddles | Grill Covers | Lights | Pellet Storage | Propane Tank Covers | Replacement Parts | Rotisseries | Sideburners | Smoker Trays | Spices, Sauces, & Seasonings | Thermometers | Tools | Charcoal | Electric | Natural Gas | Pellet | Portable | Propane | Smokers | Charcoal | Firestarters/ Fatwood | Pellets | Smoking Chips",,"SPIRIT II SERIES, GENESIS® II SERIES, SUMMIT® SERIES, SMOKEFIRE SERIES, Q SERIES, SUMMIT® CHARCOAL SERIES, ORIGINAL KETTLE SERIES, MASTER-TOUCH SERIES, PERFORMER SERIES, SMOKEY MOUNTAIN COOKER SERIES, SMOKEY JOE® SERIES, GO-ANYWHERE SERIES, WEBER CONNECT, iGRILL THERMOMETERS AND TIMERS","Weber-Stephen Products LLC, headquartered in Palatine, IL is the world’s premier manufacturer of charcoal, gas and electric grills, grilling accessories and award-winning cookbooks and mobile applications. In 1952, founder George Stephen sparked a backyard revolution with his invention of the Weber® kettle. More than 60 years later, the privately-held company’s products are sold worldwide at select national home centers, specialty hardware stores, patio stores and other retail outlets. Weber has the strongest customer support program in the industry with its Weber Grill-Line (1-800-GRILL-OUT®)."
"Hearth, Patio, & BBA Expo",03/03/2022,2022,https://www.hpbexpo.com/show-info/,DM,"Seal Smart, LLC",652,,http://www.neversealyourdeckagain.com,,,,"Monett, MO United States",United States,,,,
"Hearth, Patio, & BBA Expo",03/03/2022,2022,https://www.hpbexpo.com/show-info/,DM,Screenco Manufacturing Ltd.,1259,,http://www.screenco.ca,,,,"Concord, ON Canada",Canada,Screens,,,"is a North American Rollforming company with facilities in Wisconsin, Alberta and Ontario.  Not only do we produce the frame and supply the components required to make security screens, but we fabricate finished screens as well.  We have been producing security screens for Gas fireplace industry for the past three years and over 40 years in the Fenestration marketplace."
"Hearth, Patio, & BBA Expo",03/03/2022,2022,https://www.hpbexpo.com/show-info/,DM,SELKIRK,1207,,http://www.selkirkcorp.com,,,,,,,,,Welcome! Come to booth #1207 for all your chimney needs.
"Hearth, Patio, & BBA Expo",03/03/2022,2022,https://www.hpbexpo.com/show-info/,DM,Stealth Manufacturing,1528,,http://www.stealthmanufacturing.com,,,,"Savage, MN United States",United States,Replacement Parts | Sideburners | Heat Exchangers | Auger Assemblies | Burners | Gas Burners | Gas Connectors | Gas Train Assemblies | Gas Tubing | Manifolds | Trim Kits,,,Welcome to the 2022 HPB Expo from Stealth Manufacturing
"Hearth, Patio, & BBA Expo",03/03/2022,2022,https://www.hpbexpo.com/show-info/,DM,SEOJIN SYSTEM,1242,,http://seojinsystem.net,,,,"IRVINE, CA United States",United States,Aprons | Branding Irons | Carts | Griddles | Replacement Parts | Smoker Trays | Tools | Fireplace | Hybrid Grilling System | Smokers | Turkey Fryer | Connectors | Bird Houses/Feeders | Fountains | Garden Tools | Gazebos | Insect Control | Outdoor Decorative Accessories | Pedestals | Planters | Trellises & Arbors | Barbecue & Grill Cleaner | Barbecue & Grill Paint | Brushes & Rods | Creosote & Soot Cleaner | Deck & Patio Cleaner | Deodorizers | Fiber Ember Kits | Gas Valves | Stove Parts | Adapters/Fittings | Auger Assemblies | Burners | Cast Iron Grills and Smokers | Ceramic Briquettes | Ceramic Grills and Smokers | Coatings | Controls/Valves | Cooking Grids | Gas Valve Conversion Kits | Handles | Lava Rock | Motors | Regulators | Air Booster Fans | Auger Assemblies | Blower Fans | Ceramic Fiber Logs | Ceramic Glass | Coatings | Flexible Gas Piping | Gas Connectors | Gas Train Assemblies | Infrared Burners | Manifolds | Non-Fibrous Glowing Logs | ODS Pilots | Pilot Assemblies | Pressure Regulators/Valves | Refractory Panels | Screws | Speed Controls | Tempered Glass | Thermocouples | Thermopiles | Adirondack Chairs | Aluminum (Cast) Furniture | Aluminum (Tubular) Furniture | Aluminum (Wrought) Furniture | Awnings/Canopies/Sunscreens | Bar Stools | Bartending Centers | Beach Chairs | Cabinetry | Chaises | Coolers | Director's Chairs | Entertainment | Fire Pits | Furniture Covers | Gliders & Swings | Hammocks/Hanging Chairs | Iron Furniture | Islands/Enclosures | Lanterns | Misting Fans | Patio Coolers | Patio Fans | Patio Heaters | Pavers | Picnic Tables/Benches | Refrigerators | Serving Carts | Tables | Torches | Tumblers | Umbrella Bases | Umbrellas | Wicker Furniture | Wood Furniture,,,"SEOJIN SYSTEM CO., LTD is a general contract manufacturer, HQ in Korea and factory in Vietnam. We look for a global metal platform OEM supplier. Our portfolios as an OEM supplier are very diverse and professional from home life goods to high-tech industrial equipment. In life home goods category, the barbecue & grill products are leading the field with covering all types of grills, smokers and griddles."
"Hearth, Patio, & BBA Expo",03/03/2022,2022,https://www.hpbexpo.com/show-info/,DM,The Fire Time Magazine,2159,,http://www.itsfiretime.com,,,,"Beaverton, OR United States",United States,Charcoal | Fireplace | Natural Gas | Pellet | Propane | Smokers | Alcohol | Coal | Electric | Gas Vented | Gas Vent-Free | Gelled Fuel | Pellet | Wood | Electric | Gas Vented | Gas Vent-Free | Masonry/Modular | Pellet | Wood | Electric | Gas Vented | Gas Vent-Free | Business Management Systems | Computer Software | Consultants | Marketing | Publishers & Publications | Electric | Gas Vented | Gas Vent-Free | Pellet | Wood,,"The Fire Time Magazine, The Fire Time Network, The Fire Time Journal",Join the community that's revolutionizing our industry.
"Hearth, Patio, & BBA Expo",03/03/2022,2022,https://www.hpbexpo.com/show-info/,DM,SCHOTT ROBAX,1317,,https://www.schott.com/en-us/products/robax-p1000332,,,,"Louisville, KY United States",United States,Coatings | Cooking Grids | Ceramic Glass | Coatings,,"SCHOTT ROBAX® fire viewing panels ensure real enjoyment while providing full protection. SCHOTT NEXTREMA® transparent viewing panels and burner shields, inspire new uses of glass-ceramic in barbecues.","SCHOTT is an international technology group, helping customers realize new products in home appliances and fireplaces.  Fire warms our hearts, but when it comes  homes, safety, visibility and heating considerations stand front and center.  SCHOTT ROBAX® fire viewing panels ensure real enjoyment while providing full protection. The options for transparent glass-ceramics from SCHOTT are as varied as fireplace design ideas.  In comparison to flat glass, ROBAX® offers temperature stability, transparency, heat transmission, and long lifespan. NEXTREMA® transparent viewing panels and burner shields, inspire new uses of glass-ceramic in barbecues.  Allowing the user to see what’s happening inside the BBQ without opening the lid and crashing internal temperatures, improving the BBQ grill performance and design."
"Hearth, Patio, & BBA Expo",03/03/2022,2022,https://www.hpbexpo.com/show-info/,DM,"Stoll Industries, Inc.",1635,,http://www.stollindustries.com,,,,"Abbeville, SC United States",United States,Cabinets | Electric | Glass Doors | Grates | Heat Exchangers | Hoods | Log Baskets | Log Carriers | Log Racks | Mesh Doors | Screens | Smoke Guards | Tool Sets | Decorative Accessories | Cabinetry | Fire Pits | Islands/Enclosures | Electric | Facings | Mantels | Metal | Shelves & Brackets | Surrounds | Trim Kits,,"Fireplaces, Outdoors Kitchens, Walls and Shelves","""Quality from the Heart of a Craftsmen """
"Hearth, Patio, & BBA Expo",03/03/2022,2022,https://www.hpbexpo.com/show-info/,DM,"Sand Hill Wholesale & Mfg., Inc.",1617,,http://www.sandhillwholesale.com,,,,"Columbus, OH United States",United States,Wood Replacement | Barometric Dampers | Caps & Covers | Chimney Fans | Chimney Liner | Chimney Liner Insulation | Chimneys | Clean-Out Doors | Connectors | Draft Inducers | Fire Suppressant | Fireplace Dampers | Flashing | Flue Stops | Heat Reclaimers | Pipe Fittings | Pipe Shields | Stove Pipe | Stove Pipe Dampers | Firestarters/ Fatwood | Matches | Pellet Starters | Andirons | Ash Buckets | Ash Removal Vacuums | Bellows | Candle Holders | Coal Hods | Firebacks | Floor Protectors | Gas Log Lighters | Gloves & Mitts | Grates | Grills & Registers | Hearth Pads | Heat Exchangers | Hoods | Log Bags | Log Baskets | Log Carriers | Log Lighters | Log Racks | Remote Controls | Scents & Oils | Screens | Smoke Guards | Steamers | Stove Fans | Thermometers | Thermostats | Tool Sets | Wall Protectors | Carbon Monoxide Detectors | Trivets | Gas Vented | Gas Vent-Free | Barbecue & Grill Cleaner | Brushes & Rods | Creosote & Soot Cleaner | Deodorizers | Fiber Ember Kits | Gas Keys | Gas Log Cleaner | Gas Valve Flanges | Gas Valves | Gaskets | Glass Cleaner | Hearth Paint | Masonry/Stone Cleaner | Metal Cleaner | Mortar | Polish | Sealants & Sealers | Silicone | Stainless Steel Cleaner | Stove Cement | Stove Paint | Touch-Up Paint | Gas Vent-Free | Zone/Wall/Floor,,"Sweeps Perfection, Super Quiet, HOMEOWNERS CHOICE, Selkirk, DuraVent, Heatfab, Magic Heat, HY-C, Chimney Saver, Skamolex, Imperial, SuperPro, Seal Tight, The Top Damper,  Hearthrite, Empire, FlameX, HearthX, Chimfex, Rutland, Condar, Stove Bright, EcoFan, Tjernlund, Vacu-Stack, WeatherShield, Gelco, Buttonlok, Hearth Country, StoveScents, Hearthmaster, Flame Fanner, Flash-Corder, Accusharp, Ahrens, Miracle Heat, ThruWall, Speedy-White","Sand Hill Wholesale & Mfg., Inc. is America's oldest national wholesale distributor of hearth accessories and chimney sweep supplies. Proudly serving our industry for over 40 years, Sand Hill strives to provide a diverse product line along with the customer service that you deserve. Most orders ship same day when received by 3:00 pm ET. We offer the best dating programs in the industry and give Free Freight on qualified orders of $1,700.00 or more."
"Hearth, Patio, & BBA Expo",03/03/2022,2022,https://www.hpbexpo.com/show-info/,DM,SaverSystems,2423,,http://www.saversystems.com,,,,"Richmond, IN United States",United States,,,,"SaverSystems has manufactured the ChimneySaver line of repair and maintenance products since 1987. ChimneySaver Water Repellent is the industry standard for eliminating water penetration in chimneys. CrownCoat, CrownSeal and FlashSeal offer long-term, cost-effective solutions for repairing damaged crowns and flashings.  SaverSystems also manufactures two listed products for smoke chamber repair: Heatshield Chamber Coat, which is trowel-applied, and Cerfractory Foam for spray application. Our line also includes PCR, which removes 3rd degree glazed creosote without rotary cleaning. Call or email us today to request samples or to learn more about our many problem-solving products for chimney professionals."
"Hearth, Patio, & BBA Expo",03/03/2022,2022,https://www.hpbexpo.com/show-info/,DM,"S.I.T. Controls USA, Inc.",1853,,http://www.sitcontrols.com,,,,"Charlotte, NC United States",United States,Direct-Vent Kits | Remote Controls | Gas Valves | Ignitors | Blower Fans | Gas Train Assemblies | ODS Pilots | Pilot Assemblies | Pressure Regulators/Valves | Thermocouples | Thermopiles,,Proflame,"SIT Controls is an OEM Manufacturer of gas valves, pilot assemblies, electronic controls, remote controls, blower fans, thermocouples, venting and integrated control systems."
"Hearth, Patio, & BBA Expo",03/03/2022,2022,https://www.hpbexpo.com/show-info/,DM,Samson Outdoor,2109,,,,,,"Beaumont, TX United States",United States,,,,
"Hearth, Patio, & BBA Expo",03/03/2022,2022,https://www.hpbexpo.com/show-info/,DM,RPG Brands,226,,http://www.modernflames.com,,,,"Phoenix, AZ United States",United States,Electric | Electric | Decorative Glass & Stones | Electric | Gas Vented | Gas Vent-Free | Fire Pits,,"Modern Flames, Grand Canyon Gas Logs, Athena Fireglass",Modern Flames Electric Fireplaces and Grand Canyon Gas Logs are industry leaders in innovative fireplace products.
"Hearth, Patio, & BBA Expo",03/03/2022,2022,https://www.hpbexpo.com/show-info/,DM,RUTLAND,1717,,http://www.rutland.com,,,,"Jacksonville, IL United States",United States,Fire Lighters | Campfires | Gelled Fuel | Masonry/Modular | Pellet | Wood | Firestarters/ Fatwood | Gelled Fuel | Gloves & Mitts | Log Racks | Thermometers | Barbecue & Grill Paint | Brushes & Rods | Creosote & Soot Cleaner | Gas Log Cleaner | Gaskets | Glass Cleaner | Hearth Paint | Masonry/Stone Cleaner | Mortar | Polish | Sealants & Sealers | Silicone | Stove Cement | Stove Paint | Fire Brick,,"Safe Lite®, One Match®, Rainbow Flame®, William's®, White Off®, Kwik-Shot®, Soot Sweep®, Log Bright®, Dry Mix 211®, STOVO®, Seal it Right®, Grapho-Glas®, Chimney Sweep®, Master Sweep®, Wizard System®","Founded in 1883, RUTLAND is a leading manufacturer of fireplace, chimney, and stove maintenance products. Our products include fire starters, creosote removers, high temperature sealants and cements, mortars, glass cleaners, gaskets, rods, brushes, and more. RUTLAND products are sold online and nationwide at leading retailers. Reach out today to find out how RUTLAND can increase your business!"
"Hearth, Patio, & BBA Expo",03/03/2022,2022,https://www.hpbexpo.com/show-info/,DM,RAM Game Room,825,,,,,,"Milton, ON Canada",Canada,,,,
"Hearth, Patio, & BBA Expo",03/03/2022,2022,https://www.hpbexpo.com/show-info/,DM,R and R Outdoors,607,,http://randroutdoorfun.com,,,,"Naples, FL United States",United States,Foosball Tables | Other Game Tables | Pool Tables | Shuffleboard Tables | Table Tennis Tables,,,"R&R Outdoors is an American Manufacturer of ""OUTDOOR FUN"".  Our billiard tables, shuffleboards, table tennis, cornhole, foosball and more are hearty enough for all climates yet beautiful enough for the discerning designers custom direction.  Every one of our tables are hand-crafted and made out of the finest all weather materials. We can customize, brand, or create something for your clients space that will be a showstopper."
"Hearth, Patio, & BBA Expo",03/03/2022,2022,https://www.hpbexpo.com/show-info/,DM,Quanex,1307,,http://www.quanex.com,,,,"Rice Lake, WI United States",United States,Screens,,,"Quanex Building Products has manufactured safety screens for the hearth industry since the mid-1990s, offering expert engineering support and high-quality, American-made solutions that will help you mitigate your risk and liability and comply with the Certified Barrier mandates."
"Hearth, Patio, & BBA Expo",03/03/2022,2022,https://www.hpbexpo.com/show-info/,DM,Prism Hardscapes LLC,834,,http://www.prismhardscapes.com,,,,"Cerritos, CA United States",United States,,,,
"Hearth, Patio, & BBA Expo",03/03/2022,2022,https://www.hpbexpo.com/show-info/,DM,Presidential Billiards,611,,,,,,"New Caney, TX United States",United States,,,,
"Hearth, Patio, & BBA Expo",03/03/2022,2022,https://www.hpbexpo.com/show-info/,DM,Specialty Gaskets Inc.,1743,,http://www.specialtygaskets.com,,,,"Mississauga, ON Canada",Canada,Chimney Liner Insulation | Gaskets | Hearth Paint | Sealants & Sealers | Silicone | Sponges | Stove Insulation | Fire Brick | Refractory Panels | Hearth Panels | Surrounds,,,"Since 1980 Specialty Gaskets Inc. has been providing innovative solutions and high-performance products to the Hearth industry, earning preferred supplier status with leading gas fireplace and wood stove manufacturers. We strive to supply only the best high temperature products and  high-level service to suit our Hearth customer's needs."
"Hearth, Patio, & BBA Expo",03/03/2022,2022,https://www.hpbexpo.com/show-info/,DM,Robertshaw,744,,http://www.robertshaw.com,,,,"Itasca, IL United States",United States,Sideburners | Remote Controls | Thermostats | Gas Valves | Adapters/Fittings | Burners | Controls/Valves | Ignitors | Motors | Regulators | Gas Burners | Gas Connectors | Gas Train Assemblies | Gas Tubing | Infrared Burners | Manifolds | Motors | ODS Pilots | Pilot Assemblies | Pressure Regulators/Valves | Thermocouples | Thermopiles,,"Robertshaw, Ranco, Paragon, CastFutura",Welcome to the Robertshaw booth and the 2019 HPBExpo
"Hearth, Patio, & BBA Expo",03/03/2022,2022,https://www.hpbexpo.com/show-info/,DM,Premier Mantels & Millwork Company,1725,,http://www.premiermantelco.com,,,,"Florence, AL United States",United States,Facings | Fireplace Cabinets | Granite | Mantels | Marble | Stone | Surrounds | Wood,,,Premier Mantel - All your mantel needs  from one source
"Hearth, Patio, & BBA Expo",03/03/2022,2022,https://www.hpbexpo.com/show-info/,DM,RH Peterson Co.,909,,http://www.rhpeterson.com,,,,"City of Industry, CA United States",United States,Griddles | Grill Covers | Rotisseries | Sideburners | Smoker Trays | Thermometers | Tools | Charcoal | Electric | Infrared | Natural Gas | Portable | Propane | Gas Vented | Outdoor | Gas Log Lighters | Grates | Pine Cones | Remote Controls | Gas Vented | Gas Vent-Free | Bartending Centers | Fire Pits | Islands/Enclosures | Refrigerators,,"Fire Magic, American Outdoor Grill, AOG, American Fyre Designs, Real Fyre",Visit RH Peterson @booth 415 to see what's new & exciting!
"Hearth, Patio, & BBA Expo",03/03/2022,2022,https://www.hpbexpo.com/show-info/,DM,Plank & Hide Co.,623,,http://www.plankandhide.com,,,,"Cincinnati, OH United States",United States,Outdoor | Aluminum (Cast) Furniture | Aluminum (Tubular) Furniture | Bar Stools | Bartending Centers | Chaises | Coolers | Fire Pits | Serving Carts | Tables | Wicker Furniture,,,Indoor Home Recreation & Outdoor Lifestyle Furniture
"Hearth, Patio, & BBA Expo",03/03/2022,2022,https://www.hpbexpo.com/show-info/,DM,Ortal USA,135,,http://www.ortalheat.com,,,,"Canoga Park, CA United States",United States,Fireplace | Natural Gas | Propane | Gas Vented | Decorative Glass & Stones | Remote Controls | Gas Vented | Facings | Granite,,"Wilderness, Traditional, Front Facing, Corner, Three Side, Space Creator, Stand Alone, Island & Curve, Tunnel, and Indoor-Outdoor Tunnel fireplaces.",Ortal is a premier designer frameless gas fireplaces
"Hearth, Patio, & BBA Expo",03/03/2022,2022,https://www.hpbexpo.com/show-info/,DM,UL LLC,1747,,http://www.ul.com,,,,"Northbrook, IL United States",United States,Cookers | Electric | Hybrid Grilling System | Infrared | Propane | Biomass | Boilers | Furnaces | Electric | Gas Vented | Outdoor | Boilers | Furnaces | Certification Laboratories | Electric | Gas Vented | Gas Vent-Free | Gelled Fuel | Infrared | Kerosene | Oil | Portable | Zone/Wall/Floor | Coal | Electric | Gas Vented | Gas Vent-Free | Gelled Fuel | Oil | Pellet | Wood,,,
"Hearth, Patio, & BBA Expo",03/03/2022,2022,https://www.hpbexpo.com/show-info/,DM,"OMNI-Test Laboratories, Inc.",2335,,http://www.omni-test.com,,,,"Portland, OR United States",United States,Certification Laboratories,,OMNI-Test Laboratories Inc,"OMNI-Test Laboratories, Inc. (OMNI) is a full-service hearth products testing, certification, and listing laboratory. Products Tested, Certified, and Listed by OMNI: Gas-Fired Heaters & Decorative Appliances; Solid Fuel-Fired Room Heaters, Furnaces, & Fireplaces; Oil-Fired Heaters, Furnaces, & Boilers; Multi-Fuel-Fired Appliance; Electric Resistance Heaters; Thermal Protection (Heat shields, wall & floor protectors, & hearth extensions); and Fireplace Accessories. OMNI's product testing programs are accredited by national and international accreditation bodies, including ANSI, SCC, IAS, and EPA. OMNI is also recognized by various other state, provincial, and city jurisdictions."
"Hearth, Patio, & BBA Expo",03/03/2022,2022,https://www.hpbexpo.com/show-info/,DM,Napoleon Products,921,,http://www.napoleonproducts.com,,,,"Barrie, ON Canada",Canada,Aprons | Brushes | Cabinets | Carts | Cookbooks | Cookware | Flavored Wood Chips | Gloves & Mitts | Griddles | Grill Covers | Lights | Replacement Parts | Rotisseries | Sideburners | Smoker Trays | Thermometers | Tools | Charcoal | Electric | Fireplace | Infrared | Natural Gas | Portable | Propane | Smokers | Furnaces | Direct-Vent Kits | Stove Pipe | Electric | Gas Vented | Pellet | Wood | Campfires | Electric | Gas Vented | Gas Vent-Free | Outdoor | Wood | Andirons | Decorative Glass & Stones | Gloves & Mitts | Remote Controls | Stove Fans | Thermostats | Electric | Gas Vented | Gas Vent-Free | Barbecue & Grill Cleaner | Brushes & Rods | Glass Cleaner | Hearth Paint | Sealants & Sealers | Silicone | Stove Paint | Fire Pits | Patio Heaters | Electric | Gas Vented | Gas Vent-Free | Pellet | Wood,,,"At Napoleon, we blend artisanship with craftsmanship to create products that are at the center of the most meaningful moments people enjoy in and around their homes. Since 1976, the Schroeter family has guided our company with a clear vision of uncompromising quality, superior technology and designer features. To ensure that every customer has the best possible experience, we partner with a network of over 4,000 independent dealers. Each dealer is equipped with the professional training and experienced technical support staff necessary to offer unparalleled customer service."
"Hearth, Patio, & BBA Expo",03/03/2022,2022,https://www.hpbexpo.com/show-info/,DM,"RLH Industries, Inc.",1135,,https://www.rlhindustriesinc.com,,,,"Gaylord, MI United States",United States,Caps & Covers | Chimney Fans | Chimney Liner | Chimney Liner Insulation | Chimneys | Clean-Out Doors | Connectors | Direct-Vent Kits | Fireplace Dampers | Flashing | Pipe Fittings | Pipe Shields | Stove Pipe | Log Racks | Smoke Guards | Brushes & Rods | Creosote & Soot Cleaner | Deck & Patio Cleaner | Deodorizers | Glass Cleaner | Masonry/Stone Cleaner | Sealants & Sealers | Silicone | Stainless Steel Cleaner | Surrounds | Trim Kits,,"INTEGRITY® Stainless Steel Venting systems, INTEGRITY® Aluminum Venting Systems, INTEGRITY® Eco-Wood® Venting System, The Homestyle® Collection of Specialty Direct Vent Terminations, The Eurostyle® Collection Specialty Direct Vent Terminations, Precision Built® Chase Covers","RLH Industries Inc. is an innovative manufacturer and industry leader in Premium Chimney and Venting Systems, Specialty Direct Vent Terminations and OEM products. Our innovations have been recognized with numerous Vesta Finalist awards and have changed how retailers and chimney professionals satisfy their customers as well as add profits to every sale."
"Hearth, Patio, & BBA Expo",03/03/2022,2022,https://www.hpbexpo.com/show-info/,DM,"Portable Kitchens, Inc.",535,,http://www.pkgrills.com,,,,"Little Rock, AR United States",United States,"Fire Lighters | Grill Covers | Spices, Sauces, & Seasonings | Thermometers | Charcoal | Smokers | Charcoal | Firestarters/ Fatwood",,"PK Grills, Fire & Smoke Society",PK Grills makes world class Grill & Smokers along with all the accessories.
"Hearth, Patio, & BBA Expo",03/03/2022,2022,https://www.hpbexpo.com/show-info/,DM,Mont Alpi Grills,635,,http://www.montalpionline.com,,,,"Lake Forest, CA United States",United States,Cabinets | Carts | Griddles | Grill Covers | Rotisseries | Sideburners | Smoker Trays | Charcoal | Electric | Hybrid Grilling System | Infrared | Natural Gas | Portable | Propane | Gas,,Mont Alpi Grills,Mont Alpi are actively seeking dealers and distributors.
"Hearth, Patio, & BBA Expo",03/03/2022,2022,https://www.hpbexpo.com/show-info/,DM,Mr. Bar-B-Q Products,1407,,http://MrBarBQProducts.com,,,,"Melville, NY United States",United States,Aprons | Brushes | Cookware | Fire Lighters | Flavored Wood Chips | Gloves & Mitts | Griddles | Grill Covers | Lights | Propane Tank Covers | Propane Tanks | Replacement Parts | Rotisseries | Side Tables/Racks | Smoker Trays | Thermometers | Tools | Charcoal | Hybrid Grilling System | Portable | Propane | Camp Cookstoves | Gas/Propane Cookstoves | Pizza Ovens | Outdoor | Firestarters/ Fatwood | Matches | Propane | Smoking Chips | Andirons | Ash Buckets | Bellows | Coal Hods | Floor Protectors | Gloves & Mitts | Grates | Grills & Registers | Log Bags | Log Baskets | Log Carriers | Log Racks | Mesh Doors | Screens | Tool Sets | Bakeware | Cookware | Kitchen Prep & Work Tables | Insect Control | Barbecue & Grill Cleaner | Brushes & Rods | Burners | Ceramic Briquettes | Controls/Valves | Cooking Grids | Gas Hose | Gas Valve Conversion Kits | Ignitors | Lava Rock | Regulators | Fire Pits | Furniture Covers | Patio Heaters | Electric | Portable,,"Mr Bar-B-Q, Endless Summer, Hershey S'mores, Armor All,  Uniflame, SkeeterVac, Blue Rhino, Fire lsland, Outdoor Accents, DualHeat","Founded in 1972, Mr. Bar-B-Q has been committed to providing consumers innovative, superior quality products at an excellent value. Most importantly, we pride ourselves in making our product line more diverse, expansive and interesting than any other brand."
"Hearth, Patio, & BBA Expo",03/03/2022,2022,https://www.hpbexpo.com/show-info/,DM,Montigo,2316,,https://www.montigo.com,,,,"Langley, BC Canada",Canada,Gas Vented | Gas Vented | Gas Vent-Free | Outdoor,,,"Innovative, handcrafted, unique to each installation."
"Hearth, Patio, & BBA Expo",03/03/2022,2022,https://www.hpbexpo.com/show-info/,DM,Patio & Hearth Products Report,1713,,http://www.patioandhearthproductsreport.com,,,,"Torrance, CA United States",United States,,,,Welcome to Patio & Hearth Products Report
"Hearth, Patio, & BBA Expo",03/03/2022,2022,https://www.hpbexpo.com/show-info/,DM,Modern Home Products,1151,,http://www.mhpgrills.com,,,,"Antioch, IL United States",United States,Brushes | Griddles | Grill Covers | Replacement Parts | Rotisseries | Sideburners | Smoker Trays | Hybrid Grilling System | Infrared | Natural Gas | Portable | Propane | Barbecue & Grill Cleaner | Barbecue & Grill Paint | Brushes & Rods | Burners | Cast Iron Grills and Smokers | Ceramic Briquettes | Ceramic Grills and Smokers | Cooking Grids | Gas Hose | Handles | Ignitors | Lava Rock | Regulators | Bartending Centers | Cabinetry | Lanterns | Lighting,,"MHP Grills—Cast aluminum grills that withstand the test of time, ProFire Grills—Professional quality grills for your backyard, Phoenix Grills—The grill that cooks it all!, Dragon Fire Grills—Breathe a little fire into your showroom, Everglow Gas Lamps & Torches—Distinctive outdoor lighting solutions,  MHP Grill Parts—Keeping America grilling one part at a time",
"Hearth, Patio, & BBA Expo",03/03/2022,2022,https://www.hpbexpo.com/show-info/,DM,MicroFridge by Danby,742,,,,,,"Foxboro, MA United States",United States,,,,
"Hearth, Patio, & BBA Expo",03/03/2022,2022,https://www.hpbexpo.com/show-info/,DM,"Metal-Fab, Inc.",1808,,https://www.metal-fabinc.com,,,,"Wichita, KS United States",United States,Caps & Covers | Chimney Liner | Chimney Liner Insulation | Chimneys | Direct-Vent Kits | Flashing | Flue Stops | Pipe Fittings | Pipe Shields | Stove Pipe,,"TEMPGUARD ALL-FUEL CHIMNEY FOR WOOD COAL OIL & GAS FIRED APPLIANCES IN 6"" TO 18"" DIAMETERS, SINGLE WALL BLACK STOVE PIPE, DOUBLE WALL BLACK STOVE PIPE, STAINLESS STEEL CHIMNEY LINERS, BIOMASS/PELLET VENT, PREMIUM BIOMASS/PELLET VENT, DIRECT VENT, AND B-VENT",THANKS FOR VISITING. PLEASE LET US KNOW HOW WE CAN ASSIST.
"Hearth, Patio, & BBA Expo",03/03/2022,2022,https://www.hpbexpo.com/show-info/,DM,Millner-Haufen Tool Co.,552,,http://www.millnertools.com,,,,"Nashville, TN United States",United States,,,Millner-Haufen Tools,Come see our tool line in booth 2013. Show specials too!
"Hearth, Patio, & BBA Expo",03/03/2022,2022,https://www.hpbexpo.com/show-info/,DM,"MF Fire, Inc.",843,,http://www.mffire.com,,,,"Baltimore, MD United States",United States,Portable | Wood | Wood | Gloves & Mitts | Glass Cleaner | Stove Cement | Stove Paint | Touch-Up Paint | Wood,,"Catalyst, Nova, Nova Tower, Nova 2, Nova 2 Tower, Nova Insert, Nova 2 Insert, Delta, MF Fire Smart Controls",Beautiful Wood Stoves for Modern Living
"Hearth, Patio, & BBA Expo",03/03/2022,2022,https://www.hpbexpo.com/show-info/,DM,Onward Manufacturing Company Ltd.,1859,,https://www.broilkingbbq.com/,,,,"Waterloo, ON Canada",Canada,"Aprons | Brushes | Cabinets | Carts | Cookbooks | Cookware | Fire Lighters | Flavored Wood Chips | Flavored Wood Pellets | Gloves & Mitts | Griddles | Grill Covers | Lights | Pads | Pellet Storage | Replacement Parts | Rotisseries | Sideburners | Smoker Trays | Spices, Sauces, & Seasonings | Thermometers | Tools | Charcoal | Natural Gas | Pellet | Portable | Propane | Smokers | Charcoal | Pellets | Smoking Chips | Barbecue & Grill Cleaner | Brushes & Rods | Stainless Steel Cleaner",,"Broil King®
Imperial™ series, Regal™ series, Baron™ series, Sovereign™ series, Signet™ series, Monarch™ series, Gem™ series, Porta-Chef™ series, Keg series, Smoke series, Broil King® grilling accessories,

GrillPro®,
Grill Care®,
Huntington™,
Sterling®,
Broil-Mate™ ,",North American built to deliver great performance every time
"Hearth, Patio, & BBA Expo",03/03/2022,2022,https://www.hpbexpo.com/show-info/,DM,MEECO Mfg./Gray Metal,1334,,http://www.meecomfg.com,,,,"Seattle, WA United States",United States,Fire Lighters | Caps & Covers | Fire Suppressant | Firestarters/ Fatwood | Gelled Fuel | Matches | Pellet Starters | Log Bags | Log Carriers | Pine Cones | Stove Fans | Thermometers | Wall Protectors | Barbecue & Grill Paint | Brushes & Rods | Creosote & Soot Cleaner | Fiber Ember Kits | Gas Log Cleaner | Gaskets | Glass Cleaner | Hearth Paint | Masonry/Stone Cleaner | Mortar | Polish | Sealants & Sealers | Silicone | Stove Cement | Stove Insulation | Stove Paint | Touch-Up Paint | Coatings,,"MEECO's Red Devil,Heatsafe,SureStart,FireEx,MEECO's Heatsafe","MEECO Manufacturing is the premier manufacturer of safety & maintenance products for the solid fuel industry. Sold under our brands - ""MEECO's Red Devil"" & ""Heatsafe""."
"Hearth, Patio, & BBA Expo",03/03/2022,2022,https://www.hpbexpo.com/show-info/,DM,Meat Head Charcoal,2245,,,,,,"Gainesville, GA United States",United States,Charcoal,,,"Meat Head Charcoal burns hot, burns clean, contains no chemicals and produces almost no ash. That means customers don’t need to replace their charcoal so frequently (either to keep the fire going or the next time they grill), and there’s no unpleasant aftertaste from added binders and starters. And clean-up is easy, because there’s very little ash residue."
"Hearth, Patio, & BBA Expo",03/03/2022,2022,https://www.hpbexpo.com/show-info/,DM,Meeting Room Suite - 2516,2516,,,,,,"Nashville, TN United States",United States,,,,Limited amount of meeting room suites available on the show floor for rental fee.  Contact Exhibits Manager Amy Jackson for further details.
"Hearth, Patio, & BBA Expo",03/03/2022,2022,https://www.hpbexpo.com/show-info/,DM,Maxitrol Company,949,,http://www.maxitrol.com,,,,"Southfield, MI United States",United States,Gas Valves | Regulators | Pressure Regulators/Valves,,,"Southfield, Michigan-based Maxitrol Company is an international leader in the design and manufacturing of gas pressure regulators, electronic gas modulation systems, gas filters, and gas safety devices. For more information, visit www.maxitrol.com and www.mertikmaxitrol.com."
"Hearth, Patio, & BBA Expo",03/03/2022,2022,https://www.hpbexpo.com/show-info/,DM,Maverick Industries Inc.,1427,,http://www.maverickthermometers.com,,,,"Edison, NJ United States",United States,Brushes | Fire Lighters | Lights | Thermometers | Tools,,"Maverick Industries Inc., Redi Chek, iChef, Maverick XR",On YouTube at: https://www.youtube.com/c/maverickthermometers
"Hearth, Patio, & BBA Expo",03/03/2022,2022,https://www.hpbexpo.com/show-info/,DM,MantelCrete,1709,,,,,,"Cincinnati, OH United States",United States,,,,
"Hearth, Patio, & BBA Expo",03/03/2022,2022,https://www.hpbexpo.com/show-info/,DM,Marbella Outdoor,664,,http://www.marbellaoutdoor.com,,,,"Atlanta, GA United States",United States,Cabinetry,,"Enduratech, Teak, Brazilian Cherry, Other wood materials suitable for outdoors",Welcome to Marbella Outdoor Kitchens. Made in America.
"Hearth, Patio, & BBA Expo",03/03/2022,2022,https://www.hpbexpo.com/show-info/,DM,Masterbuilt/Kamado Joe,835,,"http://www.masterbuilt.com, www.kamadojoe.com",,,,"Atlanta, GA United States",United States,Fire Lighters | Griddles | Grill Covers | Rotisseries | Charcoal | Smokers | Wood | Caps & Covers | Charcoal,,"Masterbuilt, Kamado Joe",
"Hearth, Patio, & BBA Expo",03/03/2022,2022,https://www.hpbexpo.com/show-info/,DM,Mason-Lite Fireplaces,1534,,http://www.mason-lite.com,,,,"Riverside, CA United States",United States,Gas Vented | Gas Vent-Free | Masonry/Modular | Wood | Fire Pits,,"Mason-lite, Toscana Pizza Ovens",Mason-lite offers modular light weight concrete fireplaces
"Hearth, Patio, & BBA Expo",03/03/2022,2022,https://www.hpbexpo.com/show-info/,DM,Memphis Wood Fire Grills,2016,,http://www.memphisgrills.com,,,,"Bloomington, MN United States",United States,Flavored Wood Pellets | Grill Covers | Replacement Parts | Tools | Pellet | Smokers | Islands/Enclosures,,"Memphis Wood Fire Grills, Memphis Grills, Beale Street","Memphis Wood Fire Grills is the premier manufacturer of wood fire pellet grills.  Our grills offer the flavor of wood fire grilling with the ease, convenience and precision of an indoor kitchen.  With temperatures ranging from 180 to 700 degrees, you can sear, smoke, roast and bake with confidence.  Available in both cart and built-in models for the perfect fit in any outdoor kitchen.  The Memphis proprietary controller provides precision and ease of use as well as a Cloud based Mobile app to view the progress of your cook from wherever you are.  Stop by and see our line of premier, award-winning grills!"
"Hearth, Patio, & BBA Expo",03/03/2022,2022,https://www.hpbexpo.com/show-info/,DM,MagraHearth,2124,,http://www.magrahearth.com,,,,"West Alllis, WI United States",United States,Hearth Pads | Facings | Hearth Components | Hearths | Mantels | Metal | Shelves & Brackets | Slate | Stone | Surrounds | Trim Kits | Wood,,"MagraHearth, Mendota",
"Hearth, Patio, & BBA Expo",03/03/2022,2022,https://www.hpbexpo.com/show-info/,DM,LOU - Powered by Evosus,650,,http://www.evosus.com/lou,,,,"Vancouver, WA United States",United States,Business Management Systems | Computer Software,,"Evosus, Evosus Mobile Service, Evosus Payroll Services, Evosus Backup & Disaster Recovery Service, Evosus Card Services, Evosus Retail Pro",Come meet LOU - new cloud-based software - built for hearth.
"Hearth, Patio, & BBA Expo",03/03/2022,2022,https://www.hpbexpo.com/show-info/,DM,Monmet Technologies,428,,http://www.monmettech.com,,,,"Montreal, QC Canada",Canada,Direct-Vent Kits | Stove Fans | Air Booster Fans | Auger Assemblies | Blower Fans | Motors | Speed Controls,,OEM equivalents,Fan Kits and Pellet Stove Parts-10% off for new customers!
"Hearth, Patio, & BBA Expo",03/03/2022,2022,https://www.hpbexpo.com/show-info/,DM,Louisville CVB,101,,http://www.gotolouisville.com,,,,"Louisville, KY United States",United States,,,,
"Hearth, Patio, & BBA Expo",03/03/2022,2022,https://www.hpbexpo.com/show-info/,DM,"Lightning Nuggets, Inc.",1524,,http://www.lightningnuggets.com,,,,"Davenport, WA United States",United States,Fire Lighters | Charcoal | Multi-Fuel Cookstoves | Pizza Ovens | Wood Cookstoves | Coal | Pellet | Wood | Campfires | Chimeneas | Pellet | Wood | Charcoal | Coal | Corn | Firestarters/ Fatwood | Matches | Pellet Starters | Pellets | Pine Cones | Scents & Oils | Campware | Giftware | Holiday Decorations | Outdoor Decorative Accessories | Fire Pits | Coal | Corn | Densified Fuel Log | Pellet | Wood,,"Lightning Nugget®, Lightnin’ Bugs®, and Lil Nugget®",Come to our booth to find our SHOW SPECIALS!
"Hearth, Patio, & BBA Expo",03/03/2022,2022,https://www.hpbexpo.com/show-info/,DM,LitUmbrella,1462,,,,,,"Charlotte, NC United States",United States,,,,
"Hearth, Patio, & BBA Expo",03/03/2022,2022,https://www.hpbexpo.com/show-info/,DM,LIPPERT,645,,http://www.lci1.com,,,,"Elkhart, IN United States",United States,Portable | Decorative Accessories | Furnishings | Refrigerators | Gazebos | Awnings/Canopies/Sunscreens | Beach Chairs | Coolers | Entertainment | Hammocks/Hanging Chairs | Refrigerators | Wood Furniture,,"Lippert, Curt, Furrion, TaylorMade, Sureshade, Aries, Uws, RanchHand, Luvurne","Lippert is a leading, global manufacturer and supplier."
"Hearth, Patio, & BBA Expo",03/03/2022,2022,https://www.hpbexpo.com/show-info/,DM,Lagoon Furniture America Corp.,1762,,https://lagoonfurniture.com/en,,,,"Miami, FL United States",United States,Furnishings | Bar Stools | Beach Chairs | Chaises | Picnic Tables/Benches | Tables | Wicker Furniture,,"LAGOON, MYTEK, TOPPY",BRING INDOOR COMFORT OUT
"Hearth, Patio, & BBA Expo",03/03/2022,2022,https://www.hpbexpo.com/show-info/,DM,Legacy Billiards,809,,,,,,"Collierville, TN United States",United States,,,,
"Hearth, Patio, & BBA Expo",03/03/2022,2022,https://www.hpbexpo.com/show-info/,DM,Mendota Hearth Products,935,,http://www.mendotahearth.com,,,,"Cedar Rapids, IA United States",United States,Gas Vented | Gas Vented,,,"Mendota Hearth Products is a leader in the gas hearth industry. Mendota manufactures the highest efficiency, luxury gas fireplace and insert line on the market. Mendota are manufactured in the USA and offer not only stylish designs, but unmatched durability."
"Hearth, Patio, & BBA Expo",03/03/2022,2022,https://www.hpbexpo.com/show-info/,DM,Magma Products,1665,,http://www.magmaproducts.com,,,,"Lakewood, CA United States",United States,,,,
"Hearth, Patio, & BBA Expo",03/03/2022,2022,https://www.hpbexpo.com/show-info/,DM,Koda Sports,517,,http://www.playkodasports.com,,,,"St. Augustine, FL United States",United States,Billiard Accessories | Billiard Balls | Billiard Cues | Other Game Tables | Table Tennis Tables,,"Manufactured brands include Bull Carbon, Bull Sport, Koda, Tight Shot, and Xcel. Distributed brands include Aramith, Cuetec, Championship, Dynasphere, Jacoby, Kamui, McDermott, Meucci, Pechauer, Shot Darts, and Taom.","KODA Sports is a leading manufacturer and distributor of home gameroom products. We are a family-owned business with over 50 years of combined experience specializing in high quality pool cues, billiard accessories, darting, and table tennis.  Our tailored accessory programs, same day shipping, industry leading warranties, risk-free buying & price match guarantees equal best in class products, service and pricing. Visit us at Booth 517 or www.playkodasports.com."
"Hearth, Patio, & BBA Expo",03/03/2022,2022,https://www.hpbexpo.com/show-info/,DM,Le Griddle,2150,,http://www.legriddle.com,,,,"Montauban, France",France,Carts | Griddles | Grill Covers | Tools | Electric | Natural Gas | Propane,,LE GRIDDLE,THE BEST OUTDOOR GRILL ISN'T A GRILL AT ALL !
"Hearth, Patio, & BBA Expo",03/03/2022,2022,https://www.hpbexpo.com/show-info/,DM,Jealous Devil,651,,http://www.jealousdevil.com,,,,"Hermosa Beach, CA United States",United States,"Spices, Sauces, & Seasonings | Charcoal | Manufactured Logs | Pellets",,Jealous Devil,Legendary All-Natural BBQ Fuels and Flavors.
"Hearth, Patio, & BBA Expo",03/03/2022,2022,https://www.hpbexpo.com/show-info/,DM,Infratech,1327,,http://www.infratech-usa.com,,,,"Gardena, CA United States",United States,Patio Heaters | Electric | Infrared,,"Infratech Electric Radiant Heaters,",Visit Infratech at booth 2028 to get comfortable.
"Hearth, Patio, & BBA Expo",03/03/2022,2022,https://www.hpbexpo.com/show-info/,DM,KW-USA,1410,,http://www.KW-USA.com,,,,"Fort Worth, TX United States",United States,Barometric Dampers | Chimney Fans | Draft Inducers | Electronic Dampers | Fireplace Dampers | Flue Stops | Stove Pipe Dampers | Stove Fans | Carbon Monoxide Detectors | Air Booster Fans | Blower Fans,,"KW-USA, RM Manifold Group",Your source for high-temp chimney fans and accessories!
"Hearth, Patio, & BBA Expo",03/03/2022,2022,https://www.hpbexpo.com/show-info/,DM,Kozy Heat Fireplaces,1823,,http://www.kozyheat.com,,,,"Lakefield, MN United States",United States,Electric | Gas Vented | Wood,,,"We offer a complete line of gas & wood fireplaces and stylish accessories to complement any decor. We pride ourselves in being dedicated to not only function and reliability, but customer safety as well. We are a privately-held, family-owned business for over 44 years. We will continue to uphold our fireplace’s reputation of quality and value and we are proud to put our family name, Hussong Manufacturing, on every product we sell."
"Hearth, Patio, & BBA Expo",03/03/2022,2022,https://www.hpbexpo.com/show-info/,DM,Imperial Manufacturing Group,1758,,http://www.imperialgroup.ca,,,,"Alton, IL United States",United States,Barometric Dampers | Caps & Covers | Connectors | Flashing | Flue Stops | Pipe Fittings | Pipe Shields | Stove Pipe | Stove Pipe Dampers | Firestarters/ Fatwood | Ash Buckets | Coal Hods | Floor Protectors | Gas Log Lighters | Gloves & Mitts | Grills & Registers | Hearth Pads | Log Lighters | Stove Fans | Thermometers | Wall Protectors | Barbecue & Grill Cleaner | Barbecue & Grill Paint | Brushes & Rods | Creosote & Soot Cleaner | Gas Keys | Gas Log Cleaner | Gaskets | Glass Cleaner | Hearth Paint | Masonry/Stone Cleaner | Metal Cleaner | Mortar | Polish | Sealants & Sealers | Silicone | Stove Cement | Stove Paint | Touch-Up Paint | Fire Brick | Screws,,"Imperial, Kel Kem, Kool Ray, Lasting Traditions, Signature Series","Since 1979, the Imperial Manufacturing Group of companies has strived to supply their customers with the highest quality of products and services. Imperial offers a complete assortment of Stove & Fireplace safety and maintenance products that enables everyone from the do-it-yourself homeowner to the professional chimney sweep to properly clean, repair, restore and maintain their stoves and fireplaces."
"Hearth, Patio, & BBA Expo",03/03/2022,2022,https://www.hpbexpo.com/show-info/,DM,IGS Industries Inc.,1844,,http://www.igsind.com,,,,"Meadow Lands, PA United States",United States,Sealants & Sealers | Silicone,,Mill Pac Black,"IGS Industries Inc. is a manufacturer of High Temperature Sealants, as well as custom metal and gasket fabrication.  We are the manufacturer of Mill Pac Black, a form in place high temperature gasket material designed for use in all types of wood and gas fireplaces, stoves, and pellet stoves."
"Hearth, Patio, & BBA Expo",03/03/2022,2022,https://www.hpbexpo.com/show-info/,DM,Innova Heating Co.,1235,,http://www.innovaheatingco.com,,,,"Richmond Hill, ON Canada",Canada,Patio Heaters | Electric | Infrared | Zone/Wall/Floor,,,Where comfort & style meet outdoor living.
"Hearth, Patio, & BBA Expo",03/03/2022,2022,https://www.hpbexpo.com/show-info/,DM,Imagitronix,553,,,,,,"Saint Augustine, FL United States",United States,,,,
"Hearth, Patio, & BBA Expo",03/03/2022,2022,https://www.hpbexpo.com/show-info/,DM,I.C.E. Signs,2337,,http://www.icesigns.com,,,,"Seabrook, NH United States",United States,,,,I.C.E. is one of the nation’s leading suppliers of Electronic Message Centers (scrolling signs.) We mass produce 18 sizes to deliver the highest quality at the lowest possible price. Certified BBB member we pride ourselves on 100% customer satisfaction. Get noticed and increase sales with a high visibility Message Center!
"Hearth, Patio, & BBA Expo",03/03/2022,2022,https://www.hpbexpo.com/show-info/,DM,"HY-C Company, LLC",1406,,https://www.hy-c.com,,,,"St. Louis, MO United States",United States,Pellet | Portable | Furnaces | Caps & Covers | Chimney Fans | Chimney Liner | Chimney Liner Insulation | Chimneys | Clean-Out Doors | Direct-Vent Kits | Draft Inducers | Flashing | Flue Stops | Heat Reclaimers | Pellets | Firebacks | Floor Protectors | Grates | Hearth Pads | Heat Exchangers | Hoods | Log Bags | Log Carriers | Log Racks | Smoke Guards | Steamers | Tool Sets | Wall Protectors | Brushes & Rods | Creosote & Soot Cleaner | Gaskets | Masonry/Stone Cleaner | Sponges | Fire Brick | Furnaces | Fire Pits | Torches,,"Fire Chief, Draft King, Shelter, Shelter Pro, Flame Genie, HY-GUARD EXCLUSION, Gardus, LintEater, SootEater, Liberty Foundry, Magic Heat",The HY-C Company warmly welcomes you to HPBExpo 2022!
"Hearth, Patio, & BBA Expo",03/03/2022,2022,https://www.hpbexpo.com/show-info/,DM,La Plancha,1323,,http://www.plancha-eno.com,,,,"Port Coquitlam, BC Canada",Canada,Carts | Cookbooks | Griddles | Tools | Electric | Natural Gas | Portable | Propane,,"La Plancha, ENO, Force 10",Manufacture of high Quality Enamelled Cast Iron Plancha's and innovative Outdoor Kitchens.
"Hearth, Patio, & BBA Expo",03/03/2022,2022,https://www.hpbexpo.com/show-info/,DM,HPC Fire Inspired,1845,,http://www.hpcfire.com,,,,"Miamisburg, OH United States",United States,Gas Log Lighters | Fiber Ember Kits | Gas Keys | Gas Valve Flanges | Gas Valves | Gas Hose | Gas Valve Conversion Kits | Ignitors | Lava Rock | Regulators | Ceramic Fiber Logs | Flexible Gas Piping | Gas Connectors | ODS Pilots | Pilot Assemblies | Thermocouples | Thermopiles | Fire Pits | Islands/Enclosures,,,"Over 40 years, our fire pit technology has led the industry."
"Hearth, Patio, & BBA Expo",03/03/2022,2022,https://www.hpbexpo.com/show-info/,DM,Imperial International,709,,,,,,"Carlstadt, NJ United States",United States,Air Hockey Tables | Billiard Accessories | Billiard Balls | Billiard Cues | Foosball Tables | Other Game Tables | Pool Tables | Shuffleboard Tables | Table Tennis Tables | Log Carriers | Screens | Tool Sets | Adirondack Chairs | Bar Stools | Director's Chairs | Picnic Tables/Benches | Tables,,N/A - previously used for printed materials,Your one-stop shop for all billiard & game room essentials!
"Hearth, Patio, & BBA Expo",03/03/2022,2022,https://www.hpbexpo.com/show-info/,DM,"Outdoor GreatRoom Company, The",447,,http://www.outdoorrooms.com,,,,"Lakeville, MN United States",United States,Electric | Gas Vented | Electric | Gas Vented | Outdoor | Gas Vented | Gas Burners | Aluminum (Cast) Furniture | Bar Stools | Fire Pits | Islands/Enclosures | Fireplace Cabinets | Mantels,,"Outdoor GreatRoom Company, Crystal Fire Plus Burners",Let us help redefine your outdoor living spaces.
"Hearth, Patio, & BBA Expo",03/03/2022,2022,https://www.hpbexpo.com/show-info/,DM,HPBA/HPB Education/NFI Member Benefits & Services,1343,,http://www.hpba.org/membership,,,,"Arlington, VA United States",United States,Associations,,"HPBA, Hearth Patio & Barbecue Association",Learn more at http://www.hpba.org!
"Hearth, Patio, & BBA Expo",03/03/2022,2022,https://www.hpbexpo.com/show-info/,DM,Hearthstone,1809,,http://www.hearthstonestoves.com,,,,"Morrisville, VT United States",United States,Aprons | Carts | Gloves & Mitts | Griddles | Grill Covers | Replacement Parts | Tools | Propane | Wood | Pizza Ovens | Wood Cookstoves | Wood | Oil | Outdoor | Wood | Gloves & Mitts | Hearth Pads | Steamers | Fire Pits | Gas Vented | Oil | Wood,,"HearthStone, HearthStone OUTDOOR, Hase, Nestor Martin",HearthStone: Leaders in Wood Burning Technology
"Hearth, Patio, & BBA Expo",03/03/2022,2022,https://www.hpbexpo.com/show-info/,DM,Human Touch,1360,,http://www.humantouch.com,,,,"Long Beach, CA United States",United States,Furnishings,,"Novo XT Massage Chair, Zero Gravity Massage Chair, iJoy, Perfect Chair",Helping people feel better for over 40 years
"Hearth, Patio, & BBA Expo",03/03/2022,2022,https://www.hpbexpo.com/show-info/,DM,Hargrove,959,,http://www.hargrovegaslogs.com,,,,"Sand Springs, OK United States",United States,Grates | Gas Vented | Gas Vent-Free | Ceramic Fiber Logs | Refractory Panels,,"Woodland Timbers, Rustic Timbers, Cross Timbers, Canyon Timbers, Aspen Timbers, Grand Oak, Western Pine, Classic Oak, Hargrove Select, Inferno Series, Magnificent Inferno, Blazing Pecan, Twilight Inferno, Supreme Ponderosa, Mountain Timber, Kodiak Char, Frontier Blaze, Cozy Fire, Yukon Char, Heritage Char, Cumberland Char, Charleston Glow, Highland Glow, Element Series, Olde World Basket, Weathered Oak",Let Hargrove exceed all your gas log needs!
"Hearth, Patio, & BBA Expo",03/03/2022,2022,https://www.hpbexpo.com/show-info/,DM,House of BBQ Experts (TM),1842,,http://www.bbq-experts.com,,,,"Longueuil, QC Canada",Canada,"Aprons | Brushes | Cookbooks | Cookware | Fire Lighters | Flavored Wood Chips | Flavored Wood Pellets | Gloves & Mitts | Griddles | Grill Covers | Pellet Storage | Replacement Parts | Rotisseries | Sideburners | Smoker Trays | Spices, Sauces, & Seasonings | Thermometers | Tools | Charcoal | Pellet | Propane | Smokers | Camp Cookstoves | Pizza Ovens | Charcoal | Firestarters/ Fatwood | Pellet Starters | Pellets | Smoking Chips | Ash Buckets",,"House of BBQ Experts, All-In-1",
"Hearth, Patio, & BBA Expo",03/03/2022,2022,https://www.hpbexpo.com/show-info/,DM,HPBExpo 2023 Priority Booth Sales Lounge & Housing Reservations,2445,,,,,,"Arlington, VA United States",United States,,,,Book Exhibit Space and Housing for 2023!
"Hearth, Patio, & BBA Expo",03/03/2022,2022,https://www.hpbexpo.com/show-info/,DM,Green Mountain Grills,1351,,http://www.greenmountaingrills.com,,,,"Scottsdale, AZ United States",United States,"Cookware | Flavored Wood Pellets | Grill Covers | Pellet Storage | Smoker Trays | Spices, Sauces, & Seasonings | Thermometers | Gloves & Mitts | Griddles | Chimneys | Electric Cookstoves | Gas/Propane Cookstoves | Pizza Ovens | Wood Cookstoves | Pellet | Wood | Outdoor | Pellet | Wood | Pellets | Propane | Smoking Chips | Gloves & Mitts | Grates | Grills & Registers | Pellet Baskets | Thermometers | Campware | Ceramic Grills and Smokers | Auger Assemblies | Speed Controls | Pellet | Wood | Propane | Smokers | Charcoal | Cookers | Pellet | Portable | Wood",,Green Mountain Grills,Welcome to Green Mountain Pellet Grills.
"Hearth, Patio, & BBA Expo",03/03/2022,2022,https://www.hpbexpo.com/show-info/,DM,GrillGrate LLC,659,,http://www.grillgrate.com,,,,"Cartersville, GA United States",United States,,,,"GrillGrate LLC was founded in 2007 by Brad Barrett of Cartersville, GA. Frustrated by burning, under- cooking, over-cooking and general stress at the grill, he recognized an opportunity. The cooking grate has never been a point of innovation. It's job was just to hold the food and not rust. And they don't do that very well. Traditional grill surfaces have not been additive to the cook- until now. The patented raised rail design over a bottom with holes in it delivers a healthier, more controlled grilling experience with mouthwatering results."
"Hearth, Patio, & BBA Expo",03/03/2022,2022,https://www.hpbexpo.com/show-info/,DM,Grill Rescue,740,,http://grillrescue.com,,,,"Boca Raton, FL United States",United States,,,,
"Hearth, Patio, & BBA Expo",03/03/2022,2022,https://www.hpbexpo.com/show-info/,DM,ICC-RSF,1622,,http://www.icc-rsf.com,,,,"St. Jerome, QC Canada",Canada,Charcoal | Fireplace | Biomass | Caps & Covers | Chimney Liner | Chimneys | Direct-Vent Kits | Flashing | Flue Stops | Pipe Fittings | Stove Pipe | Stove Pipe Dampers | Wood | Glass Doors | Screens | Thermostats | Fire Pits,,"EXCEL, UltraBlack, EXCELPrime, EXCELiner, EXCELPellet, EXCELDirect, RSF Delta Fusion, RSF Opel Catalytic, RSF Opel Keystone, RSF Pearl, RSF Focus 250, RSF Focus 320, RSF Focus ST, Renaissance Linear 50, Renaissance Linear Split Pane, Renaissance Rumford 1000, Renaissance Rumford 1500, Le BOL Grill","For more than 25 years, ICC has recognized specialty hearth dealers as essential partners in delivering our wide variety of venting & fireplace products to delight generations of fire lovers. We manufacture market leading residential and industrial venting solutions for safe, efficient installations while using fewer parts than other brands. For clients wanting the aesthetic appeal of a fireplace with the heating performance of a high-efficiency wood stove, RSF Wood Burning Fireplaces has you covered. A luxury Renaissance Fireplace recreates positive feelings customers have with a conventional wood-burning fireplace, without drawbacks like inefficiency or smoke in the home. Le BOL Grill is a MUST-SEE!"
"Hearth, Patio, & BBA Expo",03/03/2022,2022,https://www.hpbexpo.com/show-info/,DM,Freeman Exhibitor Service Desk,152,,,,,,"Arlington, VA United States",United States,,,,
"Hearth, Patio, & BBA Expo",03/03/2022,2022,https://www.hpbexpo.com/show-info/,DM,Gather Grills,441,,http://www.gathergrills.com,,,,"Ellaville, GA United States",United States,Charcoal | Smokers | Fire Pits | Picnic Tables/Benches,,Gather Grills,"Come see our 5-in-1 grill, griddle, smoker, firepit, table"
"Hearth, Patio, & BBA Expo",03/03/2022,2022,https://www.hpbexpo.com/show-info/,DM,Good Marketing Group,2051,,https://goodmarketinggroup.com/,,,,"Pottstown, PA United States",United States,Consultants | Marketing,,,Want GREAT Marketing? Get GOOD Advice!
"Hearth, Patio, & BBA Expo",03/03/2022,2022,https://www.hpbexpo.com/show-info/,DM,HPBExpo 2023 Priority Booth Sales Office,2441,,,,,,"Arlington, VA United States",United States,Associations,,,Sign up early for HPBExpo 2023 exhibit space!
"Hearth, Patio, & BBA Expo",03/03/2022,2022,https://www.hpbexpo.com/show-info/,DM,Grill Greats / Div. of Du-Co Ceramics,1358,,http://www.du-co.com,,,,"Saxonburg, PA United States",United States,Replacement Parts | Natural Gas | Portable | Bakeware | Ceramic Briquettes | Ignitors | Ceramic Glass | Thermocouples | Ceramic,,"Grill Greats, Heat Sheet Baking Pizza Stone",Technical Ceramic Manufacturer of custom ceramic briquettes and ceramic tubes enhance the efficiency of your barbecue grill.  Ceramic components evenly radiate heat over the entire cooking surface eliminating cold spots and reducing flare ups.  Heat Sheet Pizza Stone out performs the competition for that brick oven flavor.  Custom design ceramic tube and briquette capabilities are available.  All products proudly manufactured in the U.S.A.
"Hearth, Patio, & BBA Expo",03/03/2022,2022,https://www.hpbexpo.com/show-info/,DM,Forshaw,1335,,http://www.exterusoutdoor.com,,,,"St. Louis, MO United States",United States,"Brushes | Cabinets | Fire Lighters | Gloves & Mitts | Grill Covers | Rotisseries | Side Tables/Racks | Sideburners | Spices, Sauces, & Seasonings | Charcoal | Fireplace | Natural Gas | Propane | Smokers | Caps & Covers | Flashing | Gas Vented | Gas Vent-Free | Charcoal | Firestarters/ Fatwood | Andirons | Ash Buckets | Ash Removal Vacuums | Bellows | Candle Holders | Coal Hods | Decorative Glass & Stones | Fenders | Firebacks | Fireplace Screen Blanket | Floor Protectors | Gas Log Lighters | Gloves & Mitts | Grates | Grills & Registers | Hearth Pads | Heat Exchangers | Hoods | Log Bags | Log Baskets | Log Carriers | Log Lighters | Log Racks | Screens | Steamers | Stove Handles | Tool Sets | Wall Protectors | Gas Vented | Gas Vent-Free | Brushes & Rods | Gas Valves | Burners | Ignitors | Lava Rock | Gas Burners | Adirondack Chairs | Aluminum (Cast) Furniture | Aluminum (Wrought) Furniture | Furniture Covers | Iron Furniture | Tables | Wood Furniture | Facings | Fireplace Cabinets | Granite | Mantels | Marble | Shelves & Brackets | Slate | Stone | Surrounds | Wood",,"Dagan  Forshaw Mantels Exterus , Readybuit Mantels  Higold","Manufacturer of Modular, Ready-to-Finish Outdoor Kitchens & FirePits. We offer a easy turnkey system to create your kitchen. Buy your grill, appliances, granite counter top and stone veneer & tile all from us. Create virtually any outdoor kitchen design from our website. AOG, FireMagic, Primo, Summerset, True."
"Hearth, Patio, & BBA Expo",03/03/2022,2022,https://www.hpbexpo.com/show-info/,DM,FORREST Technical Coatings,1824,,http://www.forrestpaint.com,,,,"Eugene, OR United States",United States,Gelled Fuel | Thermometers | Barbecue & Grill Paint | Gas Log Cleaner | Gasket Cleaner | Gaskets | Glass Cleaner | Hearth Paint | Masonry/Stone Cleaner | Metal Cleaner | Sealants & Sealers | Stove Cement | Stove Paint | Touch-Up Paint | Coatings | Coatings,,"Stove Bright, FORREST Technical Coatings, FTC",Welcome to Stove Bright - High Temp paint and powder coating
"Hearth, Patio, & BBA Expo",03/03/2022,2022,https://www.hpbexpo.com/show-info/,DM,FOGO Charcoal,753,,http://www.fogocharcoal.com,,,,"Hialeah, FL United States",United States,"Aprons | Fire Lighters | Spices, Sauces, & Seasonings | Charcoal | Charcoal | Firestarters/ Fatwood",,"FOGO Charcoal, FOGO","Nice to meet you, please visit us outside at booth #4139"
"Hearth, Patio, & BBA Expo",03/03/2022,2022,https://www.hpbexpo.com/show-info/,DM,Flame-tec,851,,http://www.flame-tec.com,,,,"Hendersonville, NC United States",United States,Thermometers | Remote Controls | Thermostats | Controls/Valves | Gas Valve Conversion Kits | Ignitors | Gas Burners | Gas Connectors | Gas Train Assemblies | Pilot Assemblies | Speed Controls,,"Flame-tec, Firebug, Weather Beater, WeatherSmart, CPC,Sky Blue, Firetik,","Flame-tec is the industries premier supplier of controls and electronics. Innovative remote controls, bluetooth and wifi solutions for indoor and outdoor products. Unique technology allows Flame-tec to control multiple appliances from different manufacturers with one simple app. Use your smart phone, tablet or Alexa to control your favorite fire features, bbq grills, lighting and more!"
"Hearth, Patio, & BBA Expo",03/03/2022,2022,https://www.hpbexpo.com/show-info/,DM,FireBoard Labs,1340,,http://www.fireboard.com,,,,"Kansas City, MO United States",United States,Thermometers | Tools | Pellet,,"FireBoard, FireBoard Drive","FireBoard Labs creates, designs and manufactures industry leading cloud connected technology.  It's flagship product, the FireBoard Cloud Connected Smart Thermometer allows remote monitoring and data logging across multiple channels.  Manufactured in Kansas City, the FireBoard provides a great solution for professional chefs, pitmasters, restaurant managers and barbecue enthusiasts worldwide."
"Hearth, Patio, & BBA Expo",03/03/2022,2022,https://www.hpbexpo.com/show-info/,DM,Great Scrape - The Ultimate BBQ Cleaning Tool,2434,,http://www.greatscrape.com,,,,"Oakdale, MN United States",United States,Brushes | Tools | Barbecue & Grill Cleaner | Brushes & Rods,,Great Scrape,Great Scrape - The Ultimate BBQ Cleaning Tool
"Hearth, Patio, & BBA Expo",03/03/2022,2022,https://www.hpbexpo.com/show-info/,DM,Fire One Sales Up Inc.,2318,,http://www.FireOneUp.com,,,,"Belle River, ON Canada",Canada,Pizza Ovens,,PINNACOLO,We look forward to introducing you the PINNACOLO line.
"Hearth, Patio, & BBA Expo",03/03/2022,2022,https://www.hpbexpo.com/show-info/,DM,Farenheit by Epsilon,1424,,http://www.epsilonelectronicsinc.com,,,,"Montebello, CA United States",United States,,,,
"Hearth, Patio, & BBA Expo",03/03/2022,2022,https://www.hpbexpo.com/show-info/,DM,Exhibitor Services - Approved Vendors,132,,,,,,"Arlington, VA United States",United States,,,,
"Hearth, Patio, & BBA Expo",03/03/2022,2022,https://www.hpbexpo.com/show-info/,DM,Flame King,1616,,http://www.flameking.com,,,,"Pico Rivera, CA United States",United States,Propane Tanks | Tools,,,"Whether you need to eat, power or grill, Flame King specializes in making propane tanks and cylinders used daily across the globe. Flame King's steel portable propane cylinders come in various sizes ranging from 1 lb. to 120 gal. for recreational, commercial, industrial and home applications. Each propane tank and cylinder meets or exceeds industry regulations for quality and is manufactured in facilities that follow proactive safety practices and regulations."
"Hearth, Patio, & BBA Expo",03/03/2022,2022,https://www.hpbexpo.com/show-info/,DM,EPA Burn Wise Education Program,1458,,http://www.epa.gov/burnwise,,,,"Durham, NC United States",United States,Pellet | Wood | Chimeneas | Pellet | Wood | Biomass | Coal | Corn | Coal | Gas Vented | Gas Vent-Free | Pellet | Wood,,"Free Burn Wise educational materials, Does Your Old Stove Have a Dirty Little Secret brochure and poster,  Wet Wood is  A Waste - Spit, Stack, Cover & Store brochure,  Build a Firewood Storage Shed - 2 page flyer, Learn Before You Burn poster and tear sheet, Test Your Wood with a Wood Moisture Meter - 1 page flyer, Burn Wise Tip Sheet and more.","Retailers/Sweeps, come get your FREE educational materials!"
"Hearth, Patio, & BBA Expo",03/03/2022,2022,https://www.hpbexpo.com/show-info/,DM,Empire Comfort Systems Inc.,1835,,http://www.empirecomfort.com,,,,"Belleville, IL United States",United States,Griddles | Grill Covers | Rotisseries | Side Tables/Racks | Sideburners | Smoker Trays | Charcoal | Cookers | Fireplace | Infrared | Natural Gas | Propane | Smokers | Gas Vented | Gas Vent-Free | Gas Vented | Gas Vent-Free | Outdoor | Andirons | Decorative Glass & Stones | Log Racks | Remote Controls | Gas Vented | Gas Vent-Free | Blower Fans | Ceramic Fiber Logs | Ceramic Glass | Fire Brick | Fire Pits | Gas Vented | Gas Vent-Free | Gas Vented | Gas Vent-Free | Wood | Surrounds | Trim Kits,,"White Mountain Hearth, American Hearth, Empire Stove, Plaza, Broilmaster Premium Grills, Primo Grills, Empire Heating Systems","Empire Comfort Systems has manufacturered White Mountain Hearth and American Hearth Fireplaces along with Broilmaster Premium Grills and Heaters for many years. Recently, Empire has expanded by adding Empire Stove, Plaza, and Primo. Empire Stove is a line a wood burning fireplaces and was launched in 2019. Primo Grills was acquired by Empire in late 2019 and produces ceramic grills. Plaza, which will launch in 2020, will be a line of luxury fireplaces."
"Hearth, Patio, & BBA Expo",03/03/2022,2022,https://www.hpbexpo.com/show-info/,DM,Flame Boss,850,,http://www.flameboss.com,,,,"Orlando, FL United States",United States,Thermometers | Charcoal | Smokers | Adapters/Fittings | Ceramic Grills and Smokers,,Flame Boss®,Cruise Control for Your Grill or Smoker
"Hearth, Patio, & BBA Expo",03/03/2022,2022,https://www.hpbexpo.com/show-info/,DM,DuraVent,1207,,http://www.duravent.com,,,,"Detroit, MI United States",United States,Chimney Liner | Direct-Vent Kits | Flashing | Stove Pipe | Stove Pipe Dampers,,"DuraTech, DuraTech Canada, DuraPlus, DuraPlus HTC, DuraChimney II, DVL, DuraBlack, PelletVent Pro, DuraLiner, Ventinox, Ventinox Rigid, DuraFlex (Stainless Steel & Aluminum), CVS, DirectVent Pro, Type B Gas Vent, FasNSeal, PolyPro.","is the recognized technological leader in the venting industry earned by consistent best-in-class design and manufacturing capabilities, world-class distribution networks and a focus on customer-first service and support throughout our over 60-year history.  Consistently first to market with new innovations, DuraVent is committed to providing safe and technologically advanced venting.  Along with our corporate headquarters located in Detroit, MI, DuraVent operates three manufacturing facilities along with two R&D laboratories."
"Hearth, Patio, & BBA Expo",03/03/2022,2022,https://www.hpbexpo.com/show-info/,DM,Drip EZ,1661,,http://www.bbqdripez.com,,,,"Louisville, CO United States",United States,Lights | Tools | Pellet | Smokers,,,Welcome to Drip EZ!
"Hearth, Patio, & BBA Expo",03/03/2022,2022,https://www.hpbexpo.com/show-info/,DM,DiversiTech Corporation,1422,,,,,,"Duluth, GA United States",United States,,,,"The Ultimate Outdoor Surface Protection. The most comprehensive line of Outdoor Surface Protection product available. For nearly 2 decades, DiversiTech has led the market in quality and innovation in protecting outdoor surfaces around the world. Protection for decks, patios, garages, and storage areas."
"Hearth, Patio, & BBA Expo",03/03/2022,2022,https://www.hpbexpo.com/show-info/,DM,Golden Blount,1817,,http://www.goldenblountinc.com,,,,"Addison, TX United States",United States,Natural Gas | Propane | Gas Vented | Glass Doors | Gas Vented | Gas Vent-Free | Fire Pits,,,
"Hearth, Patio, & BBA Expo",03/03/2022,2022,https://www.hpbexpo.com/show-info/,DM,Dexen Industries,1234,,http://www.dexen.com,,,,"Santa Fe Springs, CA United States",United States,Replacement Parts | Fireplace | Natural Gas | Propane | Furnaces | Pizza Ovens | Gas Vented | Gas Vent-Free | Gas Vented | Gas Vent-Free | Gas Vented | Gas Vent-Free | Gas Valves | Controls/Valves | Gas Hose | Gas Valve Conversion Kits | Ignitors | Regulators | Gas Burners | Gas Train Assemblies | Pilot Assemblies | Pressure Regulators/Valves | Furnaces | Fire Pits | Lanterns | Lighting | Patio Heaters | Torches | Gas Vented | Gas Vent-Free | Gas Vented | Gas Vent-Free,,DEXEN,"Welcome to Dexen Industries, Inc. at the HPBExpo 2018"
"Hearth, Patio, & BBA Expo",03/03/2022,2022,https://www.hpbexpo.com/show-info/,DM,Dielle SPA,1450,,,,,,"Cisterna Di Latina, Latina Italy",Italy,,,,
"Hearth, Patio, & BBA Expo",03/03/2022,2022,https://www.hpbexpo.com/show-info/,DM,Goldens' Cast Iron,1326,,http://www.goldenscastiron.com,,,,"Columbus, GA United States",United States,"Carts | Gloves & Mitts | Griddles | Grill Covers | Spices, Sauces, & Seasonings | Charcoal | Cookers | Portable | Smokers | Wood | Outdoor | Wood | Charcoal | Fountains | Outdoor Decorative Accessories | Planters | Cast Iron Grills and Smokers | Cooking Grids | Entertainment | Fire Pits",,,Welcome to the Iron Age! Goldens' Cast Iron Made in the USA!
"Hearth, Patio, & BBA Expo",03/03/2022,2022,https://www.hpbexpo.com/show-info/,DM,DeliVita Catering Ltd.,1245,,https://www.delivita.co.uk,,,,"Huddershield, West Yorkshire United Kingdom",United Kingdom,Aprons | Brushes | Cookbooks | Cookware | Gloves & Mitts | Griddles | Grill Covers | Side Tables/Racks | Thermometers | Tools | Cookers | Portable | Wood | Pizza Ovens | Giftware,,"DeliVita Wood Fired Oven, DeliVita Foldaway Stand, DeliVita Living Lamps/Cooler/Speaker, DeliVita Oven Door, DeliVita Leather Gloves, DeliVita Leather Apron, DeliVita Accessories, 'FIRED' Wood Fired Cook Book.",DeliVita award-winning handmade wood-fired ovens
"Hearth, Patio, & BBA Expo",03/03/2022,2022,https://www.hpbexpo.com/show-info/,DM,Dante Products by Hearth Components,2258,,http://www.danteproducts.com,,,,"Hudson, OH United States",United States,Pipe Fittings | Gas Log Lighters | Log Lighters | Gas Keys | Gas Valve Flanges | Gas Valves | Controls/Valves | Gas Hose | Handles | Hinges/Hardware | Flexible Gas Piping | Gas Connectors | Pressure Regulators/Valves | Fire Pits | Hearth Components,,"Dante, gas valves, floor plates, fireplace keys, log lighters, Keys",Leaders in hearth and fireplace components.
"Hearth, Patio, & BBA Expo",03/03/2022,2022,https://www.hpbexpo.com/show-info/,DM,Dansons,1249,,http://www.dansons.com,,,,"Phoenix, AZ United States",United States,"Aprons | Fire Lighters | Flavored Wood Pellets | Grill Covers | Replacement Parts | Side Tables/Racks | Spices, Sauces, & Seasonings | Tools | Charcoal | Electric | Pellet | Portable | Smokers | Charcoal | Pellets",,"LOUISIANA GRILLS, PIT BOSS GRILLS","World class wood pellet, charcoal and gas grills!"
"Hearth, Patio, & BBA Expo",03/03/2022,2022,https://www.hpbexpo.com/show-info/,DM,CSPS CO LTD,2234,,http://www.csps.tw,,,,"DouLiou City, Yun Lin County, Taiwan",Taiwan,Cookware | Grill Covers | Propane | Smokers,,CSPS,Please come see CSPS Top Quality grills at booth 3319.
"Hearth, Patio, & BBA Expo",03/03/2022,2022,https://www.hpbexpo.com/show-info/,DM,"Escalera, Inc.",1716,,http://www.escalera.com,,,,"Yuba City, CA United States",United States,,,Escalera StairCat,"Manufacturers of the world's finest stair climbing hand trucks and forklifts. With an Escalera StairCat®, you can load delivery vehicles, stack stoves in the warehouse, install inserts in the hearth, and climb steps with power! Roll across rough terrain with the Big Wheel Attachment and raise loads 54"" high."
"Hearth, Patio, & BBA Expo",03/03/2022,2022,https://www.hpbexpo.com/show-info/,DM,Dynaspheres Balls,421,,,,,,"Bensenville, IL United States",United States,,,"Platinum, Rhodium, Palladium, Silver, Gold, Bronze, Tungsten,",Welcome to Dynaspheres Next Gen Balls!
"Hearth, Patio, & BBA Expo",03/03/2022,2022,https://www.hpbexpo.com/show-info/,DM,Copperfield Chimney Supply,2223,,http://www.copperfield.com,,,,"Scranton, PA United States",United States,Barometric Dampers | Caps & Covers | Chimney Fans | Chimney Liner | Chimney Liner Insulation | Chimneys | Clean-Out Doors | Connectors | Direct-Vent Kits | Draft Inducers | Electronic Dampers | Fire Suppressant | Fireplace Dampers | Flashing | Flue Stops | Pipe Fittings | Pipe Shields | Stove Pipe | Stove Pipe Dampers | Gas Vented | Gas Vent-Free | Wood | Gas Vented | Gas Vent-Free | Wood | Ash Removal Vacuums | Firebacks | Floor Protectors | Hearth Pads | Remote Controls | Screens | Smoke Guards | Thermometers | Tool Sets | Gas Vented | Gas Vent-Free | Brushes & Rods | Creosote & Soot Cleaner | Fiber Ember Kits | Hearth Paint | Masonry/Stone Cleaner | Metal Cleaner | Sealants & Sealers | Silicone | Stove Cement | Stove Insulation | Stove Paint | Stove Parts | Surrounds & Facings Paint | Touch-Up Paint | Refractory Panels | Associations | Marketing | Wood | Facings | Surrounds | Trim Kits,,"HomeSaver®, UltraPro™, Forever Flex™, Premium Forever Flex™, Hybrid, Rhino Rigid™, Ventis® Class-A, Ventis® Air-Cooled, Ventis® Direct Vent, Ventis® Pellet Vent, Ventis® Single and Double Wall Black Stove Pipe, Ventis® Zero Clearance Wood Fireplaces, Ventis® Wood Fireplace Inserts, Gelco™, Lyemance™.","Founded by Robert ""Sooty Bob"" Daniels, in 1978, Copperfield has been filling the supply and accessory needs to chimney professionals, hearth retailers, masons, and contractors for over 40 years."
"Hearth, Patio, & BBA Expo",03/03/2022,2022,https://www.hpbexpo.com/show-info/,DM,Copperfield Academy,2416,,,,,,"Scranton, PA United States",United States,,,,
"Hearth, Patio, & BBA Expo",03/03/2022,2022,https://www.hpbexpo.com/show-info/,DM,Chimney Safety Institute of America,1425,,http://www.csia.org,,,,"Plainfield, IN United States",United States,,,"CSIA Certified Chimney Sweep, CSIA Certified Dryer Exhaust Technician (C-DET), CSIA Master Chimney Sweep, CSIA Accepted Products",
"Hearth, Patio, & BBA Expo",03/03/2022,2022,https://www.hpbexpo.com/show-info/,DM,Dampney Company Inc.,1223,,http://www.stovepaint.com,,,,"Everett, MA United States",United States,Barbecue & Grill Paint | Sealants & Sealers | Silicone | Stove Paint | Touch-Up Paint | Coatings,,"Thurmalox, Lab-metal",Dampney Company Inc. has been producing heat resistant
"Hearth, Patio, & BBA Expo",03/03/2022,2022,https://www.hpbexpo.com/show-info/,DM,Charging Station,242,,,,,,"Arlington, VA United States",United States,,,,
"Hearth, Patio, & BBA Expo",03/03/2022,2022,https://www.hpbexpo.com/show-info/,DM,Chefstemp,2146,,,,,,"St. Petersburg, FL United States",United States,Thermometers,,,"ChefsTemp is a kitchen appliance company that brings state-of-the-art cooking tools to professional, gourmet, and amateur chefs alike. We help cooks, food enthusiasts, BBQ lovers, and kitchen kings and queens level up their cooking skills. We do this by combining precise cooking technology with durable, user-friendly cooking equipment. We love food and respect those who want to improve their skills and cook great meals, so we are creating a suite of tools for every aspect of cooking, preparing, and serving delicious food, just like the world’s most accomplished chefs. With a collection of high-tech, user-friendly cooking products, we help you add precision and fun to your cooking process."
"Hearth, Patio, & BBA Expo",03/03/2022,2022,https://www.hpbexpo.com/show-info/,DM,Challenger Designs,2206,,http://www.challengerdesignsllc.com,,,,"Nappanee, IN United States",United States,Cabinets | Side Tables/Racks | Bartending Centers | Kitchen Prep & Work Tables | Bartending Centers | Cabinetry | Entertainment | Islands/Enclosures | Serving Carts | Tables,,"Challenger Designs, LLC",Welcome to Challenger Designs- Aluminum Outdoor Cabinetry
"Hearth, Patio, & BBA Expo",03/03/2022,2022,https://www.hpbexpo.com/show-info/,DM,Championship LLC,427,,,,,,"Bensenville, IL United States",United States,,,"Tour Edition, Pro-Am, Couture, Titan Brites, Invitational Teflon, Saturn II Teflon, Mercury Ultra, Valley Teflon Ultra, Fine Line Covers, Championship Cushion rubber, Championship Plastic Components, Dynasphere, Sun-Glo, Silver Cup, Berry's, Billiard Bobble Legends",Welcome to Team Championship!
"Hearth, Patio, & BBA Expo",03/03/2022,2022,https://www.hpbexpo.com/show-info/,DM,Fire Pits UK,1143,,http://www.firepitsuk.co.uk,,,,"USK, Monmouthshire United Kingdom",United Kingdom,Fire Pits,,,Firepits UK makes their own products in England.
"Hearth, Patio, & BBA Expo",03/03/2022,2022,https://www.hpbexpo.com/show-info/,DM,Central Boiler,1535,,https://centralboiler.com,,,,"Greenbush, MN United States",United States,Biomass | Boilers | Corn | Furnaces | Boilers | Furnaces,,"Central Boiler, Classic Edge, E-Classic, Classic, Maxim, ThermoPEX, Central PEX, FireStar, Forge, Stryker, Comfort-Tech","Central Boiler was established in 1984 and is the premier manufacturer of quality wood, coal and multi-fuel outdoor furnaces. A few of its many industry-leading accomplishments were the production of the first EPA qualified outdoor furnace in 2007 and the first EPA certified outdoor furnace in 2015. With the onset of the digital era, innovative features like the industry exclusive FireStar combustion controller which provides real-time data, remote monitoring and text alerts, gives Central Boiler the competitive edge. They currently export their patented technology to sixteen foreign countries. Central Boiler has a sales and dealer network established throughout the United States, Canada and Europe."
"Hearth, Patio, & BBA Expo",03/03/2022,2022,https://www.hpbexpo.com/show-info/,DM,"Coyote Outdoor Living, Inc.",1763,,http://www.coyoteoutdoor.com,,,,"Carrollton, TX United States",United States,Refrigerators | Aluminum (Cast) Furniture | Aluminum (Tubular) Furniture | Aluminum (Wrought) Furniture | Awnings/Canopies/Sunscreens | Bar Stools | Bartending Centers | Cabinetry | Coolers | Fire Pits | Tables | Torches | Cabinets | Carts | Griddles | Grill Covers | Sideburners | Charcoal | Cookers | Electric | Hybrid Grilling System | Infrared | Natural Gas | Portable | Propane,,"Coyote Outdoor Living, RTA by Coyote Outdoor Living, Azure Home Products",Please stop by and see our new product at booth # 3013.
"Hearth, Patio, & BBA Expo",03/03/2022,2022,https://www.hpbexpo.com/show-info/,DM,CSA Group Testing & Certification Inc.,1325,,http://www.csagroup.org,,,,"Toronto, ON Canada",Canada,,,,Testing and Certification that Evolves with your Industry
"Hearth, Patio, & BBA Expo",03/03/2022,2022,https://www.hpbexpo.com/show-info/,DM,Caframo Ecofan,1729,,http://www.ecofan.com,,,,"Georgian Bluffs, ON Canada",Canada,Lights | Stove Fans | Lamps | Outdoor Decorative Accessories | Outdoor Lighting | Lanterns | Lighting | Electric,,"Ecofan, Caframo, JOI Lamp, True North","Caframo is the original manufacturer of the genuine  Ecofan wood stove fan, proudly celebrating 25 years of top-notch performance and quality this year!"
"Hearth, Patio, & BBA Expo",03/03/2022,2022,https://www.hpbexpo.com/show-info/,DM,Burch Barrel,2344,,http://www.burchbarrel.com,,,,"Bozeman, MT United States",United States,,,,
"Hearth, Patio, & BBA Expo",03/03/2022,2022,https://www.hpbexpo.com/show-info/,DM,Bull Outdoor Products Inc.,1751,,http://www.bullbbq.com,,,,"Lodi, CA United States",United States,"Brushes | Carts | Cookware | Gloves & Mitts | Griddles | Grill Covers | Replacement Parts | Rotisseries | Sideburners | Smoker Trays | Spices, Sauces, & Seasonings | Tools | Charcoal | Cookers | Fireplace | Natural Gas | Propane | Turkey Fryer | Pizza Ovens | Wood Cookstoves | Gas Vented | Campware | Cookware | Furnishings | Refrigerators | Barbecue & Grill Cleaner | Stainless Steel Cleaner | Bar Stools | Bartending Centers | Coolers | Fire Pits | Islands/Enclosures | Refrigerators | Umbrella Bases | Umbrellas",,Bull Outdoor Products,BULL Outdoor Products -Changing the Way You BBQ for 27 Years
"Hearth, Patio, & BBA Expo",03/03/2022,2022,https://www.hpbexpo.com/show-info/,DM,ASMOKE USA LLC,737,,,,,,"Katy, TX United States",United States,,,,
"Hearth, Patio, & BBA Expo",03/03/2022,2022,https://www.hpbexpo.com/show-info/,DM,American Specialty Glass,1429,,http://www.asgglass.com,,,,"North Salt Lake, UT United States",United States,Replacement Parts | Fireplace | Natural Gas | Electric | Gas Vented | Gas Vent-Free | Electric | Gas Vented | Gas Vent-Free | Masonry/Modular | Outdoor | Decorative Glass & Stones | Fountains | Outdoor Decorative Accessories | Other Fuels | Lava Rock | Ceramic Fiber Logs | Ceramic Glass | Tempered Glass | Fire Pits | Pavers,,,"American Specialty Glass (ASG) is a specialty glass division for North America’s largest glass recycler, Strategic Materials.  ASG fire glass products are made in the USA using post-industrial and post-consumer glass, diverting over 2 million pounds of glass out of the landfill each year. The glass aggregate produced can be used in fireplaces and fire pits. Our American-made chunky nugget glass is also used in landscape applications as ground cover and in Gabion features.  ""All of Our Colors are Green"" - they are renewable and sustainable."
"Hearth, Patio, & BBA Expo",03/03/2022,2022,https://www.hpbexpo.com/show-info/,DM,Canterbury Enterprises,1115,,http://www.blueflamestore.com,,,,"Corona, CA United States",United States,Aprons | Brushes | Gloves & Mitts | Griddles | Grill Covers | Propane Tank Covers | Tools | Charcoal | Hybrid Grilling System | Natural Gas | Portable | Propane | Camp Cookstoves | Gas/Propane Cookstoves | Wood | Firestarters/ Fatwood | Andirons | Ash Buckets | Bellows | Fireplace Screen Blanket | Gas Log Lighters | Gloves & Mitts | Grates | Log Bags | Log Carriers | Log Lighters | Screens | Tool Sets | Giftware | Gas Keys | Gas Valve Flanges | Gas Valves | Flexible Gas Piping | Gas Burners | Fire Pits,,"Blue Flame, Earth's Flame, GrillnGlow","Welcome to Blue Flame, home of the original Log Lighter!"
"Hearth, Patio, & BBA Expo",03/03/2022,2022,https://www.hpbexpo.com/show-info/,DM,Campirano Charcoal,751,,,,,,"Mission, TX United States",United States,,,,
"Hearth, Patio, & BBA Expo",03/03/2022,2022,https://www.hpbexpo.com/show-info/,DM,Amantii,1107,,http://www.amantii.com,,,,"Vancouver, BC Canada",Canada,Electric | Gas Vented | Electric | Gas Vented | Gas Vent-Free | Outdoor | Electric | Gas Vented | Stove Paint | Lava Rock | Electric | Electric | Gas Vented | Wood | Wood,,"Amantii Electric Fireplaces, Sierra Flame Gas Fireplaces",Please come see us at booth # 1107
"Hearth, Patio, & BBA Expo",03/03/2022,2022,https://www.hpbexpo.com/show-info/,DM,American Gas Log,1550,,http://www.americangaslog.com,,,,"Norcross, GA United States",United States,Cabinets | Gas Vent-Free | Outdoor | Gas Vented | Gas Vent-Free | Fire Pits | Islands/Enclosures | Mantels | Stone,,,"American Gas Log (AGL) manufactures a complete line of hand crafted vented and vent free gas logs, providing intricate detail for the most realistic look in the market place. AGL is a ‘Made in America’ manufacturer with a complete line of hearth related products including a full line of cast stone mantels. AGL also manufactures outdoor living products (under the brand name Patio Comfort Elements) including, fire pits, fire pit tables, fireplaces, custom kitchen islands, grill carts, and DIY outdoor living products."
"Hearth, Patio, & BBA Expo",03/03/2022,2022,https://www.hpbexpo.com/show-info/,DM,Design Specialties LLC,2260,,http://www.glassfireplacedoors.com,,,,"Milwaukee, WI United States",United States,,,,
"Hearth, Patio, & BBA Expo",03/03/2022,2022,https://www.hpbexpo.com/show-info/,DM,AllFuel HST,2352,,http://allfuelhst.com,,,,"Hampstead, NC United States",United States,Chimneys | Stove Pipe,,AllFuel HST,
"Hearth, Patio, & BBA Expo",03/03/2022,2022,https://www.hpbexpo.com/show-info/,DM,Anderson & Forrester,2043,,http://www.andersonforrester.com,,,,"Clearwater, KS United States",United States,Natural Gas | Propane | Gas | Gas Valves | Sealants & Sealers | Silicone | Gas Valve Conversion Kits | Gas Burners | Gas Connectors | Pressure Regulators/Valves,,,We hope to see you at our booth # 2043
"Hearth, Patio, & BBA Expo",03/03/2022,2022,https://www.hpbexpo.com/show-info/,DM,AP Products,634,,http://www.approducts.net,,,,"Coldwater, MI United States",United States,,,,
"Hearth, Patio, & BBA Expo",03/03/2022,2022,https://www.hpbexpo.com/show-info/,DM,American Panel/Hearth Classics,2317,,http://www.americanpanelhearth.com,,,,"Grand Haven, MI United States",United States,Pads | Hearth Pads,,"American Panel Hearth Products, Hearth Classics",American Hearth Classics manufactures hearth pads for UL Listed protection under a free-standing wood / pellet / coal / gas appliances.  The hearth pads are made as Type 1 or Type 2 depending appliance requirements using only non-combustible substrates in both Type 1 and Type 2.  We offer a large selection of tile and slate for a finished look that will satisfy any and all of your customers’ needs / desires.  With two strong brands mfg at two facilities in the US we can also keep the lead time for our products at a minimum even during a busy season.  You will find us easy to work with and our staff very helpful and knowledgeable and responsive to any hearth pad emergencies that may turn up.
"Hearth, Patio, & BBA Expo",03/03/2022,2022,https://www.hpbexpo.com/show-info/,DM,ALT Innovation,735,,,,,,"Las Vegas, NV United States",United States,,,,
"Hearth, Patio, & BBA Expo",03/03/2022,2022,https://www.hpbexpo.com/show-info/,DM,ALFA Ovens/Lakeview Dist.,2141,,http://www.alfaovens.com,,,,"Elk Grove Village, IL United States",United States,Tools | Charcoal | Hybrid Grilling System | Natural Gas | Propane | Pizza Ovens | Patio Heaters,,"ALFA Nano Wood or Gas!, Ciao, 5Minuti, Brio Gas, 4Pizze, Allegro, Stone Oven Medium and Large Gas.",Visit ALFA Ovens booth 2141 for the best in Italian Ovens!
