ShowName,ShowDate,ShowYear,ShowWebsite,SubmittedBy,ExhibitorName,BoothNumber,HallLocation,Website,Email,Phone,Fax,Address,Country,Categories,Manufacturers,Brands,Description
HD Expo,04/26/2022,2022,https://hdexpo.hospitalitydesign.com/,DM,Babmar Modern Outdoor Furniture,5349,,http://www.babmar.com,,,,"San Diego, CA United States",United States,Planters | Umbrellas | Carts | Casual | Occasional | Outdoor | Barstools | Cushions | Outdoor/Casual | Rattan/Wicker/Natural Fiber | Stacking | Table Seating/Metal/Wood | Upholstered | Outdoor/Casual Tables | Rattan/Wicker/Natural Fiber | Table Bases/Tops,,,"Babmar Modern Outdoor Furniture provides the highest level of quality, comfort and style of outdoor furniture for the commercial market. With over 18 years experience in the casual market Babmar will ensure your next project will run smooth, on-time and on budget."
HD Expo,04/26/2022,2022,https://hdexpo.hospitalitydesign.com/,DM,Amisco Contract,3049,,http://www.amiscocontract.com,,,,"L'Islet, QC Canada",Canada,Headboards | Banquettes/Benches | Barstools | Conference | Table Seating/Metal/Wood | Upholstered | Banquet/Conference Tables | Glass/Metal/Wood/Stone | Table Bases/Tops,,,"At the time of its foundation in 1954, Amisco was already dedicated to the institutional market as its main field of business was school furnishings made of steel tube. Quickly, the company added woodworking and upholstery to its expertise. Over time, Amisco diversified its product offer to serve hospitality clients, and kept providing furniture for the institutional market."
HD Expo,04/26/2022,2022,https://hdexpo.hospitalitydesign.com/,DM,Architectural Grille,2735,,http://www.archgrille.com,,,,"Brooklyn, NY United States",United States,Awnings/Canopies | Ceilings/Columns/Millwork | Doors | Walls/Partitions | Hardware | Glass/Metal/Wood/Stone | Table Bases/Tops,,,"Architectural Grille is a full-service manufacturer located within 60,000 square feet in Brooklyn, NY, specializing in custom HVAC grilles, perforated metal & design solutions. We design & fabricate high quality products in a wide range of materials by utilizing state of the art machinery incorporating CNC Punch, Laser & Waterjet technologies. We are proud to be a member of the US Green Building Council & support sustainability by offering recycled aluminum products. Archtiectural Grille offers architects & designers the power to translate their ideas and creativity into reality."
HD Expo,04/26/2022,2022,https://hdexpo.hospitalitydesign.com/,DM,Arhaus,5835,,https://www.arhaus.com/,,,,"Boston Heights, OH United States",United States,Seasonal | Tabletop Products | Armoires/Bureaus | Bookcases/Desks/Endtables | Cabinets | Casegoods | Casual | Occasional | Outdoor | Chandeliers/Pendants | Lamps | Sconces | Green Products | Recycled materials,,,
HD Expo,04/26/2022,2022,https://hdexpo.hospitalitydesign.com/,DM,Andaaz Manufacturing,5255,,http://www.andaazmfg.com,,,,"Houston, TX United States",United States,"Mirrors/Lighted Mirrors | Doors | Headboards | Sofabeds/Wallbeds | Armoires/Bureaus | Bookcases/Desks/Endtables | Cabinets | Casegoods | Casual | Occasional | Cabinet, Furniture, Display | Chandeliers/Pendants | Fluorescent | Lamps | LED | Sconces | Banquettes/Benches | Barstools | Conference | Rattan/Wicker/Natural Fiber | Stacking | Table Seating/Metal/Wood | Upholstered | Banquet/Conference Tables | Gaming | Glass/Metal/Wood/Stone | Rattan/Wicker/Natural Fiber | Table Bases/Tops",,,"Custom Casegoods, Seating and Lighting for Hospitality."
HD Expo,04/26/2022,2022,https://hdexpo.hospitalitydesign.com/,DM,Aonehospitality,4462,,http://www.aonechina.cn,,,,"Guangzhou, China",China,,,,
HD Expo,04/26/2022,2022,https://hdexpo.hospitalitydesign.com/,DM,Amtrend Corporation,3435,,http://www.amtrend.com,,,,"Fullerton, CA United States",United States,Outdoor/Casual | Table Seating/Metal/Wood | Upholstered | Banquettes/Benches | Barstools | Conference | Cushions | Glass/Metal/Wood/Stone | Outdoor/Casual Tables | Table Bases/Tops | Bookcases/Desks/Endtables | Casegoods,,,Amtrend is America’s leading
HD Expo,04/26/2022,2022,https://hdexpo.hospitalitydesign.com/,DM,AJ Logistics,2862,,http://www.ajlog.com,,,,"Ft Wayne, IN United States",United States,Install/Transport,,,"Local off-site warehousing, delivery, and installation of FF&E and food service equipment.  One point contact for service throughout US and Canada."
HD Expo,04/26/2022,2022,https://hdexpo.hospitalitydesign.com/,DM,Akula Living,5009,,http://www.akulaliving.com,,,,"Wetherby, West Yorkshire United Kingdom",United Kingdom,Planters | Umbrellas | Casual | Outdoor | Barstools | Outdoor/Casual | Rattan/Wicker/Natural Fiber | Stacking | Table Seating/Metal/Wood | Upholstered | Glass/Metal/Wood/Stone | Outdoor/Casual Tables | Rattan/Wicker/Natural Fiber | Table Bases/Tops,,,"Serving the global hospitality & contract market for over a decade, Akula Living are leaders in the manufacture of hospitality Marine-Grade outdoor furniture."
HD Expo,04/26/2022,2022,https://hdexpo.hospitalitydesign.com/,DM,ADAHotelSigns.com,5560,,http://www.adahotelsigns.com,,,,"Prescott, AZ United States",United States,Signage,,,is the industry leader in wayfinding. From boutique/custom interior signage to corporate approved programs at
HD Expo,04/26/2022,2022,https://hdexpo.hospitalitydesign.com/,DM,American Leather,3255,,http://www.americanleatherhospitality.com,,,,"Dallas, TX United States",United States,Headboards | Sofabeds/Wallbeds | Outdoor/Casual | Upholstered | Green Products,,,"American Leather Hospitality is a design leader & innovator in the manufacturing of upholstered furniture. With manufacturing facilities in both North Carolina and Texas, American Leather Hospitality now offers a full spectrum of upholstered furniture for every level of hotel, resort and cruise ship."
HD Expo,04/26/2022,2022,https://hdexpo.hospitalitydesign.com/,DM,American Atelier Inc.,5107,,http://aaihospitality.com,,,,"Allentown, PA United States",United States,Casual | Occasional | Armoires/Bureaus | Bookcases/Desks/Endtables | Carts | Casegoods | Banquettes/Benches | Barstools | Conference | Stacking | Table Seating/Metal/Wood | Upholstered | Ceilings/Columns/Millwork | Moulding/Rail | Accessories | Sinks/Vanities/Plumbing | Headboards | Sofabeds/Wallbeds | Upholstery | Gaming | Banquet/Conference Tables | Glass/Metal/Wood/Stone | Table Bases/Tops,,,"American Atelier Inc. is a custom furniture manufacturer, specializing in the hospitality and institutional markets. Every order is custom made to architectural or interior designer's specifications in the United States.We have expanded to our new 200,000 square foot facility, still centrally located in Allentown PA. We are a fourth-generation family-owned enterprise employing approximately 240 skilled craftsmen in our workforce. We are ""AWI Certified"" for ""Premium Grade"" manufacturing."
HD Expo,04/26/2022,2022,https://hdexpo.hospitalitydesign.com/,DM,Aesthetic Mirror,5325,,http://www.aestheticmirror.com,,,,"Los Angeles, CA United States",United States,Clocks | Decorative Glass | Picture Frame Moulding | Prints/Reproductions/Photography | Accessories,,,Decorative mirror manufacture and production. Custom sizes and finishes. Timesaving online quote function. Special Designer Portal featuring five design categories. Manufactured in the United States.
HD Expo,04/26/2022,2022,https://hdexpo.hospitalitydesign.com/,DM,Aceray LLC,3647,,http://www.aceray.com,,,,"Wheat Ridge, CO United States",United States,Outdoor | Banquettes/Benches | Barstools | Outdoor/Casual | Stacking | Table Seating/Metal/Wood | Upholstered | Glass/Metal/Wood/Stone | Outdoor/Casual Tables | Table Bases/Tops,,,"Discover THE LOOK of Seating Presenting design professionals with unique, contemporary seating designs, Aceray's strength lies in uncovering hidden talent from around the world. Built by experienced craftsmen for quality and long-lasting durability, these commercial grade, contemporary seating designs are exclusively distributed by Aceray. Our impressive collection includes styles that give you, the design professional, the opportunity to design interiors like no other -- interiors that stand out."
HD Expo,04/26/2022,2022,https://hdexpo.hospitalitydesign.com/,DM,"ACO, Inc.",5809,,https://acoshowerdrain.us/,,,,"Casa Grande, AZ United States",United States,Accessories | Sinks/Vanities/Plumbing | Spa Equipment,,,ACO ShowerDrain bathroom drainage solutions inspire creative bathroom planning. Shower channels and ShowerPoint area drains are suitable for traditional curb shower design or allow for the elimination of physical barriers within the bathroom floor for a more contemporary look or to comply with universal design concepts.
HD Expo,04/26/2022,2022,https://hdexpo.hospitalitydesign.com/,DM,Waterworks,5129,,http://www.waterworks.com,,,,"Danbury, CT United States",United States,Mirrors/Lighted Mirrors | Accessories | Sinks/Vanities/Plumbing | Tile/Marble/Stone/Mosiac | Marble/Stone/Tile | Chandeliers/Pendants | Sconces,,,"Co-founded in 1978 by Barbara and Robert Sallick, Waterworks is based firmly upon a foundation and committement to design authenticity and excellence."
HD Expo,04/26/2022,2022,https://hdexpo.hospitalitydesign.com/,DM,Zuo Modern,4912,,http://www.zuomod.com,,,,"Oakland, CA United States",United States,Mirrors/Lighted Mirrors | Sculpture | Headboards | Sofabeds/Wallbeds | Charging Stations | Armoires/Bureaus | Bookcases/Desks/Endtables | Cabinets | Carts | Casegoods | Casual | Occasional | Outdoor | Chandeliers/Pendants | Lamps | Banquettes/Benches | Barstools | Conference | Cushions | Outdoor/Casual | Rattan/Wicker/Natural Fiber | Stacking | Table Seating/Metal/Wood | Upholstered | Banquet/Conference Tables | Folding | Gaming | Outdoor/Casual Tables | Rattan/Wicker/Natural Fiber | Table Bases/Tops,,,"ZUO an International name; universally regarded as a fashionable, affordable brand. ZUO's four distinct collections, provide sophistication for any project ranging from indoor & outdoor furniture, lighting, and home decor. Whether you are designing a bar, work space, restaurant or guest rooms - we have uniquely diverse styles and trends that entice Hospitality clients across the global. We truly have something for every designer or project.  From New York to Russia, Canada to Brazil or Japan to Dubai we offer fashionable and affordable furnishings to any destination!"
HD Expo,04/26/2022,2022,https://hdexpo.hospitalitydesign.com/,DM,Woodard Furniture/ Craftmade Int’l,3535,,https://www.woodard-furniture.com/,,,,"Coppell, TX United States",United States,Umbrellas | Casual | Outdoor | Fire Tables/ Features | Ceiling Fans | Chandeliers/Pendants | LED | Outdoor | Sconces | Barstools | Outdoor/Casual | Rattan/Wicker/Natural Fiber | Outdoor/Casual Tables | Rattan/Wicker/Natural Fiber | Table Bases/Tops,,,"Woodard is a leading manufacturer of high-end iron, extruded aluminum, cast aluminum, and all-weather woven outdoor furniture, as well as umbrellas and other outdoor accessories.  Woodard offers an unmatched assortment of styles and price points sure to appeal to any design taste or budget."
HD Expo,04/26/2022,2022,https://hdexpo.hospitalitydesign.com/,DM,Zenna Hospitality,3566,,http://www.zennahospitality.com,,,,"New Castle, DE United States",United States,Accessories | Shower Curtains/Enclosures,,,Manufacturer of Functional and Fashion Bath Products:- Shower Rods (NeverRust)- In-Shower Accessories- Decorative Bath Accessories (India Ink)- Shower Curtains- Shower Liners (including Quick Hang)- Step Cans - Bath Furniture- Medicine Cabinets- Decorative Mirror/Frames
HD Expo,04/26/2022,2022,https://hdexpo.hospitalitydesign.com/,DM,Yuanzhicheng Home Textile,2820,,http://www.yuanzhicheng.com,,,,"Arcadia, CA United States",United States,Drapery | Flame Retardant | Upholstery | Vinyl | Install/Transport | Interior Design | Blinds/Shutters | Drapery Hardware | Fabric,,,"Yuanzhicheng Home Textile is a vertical integration company which starting from fabric weaving to window treatment installation. Company has own Weaving mills, Dyeing mills, Embroidery mills, fabrication mills, production factory, and a professional installation team. We provide the full range of products from Window treatment(Motorized/Manual Draperies, roller shade, roman shades), to Bedding( Bed skirts, Duvets, Accent Pillows) and all customized soft decorative goods."
HD Expo,04/26/2022,2022,https://hdexpo.hospitalitydesign.com/,DM,VSI Health & Hygiene,3965,,Valvesolutions.com,,,,"Alpharetta, GA United States",United States,,,,
HD Expo,04/26/2022,2022,https://hdexpo.hospitalitydesign.com/,DM,WALTERS,3455,,http://www.walterswicker.com,,,,"Teterboro, NJ United States",United States,Rattan/Wicker/Natural Fiber | Table Bases/Tops | Gaming | Glass/Metal/Wood/Stone | Outdoor/Casual Tables | Headboards | Carts | Casegoods | Casual | Occasional | Outdoor | Banquettes/Benches | Barstools | Conference | Cushions | Outdoor/Casual | Rattan/Wicker/Natural Fiber | Stacking | Table Seating/Metal/Wood | Upholstered,,,"Walters is a 78 year old company specializing in interior and exterior furniture for the hospitality market. Besides our standard designs, we will customize to the designer specification, even for 1 ea. We also own The Wicker Works and have exclusive distribution rights to B&B Italia Outdoor, Box furniture, Manutti and Drucker bistro chairs."
HD Expo,04/26/2022,2022,https://hdexpo.hospitalitydesign.com/,DM,VoVo Corporation,2826,,http://www.vovo.co.kr,,,,"Torrance, CA United States",United States,,,,
HD Expo,04/26/2022,2022,https://hdexpo.hospitalitydesign.com/,DM,Valley Forge Fabrics Inc,4507,,https://www.valleyforge.com,,,,"Fort Lauderdale, FL United States",United States,Shower Curtains/Enclosures | Bed Spreads/Comforters/Duvets | Drapery | Flame Retardant | Upholstery | Vinyl | Woven/Printed | Install/Transport | Green Products | Recycled materials | Fabric | Blinds/Shutters | Drapery Hardware | Fabric,,,
HD Expo,04/26/2022,2022,https://hdexpo.hospitalitydesign.com/,DM,Vaask,3961,,http://www.vaask.com,,,,"Austin, TX United States",United States,Signage | Accessories | Building materials,,,
HD Expo,04/26/2022,2022,https://hdexpo.hospitalitydesign.com/,DM,Vintage Hardware & Lighting,5513,,http://www.vintagehardware.com,,,,"Port Townsend, WA United States",United States,"Cabinet, Furniture, Display | Chandeliers/Pendants | Lamps | LED | Outdoor | Sconces | Theatrical/Track/Recess",,,"Vintage Hardware & Lighting, since 1978, manufactures antique hardware, lighting, quality design exit signs and other lighted signs. While we have our standard stock lines, we also do custom work. Customer applications include historic buildings, historic state capitols, movies and theme parks, as well as, outstanding Victorian home restoration projects.  Our American manufacturing in Port Townsend, WA designs (Aura Design) and manufactures our special designs and signs.  We are bringing manufacturing back to America."
HD Expo,04/26/2022,2022,https://hdexpo.hospitalitydesign.com/,DM,VEGO Inc,5634,,http://www.vegooverlays.com,,,,"Costa Mesa, CA United States",United States,Ceilings/Columns/Millwork | Decorative Glass | Doors | Moulding/Rail | Stone | Stained Glass | Sinks/Vanities/Plumbing | Maintenance Products/Sealers | Surfacing materials | Tile/Marble/Stone/Mosiac | Wallpapers,,,
HD Expo,04/26/2022,2022,https://hdexpo.hospitalitydesign.com/,DM,Allred Collaborative,3011,,,,,,"Palm Springs, CA United States",United States,,,,
HD Expo,04/26/2022,2022,https://hdexpo.hospitalitydesign.com/,DM,Urban Surfaces,4264,,https://www.urbansurfaces.com/,,,,"Corona, CA United States",United States,Laminates/Vinyl,,,
HD Expo,04/26/2022,2022,https://hdexpo.hospitalitydesign.com/,DM,UltraSite,5611,,http://www.ultra-site.com,,,,"Red Bud, IL United States",United States,Outdoor/Casual | Table Seating/Metal/Wood,,,
HD Expo,04/26/2022,2022,https://hdexpo.hospitalitydesign.com/,DM,"Williams-Sonoma, B to B",2867,,https://www.wsitradeandcontract.com,,,,"San Francisco, CA United States",United States,Artificial Plants/Flowers | Clocks | Pillows | Planters | Umbrellas | Prints/Reproductions/Photography | Sculpture | Accessories | Robes/Slippers/Linens | Shower Curtains/Enclosures | Sinks/Vanities/Plumbing | Bed Spreads/Comforters/Duvets | Box Springs/ Mattresses | Headboards | Sofabeds/Wallbeds | Drapery | Upholstery | Area Rugs | Armoires/Bureaus | Bookcases/Desks/Endtables | Casegoods | Children's | Occasional | Outdoor | Hardware | Ceiling Fans | Chandeliers/Pendants | Lamps | LED | Outdoor | Banquettes/Benches | Barstools | Conference | Cushions | Outdoor/Casual | Table Seating/Metal/Wood | Upholstered | Glass/Metal/Wood/Stone | Outdoor/Casual Tables | Table Bases/Tops | Wallpapers | Blinds/Shutters | Drapery Hardware | Fabric,,,
HD Expo,04/26/2022,2022,https://hdexpo.hospitalitydesign.com/,DM,Uttermost Company,3149,,http://www.uttermost.com,,,,"Rocky Mount, VA United States",United States,Artificial Plants/Flowers | Clocks | Mirrors/Lighted Mirrors | Pillows | Prints/Reproductions/Photography | Accessories | Area Rugs | Cabinets | Chandeliers/Pendants | Lamps | LED | Sconces | Upholstered | Table Bases/Tops,,,"After 38 years of business and billions of dollars sold at Retail & Contract, The Uttermost company is still leading the industry with the most fasionable and up to date product in the US. Good design means nothing without quality manufacturing. You can be certain that on Uttermost products, no shortcuts are taken in manufacturing to make sure our products exceed espectations."
HD Expo,04/26/2022,2022,https://hdexpo.hospitalitydesign.com/,DM,Townsend Leather Company,5155,,http://www.townsendleather.com,,,,"Johnstown, NY United States",United States,Flame Retardant | Leather/Suede | Upholstery | Woven/Printed | Fabric,,,"Manufacturing in Upstate New York, Townsend Leather provides extensive standard and in-stock leathers, custom capabilities, and the ability to value-engineer leathers to meet project budgets. Townsend has grown to be a trusted resource for the industries we serve, both domestically and internationally, and our innovative, on trend and inspirational leathers help interior designers discover beautiful and unusual ways to use leather to express their client’s vision."
HD Expo,04/26/2022,2022,https://hdexpo.hospitalitydesign.com/,DM,TuffSkin Surface Protection LLC,5059,,http://www.tuffskinprotection.com,,,,"Las Vegas, NV United States",United States,Stone | Sinks/Vanities/Plumbing | Laminates | Maintenance Products/Sealers | Surfacing materials | Tile/Marble/Stone/Mosiac | Armoires/Bureaus | Bookcases/Desks/Endtables | Casegoods | Interior Design | Banquet/Conference Tables | Glass/Metal/Wood/Stone | Table Bases/Tops,,,.
HD Expo,04/26/2022,2022,https://hdexpo.hospitalitydesign.com/,DM,TUUCI,3721,,http://www.tuuci.com,,,,"Miami, FL United States",United States,Umbrellas | Outdoor/Casual,,,
HD Expo,04/26/2022,2022,https://hdexpo.hospitalitydesign.com/,DM,"Toray International America, Inc.",3672,,http://www.torayentrant.com,,,,"New York , NY United States",United States,,,,
HD Expo,04/26/2022,2022,https://hdexpo.hospitalitydesign.com/,DM,Trinity Lighting,5800,,http://www.trinitylighting.com,,,,"JONESBORO, AR United States",United States,,,,
HD Expo,04/26/2022,2022,https://hdexpo.hospitalitydesign.com/,DM,TileBar,4334,,http://www.tilebar.com,,,,"New York, NY United States",United States,Stone | Laminates | Tile/Marble/Stone/Mosiac | Laminates/Vinyl | Marble/Stone/Tile,,,
HD Expo,04/26/2022,2022,https://hdexpo.hospitalitydesign.com/,DM,Tonik,5455,,https://tonikworld.com/,,,,"West Chicago, IL United States",United States,Planters | Outdoor | Outdoor | Barstools | Outdoor/Casual | Table Seating/Metal/Wood | Recycled materials | Outdoor/Casual Tables,,,"Tonik – we are an American-made brand of furniture that pushes boundaries, connects people and sets the scene for life’s best moments. We will once again showcase our design-forward products at HD Expo. It will be our third year at the event. In fact, we launched our brand at the Expo in 2017, showcasing our inaugural series that was designed by the world-renowned industrial designer Karim Rashid. Tonik is designed on the belief that furniture is more than inanimate objects. We believe that furniture can create experiences, transcend boundaries and bridge relationships."
HD Expo,04/26/2022,2022,https://hdexpo.hospitalitydesign.com/,DM,Tiger Leather,2829,,http://www.tigerleather.com,,,,"Greensboro, NC United States",United States,Leather/Suede | Area Rugs,,,"For nearly 20 years, Tiger Leather has provided a fashionable alternative to the interior design industry.  What began as a small batch of patents has bloomed into a full palette of design-driven leather in every category, serving industries of all types.  Our partnerships in Italy afford us unique insight into the colors of supreme fashion icons, while our Sales and Customer Care teams are skilled and reliable.  Visit our booth and see for yourself.  From basic to bold, we offer articles to inspire creativity and bring glamorous designs to life."
HD Expo,04/26/2022,2022,https://hdexpo.hospitalitydesign.com/,DM,"The Product Source, Inc.",5309,,http://www.hotelstone.com,,,,"Woodstock, GA United States",United States,"Stone | Sinks/Vanities/Plumbing | Surfacing materials | Cabinets | Cabinet, Furniture, Display | Install/Transport | Table Bases/Tops",,,"The Product Source, Inc. is a 25+ year veteran of the Hospitality Industry. TPS is a Supplier, Importer, Fabricator and Installer of Stone and Quartz Surfaces and Guestroom Cabinets. TPS prides itself on on-time and on-budget projects."
HD Expo,04/26/2022,2022,https://hdexpo.hospitalitydesign.com/,DM,Tilia,5261,,http://www.tilia.com.tr,,,,"Istanbul, Beylikduzu Turkey",Turkey,Outdoor | Conference | Cushions | Outdoor/Casual | Rattan/Wicker/Natural Fiber | Stacking | Table Seating/Metal/Wood | Outdoor/Casual Tables | Rattan/Wicker/Natural Fiber,,,
HD Expo,04/26/2022,2022,https://hdexpo.hospitalitydesign.com/,DM,Terrazzo & Marble Supply,5663,,http://www.tmsupply.com,,,,"Wheeling, IL United States",United States,Stone | Marble/Stone/Tile,,,
HD Expo,04/26/2022,2022,https://hdexpo.hospitalitydesign.com/,DM,Tempur Sealy International,4409,,http://tempursealyhospitality.com,,,,"Lexington, KY United States",United States,Box Springs/ Mattresses,,,
HD Expo,04/26/2022,2022,https://hdexpo.hospitalitydesign.com/,DM,Telescope Contract Furniture Inc,4535,,http://www.telescopecasual.com,,,,"Granville, NY United States",United States,Umbrellas | Outdoor | Banquettes/Benches | Barstools | Outdoor/Casual | Rattan/Wicker/Natural Fiber | Stacking | Table Seating/Metal/Wood | Glass/Metal/Wood/Stone | Outdoor/Casual Tables | Rattan/Wicker/Natural Fiber,,,"Telescope Contract Furniture is an established manufacturer of quality outdoor furniture proudly designed and made in the USA for resort, commercial, and hospitality applications. Telescope Contract Furniture is continually recognized for its high quality products, award winning customer service, and reliable delivery. Telescope has distinguished itself in the outdoor furniture industry, receiving multiple Manufacturer of the Year Awards and numerous Design Excellent Awards, including last year's awarding winning Adirondack Marine Grade Polymer Arm Chair. Telescope, a family owned business, has been in business for 110 years and is still growing!"
HD Expo,04/26/2022,2022,https://hdexpo.hospitalitydesign.com/,DM,Tenjam,2861,,http://www.tenjam.com,,,,"Baxter , MN United States",United States,,,,
HD Expo,04/26/2022,2022,https://hdexpo.hospitalitydesign.com/,DM,Tropitone Furniture,4419,,http://www.tropitone.com,,,,"Irvine, CA United States",United States,Planters | Umbrellas | Casual | Outdoor | Outdoor | Barstools | Outdoor/Casual | Stacking | Upholstered | Outdoor/Casual Tables | Table Bases/Tops,,,
HD Expo,04/26/2022,2022,https://hdexpo.hospitalitydesign.com/,DM,Unalome,3043,,http://www.unalomeinterior.com,,,,"Seminyak, Indonesia",Indonesia,"Minibars | Clocks | Umbrellas | Spa Equipment | Accessories | Robes/Slippers/Linens | Shower Curtains/Enclosures | Sinks/Vanities/Plumbing | Bed Spreads/Comforters/Duvets | Box Springs/ Mattresses | Headboards | Sofabeds/Wallbeds | Drapery | Flame Retardant | Leather/Suede | Silk | Upholstery | Vinyl | Woven/Printed | Area Rugs | Carpet | Carpet Padding/Cove Base/Binding | Laminates/Vinyl | Marble/Stone/Tile | Wood | Sculpture | Doors | Stone | Armoires/Bureaus | Bookcases/Desks/Endtables | Carts | Casegoods | Casual | Children's | Occasional | Outdoor | Cabinet, Furniture, Display | Ceiling Fans | Chandeliers/Pendants | Lamps | Outdoor | Banquettes/Benches | Barstools | Conference | Cushions | Outdoor/Casual | Rattan/Wicker/Natural Fiber | Stacking | Table Seating/Metal/Wood | Upholstered | General Services | Install/Transport | Interior Design | Banquet/Conference Tables | Gaming | Glass/Metal/Wood/Stone | Outdoor/Casual Tables | Rattan/Wicker/Natural Fiber | Table Bases/Tops | Embossed/Relief | Fabric | Wallpapers | Wood | Indoor/Outdoor | Drapery Hardware | Wood",,,"At Unalome, our mission is to help you create your environment. It is not just about single pieces of furniture, but a real way of life. The goal is to offer furnishings and fittings that echoes your thinking and being. It must reflect an easier, more natural and unconstrained way of life. So it is no coincidence that we are named after the Unalome symbol, which represents transcendence and enlightenment."
HD Expo,04/26/2022,2022,https://hdexpo.hospitalitydesign.com/,DM,Sutherland Furniture,3205,,http://www.perennialsandsutherland.com,,,,"Dallas, TX United States",United States,Pillows | Planters | Trimming | Umbrellas | Drapery | Fibers | Upholstery | Woven/Printed | Area Rugs | Outdoor | Banquettes/Benches | Barstools | Outdoor/Casual | Stacking | Table Seating/Metal/Wood | Upholstered | Glass/Metal/Wood/Stone | Outdoor/Casual Tables | Table Bases/Tops | Fabric,,,"The Perennials and Sutherland, LLC companies are icons and acknowledged leaders in the international design industry. Chairman of the Board David Sutherland and CEO Ann Sutherland share an ingenious talent for creating the finest interior and exterior collections of luxury furniture, fabrics, rugs and accessories. Based in Dallas, Texas, the company is comprised of Sutherland Furniture®, Perennials Luxury Performance Fabrics® and David Sutherland Showrooms."
HD Expo,04/26/2022,2022,https://hdexpo.hospitalitydesign.com/,DM,"Surface America, Inc.",5658,,http://www.surfaceamerica.com,,,,"Williamsville, NY United States",United States,Surfacing materials | Marble/Stone/Tile | Outdoor | Indoor/Outdoor,,,"AquaFlex product is a premium, designer pool deck surface coating which provides a multitude of benefits.  Not only does it have distinguishing aesthetics, its also a resilient, long-lasting, easily maintainable, repairable, UV stable, chlorine resistant product."
HD Expo,04/26/2022,2022,https://hdexpo.hospitalitydesign.com/,DM,Svalson AB,2945,,https://www.svalson.com/us/,,,,"Ojebyn, Sweden",Sweden,Moulding/Rail,,,"Svalson is a member of the Nordic Balcony Association to ensure that you get a safe railing and glazing with top quality. The height adjustable glazing is tested for wind load, personal safety including heavy impacts by RISE-Research Institutes of Sweden."
HD Expo,04/26/2022,2022,https://hdexpo.hospitalitydesign.com/,DM,Table Topics,5055,,http://www.tabletopics.biz,,,,"Elberta, AL United States",United States,Banquet/Conference Tables | Gaming | Glass/Metal/Wood/Stone | Table Bases/Tops,,,"Since 1980, Table Topics has been crafting custom tabletops and bars with the Acralyte finish.  We build our products here in the United States.  Even though we have been at this for almost 40 years, we are still excited and eager about each project.   We are incredibly lucky to have the team players that we do in design, customer service and production to be able to build YOUR vision.  We are commited to the quality, attention and creativity that can only be accomplished by dedicated hands-on work.  Challenge us with your custom designs. Let us be part of your project."
HD Expo,04/26/2022,2022,https://hdexpo.hospitalitydesign.com/,DM,Summitville Tiles & Thin Brick,5845,,http://www.summitville.com,,,,"Summitville, OH United States",United States,Stone | Maintenance Products/Sealers | Surfacing materials | Tile/Marble/Stone/Mosiac | Marble/Stone/Tile,,,"is a leading manufacturer of Thin Brick, Quarry Tile and Strata Tile. Summitville also offers complete installation systems for thin brick and tile offering a turnkey system with a proven track record with 106 years of experience manufacturing clay products. Please stop by booth# 2078 to learn more about thin brick veneers and how you can utilize the ever-growing system on your next project. Our thin brick is manufactured thin with many years of experience in field application, metal-panel application, precast application and tilt-up application."
HD Expo,04/26/2022,2022,https://hdexpo.hospitalitydesign.com/,DM,Table Designs,3157,,http://www.tabledesigns.com,,,,"Odessa, FL United States",United States,Barstools | Conference | Stacking | Table Seating/Metal/Wood | Upholstered | Banquet/Conference Tables | Gaming | Glass/Metal/Wood/Stone | Outdoor/Casual Tables | Rattan/Wicker/Natural Fiber | Table Bases/Tops,,,"Table Designs is your source for high quality and affordable tabletops, bases, and chairs. We design and build everything from unique creations using exotic materials to traditional styles on a budget. Our product line includes laminate, veneer, solid wood, digital print, metal, solid surface, customers own material and more. Our clientele include exclusive restaurants, casual dining, fast food chains, lounges, casinos and food courts."
HD Expo,04/26/2022,2022,https://hdexpo.hospitalitydesign.com/,DM,Stickley,5219,,http://www.stickleycontract.com,,,,"Manlius, NY United States",United States,Headboards | Sofabeds/Wallbeds | Armoires/Bureaus | Bookcases/Desks/Endtables | Cabinets | Carts | Casegoods | Casual | Children's | Occasional | Banquettes/Benches | Barstools | Conference | Cushions | Table Seating/Metal/Wood | Upholstered | Green Products | Banquet/Conference Tables | Glass/Metal/Wood/Stone | Table Bases/Tops,,,"Stickley Contract is a premium supplier of casegoods and upholstered furnishings with three fully-owned and operated manufacturing facilities.  Our factories in New York, North Carolina, and Vietnam provide premium quality products showcasing our 120 years of furniture manufacturing capabilities and craftsmanship.  We offer both inline and custom products for projects ranging from country clubs and boutique hotels to the largest 4 & 5 star desitnation resorts, hotels, and casino properties. Discover the Stickley difference on your next project!"
HD Expo,04/26/2022,2022,https://hdexpo.hospitalitydesign.com/,DM,Stone Source,3247,,http://www.stonesource.com,,,,"New York, NY United States",United States,Stone | Marble/Stone/Tile | Wood | Banquet/Conference Tables | Glass/Metal/Wood/Stone | Table Bases/Tops | Wood,,,"Stone Source is a design-driven company that provides a carefully-curated selection of natural stone, porcelain tile, ceramic tile, glass tile, engineered stone and other materials. Headquartered in New York, the company has showrooms in Boston, Chicago, Dallas, East Hampton, Houston, Los Angeles, Nashville, New Jersey, New York and Washington DC, and offices in Philadelphia, San Diego, San Francisco and Seattle. For 30 years, the company has remained dedicated to serving the needs of architects and designers with cutting-edge, high-quality surfaces."
HD Expo,04/26/2022,2022,https://hdexpo.hospitalitydesign.com/,DM,SpecCeramics,3325,,http://www.specceramics.com,,,,"Fullerton, CA United States",United States,Marble/Stone/Tile,,,"For over 31 years, we've had our finger on the pulse of innovation in the hard surface industry bringing inspiring new shapes, sizes and finishes to you. We want to be your source for all ceramic, glass, stone and porcelain tile. We aspire to provide the best products for your commercial construction, hospitality and residential design."
HD Expo,04/26/2022,2022,https://hdexpo.hospitalitydesign.com/,DM,Sunpan,4934,,http://www.sunpan.com,,,,"Toronto, ON Canada",Canada,Mirrors/Lighted Mirrors | Planters | Original | Headboards | Bookcases/Desks/Endtables | Casegoods | Occasional | Outdoor | Barstools | Outdoor/Casual | Table Seating/Metal/Wood | Upholstered | Glass/Metal/Wood/Stone | Outdoor/Casual Tables,,,"SUNPAN specializes in the design and manufacturing of transitional and contemporary furnishings. We are committed to understanding design trends to offer a diverse selection of high-end looks at affordable prices. Our products are thoughtfully designed with renowned international designers to offer indoor and outdoor furnishings across hard goods, dining, bar, bedroom, upholstery, and accent categories."
HD Expo,04/26/2022,2022,https://hdexpo.hospitalitydesign.com/,DM,Staging Concepts,5805,,https://www.stagingconcepts.com/,,,,"Minneapolis, MN United States",United States,,,,
HD Expo,04/26/2022,2022,https://hdexpo.hospitalitydesign.com/,DM,Solid Comfort Inc,5135,,http://www.solidcomfort.com,,,,"Fargo, ND United States",United States,Headboards | Armoires/Bureaus | Casegoods | Table Bases/Tops,,,"A Tradition of Reliability Since 1981, Solid Comfort Inc. recognizes vales including leadership, integrity and teamwork creating success for the Solid Comfort network of employees, owners and supplier partners.Solid Comfort is a premier manufacturer of wood furniture and casegoods for the hospitality industry. Our Company culture is based on a solid, Midwestern work ethic and a family-focused atmosphere."
HD Expo,04/26/2022,2022,https://hdexpo.hospitalitydesign.com/,DM,"Space Tables, Inc.",3967,,https://www.spacetables.com/,,,,"Maple Grove, MN United States",United States,Outdoor | Banquet/Conference Tables | Gaming | Glass/Metal/Wood/Stone | Outdoor/Casual Tables | Table Bases/Tops,,,Interior and Exterior Phenolic Resin Table Tops
HD Expo,04/26/2022,2022,https://hdexpo.hospitalitydesign.com/,DM,Solaira Radiant Heating Technologies,4942,,http://www.solairaheaters.com,,,,"Mississauga, ON Canada",Canada,Awnings/Canopies | Energy Management Systems | Outdoor | Electric | Outdoor | Lighting Control Systems | Outdoor,,,"Solaira Infrared Patio Heaters are engineered for architecturally sensitive indoor/outdoor heating on patios, decks and waiting areas. Our technology converts 85% of the energy consumed into directional, comfort heating. Solaira technology nearly un-affected by wind and is at full power within 1 second of turning on. Solaira heaters can also be controlled with digital variable controls and occupancy sensors to minimize consumption. Available in wall mount, ceiling suspended or recess options."
HD Expo,04/26/2022,2022,https://hdexpo.hospitalitydesign.com/,DM,Summer Classics,4707,,http://www.summerclassicscontract.com,,,,"Pelham, AL United States",United States,Umbrellas | Outdoor | Outdoor/Casual | Rattan/Wicker/Natural Fiber | Stacking | Table Seating/Metal/Wood | Upholstered | Glass/Metal/Wood/Stone | Outdoor/Casual Tables | Rattan/Wicker/Natural Fiber | Table Bases/Tops,,,
HD Expo,04/26/2022,2022,https://hdexpo.hospitalitydesign.com/,DM,simplehuman,5555,,http://www.simplehuman.com,,,,"Torrance, CA United States",United States,Clocks | Sinks/Vanities/Plumbing | Spa Equipment | Trash/Recycling,,,"""we design tools that help people become more efficient.""  Day to day life has room for improvement. That's the basic thinking behind simplehuman. Many activities in our daily routine are so basic that we take them for granted. Washing our hands, cleaning up after a meal, grooming and prepping our appearance. Through innovation and new technologies, we find ways to streamline these simple tasks. We call our products ""tools for efficient living."" Our products are highly functional and intuitive and are built to last in tough environments. Come see our sensor mirrors and commercial cans."
HD Expo,04/26/2022,2022,https://hdexpo.hospitalitydesign.com/,DM,Sika Design,3109,,http://www.sikadesignusa.com,,,,"Minneapolis, MN United States",United States,Casual | Occasional | Outdoor | Banquettes/Benches | Barstools | Outdoor/Casual | Rattan/Wicker/Natural Fiber | Stacking | Table Seating/Metal/Wood | Outdoor/Casual Tables | Rattan/Wicker/Natural Fiber | Table Bases/Tops,,,"Sika Design is a third generation family business that specializes in quality, handmade, woven indoor and outdoor furniture. The assortment is comprised of 6 collections that include Iconic pieces of furniture from some of Europe’s most important architects and designers, rattan Originals inspired by our own design sketches and other successful models from the 1950’s and 1960’s, handcrafted Affaire bistro furniture, Georgia Garden and Avantgarde wicker furniture, and an Exterior collection using existing models with our new Alu-Rattan and ArtFibre in a variety of colors."
HD Expo,04/26/2022,2022,https://hdexpo.hospitalitydesign.com/,DM,Soundproof Windows,5559,,http://www.soundproofwindows.com,,,,"Reno, NV United States",United States,Acoustic/Sound,,,"Add a Soundproof Window and stop the outside noises. Our windows use recording studio technology to stop noise from getting into your hotel rooms. We increase the insulation value of your existing windows by 150-200%. The savings on energy will completely pay for these windows in 3-7 years – an excellent ROI. Improve your online ratings by eliminating all noise complaints. Our windows have the highest noise reduction ratings in the world, without the high price tag. Hear the dramatic improvement first hand and install a test window."
HD Expo,04/26/2022,2022,https://hdexpo.hospitalitydesign.com/,DM,Shademaker,4743,,http://www.jardinico-caractere.com,,,,"Baldwin Park, CA United States",United States,Umbrellas | Outdoor/Casual | Outdoor/Casual Tables,,,"Jardinico, this Belgium engineered shade transforms our umbrellas from a signature style to a sophisticated statement. This collection opens a new class of distinction and precision, poised to elevate any outdoor space."
HD Expo,04/26/2022,2022,https://hdexpo.hospitalitydesign.com/,DM,Sierra Nevada Hospitality by Gary Platt,3349,,www.sierranevadahospitality.com,,,,"Reno, NV United States",United States,,,,
HD Expo,04/26/2022,2022,https://hdexpo.hospitalitydesign.com/,DM,Society6,5043,,http://www.society6.com,,,,"Santa Monica, CA United States",United States,Clocks | Picture Frame Moulding | Prints/Reproductions/Photography | Armoires/Bureaus | Casual | Barstools | Outdoor/Casual | Glass/Metal/Wood/Stone | Wallpapers,,,"Serving the consumer’s desire for uniqueness and personalization in the home category.  Society6 is home to hundreds of thousands of artists from around the globe, uploading and selling their original works as 60+ premium consumer goods from"
HD Expo,04/26/2022,2022,https://hdexpo.hospitalitydesign.com/,DM,Serta Hospitality,3745,,https://www.sertahospitality.com,,,,"Atlanta, GA United States",United States,Pillows | Box Springs/ Mattresses,,,
HD Expo,04/26/2022,2022,https://hdexpo.hospitalitydesign.com/,DM,Surya,4955,,http://www.surya.com,,,,"White, GA United States",United States,Prints/Reproductions/Photography | Area Rugs | Lamps,,,"For four decades, Surya has artfully translated the latest fashion and decor trends into beautiful and durable products of the highest quality. With more than 5,500 rug designs and an extensive range of coordinating pillows, lighting, accent pieces, art and mirrors, Surya provides everything you need to create distinctive spaces that express the unique personality of your project. For more information, visit us at www.surya.com."
HD Expo,04/26/2022,2022,https://hdexpo.hospitalitydesign.com/,DM,"SELF Electronics Co, Ltd",4061,,http://www.self-electronics.com,,,,"Peachtree Corners, GA United States",United States,"Energy Management Systems | Cabinet, Furniture, Display | Lighting Control Systems | Outdoor | Theatrical/Track/Recess | Interior Design",,,"We are an electronics company with a specialization in LED Fixtures and Power supplies.  Since the beginning Self has innovated to stay ahead of the industry working with the US and Chinese Governments to set the standards in LED lighting.  Up until about 2 years ago we were an OEM manufacture of LED fixtures and Power supplies for most of the North American lighting companies.  We are now working directly with Millworkers, Retailers, Hospitality groups and many others to change the landscape of LED's in the North American market. We ship to 53 countries and have all electrical certifications"
HD Expo,04/26/2022,2022,https://hdexpo.hospitalitydesign.com/,DM,Secto Design Oy,2857,,http://www.sectodesign.fi,,,,"Kauniainen, Uusimaa Finland",Finland,,,,
HD Expo,04/26/2022,2022,https://hdexpo.hospitalitydesign.com/,DM,Scott Lamp Co Inc,5119,,http://www.scottlamp.com,,,,"Fairfield, CA United States",United States,"Clocks | Cabinet, Furniture, Display | Ceiling Fans | Chandeliers/Pendants | Fluorescent | Lamps | Outdoor",,,"Scott Lamp Company is one of the premier manufacturers and designers of standard and custom lighting for the hospitality and design community. Including it's divisions of Innovative Reflections, a manufacturer of back lit mirrors and Scott Architectural Lighting, a manufacturer of specification grade lighting we have the ability to meet the most demanding requirements and project schedules."
HD Expo,04/26/2022,2022,https://hdexpo.hospitalitydesign.com/,DM,Serge Ferrari,5654,,http://www.sergeferrari.com/us-en,,,,"Deerfield Beach, FL United States",United States,Acoustic/Sound | Awnings/Canopies | Flame Retardant | Leather/Suede | Upholstery | Woven/Printed | Fabric,,,"There is no limit to your design ideas with the lightness, flexibility, strength and comfort of Serge Ferrari materials."
HD Expo,04/26/2022,2022,https://hdexpo.hospitalitydesign.com/,DM,Seasonal Living Trading Company,5035,,http://www.seaonalliving.com,,,,"Austin, TX United States",United States,Outdoor/Casual Tables | Table Bases/Tops | Glass/Metal/Wood/Stone | Outdoor | Banquettes/Benches | Barstools | Cushions | Outdoor/Casual | Rattan/Wicker/Natural Fiber | Bookcases/Desks/Endtables | Casual | Outdoor,,,
HD Expo,04/26/2022,2022,https://hdexpo.hospitalitydesign.com/,DM,SBI Fine Fabric Finishing,2813,,https://sbifinishing.com/,,,,"Athens, TX United States",United States,Bed Spreads/Comforters/Duvets | Box Springs/ Mattresses | Headboards | Sofabeds/Wallbeds | Drapery | Fibers | Flame Retardant | Leather/Suede | Silk | Upholstery | Vinyl | Woven/Printed | Banquettes/Benches | Barstools | Conference | Cushions | Outdoor/Casual | Upholstered | Fabric | Fabric,,,"At SBI Fine Fabric Finishing, we specialize in applying finishes and backings to fabrics, trims, and other woven goods used in a wide range of commercial applications.  As America's leading full-service textile finisher, we offer an array of services.  The most popular of which are Flame Retardant, Premium Stain Protection, Knit Backing, Acrylic Upholstery Backing, and Wall Upholstery Backing.  These finishes/backings greatly improve the performance and lifespan of fabrics, and are critical for all hospitality projects."
HD Expo,04/26/2022,2022,https://hdexpo.hospitalitydesign.com/,DM,Shower Walls,3145,,http://shower-walls.net,,,,"Juarez, N.L. Mexico",Mexico,Moulding/Rail | Stone | Accessories | Sinks/Vanities/Plumbing,,,
HD Expo,04/26/2022,2022,https://hdexpo.hospitalitydesign.com/,DM,Sandler Seating,3613,,http://www.sandlerseating.com,,,,"Atlanta, GA United States",United States,Barstools | Conference | Outdoor/Casual | Stacking | Table Seating/Metal/Wood | Upholstered | Table Bases/Tops,,,"Sandler Seating provide a wide range of furniture for hotels, restaurants and all areas of the hospitality industry. Be sure to check out our Wooodlook collection, a range of durable chairs with the look of wood and the strength of aluminum, ideal for ultra high traffic environments."
HD Expo,04/26/2022,2022,https://hdexpo.hospitalitydesign.com/,DM,Schluter Systems LP,3441,,http://www.schluter.com,,,,"Plattsburgh, NY United States",United States,Accessories | Sinks/Vanities/Plumbing | Marble/Stone/Tile,,,Schluter
HD Expo,04/26/2022,2022,https://hdexpo.hospitalitydesign.com/,DM,Saniharto,4609,,http://www.saniharto.com,,,,"Semarang, Indonesia",Indonesia,Headboards | Armoires/Bureaus | Bookcases/Desks/Endtables | Casegoods | Occasional | Banquettes/Benches | Barstools | Table Seating/Metal/Wood | Upholstered | Banquet/Conference Tables | Glass/Metal/Wood/Stone | Table Bases/Tops,,,"SANIHARTO is one of the world's leading manufacturing companies, specializing in custom state-of-the-art residential and contract furniture for the luxury hotel and apartment market. From Casegoods to Millwork, from Traditional to Contemporary, every product is custom made to achieve the highest level of design, construction and finish, delivered, as always, to the rigorous deadlines demanded by both commercial markets and the hotel industry across the globe."
HD Expo,04/26/2022,2022,https://hdexpo.hospitalitydesign.com/,DM,Samelson-Chatelane,5025,,http://www.csamelson.com,,,,"New York, NY United States",United States,Shower Curtains/Enclosures | Bed Spreads/Comforters/Duvets | Drapery | Flame Retardant | Leather/Suede | Silk | Upholstery | Vinyl | Woven/Printed | Fabric,,,"Samelson-Chatelane provides a variety of stylish, competitively priced fabrics that are inherently FR and engineered to meet Hospitality specifications. Our heat-transfer and digital prints, wovens, black-outs, sheers, barrier fabrics, faux silk, leather, suede, eco-friendly, and outdoor fabrics are available in-stock, or we can help you to create the custom fabric you envision. We are known for impeccable service, industry know-how and state of the art distribution. Our design library, many base-cloths, and print facility make us a prime resource for Hospitality."
HD Expo,04/26/2022,2022,https://hdexpo.hospitalitydesign.com/,DM,Royal Thai,3631,,http://www.royalthai.com,,,,"Calhoun, GA United States",United States,Carpet,,,"As carpet designers and collaborators, inspiration comes from many places. Partnering with a wide variety of artists from around the world, we offer a multicultural perspective and have an extensive library of patterns to choose from, or you can customize your own piece to enhance your brand and overall vision. With a focus on the hospitality industry, we can help you create a feeling that welcomes guests in and enhances their stay. No matter where in the world our carpets roll out, they capture the attentation and allow you to add the finishing touch to spaces and stories."
HD Expo,04/26/2022,2022,https://hdexpo.hospitalitydesign.com/,DM,Rigo Wallcoverings,4160,,http://www.rigowall.com,,,,"Paterson, NJ United States",United States,Embossed/Relief | Fabric | Wallpapers | Wood,,,"Rigo Industries is the leading independent manufacturer of vinylwallcovering for the commercial ,hospitality and healthcare markets."
HD Expo,04/26/2022,2022,https://hdexpo.hospitalitydesign.com/,DM,Royal Botania Corp.,3241,,http://www.royalbotania.com,,,,"New York, NY United States",United States,Umbrellas | Area Rugs | Outdoor | Outdoor | Outdoor/Casual | Outdoor/Casual Tables,,,
HD Expo,04/26/2022,2022,https://hdexpo.hospitalitydesign.com/,DM,Samuel Lawrence Hospitality,4119,,http://www.slh-co.com,,,,"High Point, NC United States",United States,Headboards | Armoires/Bureaus | Bookcases/Desks/Endtables | Casegoods | Occasional | Barstools | Upholstered | Table Bases/Tops,,,"Samuel Lawrence Hospitality is part of Home Meridian International which is a sophisticated, global design, sourcing, and marketing company headquartered in High Point, NC. Through its global network of suppliers, the company imports in excess of 10,000 containers of all classes and styles of furniture annually. The SLH global business model allows us to produce furniture for hospitality applications and handle every step from design concepts through on-time delivery."
HD Expo,04/26/2022,2022,https://hdexpo.hospitalitydesign.com/,DM,Safemark,5424,,http://www.safemark.com,,,,"Orlando, FL United States",United States,Locks/Safes/Security,,,
HD Expo,04/26/2022,2022,https://hdexpo.hospitalitydesign.com/,DM,Rigidized Metals Corporation,3038,,https://www.rigidized.com,,,,"Buffalo, NY United States",United States,Acoustic/Sound | Awnings/Canopies | Ceilings/Columns/Millwork | Moulding/Rail | Privacy/Utility Screens | Signage | Walls/Partitions | Sculpture | Building materials | Green Products | Recycled materials | Glass/Metal/Wood/Stone | Panels,,,"As the originator and world leader of engineered surfaces, Rigidized Metals manufactures and fabricates one-of-a-kind sheet goods, wall coverings, and panels. The Rigidized Metals' texturing process adds strength, impact resistance, and the ability to hide scratches, while also allowing for down-gauging, resulting in lighter, longer-lasting products and reduced maintenance costs."
HD Expo,04/26/2022,2022,https://hdexpo.hospitalitydesign.com/,DM,Renwil Hospitality,3373,,http://www.renwil.com,,,,"Lasalle, QC Canada",Canada,Clocks | Original | Prints/Reproductions/Photography | Chandeliers/Pendants | Lamps,,,
HD Expo,04/26/2022,2022,https://hdexpo.hospitalitydesign.com/,DM,Ratana Contract,4324,,http://www.ratana.com,,,,"Vancouver, BC Canada",Canada,Umbrellas | Casual | Outdoor | Outdoor/Casual | Outdoor/Casual Tables | Table Bases/Tops,,,
HD Expo,04/26/2022,2022,https://hdexpo.hospitalitydesign.com/,DM,RD USA,2949,,http://www.rd-usa.com,,,,"Littleton, CO United States",United States,Umbrellas | Casual | Outdoor | Outdoor/Casual | Table Seating/Metal/Wood | Outdoor/Casual Tables | Table Bases/Tops,,,We are a premier manufacturer of Italian commercial-grade outdoor furniture.
HD Expo,04/26/2022,2022,https://hdexpo.hospitalitydesign.com/,DM,Room & Board Business Interiors,4643,,,,,,"Minneapolis, MN United States",United States,Minibars | Sinks/Vanities/Plumbing | Box Springs/ Mattresses | Leather/Suede | Upholstery | Armoires/Bureaus | Bookcases/Desks/Endtables | Cabinets | Carts | Casegoods | Casual | Occasional | Outdoor | Chandeliers/Pendants | Lamps | LED | Outdoor | Sconces | Banquettes/Benches | Barstools | Conference | Outdoor/Casual | Table Seating/Metal/Wood | Upholstered | Interior Design | Green Products | Recycled materials | Banquet/Conference Tables | Glass/Metal/Wood/Stone | Outdoor/Casual Tables | Table Bases/Tops,,,
HD Expo,04/26/2022,2022,https://hdexpo.hospitalitydesign.com/,DM,R&R Commercial,2940,,http://www.commercialspacefun.com/,,,,"Naples, FL United States",United States,Equipment | Outdoor | Banquet/Conference Tables | Gaming,,,
HD Expo,04/26/2022,2022,https://hdexpo.hospitalitydesign.com/,DM,RAINBOW,4267,,www.rainbow-outdoor.com,,,,"Gaziantep, Turkey",Turkey,,,,
HD Expo,04/26/2022,2022,https://hdexpo.hospitalitydesign.com/,DM,"Resort Supply, Inc.",4772,,http://www.resortsupply.com,,,,"Portland, OR United States",United States,Accessories,,,"Since 1981, Resort Supply has been a premier supplier of quality, unit-packed kitchen and bath housewares packages for the vacation ownership industry. We supply timeshare, fractional-ownership and extended-stay properties with customized unit-packed housewares collections.   Our mission is simple: to balance style and good taste with value to maximize our clients' budgets. We believe in products that stand the test of time, both with durability and classic design. Our in-house design team creates custom housewares packages to complement the ambiance of your property. We specialize in service and offer quality products at value prices. At Resort Supply, we strive to elevate the expectations of our clients and their guests.   BENEFITS OF RESORT SUPPLY: *  Customized Housewares Packages*  Hassle-Free, Unit-Packed Delivery*  Extensive Product Selection*  Warehoused Replenishment Inventory*  Family-Owned and Operated*  Certified Woman-Owned Business*  Dependable Customer Service"
HD Expo,04/26/2022,2022,https://hdexpo.hospitalitydesign.com/,DM,Quality & Company,5335,,http://www.qualityandcompany.com,,,,"Maple, ON Canada",Canada,Headboards | Banquettes/Benches | Barstools | Upholstered,,,
HD Expo,04/26/2022,2022,https://hdexpo.hospitalitydesign.com/,DM,Propac Images,3468,,http://www.propacimages.com,,,,"Albertville, AL United States",United States,Sculpture | Prints/Reproductions/Photography | Picture Frame Moulding | Clocks,,,
HD Expo,04/26/2022,2022,https://hdexpo.hospitalitydesign.com/,DM,Procedo Flooring,5565,,http://www.procedoflooring.com,,,,"Tuscumbia, AL United States",United States,Laminates/Vinyl,,,"Featuring some of the most durable, eco-friendly flooring products on the market today,"
HD Expo,04/26/2022,2022,https://hdexpo.hospitalitydesign.com/,DM,Richloom Contract,4425,,http://www.richloomcontract.com,,,,"New York, NY United States",United States,Bed Spreads/Comforters/Duvets | Drapery | Flame Retardant | Upholstery | Vinyl | Woven/Printed | Fabric,,,
HD Expo,04/26/2022,2022,https://hdexpo.hospitalitydesign.com/,DM,Pretty Rugged Gear,5708,,http://www.prettyruggedgear.com,,,,"Latham, NY United States",United States,,,,
HD Expo,04/26/2022,2022,https://hdexpo.hospitalitydesign.com/,DM,Poly Concepts,3044,,http://www.polyconcepts.com,,,,"St. Henry, OH United States",United States,Umbrellas | Outdoor | Banquettes/Benches | Cushions | Outdoor/Casual Tables,,,"Durable outdoor furniture that is beautifully designed and manufactured in USA from Andure  a polypropylene/ titanium alloy resin that is unbreakable, substantial in weight, UV resistant, stain resistant, chemical resistant, mildew resistant and recyclable.  Out-performs other products  virtually maintenance free  wont crack, pit, peel or yellow!"
HD Expo,04/26/2022,2022,https://hdexpo.hospitalitydesign.com/,DM,QuietRock by PABCO Gypsum,3267,,http://www.quietrock.com,,,,"Newark, CA United States",United States,Acoustic/Sound | Walls/Partitions | Building materials,,,"There are many amenities that keep customers coming back to your hotel--including good food, nice atmosphere, free wi-fi and more. However a Quiet® hotel room can really make or break the experience. That's where QuietRock® comes in."
HD Expo,04/26/2022,2022,https://hdexpo.hospitalitydesign.com/,DM,Preserved Interiors,3238,,http://www.preservedinteriors.com,,,,"San Diego, CA United States",United States,Artificial Plants/Flowers | Planters | Privacy/Utility Screens | Interior Design,,,
HD Expo,04/26/2022,2022,https://hdexpo.hospitalitydesign.com/,DM,Seura Inc,2905,,https://www.seura.com/,,,,"Green Bay, WI United States",United States,Clocks | Audio Visual | LED,,,
HD Expo,04/26/2022,2022,https://hdexpo.hospitalitydesign.com/,DM,Phillips Collection,3447,,https://www.phillipscollection.com,,,,"High Point, NC United States",United States,Mirrors/Lighted Mirrors | Planters | Original | Sculpture | Bookcases/Desks/Endtables | Casual | Occasional | Outdoor | Chandeliers/Pendants | Lamps | Barstools | Outdoor/Casual | Rattan/Wicker/Natural Fiber | Table Seating/Metal/Wood | Green Products | Banquet/Conference Tables | Glass/Metal/Wood/Stone | Outdoor/Casual Tables | Table Bases/Tops,,,
HD Expo,04/26/2022,2022,https://hdexpo.hospitalitydesign.com/,DM,Paragon,5923,,http://www.paragonpg.com,,,,"Albertville, AL United States",United States,Clocks | Mirrors/Lighted Mirrors | Original | Picture Frame Moulding | Prints/Reproductions/Photography | Sculpture | Lamps,,,
HD Expo,04/26/2022,2022,https://hdexpo.hospitalitydesign.com/,DM,Paulduan Creations Inc.,3226,,,,,,"Chino Hills, CA United States",United States,,,,
HD Expo,04/26/2022,2022,https://hdexpo.hospitalitydesign.com/,DM,Palecek,3955,,http://www.palecek.com,,,,"Richmond, CA United States",United States,"Clocks | Accessories | Headboards | Casegoods | Outdoor | Cabinet, Furniture, Display | Chandeliers/Pendants | Lamps | Outdoor | Barstools | Outdoor/Casual | Rattan/Wicker/Natural Fiber | Table Seating/Metal/Wood | Upholstered | Outdoor/Casual Tables | Rattan/Wicker/Natural Fiber",,,
HD Expo,04/26/2022,2022,https://hdexpo.hospitalitydesign.com/,DM,Oxford Garden,5235,,http://www.oxfordgarden.com,,,,"Simpsonville, KY United States",United States,Planters | Umbrellas | Outdoor | Banquettes/Benches | Barstools | Cushions | Outdoor/Casual | Rattan/Wicker/Natural Fiber | Stacking | Table Seating/Metal/Wood | Upholstered | Glass/Metal/Wood/Stone | Outdoor/Casual Tables | Table Bases/Tops,,,"For more than 20 years Oxford Garden has created outdoor furniture with thoughtful design made right, this philosophy permeates everything we do. Beginning with our design process, each piece of furniture is tailored to achieve a balance of form, function. and commercial-grade quality. Our commitment to “making it right” continues through the service and support we provide through the purchase and installation process. We are committed to providing customer satisfaction and fostering long-term relationships."
HD Expo,04/26/2022,2022,https://hdexpo.hospitalitydesign.com/,DM,Other Furniture Corp,5765,,http://myotherfurniture.com,,,,"Houston, TX United States",United States,Acoustic/Sound | Ceilings/Columns/Millwork | Signage | Walls/Partitions | Headboards | Laminates | Surfacing materials | Laminates/Vinyl | Wood | Bookcases/Desks/Endtables | Interior Design | Design software | Embossed/Relief | Panels | Wood,,,
HD Expo,04/26/2022,2022,https://hdexpo.hospitalitydesign.com/,DM,P Kaufmann,3734,,http://www.pkcontract.com,,,,"New York, NY United States",United States,Bed Spreads/Comforters/Duvets | Drapery | Flame Retardant | Leather/Suede | Silk | Upholstery | Vinyl | Woven/Printed | Blinds/Shutters | Fabric,,,"P/Kaufmann Contract is the premier textile design company supplying window, bedding, and upholstery solutions to the global hospitality industry. Honoring the legacy founder Peter Kaufmann began in 1957, the company continues to build on P/Kaufmann’s reputation for design, quality, and value with a comprehensive range of performance textiles, finished products and custom development capabilities. Recognized as a leading innovator in print technology and design, P/Kaufmann Contract has been translating inspiration into award-winning fabrics for over 60 years."
HD Expo,04/26/2022,2022,https://hdexpo.hospitalitydesign.com/,DM,OutDesign Group and A Squared Design Studio,2823,,http://www.outdesigngroup.com,,,,"Boca Raton, FL United States",United States,Planters | Umbrellas | Outdoor | Barstools | Cushions | Outdoor/Casual | Rattan/Wicker/Natural Fiber | Stacking | Table Seating/Metal/Wood | Upholstered | Outdoor/Casual Tables | Rattan/Wicker/Natural Fiber | Table Bases/Tops,,,"OutDesign Group offers an array of unique and innovative outdoor furniture products that meet any budget.  Everything from lounge seating, poolside or beach seating, dining tables, chairs and bar stools, umbrellas, swings, ocean beds, cabanas and much more.  Our goal is to make your outdoor space comfortable, functional and stylish."
HD Expo,04/26/2022,2022,https://hdexpo.hospitalitydesign.com/,DM,Ortal USA,3769,,http://www.ortalheat.com,,,,"Canoga Park, CA United States",United States,Energy Management Systems | Gas,,,"Ortal has been the world's premiere designer and builder of high-quality contemporary gas fireplaces. Our fireplaces and patented features that ensure ultimate flexibility, safety and comfort, are produced in-house. They are constantly updated to offer the latest technologies and to set the trends for gas fireplace design and adaptability. Ortal's extensive selection of modern fireplaces is the largest in North America and are available in an array of sizes to suit various design and architectural needs."
HD Expo,04/26/2022,2022,https://hdexpo.hospitalitydesign.com/,DM,Old Mill Brick,5843,,http://www.oldmillbrick.com,,,,"Bluffdale, UT United States",United States,Stone | Walls/Partitions | Surfacing materials | Tile/Marble/Stone/Mosiac | Marble/Stone/Tile | Panels,,,"Old Mill Brick is disrupting a growing industry with consumer-first innovation and digital-first storytelling. We have created the easiest & most cost effective way to install thin brick - in your home or on your commercial project. BrickPanel+ and StonePanel+, our patented foam-panel systems with continuous insulation; Brickwebb, our patented webbed thin brick mosaic; and our revolutionary line of complimentary materials allows thin bricks to be installed efficiently and easily."
HD Expo,04/26/2022,2022,https://hdexpo.hospitalitydesign.com/,DM,OpenKey,2939,,http://www.openkey.co,,,,"Lewisville, TX United States",United States,Locks/Safes/Security | Hardware | General Services | Mobile apps,,,
HD Expo,04/26/2022,2022,https://hdexpo.hospitalitydesign.com/,DM,Onity Inc.,4763,,http://www.onity.com,,,,"Salem, OR United States",United States,Locks/Safes/Security | Energy Management Systems | Mobile apps,,,"Onity supports the hospitality, commercial, education and military segments with a full spectrum of electronic locking, access control and mobile key solutions. Since 1986, Onity has been a global leader in electronic access solutions, serving customers in more than 125 countries around the globe. Our DirectKey mobile access system is built on a proven platform that has unlocked more than 100 million doors in the past five years, across 2,000 cities around the world. Onity continues to deliver technology that not only delights guests, but helps further build hotelier loyalty with innovative design and technology."
HD Expo,04/26/2022,2022,https://hdexpo.hospitalitydesign.com/,DM,Perennials,3205,,,,,,"Dallas, TX United States",United States,,,,
HD Expo,04/26/2022,2022,https://hdexpo.hospitalitydesign.com/,DM,Oasiq,3163,,http://www.oasiq.com,,,,"New York, NY United States",United States,Rattan/Wicker/Natural Fiber | Table Bases/Tops | Banquet/Conference Tables | Gaming | Glass/Metal/Wood/Stone | Outdoor/Casual Tables | Casual | Outdoor | Carts | Banquettes/Benches | Barstools | Outdoor/Casual,,,"OASIQ is passionate about enrich­ing people’s experience of outdoor living. We believe that an appeal­ing outdoor setting, crafted with attention to detail, contributes to people’s feeling of well-being. By creating beautiful and unique outdoor furniture that reflects the simple elegance of nature’s own creations, we hope to inspire you to join us on our journey of inspi­ration. A journey to discover the way outdoor living is meant to be: Inspired by nature. Crafted for people."
HD Expo,04/26/2022,2022,https://hdexpo.hospitalitydesign.com/,DM,Ogallala Comfort Company,2941,,www.ogallalacomfortcompany.com,,,,"OGALLALA, NE United States",United States,,,,
HD Expo,04/26/2022,2022,https://hdexpo.hospitalitydesign.com/,DM,Old Hickory Furniture Co Inc,3827,,http://www.oldhickory.com,,,,"Shelbyville, IN United States",United States,Sinks/Vanities/Plumbing | Headboards | Sofabeds/Wallbeds | Casegoods | Casual | Occasional | Outdoor | Ceiling Fans | Chandeliers/Pendants | Lamps | Banquettes/Benches | Barstools | Outdoor/Casual | Rattan/Wicker/Natural Fiber | Stacking | Upholstered | Gaming | Outdoor/Casual Tables | Table Bases/Tops,,,"Old Hickory Furniture Company is America's favorite rustic furniture for hospitality and residential uses.  Since 1899, Old Hickory has set the standard for high-quality furnishings that are made in America.  Old Hickory can bring natural beauty to any project.  Come see us today!"
HD Expo,04/26/2022,2022,https://hdexpo.hospitalitydesign.com/,DM,POLaRT,5813,,http://www.polart.com.mx,,,,"Laredo, TX United States",United States,Children's | Occasional | Outdoor | Armoires/Bureaus,,,"Often described as fun, urban-chic design, POLaRT is a unique expression. We've taken old time favorites and converted them into statement pieces for contemporary interiors. Throughout our collection you will find a series of revolutionary pieces that can be provided in a wide array of colors."
HD Expo,04/26/2022,2022,https://hdexpo.hospitalitydesign.com/,DM,OPTIDOMO,2619,,www.lightdeco.cn/optidomo,,,,"Zongshan, China",China,,,,
HD Expo,04/26/2022,2022,https://hdexpo.hospitalitydesign.com/,DM,New Growth Designs,4567,,http://www.newgrowthdesigns.com,,,,"Greenville, NC United States",United States,Artificial Plants/Flowers | Planters | Tabletop Products,,,"Enduraleaf artificial greenery provides synthetic solutions for hard to grow areas such as rooftops, irrigation challenged environments and shaded areas. Well known for Boxwood Hedges, Topiaries and Greenwalls, Enduraleaf also features a variety of other Greeneries, Grasses, Flowers and Succulents. All Enduraleaf branded products are made of a propietary formula that includes a class leading 5-year warranty against UV-degradation.  New Growth Designs also offers exquisite, realistic Flowers, Plants and Trees for indoors."
HD Expo,04/26/2022,2022,https://hdexpo.hospitalitydesign.com/,DM,Phillip Jeffries Ltd.,4543,,http://www.phillipjeffries.com,,,,"Fairfield, NJ United States",United States,Moulding/Rail | Stone | Embossed/Relief | Fabric | Wallpapers,,,"Phillip Jeffries Ltd. is the leading resource for natural textured and specialty wallcoverings. Working hand in hand with skilled artisans since 1976 to create the most unique and sought-after wallcoverings, the company is well-regarded in the design industry for its innovative textures, stock and service."
HD Expo,04/26/2022,2022,https://hdexpo.hospitalitydesign.com/,DM,National Lighting Corp,4954,,http://www.nationallighting.com,,,,"Cerritos, CA United States",United States,"Charging Stations | Cabinet, Furniture, Display | Fluorescent | Lamps | LED | Theatrical/Track/Recess",,,"National Lighting is a leading supplier of LED task & accent lighting and also offers a number options for docking stations, power strips, USB charging and wireless charging solutions. We pride ourselves on working closely with our customers during development to ensure we offer the best products possible."
HD Expo,04/26/2022,2022,https://hdexpo.hospitalitydesign.com/,DM,Nardi USA,4755,,http://www.nardioutdoor.com,,,,"Quincy, MA United States",United States,Casual | Outdoor | Barstools | Conference | Outdoor/Casual | Stacking | Gaming | Outdoor/Casual Tables | Table Bases/Tops,,,"Nardi is Italy's leading producer of modern outdoor furniture.  Made of polypropylene resins, Nardi is strong enough to withstand the harshest of envirnomental conditions.  All of our chairs and chaise loungers are stackable and many of our tables either fold or have a tilting top.  Breathe new life into your outdoors with Nardi!"
HD Expo,04/26/2022,2022,https://hdexpo.hospitalitydesign.com/,DM,MS International,5735,,https://hospitality.msisurfaces.com,,,,"Orange, CA United States",United States,Stone | Sinks/Vanities/Plumbing | Marble/Stone/Tile,,,
HD Expo,04/26/2022,2022,https://hdexpo.hospitalitydesign.com/,DM,"MunnWorks, LLC",3619,,http://www.munnworks.com,,,,"Mount Vernon, NY United States",United States,Clocks | Picture Frame Moulding | Prints/Reproductions/Photography,,,Mirrors by MunnWorks are made in America combining craftsmanship with modern manufacturing to meet all your design specifications. Public space mirrors that create distinction and guest room mirrors that deliver the right purchasing economics for national programs to luxury properties.
HD Expo,04/26/2022,2022,https://hdexpo.hospitalitydesign.com/,DM,Moore & Giles Inc,3005,,http://www.mooreandgilesinc.com,,,,"Forest, VA United States",United States,Leather/Suede,,,
HD Expo,04/26/2022,2022,https://hdexpo.hospitalitydesign.com/,DM,Nua Coleccion,5925,,http://www.nuacoleccion.com,,,,"Mexico City, Mexico City Mexico",Mexico,Drapery | Flame Retardant | Upholstery | Woven/Printed,,,
HD Expo,04/26/2022,2022,https://hdexpo.hospitalitydesign.com/,DM,Numera Lighting,2824,,http://www.numeralighting.com,,,,"Baltimore, MD United States",United States,Signage | LED | Sconces,,,"Our Unit Number Sconces are bringing corridors to life! By combining unit entry lighting with ADA compliant addressing signage, we can bring cost savings and a new look to your project. Our fixtures come complete with Braille and custom suite numbering. From backlit number signs to decorative sconces, we offer a vast array of styles and have extensive experience in custom lighting design. Consider Unit Number Sconces to bring illuminated signage to your hallway and elevate your guestroom entryways!"
HD Expo,04/26/2022,2022,https://hdexpo.hospitalitydesign.com/,DM,Moveline Hospitality,5564,,http://www.movelinehospitality.com,,,,"Arlington, TX United States",United States,Install/Transport,,,
HD Expo,04/26/2022,2022,https://hdexpo.hospitalitydesign.com/,DM,Momentum Textiles & Wallcoverings,4619,,http://www.memosamples.com,,,,"Irvine, CA United States",United States,,,,
HD Expo,04/26/2022,2022,https://hdexpo.hospitalitydesign.com/,DM,Modern Forms/WAC Lighting,3648,,http://modernforms.com/,,,,"Port Washington, NY United States",United States,"Cabinet, Furniture, Display | Ceiling Fans | Chandeliers/Pendants | Fluorescent | Lamps | Outdoor | Theatrical/Track/Recess",,,
HD Expo,04/26/2022,2022,https://hdexpo.hospitalitydesign.com/,DM,Moen Incorporated,3941,,http://www.moen.com,,,,"North Olmsted, OH United States",United States,Accessories | Sinks/Vanities/Plumbing,,,
HD Expo,04/26/2022,2022,https://hdexpo.hospitalitydesign.com/,DM,MityLite & Holsag,3927,,https://www.mitylite.com,,,,"Orem, UT United States",United States,Carts | Outdoor | Banquettes/Benches | Barstools | Conference | Outdoor/Casual | Stacking | Table Seating/Metal/Wood | Upholstered | Banquet/Conference Tables | Folding | Outdoor/Casual Tables | Table Bases/Tops,,,"MITY Inc. is an award-winning manufacturer of professionally designed meeting, event, restaurant and banquet furniture. We’re known for lightweight, durable folding tables, stacking chairs, folding chairs and banquet presentation tables. We also offer portable dance floors, staging, partitions and carts. Our high-quality products come in a wide variety of sizes and styles, all backed by a generous warranty and factory-direct customer service."
HD Expo,04/26/2022,2022,https://hdexpo.hospitalitydesign.com/,DM,Mingja Inc,5329,,http://www.mingja.net,,,,"Temple City, CA United States",United States,Outdoor | Banquettes/Benches | Barstools | Outdoor/Casual | Upholstered | Outdoor/Casual Tables | Rattan/Wicker/Natural Fiber | Table Bases/Tops,,,"We are a manufacturer of restaurant furniture including chairs, booths, tables and bars.If you are looking for restaurant furniture or other commercial seating and supplies, we are right here just for you!"
HD Expo,04/26/2022,2022,https://hdexpo.hospitalitydesign.com/,DM,Minibar Systems,3369,,http://www.minibarna.com,,,,"Rockville, MD United States",United States,Appliances | Locks/Safes/Security | Minibars,,,"In-Room Fridges and Refrigerators- SmartFridges and GuestFridges - SuperConductor (Peltier) Systems & Compressor Systems, In-Room Minibars - Honor Bars, Automated Minibar,  Wine Coolers Beverage Fridge,  In-Room Safes - SmartBox guest safes."
HD Expo,04/26/2022,2022,https://hdexpo.hospitalitydesign.com/,DM,Mirror-tique,3562,,http://www.mirror-tique.com,,,,"Birmingham, AL United States",United States,Clocks | Original,,,"Mirror-tique offers fully custom distressed, imprinted, and artistic mirror. We cover the full spectrum of mirror, from a simple aged look, to imposing graphic images behind distressed mirror. We can work with you to inspire ideas, and implement your vision, for any space. We offer mirror panels for wall installation, or framed pieces in iron, gilded iron, or aluminum. Let us help make your space unique, with our custom colors, patterns, and designs."
HD Expo,04/26/2022,2022,https://hdexpo.hospitalitydesign.com/,DM,Mirror Image,3256,,http://www.mirrorimagehospitality.com,,,,"Commerce, CA United States",United States,Clocks | Decorative Glass | Moulding/Rail | Original | Picture Frame Moulding | Prints/Reproductions/Photography | Sculpture,,,"Mirror Image has produced custom mirrors, backlit mirrors and customized art for large hotels and resorts around the world for over 25 years. Recently launching REMi, a technology solution for hotels. Visit iamremi.io for more info."
HD Expo,04/26/2022,2022,https://hdexpo.hospitalitydesign.com/,DM,MDC Interior Solutions,2819,,http://www.mdcwallcoverings.com,,,,"Glendale Heights, IL United States",United States,Mirrors/Lighted Mirrors | Acoustic/Sound | Embossed/Relief | Fabric | Paint/Paint Systems | Panels | Wallpapers | Wood,,,"MDC is one of the world’s largest sources for commercial wall designs and coatings. A proven leader in the hospitality segment, the company provides a broad array of products suiting a myriad of aesthetic preferences and functional needs. MDC’s portfolio includes: eco-friendly products, digital imaging solutions, paint/coatings, curated wall art, hand-crafted wall designs, dry-erase, decorative wall panels, luxury textiles, metallic foils, grasses, woods and vinyl wallcovering."
HD Expo,04/26/2022,2022,https://hdexpo.hospitalitydesign.com/,DM,"Metro Light and Power, LLC",5123,,http://www.metrolightandpower.com,,,,"Englewood, NJ United States",United States,"CommercialSupplies | Energy Management Systems | Cabinet, Furniture, Display | Lighting Control Systems | Outdoor",,,
HD Expo,04/26/2022,2022,https://hdexpo.hospitalitydesign.com/,DM,Mincey Marble Manufacturing,3121,,http://www.minceymarble.com,,,,"Gainesville, GA United States",United States,Accessories | Shower Curtains/Enclosures | Tile/Marble/Stone/Mosiac | Green Products | Panels,,,"Established in 1977, Mincey Marble is recognized as a leader in the design and production of cast marble tub and shower surrounds, shower pans and shower accessories for the Hospitality, Multifamily, Military and Student Housing markets. Our panel systems have the look of tile or stone without the maintenance and sanitary issues associated with grout. We offer a full line of glass shower enclosures featuring the latest in fixed glass, hinged, bow front and frameless bypass barn doors. All our cast marble products are manufactured in the USA. More information at minceymarble.com."
HD Expo,04/26/2022,2022,https://hdexpo.hospitalitydesign.com/,DM,Mattress Firm Commercial Sales,5701,,,,,,"Houston, TX United States",United States,Box Springs/ Mattresses,,,"With Mattress Firm Commercial Sales you'll save time, money and energy for all your mattress solutions."
HD Expo,04/26/2022,2022,https://hdexpo.hospitalitydesign.com/,DM,Maxim Douglas,2960,,http://www.maximdouglas.com,,,,"Ventura, CA United States",United States,,,,
HD Expo,04/26/2022,2022,https://hdexpo.hospitalitydesign.com/,DM,MicroFridge/Danby,3964,,http://www.microfridge.com,,,,"Foxboro, MA United States",United States,Appliances | Minibars,,,"MicroFridge by Danby® is the leader in small space convenience. Danby compact and full size appliances have been providing quality compact refrigerators to the hospitality industry for years. Our two brands have focused on providing innovative & reliable specialty appliances for small space living environments. Whether you're looking for combination appliance, a compact single-door refrigerator, a basic microwave, or full size units for Extended Stay, we have what you need."
HD Expo,04/26/2022,2022,https://hdexpo.hospitalitydesign.com/,DM,Medallion Lighting Corporation,5567,,http://www.medallionlighting.com,,,,"Mentor, OH United States",United States,Clocks | Accessories | Ceiling Fans | Chandeliers/Pendants | Fluorescent | Lamps | LED,,,"Medallion Contract Lighting is a STOCKING leading distributor of hotel lighting needs for leading branded and independent properties.  We feature all in-room lamps, vanity fixtures, entry sconces, ADA corridor sconces, and public space lighting.  We are featuring over 30 stocked matched room collections along with hundreds of individual selections and styles ranging from contemporary, transitional, and traditional."
HD Expo,04/26/2022,2022,https://hdexpo.hospitalitydesign.com/,DM,"Materials, Inc",5324,,http://www.materials-inc.com,,,,"Hackensack, NJ United States",United States,Marble/Stone/Tile | Wood | Laminates/Vinyl | Wood | Doors,,,
HD Expo,04/26/2022,2022,https://hdexpo.hospitalitydesign.com/,DM,Mamagreen,5267,,http://www.mamagreen.com,,,,"Richmond, VA United States",United States,Planters | Umbrellas | Casual | Children's | Occasional | Outdoor | Banquettes/Benches | Barstools | Outdoor/Casual | Rattan/Wicker/Natural Fiber | Stacking | Table Seating/Metal/Wood | Upholstered | Outdoor/Casual Tables,,,"MAMAGREEN is a premium innovative outdoor furniture brand, renowned for Belgian design excellence. Founded by CEO Vincent Cantaert in 2007, the company is incorporated in the USA, owns its’ own factory in Indonesia and features in impressive high-end residential and commercial projects worldwide. Two catalogs are updated annually; collections, and industrial. Designs incorporate a majority of recycled or recyclable materials, and business ethics extend to demonstrable social responsibility."
HD Expo,04/26/2022,2022,https://hdexpo.hospitalitydesign.com/,DM,Malar Contract Lighting,5524,,http://www.malarlighting.com,,,,"Morristown, TN United States",United States,Chandeliers/Pendants | Fluorescent | Lamps | LED | Sconces,,,
HD Expo,04/26/2022,2022,https://hdexpo.hospitalitydesign.com/,DM,Malouf,4562,,http://maloufsleep.com,,,,"Nibley, UT United States",United States,Robes/Slippers/Linens | Bed Spreads/Comforters/Duvets | Box Springs/ Mattresses | Headboards,,,
HD Expo,04/26/2022,2022,https://hdexpo.hospitalitydesign.com/,DM,Maison Hospitality Furnishings,5709,,http://www.maisonhospitalityfurnishings.com,,,,"Lake Elsinore, CA United States",United States,Armoires/Bureaus | Bookcases/Desks/Endtables | Cabinets | Carts | Casegoods | Casual | Banquet/Conference Tables | Table Bases/Tops,,,Maison Hospitality Furnishings builds domestic casegoods in our factory in Los Angeles for design and procurement firms.
HD Expo,04/26/2022,2022,https://hdexpo.hospitalitydesign.com/,DM,"Navien, Inc.",4060,,https://www.navieninc.com/,,,,"Irvine, CA United States",United States,Energy Management Systems | Indoor/Outdoor,,,"Hot water and whole house comfort from Navien, Inc. Innovations and high-efficiency make Navien the best choice for domestic hot water, heating and combi applications. Building and homeowners appreciate the efficiency, reliability and durability of Navien tankless water heaters and boilers over other outdated and inefficient systems. Navien tankless water heaters -"
HD Expo,04/26/2022,2022,https://hdexpo.hospitalitydesign.com/,DM,Mario Contract Lighting,3105,,http://www.mariocontractlighting.com,,,,"Roanoke, VA United States",United States,Chandeliers/Pendants | Lamps | LED | Outdoor | Sconces,,,Decorative lighting manufacturer for the hospitality industry. Domestic and custom production capabilities.
HD Expo,04/26/2022,2022,https://hdexpo.hospitalitydesign.com/,DM,m.a.d furniture design,5642,,http://www.madfurnituredesign.com,,,,"Maple Grove, MN United States",United States,Bookcases/Desks/Endtables | Casual | Occasional | Outdoor | Lamps | Barstools | Outdoor/Casual | Stacking | Table Seating/Metal/Wood | Upholstered | Glass/Metal/Wood/Stone | Outdoor/Casual Tables,,,
HD Expo,04/26/2022,2022,https://hdexpo.hospitalitydesign.com/,DM,Marlik Del Centro S.A D.E. C.V.,5660,,http://www.marlik.com.mx,,,,"San Luis Potosi, Mexico",Mexico,,,,
HD Expo,04/26/2022,2022,https://hdexpo.hospitalitydesign.com/,DM,LIXIL Water Technology Americas,5019,,http://www.lixil.com,,,,"Piscataway, NJ United States",United States,Accessories | Shower Curtains/Enclosures | Sinks/Vanities/Plumbing | Whirlpools/Saunas | Tile/Marble/Stone/Mosiac | Marble/Stone/Tile | Sconces | Water conservation,,,
HD Expo,04/26/2022,2022,https://hdexpo.hospitalitydesign.com/,DM,Lightwave Laser,2769,,https://lightwavelaser.com,,,,"Santa Rosa, CA United States",United States,"Ceilings/Columns/Millwork | Doors | Moulding/Rail | Privacy/Utility Screens | Signage | Walls/Partitions | Original | Headboards | Outdoor | Cabinet, Furniture, Display | Chandeliers/Pendants | Lamps | Outdoor | Embossed/Relief | Panels | Wood | Blinds/Shutters",,,"Lightwave Laser offers precision laser cutting, primarily serving the hospitality, healthcare and residential industries. We combine unmatched technical ability with an extensive pattern library, or can create custom art.  Our elegant panels are used as wall partitions, ceiling panels, backlit lighting and window covers as a few examples.  We laser cut in a variety of materials, including wood, steel and aluminum up to 5'x10' and thicknesses up to 1"".  Internal finishing capabilities including powder coating on MDF and metals. Visit the website to view installation photos."
HD Expo,04/26/2022,2022,https://hdexpo.hospitalitydesign.com/,DM,Majestic International,4663,,https://www.majesticrobe.com/,,,,"St. Laurent, QC Canada",Canada,Robes/Slippers/Linens,,,
HD Expo,04/26/2022,2022,https://hdexpo.hospitalitydesign.com/,DM,Majestic,3835,,http://www.majesticmirror.com,,,,"Miami, FL United States",United States,Clocks | Decorative Glass | Original | Prints/Reproductions/Photography | Sculpture | Stained Glass | Accessories | LED,,,"Providing the hospitality industry for the past 20 years with Decorative framed mirrors, lit mirrors, TV mirrors, make up mirrors, frame-less mirrors, three dimensional decorative artwork, and framed artwork. Specializing in custom designs and finishes. Competitive pricing with unparalleled customer service and quality."
HD Expo,04/26/2022,2022,https://hdexpo.hospitalitydesign.com/,DM,Look Wallcoverings,4463,,http://www.lookwalls.com,,,,"Dallas, TX United States",United States,Embossed/Relief | Fabric | Wallpapers,,,
HD Expo,04/26/2022,2022,https://hdexpo.hospitalitydesign.com/,DM,LES Jardins,5209,,http://www.lesjardins.com,,,,"Pasadena, CA United States",United States,Glass/Metal/Wood/Stone | Outdoor/Casual Tables | Rattan/Wicker/Natural Fiber | Table Bases/Tops | Banquet/Conference Tables | Gaming | Planters | Umbrellas | Accessories | Shower Curtains/Enclosures | Spa Equipment | Wood | Bookcases/Desks/Endtables | Carts | Casegoods | Casual | Occasional | Outdoor | Lamps | Outdoor | Banquettes/Benches | Barstools | Conference | Cushions | Outdoor/Casual | Rattan/Wicker/Natural Fiber | Stacking | Table Seating/Metal/Wood | Upholstered,,,
HD Expo,04/26/2022,2022,https://hdexpo.hospitalitydesign.com/,DM,Leggett & Platt Inc.,4635,,http://lphospitality.com/,,,,"Carthage, MO United States",United States,Pillows | Bed Spreads/Comforters/Duvets | Headboards | Sofabeds/Wallbeds | Drapery | Upholstery | Woven/Printed | Carpet Padding/Cove Base/Binding | Children's | Banquettes/Benches | Conference | Upholstered | Fabric,,,"LP Hospitality serves hotels/motels, offices, hospitals, cruise ships, restaurants. Products include furniture mechs, sofa sleepers, bed frames/bases, pillow/mattress protectors, drapery/blackout/sheer window products, carpet cushion/acoustical underlayment—for both public/private areas."
HD Expo,04/26/2022,2022,https://hdexpo.hospitalitydesign.com/,DM,Leisure Creations Furniture,4767,,http://www.leisurecreationsfurniture.com,,,,"Russellville, AL United States",United States,Pillows | Planters | Umbrellas | Awnings/Canopies | Outdoor | Banquettes/Benches | Barstools | Cushions | Outdoor/Casual | Rattan/Wicker/Natural Fiber | Stacking | Table Seating/Metal/Wood | Green Products | Recycled materials | Glass/Metal/Wood/Stone | Outdoor/Casual Tables | Table Bases/Tops,,,"Our motto continues to be, """
HD Expo,04/26/2022,2022,https://hdexpo.hospitalitydesign.com/,DM,LETA,4943,,https://leta.com.tr/,,,,"Kucukcekmece / Istanbul, Istanbul Turkey",Turkey,Armoires/Bureaus | Casual | Occasional | Outdoor | Banquettes/Benches | Barstools | Conference | Cushions | Outdoor/Casual | Rattan/Wicker/Natural Fiber | Stacking | Table Seating/Metal/Wood | Upholstered | General Services | Interior Design,,,
HD Expo,04/26/2022,2022,https://hdexpo.hospitalitydesign.com/,DM,Lefroy Brooks/Cooper & Graham,3563,,http://www.lefroybrooks.com,,,,"New York, NY United States",United States,Accessories | Sinks/Vanities/Plumbing,,,
HD Expo,04/26/2022,2022,https://hdexpo.hospitalitydesign.com/,DM,Ledge Lounger,3427,,https://ledgeloungers.com,,,,"Katy, TX United States",United States,Pillows | Umbrellas | Casual | Outdoor | Barstools | Outdoor/Casual | Stacking | Outdoor/Casual Tables,,,"Our products are designed to create perfect outdoor spaces for entertaining and relaxation. Featuring classic outdoor furniture pieces, stylish, convenience-adding accessories, and our signature in-pool furniture for in water use, all Ledge Lounger products are made of high-quality materials and designed to withstand the elements, so you can relax with peace of mind and enjoy the amenities of the outdoors all year round."
HD Expo,04/26/2022,2022,https://hdexpo.hospitalitydesign.com/,DM,La Bastille,4362,,https://labastille.com/,,,,"Garden City, GA United States",United States,,,,
HD Expo,04/26/2022,2022,https://hdexpo.hospitalitydesign.com/,DM,Lily Jack,4435,,http://www.lilyjack.com,,,,"Inglewood, CA United States",United States,Headboards | Sofabeds/Wallbeds | Armoires/Bureaus | Bookcases/Desks/Endtables | Casegoods | Occasional | Banquettes/Benches | Barstools | Conference | Cushions | Table Seating/Metal/Wood | Upholstered | Glass/Metal/Wood/Stone | Table Bases/Tops,,,"Lily Jack is a fourth generation furniture manufacturer focused on luxury furniture design and manufacturing in the high-end residential, commercial and hospitality industries."
HD Expo,04/26/2022,2022,https://hdexpo.hospitalitydesign.com/,DM,Lamps Plus Hospitality,5819,,http://www.lampsplushospitality.com,,,,"Chatsworth, CA United States",United States,"Clocks | Mirrors/Lighted Mirrors | Cabinet, Furniture, Display | Ceiling Fans | Chandeliers/Pendants | Fluorescent | Lamps | LED | Outdoor | Sconces | Theatrical/Track/Recess",,,
HD Expo,04/26/2022,2022,https://hdexpo.hospitalitydesign.com/,DM,"Lab Design Laminate, Inc.",4155,,http://www.interlam-design.com,,,,"Mount Airy, NC United States",United States,Acoustic/Sound | Ceilings/Columns/Millwork | Doors | Walls/Partitions | Laminates | Surfacing materials | Armoires/Bureaus | Bookcases/Desks/Endtables | Casegoods | Table Bases/Tops,,,"Lab Design has taken the best patterns available worldwide and combined them with our own fresh new designs, colors and textures to create the first High-End Laminate Collection without the High-End price.  Designers and Archtiects who are hungry for color and texture need not look any further.  We have over 400 combinations of color and finishes available.  We now have digital printing available!   Please visit our booth 2437 to see our latest and greatest and to discuss our new digital printing capabilities.."
HD Expo,04/26/2022,2022,https://hdexpo.hospitalitydesign.com/,DM,Lagoon,4965,,http://www.lagoonconcept.com,,,,"Bonita, CA United States",United States,Casual | Outdoor | Outdoor/Casual | Rattan/Wicker/Natural Fiber | Outdoor/Casual Tables | Rattan/Wicker/Natural Fiber | Indoor/Outdoor,,,"Mytek International, Inc./ Lagoon has been in business since 1989 and are the leading consumer electronic fan manufacturer in Mexico. In 2013 patio furniture is added to our product lines. Our factory is located in Tijuana, Mexico with 62 acers and has over 500 employees."
HD Expo,04/26/2022,2022,https://hdexpo.hospitalitydesign.com/,DM,Leftbank Art Company,3035,,http://www.leftbankart.com,,,,"La Mirada, CA United States",United States,Original | Prints/Reproductions/Photography | Wallpapers,,,"Leftbank Art, a 50 year established art, design and made-to-order company, offers distinctive imagery and exceptional quality. As a domestic manufacturer we deliver a quick turn around for art consulting, project planning and production. Art consulting services provided by our design team to create location specific images or a curated art collection.  Our team has long standing relationships with designers, specifiers and purchasing firms in hospitality, healthcare, senior lifestyle, commercial and the A&D community. Creating art that completes your vision."
HD Expo,04/26/2022,2022,https://hdexpo.hospitalitydesign.com/,DM,"Klem, a Jasper Group Brand",3411,,http://www.klemhospitality.com,,,,"Jasper, IN United States",United States,Headboards | Casegoods | Casual | Occasional | Cushions | Upholstered | Glass/Metal/Wood/Stone,,,"Furniture for Hospitality - Comfort. Customization. Convenience. These come standard with every piece of furniture bearing the Klem name. From luxurious to mainstream, our product will help you create not just customer visits, but customer experiences. Our reputation is built upon quality, service, flexibility and reliability. Made in the U.S.A. since 1933."
HD Expo,04/26/2022,2022,https://hdexpo.hospitalitydesign.com/,DM,Koroseal,3907,,http://www.koroseal.com,,,,"Fairlawn, OH United States",United States,Surfacing materials | Drapery | Upholstery | Woven/Printed | Embossed/Relief | Fabric | Paint/Paint Systems | Wallpapers | Wood,,,"Koroseal Interior Products is the premier commercial wallcovering manufacturer in the United States.  Koroseal supplies contract wallcoverings, digital wallcoverings, wall protection and Walltalkers. Koroseal is a solution driven company with highly trained sales people to help work with you on your project needs."
HD Expo,04/26/2022,2022,https://hdexpo.hospitalitydesign.com/,DM,Kindle Living,3569,,http://www.kindleliving.com,,,,"Los Angeles, CA United States",United States,Outdoor | Lamps | Outdoor,,,
HD Expo,04/26/2022,2022,https://hdexpo.hospitalitydesign.com/,DM,Kimball Hospitality,4143,,http://www.kimballhospitality.com,,,,"Jasper, IN United States",United States,Headboards | Armoires/Bureaus | Bookcases/Desks/Endtables | Casegoods | Casual | Occasional | Banquettes/Benches | Barstools | Table Seating/Metal/Wood | Upholstered | Glass/Metal/Wood/Stone | Table Bases/Tops,,,"Kimball Hospitality is the global leader in hospitality casegoods, in-room and public space seating primarily for 3 to 7-star properties. D'Style, a division of KH further expands our capabilities as a full facility provider with a focus on mixed materials and smaller quantities. We manufacture both foreign and domestic for custom and program projects. Our broad base allows us to service all continents."
HD Expo,04/26/2022,2022,https://hdexpo.hospitalitydesign.com/,DM,Klein USA,4164,,http://www.klein-usa.com,,,,"East Rutherford, NJ United States",United States,,,,
HD Expo,04/26/2022,2022,https://hdexpo.hospitalitydesign.com/,DM,Kenneth Cobonpue USA,4924,,http://www.kennethcobonpue.com,,,,"New York, NY United States",United States,Occasional | Outdoor | Chandeliers/Pendants | Lamps | Outdoor | Banquettes/Benches | Barstools | Outdoor/Casual | Rattan/Wicker/Natural Fiber | Glass/Metal/Wood/Stone | Outdoor/Casual Tables,,,Modern organic indoor & outdoor furniture and lighting.
HD Expo,04/26/2022,2022,https://hdexpo.hospitalitydesign.com/,DM,Kovet Hospitality,5825,,http://www.kovethospitality.com,,,,"Chula Vista, CA United States",United States,Banquettes/Benches | Barstools | Cushions | Outdoor/Casual | Rattan/Wicker/Natural Fiber | Stacking | Table Seating/Metal/Wood | Upholstered,,,
HD Expo,04/26/2022,2022,https://hdexpo.hospitalitydesign.com/,DM,Kettal Group,3055,,http://www.kettal.com,,,,"Coral Gables, FL United States",United States,Pillows | Planters | Umbrellas | Casual | Outdoor | Outdoor | LED | Outdoor | Sconces | Barstools | Cushions | Outdoor/Casual | Rattan/Wicker/Natural Fiber | Stacking | Table Seating/Metal/Wood | Upholstered | Glass/Metal/Wood/Stone | Outdoor/Casual Tables | Table Bases/Tops,,,
HD Expo,04/26/2022,2022,https://hdexpo.hospitalitydesign.com/,DM,Keller Collection,5373,,http://www.kellercollection.com,,,,"Bozeman, MT United States",United States,Prints/Reproductions/Photography,,,The Keller Collection is a vast collection of natural
HD Expo,04/26/2022,2022,https://hdexpo.hospitalitydesign.com/,DM,Justice Design Group LLC,3444,,http://www.jdg.com,,,,"Los Angeles, CA United States",United States,Chandeliers/Pendants | Lamps | LED | Outdoor | Sconces,,,
HD Expo,04/26/2022,2022,https://hdexpo.hospitalitydesign.com/,DM,Keca International,5343,,http://www.keca.ca,,,,"Montreal, QC Canada",Canada,Banquettes/Benches | Barstools | Conference | Cushions | Outdoor/Casual | Stacking | Table Seating/Metal/Wood | Upholstered | Banquet/Conference Tables | Outdoor/Casual Tables | Table Bases/Tops,,,"Keca International is one of the leading furniture manufacturers of fine quality customized table and seating in Montreal, Canada. We offer a wide selection of seating and table options for the hospitality, funeral homes, restaurants, and healthcare industries."
HD Expo,04/26/2022,2022,https://hdexpo.hospitalitydesign.com/,DM,Kravet Contract,3213,,http://www.kravetcontract.com,,,,"Bethpage, NY United States",United States,Pillows | Trimming | Leather/Suede | Drapery | Flame Retardant | Silk | Upholstery | Vinyl | Woven/Printed | Bed Spreads/Comforters/Duvets | Headboards | Area Rugs | Occasional | Banquettes/Benches | Barstools | Table Seating/Metal/Wood | Upholstered | Glass/Metal/Wood/Stone | Fabric | Wallpapers,,,"Kravet Contract, created in 1997 to service the contract hospitality market, offers a diverse range of woven products, sheers, and heat transfer prints to the hospitality, health care and A & D industries. For unique specifications, Kravet Contract offers a custom woven and custom print division dedicated to creating specialized fabric constructions and designs. Whether your requirements include durability, flammability, functionality or price point, Kravet Contract has products that will meet and exceed your specifying and design needs."
HD Expo,04/26/2022,2022,https://hdexpo.hospitalitydesign.com/,DM,Jasper Chair,2805,,http://www.jasperchair.com,,,,"Jasper, IN United States",United States,Barstools | Stacking | Table Seating/Metal/Wood | Upholstered | Table Bases/Tops,,,
HD Expo,04/26/2022,2022,https://hdexpo.hospitalitydesign.com/,DM,Jamf,2947,,www.jamf.com,,,,"Minneapolis, MN United States",United States,,,,
HD Expo,04/26/2022,2022,https://hdexpo.hospitalitydesign.com/,DM,Johns Manville,5761,,https://www.jm.com/goboard,,,,"Littleton, CO United States",United States,Tile/Marble/Stone/Mosiac | Marble/Stone/Tile,,,"Tile installation using GoBoard® by Johns Manville saves you time in all your projects, including mudrooms, bathrooms, entryways, or showers. GoBoard® is an ultra-lightweight, waterproof, and durable tile backer board that is easy to cut, handle and install. GoBoard weighs up to 80% less than cement backer boards, and it's engineered and tested for strength and durability yet can be cut right where it’s installed using a utility knife. Best of all, you can be ready to tile on the same day!"
HD Expo,04/26/2022,2022,https://hdexpo.hospitalitydesign.com/,DM,JTB Furniture Mfg,3335,,http://www.jtbfurniture.com,,,,"Columbus, MS United States",United States,Sinks/Vanities/Plumbing | Headboards | Armoires/Bureaus | Bookcases/Desks/Endtables | Casegoods | Occasional | Banquet/Conference Tables,,,"Manufacturing in the USA since 1932, JTB proudly makes quality case goods and vanities for most of the major brands and boutique properties. In our over 400,000 sq. ft.of state of the art factory in Columbus, MS, we continue to produce our well known running lines as well as many custom designs. Serving the hospitality industry for over 30 years...how may we serve you?"
HD Expo,04/26/2022,2022,https://hdexpo.hospitalitydesign.com/,DM,JANUS et Cie,4107,,http://www.janusetcie.com,,,,"West Hollywood, CA United States",United States,Pillows | Planters | Umbrellas | Drapery | Flame Retardant | Upholstery | Woven/Printed | Area Rugs | Carts | Casegoods | Casual | Children's | Occasional | Outdoor | Banquettes/Benches | Barstools | Conference | Cushions | Outdoor/Casual | Rattan/Wicker/Natural Fiber | Stacking | Table Seating/Metal/Wood | Upholstered | Install/Transport | Banquet/Conference Tables | Gaming | Glass/Metal/Wood/Stone | Outdoor/Casual Tables | Rattan/Wicker/Natural Fiber | Table Bases/Tops,,,"A leader in design-driven furnishings, JANUS et Cie serves hospitality clients with outstanding craftsmanship and unparalleled service. Since its founding in 1978, the company has grown into a comprehensive global resource with a diverse furniture catalog of over 6,000 pieces as well as endless custom options, underscored by a comprehensive line of fully stocked accessories and performance textiles. JANUS et Cie has inspired, influenced, and delivered for decades to create beautiful spaces inside and out."
HD Expo,04/26/2022,2022,https://hdexpo.hospitalitydesign.com/,DM,Innovative Hospitality Concepts Inc,4563,,http://www.experienceinnovative.com,,,,"Coral Springs, FL United States",United States,Locks/Safes/Security | Minibars,,,
HD Expo,04/26/2022,2022,https://hdexpo.hospitalitydesign.com/,DM,Inpro,4266,,https://www.inprocorp.com/markets/hospitality/,,,,"Muskego, WI United States",United States,Moulding/Rail | Privacy/Utility Screens | Signage | Walls/Partitions | Shower Curtains/Enclosures | Drapery | Embossed/Relief | Fabric | Fabric,,,"Since 1979, Inpro® has been making and servicing products with an obsessive commitment to protecting the appearance of buildings and the health and safety of the people who use them. Based in Muskego, Wisconsin, Inpro is a global manufacturer of door and wall protection, washroom systems, expansion joint systems, privacy systems, elevator protection systems and architectural signage."
HD Expo,04/26/2022,2022,https://hdexpo.hospitalitydesign.com/,DM,Innovations,4513,,http://www.innovationsusa.com,,,,"New York, NY United States",United States,Drapery | Embossed/Relief | Fabric | Wallpapers,,,"A design-driven, family-owned company, Innovations in Wallcoverings, Inc., has been creating unique solutions for interiors since 1975. Their Design Studio, based in New York City, collaborates with artisans around the world to develop solutions for the vertical plane—both wallcoverings and sheers—all offered with the highest level of personal service. At Innovations, the name speaks for itself."
HD Expo,04/26/2022,2022,https://hdexpo.hospitalitydesign.com/,DM,Inova LLC,3644,,http://www.inovabed.com,,,,"Guilderland Center, NY United States",United States,Sofabeds/Wallbeds | Casegoods | Gaming,,,"Inova is America’s leading manufacturer of innovative, multifunctional, and space-saving furniture within the hospitality industry.  Featuring our patented and freestanding TableBeds, Sofa-WallBeds, WallBeds, Sofa-TwinBeds and coordinating cabinetry systems, our hospitality line includes a wide range of styling options to achieve your design intent. Space planning, design assistance, and installation services are available upon request."
HD Expo,04/26/2022,2022,https://hdexpo.hospitalitydesign.com/,DM,IRCA,4260,,http://www.ircahotelservices.com,,,,"Phoenix, AZ United States",United States,Upholstery | Install/Transport | Interior Design,,,IRCA Hotel Services Specializes in Turn Key Renovations - FF&E Furniture Fixtures and Equipment Liquidation and Installation - Warehousing - Transportation - Furniture Resoration - Reupholstery - Wood Touch-Up and Repairs - Wood Refinishing - Generl Construction - Guest Room & Public Area Renovation - Floor & Wall Coverings - ADA Conversions
HD Expo,04/26/2022,2022,https://hdexpo.hospitalitydesign.com/,DM,International Art Properties,3930,,http://www.iapsf.com,,,,"Oakland, CA United States",United States,Planters | Outdoor | Trash/Recycling | Outdoor/Casual Tables,,,"IAP is a manufacturer of modern planters and trash containers, we utilize a method of construction that bonds metal to fiberglass. The result is a lightweight, beautiful and durable product, please visit us at www.iapsf.com to view our collection."
HD Expo,04/26/2022,2022,https://hdexpo.hospitalitydesign.com/,DM,Hubbardton Forge,3938,,http://www.hubbardtonforge.com,,,,"Castleton, VT United States",United States,Accessories | Ceiling Fans | Chandeliers/Pendants | Fluorescent | Lamps | LED | Outdoor,,,"For more than 45 years, Hubbardton Forge in Castleton, Vermont offers lighting solutions to meet customers’ needs, including a Customs Team that works closely with you—from modifying existing designs, to creating unique, custom, one-of-a-kind pieces. Quality craftsmanship, latest technology, reliable delivery times. We offer both indoor and outdoor lighting for commercial projects. With a dedicated Commercial Project Management team to take care of every detail from quoting to delivery, we work with specifiers and purchasing agents on projects of all sizes."
HD Expo,04/26/2022,2022,https://hdexpo.hospitalitydesign.com/,DM,Innovations in Lighting,5049,,https://www.innovationsinlighting.com,,,,"City of Industry, CA United States",United States,Chandeliers/Pendants | Lamps | LED | Sconces,,,"For more than 20 years, founder Rob Bruck has been at the forefront of hospitality lighting-- his work with nearly every major brand has helped set the standards across the industry.  Innovations in Lighting specializes in custom work for hotel guestrooms including table lamps, floor lamps, vanity lights, ceiling fixtures and wall sconces.  We also produce feature pieces for public areas such as oversized pendants and chandeliers.  You can find our products in some of the finest properties around the world."
HD Expo,04/26/2022,2022,https://hdexpo.hospitalitydesign.com/,DM,HotelFurniture.com,4867,,https://www.hotelfurniture.com/,,,,"Vancouver, BC Canada",Canada,Box Springs/ Mattresses | Headboards | Sofabeds/Wallbeds | Drapery | Carpet | Carpet Padding/Cove Base/Binding | Armoires/Bureaus | Bookcases/Desks/Endtables | Cabinets | Casegoods | Interior Design | Design software | In-room programs | Paint/Paint Systems,,,"HotelFurniture.com's vision is to amaze hoteliers by innovating the design and procurement process. We are an all-in-one, brand-approved platform that streamlines room renovations and new builds, so owners can focus on their guests."
HD Expo,04/26/2022,2022,https://hdexpo.hospitalitydesign.com/,DM,Infinity Drain,5355,,http://www.infinitydrain.com,,,,"Amityville, NY United States",United States,Accessories | Shower Curtains/Enclosures | Sinks/Vanities/Plumbing,,,"Since 2007, Infinity Drain has established a reputation for design-centric, premium quality decorative shower drains. With award winning designs and innovations, including the Stainless Steel Shower Base, Infinity Drain is helping to shape barrier free bathroom design. From hand polishing decorative grates to custom fabricating to your exacting specifications, Infinity Drain offers the broadest selection of decorative choices and installation options. Infinity Drain products are proudly fabricated in Long Island, NY, USA."
HD Expo,04/26/2022,2022,https://hdexpo.hospitalitydesign.com/,DM,John Curtis Design,5561,,http://www.johncurtisdesign.com,,,,"Centennial, CO United States",United States,Signage,,,"John Curtis Design has been in the industry for 46 years. All ofo ur work is turnkey, in house, design/build. We have hundreds of projects in the United States and Mexico as well as over 140 projects in the Caribbean (we are also members of CHTA and have been since 1994)."
HD Expo,04/26/2022,2022,https://hdexpo.hospitalitydesign.com/,DM,HotelSigns.com,5465,,http://www.hotelsigns.com,,,,"Chattanooga, TN United States",United States,Signage,,,"HOTELSIGNS.com works closely with hospitality facilities across the country to maintain brand standard specification while offering countless benefits, including: a free on-site survey for new and renovated properties, the best lead times in the industry, exclusive transaction-capable websites, free SignSpec© quotation service, NFPA, ADA, and IBC, code research and regulations compliance, and the best warranties and guarantees for ADA compliance and the Life-of-the-Building."
HD Expo,04/26/2022,2022,https://hdexpo.hospitalitydesign.com/,DM,Hollywood Bed Frame Company,4161,,http://www.hollywoodbed.com,,,,"Los Angeles, CA United States",United States,Box Springs/ Mattresses | Headboards,,,
HD Expo,04/26/2022,2022,https://hdexpo.hospitalitydesign.com/,DM,Hawa Sliding Solutions,4064,,http://www.hawa.com,,,,"Dallas, TX United States",United States,Doors | Walls/Partitions | Shower Curtains/Enclosures | Armoires/Bureaus | Cabinets | Casegoods | Hardware,,,
HD Expo,04/26/2022,2022,https://hdexpo.hospitalitydesign.com/,DM,HD Walls,4662,,http://www.hdwalls.com,,,,"Rockaway, NJ United States",United States,Wallpapers,,,
HD Expo,04/26/2022,2022,https://hdexpo.hospitalitydesign.com/,DM,Halstead International,3363,,http://www.halsteadintl.com,,,,"Calhoun, GA United States",United States,Walls/Partitions | Laminates | Surfacing materials | Laminates/Vinyl | Building materials | Embossed/Relief | Panels,,,"Halstead, part of the HMTX family, is a leading supplier of innovative luxury vinyl flooring throughout the world. Halstead supplies vinyl flooring exclusively to both The Home Depot and HD Supply in North America. During its 35+ years of partnership with The Home Depot, Halstead has earned many awards such as Supplier of the Year, e-Commerce Partner of the Year, Global Supply Chain Partner of the Year and the Innovation of the Year. Halstead is top of mind when it comes to"
HD Expo,04/26/2022,2022,https://hdexpo.hospitalitydesign.com/,DM,Hammerton Inc.,5243,,http://www.hammerton.com,,,,"Salt Lake City, UT United States",United States,Ceiling Fans | Chandeliers/Pendants | Lamps | LED | Outdoor | Barstools | Table Seating/Metal/Wood | Glass/Metal/Wood/Stone,,,
HD Expo,04/26/2022,2022,https://hdexpo.hospitalitydesign.com/,DM,Gold Leaf Design Group Inc,4855,,http://www.goldleafchicago.com,,,,"Chicago, IL United States",United States,Artificial Plants/Flowers | Planters | Tabletop Products | Original | Sculpture | Occasional | Outdoor | Glass/Metal/Wood/Stone | Outdoor/Casual Tables,,,
HD Expo,04/26/2022,2022,https://hdexpo.hospitalitydesign.com/,DM,GrassTex,4372,,http://www.Grass-Tex.com,,,,"Dalton, GA United States",United States,Flooring | Carpet,,,"GrassTex is a leading US manufacturer of synthetic turf for commercial and residential landscaping, putting greens, dog parks/ kennels, poolside applications, sports training, rooftops, and much more.  GrassTex has been making quality synthetic turf since 1976 and servicing customers across the globe."
HD Expo,04/26/2022,2022,https://hdexpo.hospitalitydesign.com/,DM,Global Safe Corporation,4944,,http://www.hotelsafes.com/,,,,"Boca Raton, FL United States",United States,Locks/Safes/Security,,,For
HD Expo,04/26/2022,2022,https://hdexpo.hospitalitydesign.com/,DM,Hospitality Designs,4948,,http://www.hospitalitydesigns.com,,,,"Richmond, BC Canada",Canada,Clocks | Bed Spreads/Comforters/Duvets | Box Springs/ Mattresses | Headboards | Sofabeds/Wallbeds | Drapery | Upholstery | Carpet | Marble/Stone/Tile | Armoires/Bureaus | Bookcases/Desks/Endtables | Casegoods | Lamps | Banquettes/Benches | Barstools | Conference | Table Seating/Metal/Wood | Upholstered | Interior Design,,,"Hospitality Designs manufactures casegoods and also provides interior design and full FF&E procurement services. Owning our own manufacturing plants enables us to maintain low prices and efficient timelines. Our custom furniture suits the needs of design professionals, hotel owners, and hotel operators around the globe."
HD Expo,04/26/2022,2022,https://hdexpo.hospitalitydesign.com/,DM,H.J. Martin and Son,2628,,http://www.hjmartin.com,,,,"Green Bay, WI United States",United States,Laminates | Maintenance Products/Sealers | Tile/Marble/Stone/Mosiac | Area Rugs | Carpet | Carpet Padding/Cove Base/Binding | Laminates/Vinyl | Marble/Stone/Tile | Wood | Install/Transport | Interior Design,,,"H.J. Martin and Son is a specialty contractor with services in residential & commercial flooring, glass & glazing, walls & ceilings, commercial doors & hardware and millwork, along with national retail solutions, including fixture installation. Founded in 1931, the fourth-generation company works nationwide from its headquarters in Green Bay, Wis. More information may be found at"
HD Expo,04/26/2022,2022,https://hdexpo.hospitalitydesign.com/,DM,"Hasegawa USA, Inc.",4363,,http://www.hasegawaladders.com,,,,"Torrance, CA United States",United States,,,,
HD Expo,04/26/2022,2022,https://hdexpo.hospitalitydesign.com/,DM,Global Lighting,5231,,http://www.globallighting.com,,,,"Yonkers, NY United States",United States,Chandeliers/Pendants | Fluorescent | Lamps | LED | Sconces,,,"Global Lighting is a New York-based provider of internationally sourced decorative and architectural light fixtures for hospitality environments, retail stores, assisted living facilities, hospitals, commercial environments and landscape design. Founded in 1991, Global Lighting has a storied history as a purveyor and manufacturer of lighting sources chosen by the most sophisticated global designers and destined for the world’s most refined settings."
HD Expo,04/26/2022,2022,https://hdexpo.hospitalitydesign.com/,DM,"Global Allies, LLC",4318,,http://www.globalallies.com,,,,"Lockeford, CA United States",United States,Stacking | Table Seating/Metal/Wood,,,Global Allies is a leading supplier of high-end Banquet Chairs and Task Chairs to the hospitality industry.
HD Expo,04/26/2022,2022,https://hdexpo.hospitalitydesign.com/,DM,Garrett Leather Corp,5113,,http://www.garrettleather.com,,,,"Buffalo, NY United States",United States,Leather/Suede | Woven/Printed | Area Rugs | Carpet Padding/Cove Base/Binding,,,
HD Expo,04/26/2022,2022,https://hdexpo.hospitalitydesign.com/,DM,Gasser Chair Co Inc,4055,,http://www.gasserchair.com,,,,"Youngstown, OH United States",United States,Banquettes/Benches | Barstools | Conference | Outdoor/Casual | Stacking | Table Seating/Metal/Wood | Upholstered | Green Products | Recycled materials | Table Bases/Tops,,,"GASSER CHAIR HAS BEEN MANUFACTURING IN YOUNGSTOWN, OH SINCE 1946.  FOR 75 YEARS, WE HAVE REMAINED COMMITTED TO  MANUFACTURING CHAIRS IN-HOUSE WHILE NEVER LOSING FOCUS ON OUR CORE VALUES OF RESPECT, INCLUSION AND COMMUNITY. IT’S AN INVESTMENT IN THE THINGS WE BELIEVE IN THE MOST…OUR PEOPLE AND YOUR CHAIR."
HD Expo,04/26/2022,2022,https://hdexpo.hospitalitydesign.com/,DM,Galtech International,5143,,http://www.galtechcontract.com,,,,"Camarillo, CA United States",United States,Umbrellas | Outdoor,,,"Manufacturer of high performance, commercial grade market umbrellas."
HD Expo,04/26/2022,2022,https://hdexpo.hospitalitydesign.com/,DM,HF Collection,4918,,http://www.hf-collection.com,,,,"Austin, TX United States",United States,Headboards | Sofabeds/Wallbeds | Upholstery | Armoires/Bureaus | Bookcases/Desks/Endtables | Carts | Casegoods | Casual | Children's | Occasional | Outdoor | Banquettes/Benches | Barstools | Conference | Cushions | Outdoor/Casual | Rattan/Wicker/Natural Fiber | Stacking | Table Seating/Metal/Wood | Upholstered | Banquet/Conference Tables | Gaming | Glass/Metal/Wood/Stone | Outdoor/Casual Tables | Rattan/Wicker/Natural Fiber | Table Bases/Tops,,,"HF Collection manufactures high quality furniture for properties ranging from boutique hotels to large casino resorts. Headquartered in Austin, TX with additional offices in the US, China, Italy and Philippines, we have staff on the ground to ensure that each order we take on meets our standards for construction, durability and aesthetics. Through decades of experience working to meet the unique needs of the hospitality industry, HF Collection has earned an international reputation for impeccable quality, competitive prices, on-time delivery, and excellent customer service."
HD Expo,04/26/2022,2022,https://hdexpo.hospitalitydesign.com/,DM,Global Views,5301,,http://www.globalviews.com,,,,"Dallas, TX United States",United States,Clocks | Planters | Sculpture | Accessories | Headboards | Area Rugs | Bookcases/Desks/Endtables | Casegoods | Occasional | Chandeliers/Pendants | Lamps | Banquettes/Benches | Barstools | Upholstered | Glass/Metal/Wood/Stone | Table Bases/Tops,,,"Global Views is a Dallas based wholesale purveyor of furniture, decorative accessories, and lighting which is entirely designed in-house and produced by craftsmen around the world. We are pleased to offer the Hospitality Industry this experience in product development and welcome opportunities to design for specific projects or brands. We offer an easy to use catalog with beautiful photography for your library and showrooms in major market centers around the country to inspire you. For those that prefer the web, please visit us at www.globalviews.com."
HD Expo,04/26/2022,2022,https://hdexpo.hospitalitydesign.com/,DM,"Fujimi, Inc",5849,,http://www.fujimi.us,,,,"Temple City, CA United States",United States,,,,
HD Expo,04/26/2022,2022,https://hdexpo.hospitalitydesign.com/,DM,Furniture Design Studios Inc,3228,,http://www.fdstudios.com,,,,"Plainview, NY United States",United States,"Headboards | Armoires/Bureaus | Bookcases/Desks/Endtables | Casegoods | Occasional | Outdoor | Cabinet, Furniture, Display | Banquettes/Benches | Barstools | Conference | Cushions | Outdoor/Casual | Rattan/Wicker/Natural Fiber | Stacking | Table Seating/Metal/Wood | Upholstered | Banquet/Conference Tables | Glass/Metal/Wood/Stone | Outdoor/Casual Tables | Rattan/Wicker/Natural Fiber | Table Bases/Tops",,,"Furniture Design Studios has been manufacturing and supplying custom furniture, including case goods, seating and kitchen furniture to brand hotels, boutique hotels, restaurants and timeshares for over 25 years. We are headquartered in New York with international factories and offer a full service product development studio, comprehensive showroom and a 30,000 square foot warehouse. We work closely with architects, designers and developers using extraordinary custom capabilities and resources to meet specifications and deliver the ultimate package."
HD Expo,04/26/2022,2022,https://hdexpo.hospitalitydesign.com/,DM,Furniture Atelier Inc.,2909,,http://www.furniture-atelier.com,,,,"Vaughan, ON Canada",Canada,"Ceilings/Columns/Millwork | Doors | Stone | Headboards | Sofabeds/Wallbeds | Leather/Suede | Upholstery | Armoires/Bureaus | Bookcases/Desks/Endtables | Casegoods | Outdoor | Cabinet, Furniture, Display | Lamps | Outdoor | Banquettes/Benches | Barstools | Conference | Cushions | Outdoor/Casual | Rattan/Wicker/Natural Fiber | Stacking | Table Seating/Metal/Wood | Upholstered | Banquet/Conference Tables | Gaming | Glass/Metal/Wood/Stone | Outdoor/Casual Tables | Rattan/Wicker/Natural Fiber | Table Bases/Tops",,,
HD Expo,04/26/2022,2022,https://hdexpo.hospitalitydesign.com/,DM,Frame It For Less Inc,5431,,http://www.frameitforlessinc.com,,,,"Orange, CA United States",United States,Clocks | Mirrors/Lighted Mirrors | Original | Picture Frame Moulding | Prints/Reproductions/Photography | Sculpture | Stained Glass | Install/Transport,,,"WBENC certified woman owned and a member of NEWH. We have been serving the trade for over 30 years. We manufacture products to specification. Examples include but are not limited to contract artwork, wall covering, mirrors, and mirrors with lights. We specialize in custom artwork and it can be color matched to each project. We specialize in hospitality, hotels, casinos, health care, medical facilities, model homes, restaurants, homes, businesses and cruise ship projects."
HD Expo,04/26/2022,2022,https://hdexpo.hospitalitydesign.com/,DM,Gilcrest,2745,,http://drgilcrest.com,,,,"Holland, MI United States",United States,Sinks/Vanities/Plumbing | Laminates | Tile/Marble/Stone/Mosiac | Casegoods | Table Bases/Tops,,,
HD Expo,04/26/2022,2022,https://hdexpo.hospitalitydesign.com/,DM,Foliot Furniture Inc,4961,,http://www.foliot.com,,,,"Las Vegas, NV United States",United States,Headboards | Armoires/Bureaus | Bookcases/Desks/Endtables | Casegoods | Upholstered,,,"With more than 30 years of experience, Foliot Furniture has grown into one of the most well-known furniture manufacturers in North America."
HD Expo,04/26/2022,2022,https://hdexpo.hospitalitydesign.com/,DM,FlowerHouse,5801,,http://www.flowerhouse.com,,,,"Clio, MI United States",United States,,,,
HD Expo,04/26/2022,2022,https://hdexpo.hospitalitydesign.com/,DM,Gerber,4263,,http://danze.com,,,,"Woodridge, IL United States",United States,Accessories | Sinks/Vanities/Plumbing,,,"Danze by Gerber is an inspired, affordable brand  that offers a range of decorative kitchen and bath faucets, showerheads and bath accessories. We help hospitality professionals create environments that reflect attention-getting design, quality and uniqueness.  Since 1932, Gerber has been a leader in the industry and is the choice of the plumbing professional. Gerber is synonymous with quality and performance and offers an impressive lineup of decorative products including, toilets, urinals, sinks, faucets and drains."
HD Expo,04/26/2022,2022,https://hdexpo.hospitalitydesign.com/,DM,Frontgate Contract,5519,,http://www.frontgatecontract.com,,,,"Cincinnati, OH United States",United States,Planters | Umbrellas | Area Rugs | Outdoor | Cushions | Outdoor/Casual | Rattan/Wicker/Natural Fiber | Stacking | Outdoor/Casual Tables | Rattan/Wicker/Natural Fiber,,,
HD Expo,04/26/2022,2022,https://hdexpo.hospitalitydesign.com/,DM,Florida Seating,5149,,http://www.floridaseating.com,,,,"Clearwater, FL United States",United States,Casual | Occasional | Outdoor | Barstools | Cushions | Outdoor/Casual | Rattan/Wicker/Natural Fiber | Stacking | Table Seating/Metal/Wood | Upholstered | Interior Design | Glass/Metal/Wood/Stone | Outdoor/Casual Tables | Rattan/Wicker/Natural Fiber | Table Bases/Tops,,,"Founded in 1997, Florida Seating is a leading supplier of commercial furniture to the restaurant, hospitality, and design industries.  Florida Seating works with award-winning designers all over the world and striving to constantly expand their collection with furniture that meets the highest standards for sustainability and quality, and also reflects the most current trends in contract seating."
HD Expo,04/26/2022,2022,https://hdexpo.hospitalitydesign.com/,DM,Flanders Investment & Trade,5065,,http://www.flanderstrade.be/,,,,"Brussels, Belgium",Belgium,General Services,,,"Flanders is a region located in northern Belgium, where hospitality and design are inherently connected to everyday life and society. World-renowned craftsmen and artisans have called the region and its many wealthy cities home since the Middle Ages. Quality, design and functionality all seamlessly come together in Flemish products, just like European cultures have met and connected in Flanders throughout history. Flanders Investment and Trade is here to highlight how centuries of craftsmanship have resulted in state of the art visions for the hospitality and design industry."
HD Expo,04/26/2022,2022,https://hdexpo.hospitalitydesign.com/,DM,Forest Drapery Hardware,3509,,http://www.forestdh.com,,,,"Cartersville, GA United States",United States,Drapery Hardware,,,
HD Expo,04/26/2022,2022,https://hdexpo.hospitalitydesign.com/,DM,Floor & Decor Commercial,4443,,http://www.flooranddecor.com/commercial,,,,"Atlanta, GA United States",United States,Tile/Marble/Stone/Mosiac | Laminates/Vinyl | Marble/Stone/Tile | Wood | Wood,,,"Floor & Decor Commercial specializes in hard surface flooring for commercial developments. We source directly from over 200 vendors in 20 countries to offer some of the most innovative, high-quality flooring products available – all at a low cost to you. We offer a large selection of natural stone, tile, wood, laminate, luxury vinyl tile (LVT), and luxury vinyl plank (LVP), as well as decorative and installation products. Unlike other commercial providers, we have, or can source, any product specification you require."
HD Expo,04/26/2022,2022,https://hdexpo.hospitalitydesign.com/,DM,"Formology, Inc.",4666,,http://www.formologyproducts.com,,,,"Portland, OR United States",United States,Tabletop Products | Walls/Partitions | Surfacing materials | Wood | Wood | Table Seating/Metal/Wood | General Services | Building materials | Green Products | Recycled materials | Table Bases/Tops | Panels | Wood,,,
HD Expo,04/26/2022,2022,https://hdexpo.hospitalitydesign.com/,DM,Fiandre,5419,,http://www.granitifiandre.com,,,,"Chicago, IL United States",United States,Marble/Stone/Tile,,,
HD Expo,04/26/2022,2022,https://hdexpo.hospitalitydesign.com/,DM,Fiberbuilt Umbrellas,3056,,http://www.fiberbuiltumbrellas.com,,,,"Fort Lauderdale, FL United States",United States,Umbrellas | Casual | Outdoor | Cushions | Outdoor/Casual | Outdoor/Casual Tables,,,"Manufacturer of high quality replacement cushions and wind resistant umbrellas for the hospitality industry. Our innovative fiberglass rib construction provides strength, resilience and durability. Our umbrellas withstand harsh weather conditions and have been wind tested at over 50 miles per hour. We offer a variety of models, sizes and fabrics to fit any budget and decor. Cushions can be customized to your specifications and budget. We offer a variety of fabrics, fill options and sizes at competitive prices with prompt lead times."
HD Expo,04/26/2022,2022,https://hdexpo.hospitalitydesign.com/,DM,"Fabtex, Inc",4631,,http://www.fabtex.com,,,,"Orange, CA United States",United States,Shower Curtains/Enclosures | Bed Spreads/Comforters/Duvets | Headboards | Drapery | Flame Retardant | Leather/Suede | Woven/Printed | Cushions | Wallpapers | Blinds/Shutters | Drapery Hardware | Fabric,,,"Fabtex is America's largest fabricator of bed coverings and window treatments for hospitality, healthcare, government and cruise lines and is a respected resource for hospitality-appropriate fabrics. As an approved supplier to the top hotel brands, we help both branded and unique independent properties create beautiful, stylish rooms. With factories in California, Pennsylvania,  and Mexico, we can manufacture to meet any clients requirements."
HD Expo,04/26/2022,2022,https://hdexpo.hospitalitydesign.com/,DM,Fil Doux Textiles,5425,,http://www.fildoux.com,,,,"Brooklyn, NY United States",United States,Bed Spreads/Comforters/Duvets | Drapery | Flame Retardant | Leather/Suede | Upholstery | Vinyl | Woven/Printed | Fabric | Fabric,,,"Fil Doux Textiles produces upholstery and drapery fabrics for the hospitality industry. Beginning in Chile with a family-owned mill 80 years ago, today the business controls two fully vertical mills in Chile and Brazil, allowing personalized customization and a superior lead time on its woven fabrics, sheers, Vinylife, leather, box socks, and bed throws. Fil Doux Textiles upholds significant environmental standards, using wind power, recycling dye water, and reusing fabric for packaging."
HD Expo,04/26/2022,2022,https://hdexpo.hospitalitydesign.com/,DM,Featherbeams.com,2623,,http://Featherbeams.com,,,,"Norwalk, CT United States",United States,Ceilings/Columns/Millwork | Panels,,,We are the experts in faux steel structures.
HD Expo,04/26/2022,2022,https://hdexpo.hospitalitydesign.com/,DM,Fabric Innovations,3505,,http://fabricinnovations.com/,,,,"MIAMI, FL United States",United States,Bed Spreads/Comforters/Duvets | Box Springs/ Mattresses | Drapery | Fibers | Flame Retardant | Leather/Suede | Silk | Upholstery | Vinyl | Woven/Printed | Blinds/Shutters | Drapery Hardware | Fabric,,,"Fabric Innovations is a design-driven fabric company providing bedding, drapery, and upholstery fabrics to the hospitality industry. Since 1997, Fabric Innovations has been recognized as a leading supplier of linens, bedding, and custom fabrics to some of the industry’s most prestigious hotels."
HD Expo,04/26/2022,2022,https://hdexpo.hospitalitydesign.com/,DM,Ezobord/Quiet Earth Moss,3127,,http://www.ezobord.com,,,,"East Dundee, IL United States",United States,,,,
HD Expo,04/26/2022,2022,https://hdexpo.hospitalitydesign.com/,DM,Faustine Furniture,3669,,http://www.faustinefurniture.com,,,,"Long Beach, CA United States",United States,Stone | Walls/Partitions | Box Springs/ Mattresses | Headboards | Sofabeds/Wallbeds | Laminates | Surfacing materials | Tile/Marble/Stone/Mosiac | Area Rugs | Carpet | Carpet Padding/Cove Base/Binding | Laminates/Vinyl | Marble/Stone/Tile | Wood | Bookcases/Desks/Endtables | Cabinets | Casegoods | Casual | Children's | Occasional | Outdoor | Banquettes/Benches | Barstools | Conference | Cushions | Outdoor/Casual | Rattan/Wicker/Natural Fiber | Stacking | Table Seating/Metal/Wood | Upholstered | Interior Design | Banquet/Conference Tables | Folding | Glass/Metal/Wood/Stone | Outdoor/Casual Tables | Rattan/Wicker/Natural Fiber | Table Bases/Tops,,,"Our Desire: Work with designers and teams to provide solutions, source, ship, deliver and install your vision"
HD Expo,04/26/2022,2022,https://hdexpo.hospitalitydesign.com/,DM,Endless Pools,3605,,http://www.endlesspools.com,,,,"Aston, PA United States",United States,Spa Equipment | Whirlpools/Saunas | Equipment,,,"How do you attract loyal, profitable Fitness-Minded Travelers? With Endless Pools"
HD Expo,04/26/2022,2022,https://hdexpo.hospitalitydesign.com/,DM,Fabricut Contract,3935,,http://www.fabricutcontract.com,,,,"Tulsa, OK United States",United States,Trimming | Bed Spreads/Comforters/Duvets | Drapery | Flame Retardant | Leather/Suede | Silk | Upholstery | Vinyl | Woven/Printed | Fabric | Wallpapers | Drapery Hardware | Fabric,,,"Fabricut Contract is the premier textile company for the hospitality, commercial, senior living and healthcare industry; providing textile and wallcovering solutions to everyday specifications. We are the resource hospitality designers and purchasing agents seek for industry-leading innovations in drapery, bedcovering and upholstery fabrics, wallcoverings, trimmings and drapery hardware. Through our Fabricut Contract, S. Harris & FR-One hospitality brands and now Muraspec Wallcovering, our extensive offering assures our products are in style, in code and in budget."
HD Expo,04/26/2022,2022,https://hdexpo.hospitalitydesign.com/,DM,"EMUAmericas, LLC",3735,,http://www.emuameicas.com,,,,"Wheat Ridge, CO United States",United States,Outdoor | Outdoor/Casual | Rattan/Wicker/Natural Fiber | Stacking | Table Seating/Metal/Wood | Gaming | Glass/Metal/Wood/Stone | Outdoor/Casual Tables | Rattan/Wicker/Natural Fiber | Table Bases/Tops,,,"emuamericas, llc is the North American marketer, distributor for all emu and related products for commercial use. Our US office enables us to service customers with distinguished attention; in addition we maintain a huge inventory of select products to ship your orders quickly. Designed for practicality, emu chairs and tables easily stack and fold. In most cases, emu's patented design speaks for itself. Through precise construction, choice of material, demanding tests and standards, our products support heavy duty use common to the food service, hospitality and corporate markets."
HD Expo,04/26/2022,2022,https://hdexpo.hospitalitydesign.com/,DM,"Electro-Media Design, Ltd.",4672,,http://www.electro-media.com,,,,"Gaithersburg, MD United States",United States,Acoustic/Sound | Audio Visual,,,
HD Expo,04/26/2022,2022,https://hdexpo.hospitalitydesign.com/,DM,Eric Brand,5167,,http://www.ericbrand.com,,,,"Burlingame, CA United States",United States,Armoires/Bureaus | Bookcases/Desks/Endtables | Carts | Casegoods | Casual | Occasional | Outdoor | Lamps | Banquettes/Benches | Barstools | Conference | Outdoor/Casual | Table Seating/Metal/Wood | Upholstered | Banquet/Conference Tables | Gaming | Glass/Metal/Wood/Stone | Outdoor/Casual Tables | Rattan/Wicker/Natural Fiber | Table Bases/Tops,,,Eric Brand designs and manufactures luxurious custom and standard furniture for four and five star hospitality properties worldwide.
HD Expo,04/26/2022,2022,https://hdexpo.hospitalitydesign.com/,DM,Effegibi Perfect Wellness,5459,,http://www.effe.it,,,,"Cesena FC, Italy",Italy,Spa Equipment | Whirlpools/Saunas | Wellness/Spa,,,​Effe is central to a story that starts
HD Expo,04/26/2022,2022,https://hdexpo.hospitalitydesign.com/,DM,"EEC Industries, Ltd.",5222,,http://www.eecind.com,,,,"North Vancouver, BC Canada",Canada,Signage | LED | Lighting Control Systems,,,
HD Expo,04/26/2022,2022,https://hdexpo.hospitalitydesign.com/,DM,Eden - Valders Stone Company,2860,,http://www.evstone.net,,,,"Valders, WI United States",United States,Stone,,,
HD Expo,04/26/2022,2022,https://hdexpo.hospitalitydesign.com/,DM,Durkan,4308,,http://www.durkan.com,,,,"Dalton, GA United States",United States,Area Rugs | Carpet | Carpet Padding/Cove Base/Binding | Laminates/Vinyl,,,"From the hotel lobby and corridors to guest rooms, ballrooms and casinos, Durkan, the hospitality brand of the Mohawk Group, is an industry leader in innovative hospitality flooring solutions. Durkan’s products are offered in a wide range of exclusive innovative pattern and texture technologies, including Definity, an advanced generation precision sculpturing technology that produces the highest definition of texture, pattern and color available; and Synthesis, which provides a three-dimensional layering effect using a custom base and Precision Dye Injected (PDI) surface."
HD Expo,04/26/2022,2022,https://hdexpo.hospitalitydesign.com/,DM,"EE Sewing, Inc.",4165,,http://eesewing.com,,,,"Chelsea, OK United States",United States,Pillows | Bed Spreads/Comforters/Duvets | Install/Transport | Blinds/Shutters | Drapery Hardware | Electronic | Fabric,,,"EE Sewing is a manufacturer of bedding & window treatments offering complete Field Services, Project Management and custom fabric sourcing - all with in-house teams.  EE Sewing has earned trust and awards from premier companies.  Among our accolades, is three time winner of Best Western Hotels and Resorts"
HD Expo,04/26/2022,2022,https://hdexpo.hospitalitydesign.com/,DM,"Duravit USA, Inc.",2927,,http://www.duravit.us,,,,"Duluth, United States Georgia",Georgia,"Accessories | Shower Curtains/Enclosures | Sinks/Vanities/Plumbing | Cabinet, Furniture, Display",,,
HD Expo,04/26/2022,2022,https://hdexpo.hospitalitydesign.com/,DM,E. B. Bradley Co.,4167,,http://www.ebbradley.com,,,,"Vernon, CA United States",United States,"Moulding/Rail | Sinks/Vanities/Plumbing | Laminates | Maintenance Products/Sealers | Surfacing materials | Tile/Marble/Stone/Mosiac | Hardware | Cabinet, Furniture, Display | LED | Lighting Control Systems | Panels | Wood",,,"Our mission is to make every idea possible. Every day. E.B. Bradley Co. has grown to become the West Coast's largest surfacing product and specialty hardware expert. We combine the widest, most in depth product range with exclusive manufacturer relationships with such partners as Wilsonart, Cleaf, Holz in Form and Lignapal which allows us to meet any customer request, no matter how unique or individual. These relationships also offer access to new ideas and solutions on a constant basis, so creativity and possibility are always expanding. Our Specifications Team is available to help."
HD Expo,04/26/2022,2022,https://hdexpo.hospitalitydesign.com/,DM,Duggal Visual Solutions,5361,,http://www.duggal.com,,,,"Brooklyn, NY United States",United States,"Acoustic/Sound | Ceilings/Columns/Millwork | Privacy/Utility Screens | Signage | Walls/Partitions | Original | Picture Frame Moulding | Prints/Reproductions/Photography | Sculpture | Surfacing materials | Audio Visual | Vinyl | Woven/Printed | Area Rugs | Laminates/Vinyl | Cabinet, Furniture, Display | LED | Install/Transport | Interior Design | Building materials | Energy efficiency | Green Products | Recycled materials | Water conservation | Embossed/Relief | Fabric | Paint/Paint Systems | Panels | Wallpapers | Wood",,,
HD Expo,04/26/2022,2022,https://hdexpo.hospitalitydesign.com/,DM,Draperies.Com,4913,,http://www.draperies.com,,,,"Arcadia, CA United States",United States,Drapery Hardware,,,"was founded on the belief to provide quality drapery hardware at competitive prices. With a combined total of over 40 years of installation and drapery expertise, our products are uniquely designed to keep the installer, designer, and customer in mind. Our intimate and long standing relationships with our manufacturers also allow"
HD Expo,04/26/2022,2022,https://hdexpo.hospitalitydesign.com/,DM,Elite Manufacturing,3357,,http://www.elitehospitalityusa.com,,,,"Santa Fe Springs, CA United States",United States,Bookcases/Desks/Endtables | Casegoods | Occasional | Outdoor | Banquettes/Benches | Barstools | Conference | Outdoor/Casual | Table Seating/Metal/Wood | Glass/Metal/Wood/Stone | Table Bases/Tops,,,Southern California based Elite Hospitality is a premier manufacture supplying the hospitality and
HD Expo,04/26/2022,2022,https://hdexpo.hospitalitydesign.com/,DM,Ethnicraft USA LLC,3025,,http://www.ethnicraft.com,,,,"High Point, NC United States",United States,,,,
HD Expo,04/26/2022,2022,https://hdexpo.hospitalitydesign.com/,DM,Down Inc,3362,,http://www.downinc.com,,,,"Grand Rapids, MI United States",United States,Pillows | Bed Spreads/Comforters/Duvets | Fibers,,,
HD Expo,04/26/2022,2022,https://hdexpo.hospitalitydesign.com/,DM,Dometic,3557,,http://www.dometic.com,,,,"Elkhart, IN United States",United States,Locks/Safes/Security | Minibars,,,"Dometic is a global market leader in branded solutions for mobile living in the areas of Climate, Hygiene & Sanitation and Food & Beverage. Dometic operates in the Americas, EMEA and Asia Pacifc, providing products for use in leading hotels, recrational vehicles, trucks and premium cars, pleasure and workboats, and for a variety of other uses. Dometic offers products and solutions that enrich people's experiences away from home, whether in a motorhome, caravan, boat or hotel room. Our motivation is the create smart and reliable products with outstanding design."
HD Expo,04/26/2022,2022,https://hdexpo.hospitalitydesign.com/,DM,Designform Furnishings,3273,,http://www.designformfurnishings.com,,,,"Irvine, CA United States",United States,Casual | Outdoor | Banquettes/Benches | Barstools | Outdoor/Casual | Rattan/Wicker/Natural Fiber | Stacking | Table Seating/Metal/Wood | Upholstered | Glass/Metal/Wood/Stone | Outdoor/Casual Tables | Table Bases/Tops,,,
HD Expo,04/26/2022,2022,https://hdexpo.hospitalitydesign.com/,DM,Doug Mockett & Co,3135,,https://www.mockett.com,,,,"Manhattan Beach, CA United States",United States,"Accessories | Cabinet, Furniture, Display",,,"Mockett is the industry leader in providing ""Fine Architectural Hardware for Your Fine Furniture""™. We strive for simplicity in design and a spareness in execution, as we have done for nearly 40 years!"
HD Expo,04/26/2022,2022,https://hdexpo.hospitalitydesign.com/,DM,Design Services,3263,,http://www.lumahd.com,,,,"Land O Lakes, FL United States",United States,Original | Prints/Reproductions/Photography | Sculpture,,,
HD Expo,04/26/2022,2022,https://hdexpo.hospitalitydesign.com/,DM,Ecore,2846,,https://www.ecorecommercial.com/,,,,"Lancaster, PA United States",United States,Flooring | Laminates/Vinyl,,,"From the weight room to the recovery room, Ecore empowers human performance with safe, quiet and ergonomic flooring. We design and manufacture pro-performance surfaces engineered to help energize the people above them. Our team designs innovative solutions for many industries, including healthcare, hospitality, wellness, sports, recreation, and fitness. Ecore, headquartered in Lancaster, PA, serves athletic and commercial flooring customers in more than 75 countries. Learn more at https://www.ecorecommercial.com/."
HD Expo,04/26/2022,2022,https://hdexpo.hospitalitydesign.com/,DM,Doormerica,5158,,http://www.doormercia.com,,,,"Sacramento, CA United States",United States,Doors,,,
HD Expo,04/26/2022,2022,https://hdexpo.hospitalitydesign.com/,DM,Delta Faucet Co,3704,,http://www.deltafaucet.com,,,,"Indianapolis, IN United States",United States,Accessories | Sinks/Vanities/Plumbing | Hardware,,,"Delta Faucet Co. is a world leader in providing the best faucets and related accessories with innovative styles and technologies.    To find out more on how the innovative technologies can enhance your guest experience or project design, please contact us at hospitality@deltafaucet.com"
HD Expo,04/26/2022,2022,https://hdexpo.hospitalitydesign.com/,DM,Emser Tile & Natural Stone,4906,,http://www.emser.com,,,,"Los Angeles, CA United States",United States,Marble/Stone/Tile,,,"Established in 1968, Emser Tile, headquartered in Los Angeles, is the leading designer, marketer and producer of the world’s finest tile and natural stone. By offering unparalleled service and a dynamic selection of products, Emser is one of the most comprehensive sources for interior and exterior products that include porcelain, ceramic, metal, glass, quarry, decorative accents and mosaics, cut-to-size stone, setting materials, and custom manufactured products made to your specifications."
HD Expo,04/26/2022,2022,https://hdexpo.hospitalitydesign.com/,DM,Digilock,4667,,http://www.digilock.com,,,,"Petaluma, CA United States",United States,Locks/Safes/Security,,,
HD Expo,04/26/2022,2022,https://hdexpo.hospitalitydesign.com/,DM,Dekko Concrete,3019,,http://www.dekko.ca,,,,"Kingsville, ON Canada",Canada,,,,
HD Expo,04/26/2022,2022,https://hdexpo.hospitalitydesign.com/,DM,Cubretex De Mexico SA DE CV,4665,,http://www.cubretex.com/,,,,"Tijuana, Baja California Mexico",Mexico,Drapery | Drapery Hardware,,,
HD Expo,04/26/2022,2022,https://hdexpo.hospitalitydesign.com/,DM,Daltile,4312,,http://www.daltileproducts.com,,,,"Dallas, TX United States",United States,,,,
HD Expo,04/26/2022,2022,https://hdexpo.hospitalitydesign.com/,DM,Daniel Paul Chairs LLC,3947,,http://www.danielpaulchairs.com,,,,"Morristown, TN United States",United States,Barstools | Conference | Outdoor/Casual | Stacking | Table Seating/Metal/Wood | Upholstered | Gaming | Outdoor/Casual Tables | Table Bases/Tops,,,
HD Expo,04/26/2022,2022,https://hdexpo.hospitalitydesign.com/,DM,Crossville Inc,3521,,http://www.crossvilleinc.com,,,,"Crossville, TN United States",United States,Marble/Stone/Tile,,,"is a leading manufacturer of tile collections. Our surfacing solutions—porcelain, mosaics, glass, wall, natural stone, porcelain panels (tiles measured in feet, not inches!), and countertops—are beautiful and sustainable. U.S. owned and operated, we offer innovative designs, quality that exceeds specification requirements, and support for successful installations. For 33+ years, design professionals have turned to us for tile that solves design challenges for exceptional results."
HD Expo,04/26/2022,2022,https://hdexpo.hospitalitydesign.com/,DM,Coveworks The,2864,,http://www.coveworks.com,,,,"Chatsworth, GA United States",United States,Carpet Padding/Cove Base/Binding,,,"The Coveworks is the Hospitality Industry's best choice for wall base and has been for over 20 years. We provide carpet base, rubber base, vinyl base and accessories with relentless customer service, quality products, short lead times, attention to detail and excellent pricing."
HD Expo,04/26/2022,2022,https://hdexpo.hospitalitydesign.com/,DM,Currey & Company,4531,,http://www.curreyco.com,,,,"Atlanta, GA United States",United States,Clocks | Planters | Bookcases/Desks/Endtables | Casegoods | Occasional | Outdoor | Ceiling Fans | Chandeliers/Pendants | Lamps | Outdoor | Outdoor/Casual | Outdoor/Casual Tables,,,"Currey & Company fulfills our customer's needs for distinctive chandeliers, lamps and furniture and provides exemplary service. Our distinctive vision makes our products shine. Historical influences are carefully interpreted and details are executed with finesse. Products are made by hand and it shows in the details. We craft products of honest materials - porcelain, iron, wood and more. We provide exemplary service by being easy to do business with. We give you an up to date catalog and website. We invest in inventory so orders deliver on time. Real people answer the telephone and your questions. Visit us on the web at: www.curreyco.com Email us at: info@curreyco.com Or just call: 678-533-1500"
HD Expo,04/26/2022,2022,https://hdexpo.hospitalitydesign.com/,DM,Culp Hospitality,2757,,http://www.culphospitality.com,,,,"High Point, NC United States",United States,,,,
HD Expo,04/26/2022,2022,https://hdexpo.hospitalitydesign.com/,DM,Crate & Barrel / CB2,4928,,http://www.cbtradeprogram.com,,,,"Northbrook, IL United States",United States,Artificial Plants/Flowers | Mirrors/Lighted Mirrors | Pillows | Planters | Tabletop Products | Umbrellas | Prints/Reproductions/Photography | Sculpture | Accessories | Bed Spreads/Comforters/Duvets | Headboards | Sofabeds/Wallbeds | Area Rugs | Armoires/Bureaus | Bookcases/Desks/Endtables | Cabinets | Carts | Casegoods | Casual | Children's | Occasional | Outdoor | Chandeliers/Pendants | Lamps | Sconces | Banquettes/Benches | Barstools | Conference | Cushions | Outdoor/Casual | Rattan/Wicker/Natural Fiber | Stacking | Table Seating/Metal/Wood | Upholstered | Banquet/Conference Tables | Glass/Metal/Wood/Stone | Outdoor/Casual Tables | Rattan/Wicker/Natural Fiber | Table Bases/Tops | Drapery Hardware,,,Crate & Barrel / CB2 Trade Program offers the full assortment of all our unique brands and a growing line of commercially tested products. We are a one-stop shop for all your décor needs. We deliver a concierge level of service for each project that includes a dedicated associate that supports your project from ideation to completion. Comprehensive design support services are coupled with company staffed on-site installation; no job is too big or too small. Let’s talk business.
HD Expo,04/26/2022,2022,https://hdexpo.hospitalitydesign.com/,DM,County Draperies Inc.,3339,,http://www.drape.com,,,,"Middletown, NY United States",United States,Pillows | Shower Curtains/Enclosures | Bed Spreads/Comforters/Duvets | Headboards | Drapery | Flame Retardant | Woven/Printed | Blinds/Shutters | Drapery Hardware | Fabric,,,"Leading manufacturer of custom window treatments (draperies, roman shades, roller shades, cornices, etc.), bedding (duvets, bed skirts, pillows, bolsters, bed scarves, box spring covers and upholstered headboards), shower curtains and related items for hotels, resorts, cruiselines, timeshares, healthcare facilities and offices.  With four decades of experience we can provide the full range of products from traditional swag and jabot treatments to custom printed fabrics and roller shades and the most advanced motorized hardware for fully integrated guestrooms."
HD Expo,04/26/2022,2022,https://hdexpo.hospitalitydesign.com/,DM,Credible Group,5409,,http://www.credibleupholstery.com,,,,"Toronto, ON Canada",Canada,"Headboards | Sofabeds/Wallbeds | Armoires/Bureaus | Bookcases/Desks/Endtables | Casegoods | Cabinet, Furniture, Display | Banquettes/Benches | Barstools | Cushions | Table Seating/Metal/Wood | Upholstered | Table Bases/Tops | Glass/Metal/Wood/Stone",,,Credible Hospitality Limited is a leading edge manufacturer of fine furniture products.
HD Expo,04/26/2022,2022,https://hdexpo.hospitalitydesign.com/,DM,Created Hardwood,2627,,https://createdhardwood.com,,,,"Dundee, OH United States",United States,Games | Doors | Signage | Headboards | Banquet/Conference Tables | Gaming | Outdoor/Casual Tables | Table Bases/Tops,,,"In 1978, CREATED™ Founder Dwain Hicks embarked on a career in the hardwood industry, pioneering how stair parts were manufactured, sold and distributed. Nearly 40 years later, that same passion attention to detail endures, now refocused on producing gorgeous solid wood and live edge furniture of the highest quality. With the help of his sons and team of skilled craftsmen, CREATED™ Hardwood Ltd is emerging as a leader in the hospitality, commercial and residential field. Combining tasteful design sensibilities with traditional craftsmanship and fabrication methods."
HD Expo,04/26/2022,2022,https://hdexpo.hospitalitydesign.com/,DM,Continental Group,2838,,http://www.cgsicorp.com,,,,"Powell, OH United States",United States,Mirrors/Lighted Mirrors | Awnings/Canopies | Decorative Glass | Doors | Shower Curtains/Enclosures | Casegoods,,,
HD Expo,04/26/2022,2022,https://hdexpo.hospitalitydesign.com/,DM,Construction Specialties,3763,,http://www.c-sgroup.com,,,,"Muncy, PA United States",United States,,,,
HD Expo,04/26/2022,2022,https://hdexpo.hospitalitydesign.com/,DM,Crossley Axminster Inc,3405,,http://www.crossleyax.com,,,,"Greenville, MS United States",United States,Carpet,,,"Crossley Axminster, always one of the best sources for fresh and innovative Axminster and Wilton carpet designs for the custom hospitality market, invites you to stop by booth #2062 and view our latest creations. Crossley Axminster - The Gold Standard in Custom Carpet."
HD Expo,04/26/2022,2022,https://hdexpo.hospitalitydesign.com/,DM,Concretti Designs,5161,,http://Concrettidesigns.com,,,,"Las Vegas, NV United States",United States,Planters | Sinks/Vanities/Plumbing | Tile/Marble/Stone/Mosiac | Banquettes/Benches | Green Products | Water conservation,,,"Manufacturer of luxury concrete products such as sinks, bathtubs, planters andmany more. Custom designs available as well. Handmade in the USA. 17 unique colors to choose from. All made from natural materials."
HD Expo,04/26/2022,2022,https://hdexpo.hospitalitydesign.com/,DM,Charter Furniture,4519,,http://www.charterfurniture.com,,,,"Liberty, NC United States",United States,Armoires/Bureaus | Bookcases/Desks/Endtables | Casegoods | Banquettes/Benches | Barstools | Conference | Cushions | Stacking | Table Seating/Metal/Wood | Upholstered,,,"Charter Furniture, with its 25-year history as a leading manufacturer of upholstered seating for the hospitality trade, offers a full range of outstanding product styles and categories that adhere to genuine craftsman and workmanship required to satisfy all expectations. In addition, our custom capabilities allow for focused design interpretation and execution for all FF&E seating requirements. Our product diversity has evolved significantly over the years. New introductions today and classic of years past encompass seating for all areas of your project."
HD Expo,04/26/2022,2022,https://hdexpo.hospitalitydesign.com/,DM,Cortina Leathers,3169,,http://www.cortinaleathers.com,,,,"NEW YORK, NY United States",United States,Leather/Suede | Upholstery | Green Products,,,
HD Expo,04/26/2022,2022,https://hdexpo.hospitalitydesign.com/,DM,Chella Textiles,3940,,http://www.chellatextiles.com,,,,"Goleta, CA United States",United States,Trimming | Drapery | Flame Retardant | Upholstery,,,"Chella Textiles designs and markets high-end Luxury Performance Textiles that are lightfast, resist mildew and stains, and are machine washable -- GUARANTEED. Chella's Luxury Performance Textiles are the industry's first solution-dyed fabric and trimmings created to withstand both the discerning eyes of designers and harsh treatment by sun, rain, and freezing temperatures. Upholsteries, sheers and trims that are perfect indoors and out, for pools, spas, restaurants, and high traffic areas in hotels and resorts."
HD Expo,04/26/2022,2022,https://hdexpo.hospitalitydesign.com/,DM,"Corsicana Bedding, Inc",3321,,http://www.corsicanabedding.com,,,,"Dallas, TX United States",United States,Box Springs/ Mattresses,,,"Corsicana Mattress is celebrating 50 YEARS of  hand-crafting mattresses in America! Celebrate with us in Booth 1631. We are proud to be one of the ""Top 3 Volume"" mattress manufacturers in the US. producing over 5 million mattresses per year in our 16 factories across the country. Stop by to view our NEW COPPER PROTECH MATTRESS COLLECTION - constructed with Anti-Microbial/Anti-Bacterial/Odor Resistant Copper Performance foam- as well as our other best sellers. At Corsicana -our goal is to deliver the best mattress at the best price and of course, provide the best sleep for your guests!"
HD Expo,04/26/2022,2022,https://hdexpo.hospitalitydesign.com/,DM,"Ceramic Technics, LTD",5613,,http://www.ceramictechnics.com,,,,"Alpharetta, GA United States",United States,Tile/Marble/Stone/Mosiac,,,"Ceramic Technics Limited, was created in 1988 as a company dedicated to resourcing distinctive collections of tile and stone for the architectural and design community throughout North America."
HD Expo,04/26/2022,2022,https://hdexpo.hospitalitydesign.com/,DM,Couristan Inc.,4549,,http://www.couristan.com,,,,"Fort Lee, NJ United States",United States,Area Rugs | Carpet | Carpet Padding/Cove Base/Binding,,,"Recognized as the pre-eminent supplier of exquisite contract carpeting and custom area rugs for the hospitality industry, Couristan offers Custom Woven Electronic Jacquard Axminsters, ColorOptics Electronic Injection Print, Carpet Tiles,Hand-Tufted Rugs, Machine-Tufted Carpets, Custom Mats."
HD Expo,04/26/2022,2022,https://hdexpo.hospitalitydesign.com/,DM,Cabanas by Academy,3345,,http://www.cabanasbyacademy.com,,,,"Montebello, CA United States",United States,Umbrellas | Awnings/Canopies | Flame Retardant | Vinyl | Outdoor | Fabric,,,"For nearly 3 decades Cabanas by Academy has designed and manufactured custom cabanas, towel valets, shade structures and shade sails for many top 5 star hotels and resorts throughout the hospitality industry. We are one of the leading cabana manufacturers in the world, with our US fabricated products in use in all 50 US States and abroad. Our products are found at most premiere destinations including Four Seasons, Ritz-Carlton, Marriott and Hilton to just name a few. We have a complete dedicated design team to take your cabana vision and create a product your guest will enjoy for years to come"
HD Expo,04/26/2022,2022,https://hdexpo.hospitalitydesign.com/,DM,"Century Industries, Inc",4472,,http://www.centuryamadeus.com,,,,"Montreal, QC Canada",Canada,Ceiling Fans | Chandeliers/Pendants | Fluorescent | Lamps,,,
HD Expo,04/26/2022,2022,https://hdexpo.hospitalitydesign.com/,DM,CF Kent Contract,2848,,http://www.cfkent.com,,,,"City Of Commerce, CA United States",United States,Sinks/Vanities/Plumbing | Headboards | Armoires/Bureaus | Bookcases/Desks/Endtables | Casegoods | Banquettes/Benches | Barstools | Table Seating/Metal/Wood | Upholstered,,,"C F Kent manufactures contract quality furniture and specializes in servicing the needs of the hospitality industry. Family owned and operated for over thirty years, we are a recognized leader in the industry and a preferred vendor for major hotel brands worldwide, including Wyndham, InterContinental Hotels Group, Hilton, and Marriott. We own and operate our own factories, which combine giving us the flexibility to offer both custom and program solutions."
HD Expo,04/26/2022,2022,https://hdexpo.hospitalitydesign.com/,DM,Bryan Ashley Inc.,3918,,http://www.bryanashley.com,,,,"Deerfield Beach, FL United States",United States,Sinks/Vanities/Plumbing | Headboards | Sofabeds/Wallbeds | Armoires/Bureaus | Bookcases/Desks/Endtables | Carts | Casegoods | Occasional | Outdoor | Banquettes/Benches | Barstools | Conference | Outdoor/Casual | Rattan/Wicker/Natural Fiber | Stacking | Table Seating/Metal/Wood | Upholstered | Banquet/Conference Tables | Gaming | Glass/Metal/Wood/Stone | Outdoor/Casual Tables | Rattan/Wicker/Natural Fiber | Table Bases/Tops,,,
HD Expo,04/26/2022,2022,https://hdexpo.hospitalitydesign.com/,DM,C A Signs,3573,,http://www.casigns.com,,,,"Pacoima, CA United States",United States,Signage,,,"We are an experienced signage manufacturer and installer located in the San Fernando Valley. We have been in business for almost 60 years providing beautiful, custom signage for our customers."
HD Expo,04/26/2022,2022,https://hdexpo.hospitalitydesign.com/,DM,Busch Systems,5640,,http://www.buschsystems.com,,,,"Barrie, ON Canada",Canada,Trash/Recycling,,,
HD Expo,04/26/2022,2022,https://hdexpo.hospitalitydesign.com/,DM,Brandstand Products,5804,,http://www.brandstand.com,,,,"Richardson, TX United States",United States,Clocks | Charging Stations,,,
HD Expo,04/26/2022,2022,https://hdexpo.hospitalitydesign.com/,DM,Cal Lighting,3438,,http://www.calighting.com,,,,"Ontario, CA United States",United States,Chandeliers/Pendants | Fluorescent | Lamps | LED,,,"Cal Lighting is a 30 year old company, that  stocks more than 2000 table and floor lamps, and chandeliers, plus pendants,  LED mirrors, designer shades,  LED track and serpentine lighting, as well as vanity and corridor lighting  in its Southern California location for quick shipment. Special quotes for quantities of 100 or more can be fabricated at its overseas facility. Styles range from  mid-century, contemporary, rustic, tropical, task, and casual to traditional, with multiple finishes available."
HD Expo,04/26/2022,2022,https://hdexpo.hospitalitydesign.com/,DM,Bromic Heating,5249,,https://www.bromic.com/heating/,,,,"Irvine, CA United States",United States,CommercialSupplies | Electric | Gas | Outdoor,,,
HD Expo,04/26/2022,2022,https://hdexpo.hospitalitydesign.com/,DM,BOKSER HOME,3757,,www.bokserhome.com,,,,"Minneapolis, MN United States",United States,,,,
HD Expo,04/26/2022,2022,https://hdexpo.hospitalitydesign.com/,DM,CABANACOAST,5719,,http://www.cabanacoast.com,,,,"Mississauga, ON Canada",Canada,Pillows | Planters | Umbrellas | Upholstery | Casual | Outdoor | Trash/Recycling | Outdoor | Banquettes/Benches | Barstools | Conference | Cushions | Outdoor/Casual | Rattan/Wicker/Natural Fiber | Stacking | Table Seating/Metal/Wood | Upholstered | Banquet/Conference Tables | Gaming | Glass/Metal/Wood/Stone | Outdoor/Casual Tables | Rattan/Wicker/Natural Fiber | Table Bases/Tops,,,
HD Expo,04/26/2022,2022,https://hdexpo.hospitalitydesign.com/,DM,Bradley Corporation,2834,,http://www.bradleycorp.com,,,,"Menomonee Falls, WI United States",United States,Sinks/Vanities/Plumbing,,,"Bradley Corporation has created the most advanced, coordinated commercial washrooms and comprehensive emergency safety solutions that make public environments hygienic and safe. For 100 years, Bradley has been dedicated to innovating healthy handwashing technologies, with a new array of designs including touchless fixtures, hygienic sink materials and hand sanitizer dispensers."
HD Expo,04/26/2022,2022,https://hdexpo.hospitalitydesign.com/,DM,Brasstech,3863,,http://www.brasstech.com,,,,"SANTA ANA, CA United States",United States,Accessories | Sinks/Vanities/Plumbing | Building materials | Energy efficiency | Green Products | Recycled materials | Water conservation,,,"Brasstech, is a company with two brands, Newport Brass and Ginger - offering quality kitchen and bath fixtures, accessories, lighting, and mirrors ranging from mid to luxury price points."
HD Expo,04/26/2022,2022,https://hdexpo.hospitalitydesign.com/,DM,"Bramson House, Inc.",5705,,http://www.bramsonhouse.com,,,,"Freeport, NY United States",United States,Bed Spreads/Comforters/Duvets | Headboards | Drapery | Flame Retardant | Upholstery | Vinyl | Woven/Printed | Blinds/Shutters | Drapery Hardware | Fabric,,,"For over 40 years Bramson House is a full turn key manufacturer of window treatments and decorative bedding for the hotel and casino industry worldwide. We measure, manufacture and install each project to the exact specifications. Bramson House does not sub-contract any part of the project. This way we can insure your complete satisfaction. We now have our own in house digital fabric printing capabilities as well as fabric sourcing."
HD Expo,04/26/2022,2022,https://hdexpo.hospitalitydesign.com/,DM,Blue Bell Mattress Co.  Circa 28,3663,,http://www.BlueBellMattress.com,,,,"East Windsor, CT United States",United States,Box Springs/ Mattresses,,,Blue Bell is a 93-year-old American company ranked in the top ten United States manufacturers of mattresses.  Hospitality branded as Circa'28. Our products are handmade by craftsmen in Connecticut.
HD Expo,04/26/2022,2022,https://hdexpo.hospitalitydesign.com/,DM,Bernhardt Hospitality,4719,,http://www.bernhardthospitality.com,,,,"Lenoir, NC United States",United States,Headboards | Sofabeds/Wallbeds | Armoires/Bureaus | Bookcases/Desks/Endtables | Casegoods | Occasional | Upholstered | Glass/Metal/Wood/Stone | Table Bases/Tops,,,"Furniture Makers Since 1889. Casegoods and upholstered seatng for guestrooms, suites and public space. Quality in-line and custom products at competitive prices. Domestic and offshore production to meet your budget and schedule."
HD Expo,04/26/2022,2022,https://hdexpo.hospitalitydesign.com/,DM,Berlin Gardens LLC,5601,,www.berlingardensllc.com,,,,"Millersburg, OH United States",United States,,,,
HD Expo,04/26/2022,2022,https://hdexpo.hospitalitydesign.com/,DM,Berner International,4978,,http://www.berner.com,,,,"New Castle, PA United States",United States,,,,
HD Expo,04/26/2022,2022,https://hdexpo.hospitalitydesign.com/,DM,Belwith-Keeler Décor Solutions®,5260,,http://www.belwithkeeler.com,,,,"Grandville, MI United States",United States,Hardware,,,"Belwith-Keeler is a brand refined in elegance, with trend-leading design, inspired by the latest fashion. Our in-house design team scouts the latest styles, and re-imagines them into a refined product selection. With high quality details and expert fit and finsih; only the finest are added into our living library of designs since 1893."
HD Expo,04/26/2022,2022,https://hdexpo.hospitalitydesign.com/,DM,Beaufurn,4343,,http://www.beaufurn.com,,,,"Advance, NC United States",United States,Umbrellas | Acoustic/Sound | Banquettes/Benches | Barstools | Conference | Outdoor/Casual | Rattan/Wicker/Natural Fiber | Stacking | Table Seating/Metal/Wood | Upholstered | Glass/Metal/Wood/Stone | Outdoor/Casual Tables | Rattan/Wicker/Natural Fiber | Table Bases/Tops,,,
HD Expo,04/26/2022,2022,https://hdexpo.hospitalitydesign.com/,DM,Beautyrest Hospitality,3745,,http://www.simmonshospitality.com,,,,"Doraville, GA Georgia",Georgia,Box Springs/ Mattresses,,,
HD Expo,04/26/2022,2022,https://hdexpo.hospitalitydesign.com/,DM,Berkshire Hospitality,2705,,http://www.berkshirehospitality.com,,,,"ware, MA United States",United States,Pillows | Bed Spreads/Comforters/Duvets | Drapery | Flame Retardant | Woven/Printed | Interior Design | Fabric,,,
HD Expo,04/26/2022,2022,https://hdexpo.hospitalitydesign.com/,DM,BambrellaUSA Inc.,5443,,http://www.bambrellausa.com,,,,"Deerfield Beach, FL United States",United States,Umbrellas | Awnings/Canopies | Outdoor,,,"Bambrella has proved to be amongst the highest quality natural and aluminum parasols on the market. Our mission is to supply commercial, contract and domestic users with strong, durable well-designed parasols at a moderate price point."
HD Expo,04/26/2022,2022,https://hdexpo.hospitalitydesign.com/,DM,Bittel Americas,3966,,http://www.bittelamericas.com,,,,"San Jose, CA United States",United States,Clocks | Hardware | Audio Visual,,,
HD Expo,04/26/2022,2022,https://hdexpo.hospitalitydesign.com/,DM,Boca Terry,3368,,http://www.bocaterry.com,,,,"Deerfield Beach, FL United States",United States,Accessories | Robes/Slippers/Linens,,,Manufacturer of superior terry products and distributed worldwide.
HD Expo,04/26/2022,2022,https://hdexpo.hospitalitydesign.com/,DM,Axxess Industries Inc,2840,,http://www.axxind.com,,,,"Kelowna, BC Canada",Canada,Signage | Energy Management Systems | LED | Lighting Control Systems,,,"Over the past 20 years, Axxess Industries has supplied Electronic Do-Not-Disturb and Doorbell Systems to hotels large and small that seek to elevate their guest experience and operations.  These innovative systems improve the touch points between hotel guests and staff while boosting the overall efficiency of housekeeping departments. Every product is manufactured in-house, which allows us to tailor the design to specific needs of our clients. Let's work together to elevate your guest experience by enhancing comfort, convenience and efficiency."
HD Expo,04/26/2022,2022,https://hdexpo.hospitalitydesign.com/,DM,BDL- Better Designed Lighting,5313,,http://www.bdl.com,,,,"Maitland, FL United States",United States,Ceiling Fans | Chandeliers/Pendants | Fluorescent | Lamps | Outdoor,,,BDL- Better Designed Lighting sources globally to bring your design intent to life! Design challenges are met on time and within budget. Our team of artisans and engineers are experts at everything from guestroom and corridor lighting to one-of-a-kind showstoppers for lobbies or casino floors. An outstanding level of service from a team of consummate lighting professionals makes BDL an excellent choice for your next hospitality or gaming project. Please email inquiries to Derek Applegate/VP  DApplegate@BDL.com. Select territories are available!
HD Expo,04/26/2022,2022,https://hdexpo.hospitalitydesign.com/,DM,ATS Inc/Anderson Trucking Service,5944,,http://www.atsinc.com,,,,"St Cloud, MN United States",United States,Install/Transport,,,"On-time delivery is crucial to keeping your business building as fast as the hotels you supply. With Anderson Trucking Service (ATS) in your supply chain, late deliveries will never hold you back. Damaged products won’t slow you down either. With the proper equipment — including pad/blanket wrap, straps and decking — and safety being engrained in the ATS culture, your freight will be delivered on time and damage-free."
HD Expo,04/26/2022,2022,https://hdexpo.hospitalitydesign.com/,DM,"Axis Hospitality, Design . Purchasing . Logistics",2963,,http://www.axiswwsc.com,,,,"Wildwood, MO United States",United States,Install/Transport | Interior Design,,,"Axis Hospitality offers the complete ""turnkey"" solution in direct interior design, purchasing, FF&E/OS&E  freight management, warehousing and installation. We provide a full range of supply chain project logistic services exclusively  for the hospitality industry in managing new build and renovation projects for  hotels, restaurants, casinos, senior living and multifamily projects worldwide. Here at Axis,  we've  developed the sophisticated technology to facilitate a solution for all your hospitality project logistic  needs.  636-787-0000 / www.axiswwsc.com"
HD Expo,04/26/2022,2022,https://hdexpo.hospitalitydesign.com/,DM,Balconista Furniture,3862,,http://www.balconistafurniture.com,,,,"Panama City, FL United States",United States,Casual | Occasional | Outdoor | Barstools | Outdoor/Casual | In Room Services | Green Products | Recycled materials | Glass/Metal/Wood/Stone | Outdoor/Casual Tables | Table Bases/Tops,,,
HD Expo,04/26/2022,2022,https://hdexpo.hospitalitydesign.com/,DM,"Astek Wallcovering, Inc.",4431,,http://www.astek.com,,,,"Van Nuys, CA United States",United States,Original | Prints/Reproductions/Photography | Embossed/Relief | Fabric | Wallpapers,,,
HD Expo,04/26/2022,2022,https://hdexpo.hospitalitydesign.com/,DM,Asian Ceramics,5509,,http://www.asian-ceramics.com,,,,"Duarte, CA United States",United States,Planters | Outdoor,,,
HD Expo,04/26/2022,2022,https://hdexpo.hospitalitydesign.com/,DM,Atkinson Ergonomic Solutions Inc.,4166,,http://www.atkinsonbedlift.com,,,,"Naperville, IL United States",United States,Box Springs/ Mattresses,,,"Atkinson Ergonomic Solutions, Inc. announces the launch of our new product, the Atkinson Bedlift.This simple green device provides ergonomic bed making relief and 360° access. The Atkinson BedLift is a game changer for the hospitality industry. It’s a new product line that provides housekeepers and maintenance workers a dramatically improved ergonomic approach to their regular routines.  When raised the entire bed and bed frame comes 12” up and 12” away from the wall and nightstands. It simultaneously decreases costs while increasing efficiency and room cleanliness."
HD Expo,04/26/2022,2022,https://hdexpo.hospitalitydesign.com/,DM,Artline Group,4627,,http://www.artlinegroup.com,,,,"Hicksville, NY United States",United States,Artificial Plants/Flowers | Mirrors/Lighted Mirrors | Planters | Acoustic/Sound | Decorative Glass | Original | Prints/Reproductions/Photography | Sculpture | Stained Glass | Accessories | Embossed/Relief | Wallpapers | Wood,,,"Providing mirrors, artwork, and artificial plants for over 30 years. Factories in: California, Florida, and New York"
HD Expo,04/26/2022,2022,https://hdexpo.hospitalitydesign.com/,DM,"Ashley Lighting, Inc.",5831,,http://www.ashleylighting.com,,,,"Trumann, AR United States",United States,Ceiling Fans | Chandeliers/Pendants | Fluorescent | Lamps,,,
HD Expo,04/26/2022,2022,https://hdexpo.hospitalitydesign.com/,DM,Astro Lighting,2835,,https://us.astrolighting.com,,,,"Wharton, NJ United States",United States,Chandeliers/Pendants | Lamps | LED | Outdoor | Sconces,,,
HD Expo,04/26/2022,2022,https://hdexpo.hospitalitydesign.com/,DM,Blondie's Treehouse Inc,2856,,http://www.blondiestreehouse.com,,,,"Mamaroneck, NY United States",United States,Artificial Plants/Flowers | Planters,,,"Blondie's Treehouse Inc. specializes in creating national hospitality partnerships that transform guest experiences. We do this by designing, installing + servicing custom interior plantscapes that are as unique as the brands they represent. We create + foster customer loyalty and inspired destinations."
HD Expo,04/26/2022,2022,https://hdexpo.hospitalitydesign.com/,DM,Arkansas Lighting,5031,,http://www.arkansaslamp.com,,,,"Van Buren, AR United States",United States,Ceiling Fans | Chandeliers/Pendants | Fluorescent | Lamps | LED,,,Arkansas Lamp is a family owned business that manufactures decorative lighting for the hospitality industry and the US military. Our offshore contacts paired with our domestic manufacturing capability give us tremendous flexibility to meet your demanding quality and timeline requirements.
HD Expo,04/26/2022,2022,https://hdexpo.hospitalitydesign.com/,DM,Ariston Hospitality,3711,,http://www.aristonhospitality.com,,,,"Alhambra, CA United States",United States,Doors | Moulding/Rail | Sinks/Vanities/Plumbing | Headboards | Sofabeds/Wallbeds | Armoires/Bureaus | Bookcases/Desks/Endtables | Carts | Casegoods | Occasional | Banquettes/Benches | Barstools | Conference | Stacking | Table Seating/Metal/Wood | Upholstered | Banquet/Conference Tables | Glass/Metal/Wood/Stone | Table Bases/Tops,,,"Ariston Hospitality, a family owned, international manufacturing company with facilities in CA, NC and overseas, has been creating distinctive furnishings to exacting specifications for more than 60 years. Ariston offers custom seating and case goods solutions for high-traffic environments from boutique hotels to corporate offices. In 2020, Ariston purchased Motivo Furniture (NC), a fashion forward, European designed collection of over 200 standard in line seating and table products in 2020. Ariston offers a wide range capabilities and capacities for the hospitality trade."
HD Expo,04/26/2022,2022,https://hdexpo.hospitalitydesign.com/,DM,Babmar Modern Outdoor Furniture,5349,,http://www.babmar.com,,,,"San Diego, CA United States",United States,Planters | Umbrellas | Carts | Casual | Occasional | Outdoor | Barstools | Cushions | Outdoor/Casual | Rattan/Wicker/Natural Fiber | Stacking | Table Seating/Metal/Wood | Upholstered | Outdoor/Casual Tables | Rattan/Wicker/Natural Fiber | Table Bases/Tops,,,"Babmar Modern Outdoor Furniture provides the highest level of quality, comfort and style of outdoor furniture for the commercial market. With over 18 years experience in the casual market Babmar will ensure your next project will run smooth, on-time and on budget."
HD Expo,04/26/2022,2022,https://hdexpo.hospitalitydesign.com/,DM,Armen Living Furniture,5919,,http://www.armenliving.com,,,,"Valencia, CA United States",United States,Armoires/Bureaus | Bookcases/Desks/Endtables | Carts | Casegoods | Casual | Occasional | Banquettes/Benches | Barstools | Conference | Stacking | Table Seating/Metal/Wood | Upholstered | Banquet/Conference Tables | Glass/Metal/Wood/Stone | Table Bases/Tops,,,"Armen Living represents a refreshingly innovative creative collaboration with top designers in the industry. The result is a uniquely modern collection gorgeously enhanced by sophisticated retro aesthetics. Armen Living celebrates bold individuality, vibrant youthfulness, sensual refinement, and expert craftsmanship at fiscally sensible price points. Each piece conveys pleasure and exudes self expression while resonating with the contemporary chic lifestyle."
HD Expo,04/26/2022,2022,https://hdexpo.hospitalitydesign.com/,DM,ABG Hospitality,3419,,http://www.abghospitality.com,,,,"Savannah, TN United States",United States,Doors | Walls/Partitions | Accessories | Shower Curtains/Enclosures | Sinks/Vanities/Plumbing | Spa Equipment | Surfacing materials | Building materials,,,
HD Expo,04/26/2022,2022,https://hdexpo.hospitalitydesign.com/,DM,Arizona Tile,4735,,http://www.arizonatile.com,,,,"Tempe, AZ United States",United States,Decorative Glass | Stone | Tile/Marble/Stone/Mosiac | Marble/Stone/Tile,,,
HD Expo,04/26/2022,2022,https://hdexpo.hospitalitydesign.com/,DM,Arteriors,4127,,http://www.arteriorshome.com/contract/,,,,"Lewisville, TX United States",United States,Mirrors/Lighted Mirrors | Tabletop Products | Bookcases/Desks/Endtables | Cabinets | Carts | Occasional | Chandeliers/Pendants | Lamps | LED | Outdoor | Sconces | Banquettes/Benches | Barstools | Rattan/Wicker/Natural Fiber | Table Seating/Metal/Wood | Upholstered | Green Products | Glass/Metal/Wood/Stone | Rattan/Wicker/Natural Fiber | Table Bases/Tops,,,"Arteriors' expansive stock offering includes hundreds of products suitable for commercial use across the Lighting, Furniture, Accessory and Wall Decor categories - all with the utmost attention to material, scale and finish. We are committed to balancing innovation and artistry, focused both on the preservation of craft and the evolution of technology.  Whether it be a modification to an in-stock item, value engineering required to deliver a project on budget, or the realization of an entirely new concept, our team is prepared with tailored design solutions."
HD Expo,04/26/2022,2022,https://hdexpo.hospitalitydesign.com/,DM,Accord Lighting,5940,,https://accordlighting.com,,,,"Miami, FL United States",United States,Chandeliers/Pendants | Lamps | LED | Sconces,,,
HD Expo,04/26/2022,2022,https://hdexpo.hospitalitydesign.com/,DM,Royal Botania Corp.,3241,,http://www.royalbotania.com,,,,"New York, NY United States",United States,Umbrellas | Area Rugs | Outdoor | Outdoor | Outdoor/Casual | Outdoor/Casual Tables,,,
HD Expo,04/26/2022,2022,https://hdexpo.hospitalitydesign.com/,DM,Access Product Inc.,3244,,http://www.accessproductinc.com,,,,"Caledonia, MI United States",United States,CommercialSupplies | Energy Management Systems | Armoires/Bureaus | Bookcases/Desks/Endtables | Casegoods | Hardware | Banquet/Conference Tables,,,Access Product offers the Vault Power and Data Centers that provides a smart and graceful method that brings access to power and data right where the user actually needs it.
HD Expo,04/26/2022,2022,https://hdexpo.hospitalitydesign.com/,DM,10-31 Industries,5841,,http://www.10-31.com/,,,,"Columbia, NJ United States",United States,Signage | Occasional,,,"Crowd control done elegantly. Q-Cord™ retractable barriers have a clean, architectural look and feel that enhances whatever it showcases. Designed to exceed ADA requirements, the world’s thinnest retractable system is easy to set up and arrange. Flexible design options, handmade in the USA with stainless steel components, allow for positioning with either a freestanding base, magnetic base, floor socket or screw-fixed floor plate.  Made by 10-31 INC."
HD Expo,04/26/2022,2022,https://hdexpo.hospitalitydesign.com/,DM,Serge Ferrari,5654,,http://www.sergeferrari.com/us-en,,,,"Deerfield Beach, FL United States",United States,Acoustic/Sound | Awnings/Canopies | Flame Retardant | Leather/Suede | Upholstery | Woven/Printed | Fabric,,,"There is no limit to your design ideas with the lightness, flexibility, strength and comfort of Serge Ferrari materials."
HD Expo,04/26/2022,2022,https://hdexpo.hospitalitydesign.com/,DM,Room & Board Business Interiors,4643,,,,,,"Minneapolis, MN United States",United States,Minibars | Sinks/Vanities/Plumbing | Box Springs/ Mattresses | Leather/Suede | Upholstery | Armoires/Bureaus | Bookcases/Desks/Endtables | Cabinets | Carts | Casegoods | Casual | Occasional | Outdoor | Chandeliers/Pendants | Lamps | LED | Outdoor | Sconces | Banquettes/Benches | Barstools | Conference | Outdoor/Casual | Table Seating/Metal/Wood | Upholstered | Interior Design | Green Products | Recycled materials | Banquet/Conference Tables | Glass/Metal/Wood/Stone | Outdoor/Casual Tables | Table Bases/Tops,,,
HD Expo,04/26/2022,2022,https://hdexpo.hospitalitydesign.com/,DM,Allred Collaborative,3011,,,,,,"Palm Springs, CA United States",United States,,,,
