ShowName,ShowDate,ShowYear,ShowWebsite,SubmittedBy,ExhibitorName,BoothNumber,HallLocation,Website,Email,Phone,Fax,Address,Country,Categories,Manufacturers,Brands,Description
Meble Polska,02/22/2022,2022,https://www.meblepolska.pl/en/,DM,ACTONA GROUP,,,www.actonagroup.com,,,,,DENMARK,,,,
Meble Polska,02/22/2022,2022,https://www.meblepolska.pl/en/,DM,ADABET24,,,www.quarto24.pl,,,,,POLAND,,,,
Meble Polska,02/22/2022,2022,https://www.meblepolska.pl/en/,DM,AMBRO EXPRESS,,,www.ambro.pl,,,,,POLAND,,,,
Meble Polska,02/22/2022,2022,https://www.meblepolska.pl/en/,DM,ARDSEL,,,www.ardsel.pl,,,,,POLAND,,,,
Meble Polska,02/22/2022,2022,https://www.meblepolska.pl/en/,DM,ARKOS,,,www.arkos-meble.pl,,,,,POLAND,,,,
Meble Polska,02/22/2022,2022,https://www.meblepolska.pl/en/,DM,A and S Comfort,,,www.ascomfort.pl,,,,,POLAND,,,,
Meble Polska,02/22/2022,2022,https://www.meblepolska.pl/en/,DM,ASM,,,www.asm-meble.pl,,,,,POLAND,,,,
Meble Polska,02/22/2022,2022,https://www.meblepolska.pl/en/,DM,ATREVE,,,www.atreve.pl,,,,,POLAND,,,,
Meble Polska,02/22/2022,2022,https://www.meblepolska.pl/en/,DM,AZARDI,,,www.azardi.art,,,,,POLAND,,,,
Meble Polska,02/22/2022,2022,https://www.meblepolska.pl/en/,DM,BACH,,,www.bach.com.pl,,,,,POLAND,,,,
Meble Polska,02/22/2022,2022,https://www.meblepolska.pl/en/,DM,BENIX,,,www.benix.pl,,,,,POLAND,,,,
Meble Polska,02/22/2022,2022,https://www.meblepolska.pl/en/,DM,BESKIDZKIE FABRYKI MEBLI,,,www.befame.com,,,,,POLAND,,,,
Meble Polska,02/22/2022,2022,https://www.meblepolska.pl/en/,DM,BIM,,,www.bimfurniture.com,,,,,POLAND,,,,
Meble Polska,02/22/2022,2022,https://www.meblepolska.pl/en/,DM,BLACK RED WHITE,,,www.brw.pl,,,,,POLAND,,,,
Meble Polska,02/22/2022,2022,https://www.meblepolska.pl/en/,DM,BLONSKI,,,www.mebliblonski.com,,,,,UKRAINE,,,,
Meble Polska,02/22/2022,2022,https://www.meblepolska.pl/en/,DM,BOZZETTI GRUPA,,,www.bozzettidesign.com,,,,,POLAND,,,,
Meble Polska,02/22/2022,2022,https://www.meblepolska.pl/en/,DM,BRAND EMOTION,,,www.brandemotion.pl,,,,,POLAND,,,,
Meble Polska,02/22/2022,2022,https://www.meblepolska.pl/en/,DM,BRIGHT FURNITURE,,,www.brightfum.com,,,,,POLAND,,,,
Meble Polska,02/22/2022,2022,https://www.meblepolska.pl/en/,DM,CALITAN FURNITURE FACTORY,,,www.calitanff.pl,,,,,POLAND,,,,
Meble Polska,02/22/2022,2022,https://www.meblepolska.pl/en/,DM,CLAUDIE DESIGN,,,www.claudie.pl,,,,,POLAND,,,,
Meble Polska,02/22/2022,2022,https://www.meblepolska.pl/en/,DM,COMAD,,,www.comad.eu,,,,,POLAND,,,,
Meble Polska,02/22/2022,2022,https://www.meblepolska.pl/en/,DM,COME-FOR,,,www.come-for.com.ua,,,,,UKRAINE,,,,
Meble Polska,02/22/2022,2022,https://www.meblepolska.pl/en/,DM,CRAFT-T MEBLE,,,www.mebletm.pl,,,,,POLAND,,,,
Meble Polska,02/22/2022,2022,https://www.meblepolska.pl/en/,DM,CREADEST,,,www.creadest.com.pl,,,,,POLAND,,,,
Meble Polska,02/22/2022,2022,https://www.meblepolska.pl/en/,DM,DEMI CO.,,,www.demico.pl,,,,,POLAND,,,,
Meble Polska,02/22/2022,2022,https://www.meblepolska.pl/en/,DM,DES MEBLE,,,www.des.pl,,,,,POLAND,,,,
Meble Polska,02/22/2022,2022,https://www.meblepolska.pl/en/,DM,DESIGNLINK,,,www.dsgnlink.com,,,,,POLAND,,,,
Meble Polska,02/22/2022,2022,https://www.meblepolska.pl/en/,DM,DIG-NET,,,www.dignet.com.pl,,,,,POLAND,,,,
Meble Polska,02/22/2022,2022,https://www.meblepolska.pl/en/,DM,DSV FURNITURE,,,www.dsv-mebel.ru,,,,,RUSSIA,,,,
Meble Polska,02/22/2022,2022,https://www.meblepolska.pl/en/,DM,EGEN Platforma Mebli,,,www.platformamebli.pl,,,,,POLAND,,,,
Meble Polska,02/22/2022,2022,https://www.meblepolska.pl/en/,DM,ELTAP,,,www.eltap.pl,,,,,POLAND,,,,
Meble Polska,02/22/2022,2022,https://www.meblepolska.pl/en/,DM,ENDO,,,www.endoszklo.pl,,,,,POLAND,,,,
Meble Polska,02/22/2022,2022,https://www.meblepolska.pl/en/,DM,EUROMOBIL,,,www.emobil.com.pl,,,,,POLAND,,,,
Meble Polska,02/22/2022,2022,https://www.meblepolska.pl/en/,DM,EUROTEL,,,www.lozkapietrowe.pl,,,,,POLAND,,,,
Meble Polska,02/22/2022,2022,https://www.meblepolska.pl/en/,DM,EXTOM-MEBLE,,,www.extom.com.pl,,,,,POLAND,,,,
Meble Polska,02/22/2022,2022,https://www.meblepolska.pl/en/,DM,FADOME,,,www.fadome.eu,,,,,POLAND,,,,
Meble Polska,02/22/2022,2022,https://www.meblepolska.pl/en/,DM,FAMEG,,,www.fameg.pl,,,,,POLAND,,,,
Meble Polska,02/22/2022,2022,https://www.meblepolska.pl/en/,DM,FDM,,,www.fdm.pl,,,,,POLAND,,,,
Meble Polska,02/22/2022,2022,https://www.meblepolska.pl/en/,DM,FENIKS,,,www.feniks-meble.pl,,,,,POLAND,,,,
Meble Polska,02/22/2022,2022,https://www.meblepolska.pl/en/,DM,FORLINE,,,,,,,,POLAND,,,,
Meble Polska,02/22/2022,2022,https://www.meblepolska.pl/en/,DM,FORTE,,,www.forte.com.pl,,,,,POLAND,,,,
Meble Polska,02/22/2022,2022,https://www.meblepolska.pl/en/,DM,GALA COLLEZIONE,,,www.galameble.com/,,,,,POLAND,,,,
Meble Polska,02/22/2022,2022,https://www.meblepolska.pl/en/,DM,GAŁA MEBLE,,,www.galameble.pl,,,,,POLAND,,,,
Meble Polska,02/22/2022,2022,https://www.meblepolska.pl/en/,DM,GERBOR,,,www.gerbor.pl,,,,,POLAND,,,,
Meble Polska,02/22/2022,2022,https://www.meblepolska.pl/en/,DM,GRADE PLUS,,,www.greid.com.ua,,,,,UKRAINE,,,,
Meble Polska,02/22/2022,2022,https://www.meblepolska.pl/en/,DM,GREY DESIGN / GILLI,,,www.gilli.pl/kontakt,,,,,POLAND,,,,
Meble Polska,02/22/2022,2022,https://www.meblepolska.pl/en/,DM,GRISHCHENKO SERGII,,,www.smeb.com.ua,,,,,UKRAINE,,,,
Meble Polska,02/22/2022,2022,https://www.meblepolska.pl/en/,DM,HALMAR,,,www.halmar.pl,,,,,POLAND,,,,
Meble Polska,02/22/2022,2022,https://www.meblepolska.pl/en/,DM,HALO POLAND,,,www.halocreativedesign.com,,,,,POLAND,,,,
Meble Polska,02/22/2022,2022,https://www.meblepolska.pl/en/,DM,HANDICRAFT,,,www.handicraft.com.pl,,,,,POLAND,,,,
Meble Polska,02/22/2022,2022,https://www.meblepolska.pl/en/,DM,HBZ MEBLE,,,www.bega-gruppe.de,,,,,POLAND,,,,
Meble Polska,02/22/2022,2022,https://www.meblepolska.pl/en/,DM,HEALTHCARE,,,www.healthcareeurope.rs/en,,,,,SERBIA,,,,
Meble Polska,02/22/2022,2022,https://www.meblepolska.pl/en/,DM,,,,,,,,,,,,,
Meble Polska,02/22/2022,2022,https://www.meblepolska.pl/en/,DM,HOLME,,,www.holme.xyz,,,,,POLAND,,,,
Meble Polska,02/22/2022,2022,https://www.meblepolska.pl/en/,DM,HOME CONCEPT,,,www.home-concept.pl,,,,,POLAND,,,,
Meble Polska,02/22/2022,2022,https://www.meblepolska.pl/en/,DM,IDŹCZAK-MEBLE,,,www.idzczak-meble.pl,,,,,POLAND,,,,
Meble Polska,02/22/2022,2022,https://www.meblepolska.pl/en/,DM,ISBIR SUNGER SANAYI,,,www.isbirsunger.com,,,,,TURKEY,,,,
Meble Polska,02/22/2022,2022,https://www.meblepolska.pl/en/,DM,JANEX MB / PANQUBE,,,www.panqube.pl,,,,,POLAND,,,,
Meble Polska,02/22/2022,2022,https://www.meblepolska.pl/en/,DM,JUREK,,,www.meblejurek.pl,,,,,POLAND,,,,
Meble Polska,02/22/2022,2022,https://www.meblepolska.pl/en/,DM,KATMANDU,,,www.meblekatmandu.pl,,,,,POLAND,,,,
Meble Polska,02/22/2022,2022,https://www.meblepolska.pl/en/,DM,KIROV REGION,,,www.exportkirov.ru,,,,,RUSSIA,,,,
Meble Polska,02/22/2022,2022,https://www.meblepolska.pl/en/,DM,KLUPŚ-HEN,,,www.littlesky.pl,,,,,POLAND,,,,
Meble Polska,02/22/2022,2022,https://www.meblepolska.pl/en/,DM,KOCOT KIDS,,,www.kocotkids.com,,,,,POLAND,,,,
Meble Polska,02/22/2022,2022,https://www.meblepolska.pl/en/,DM,LAVERTO,,,www.laverto.pl,,,,,POLAND,,,,
Meble Polska,02/22/2022,2022,https://www.meblepolska.pl/en/,DM,LAYMAN,,,www.layman.pl,,,,,POLAND,,,,
Meble Polska,02/22/2022,2022,https://www.meblepolska.pl/en/,DM,LIBRA SOFA,,,www.librasofa.pl,,,,,POLAND,,,,
Meble Polska,02/22/2022,2022,https://www.meblepolska.pl/en/,DM,LIBRO,,,www.libro.lubawa.pl,,,,,POLAND,,,,
Meble Polska,02/22/2022,2022,https://www.meblepolska.pl/en/,DM,LINNEO,,,www.linneo.pl,,,,,POLAND,,,,
Meble Polska,02/22/2022,2022,https://www.meblepolska.pl/en/,DM,ŁĄCCY KOŁCZYGŁOWY,,,www.laccy.pl,,,,,POLAND,,,,
Meble Polska,02/22/2022,2022,https://www.meblepolska.pl/en/,DM,M&K FOAM,,,www.mkfoam.pl,,,,,POLAND,,,,
Meble Polska,02/22/2022,2022,https://www.meblepolska.pl/en/,DM,MAGDAR,,,www.magdar-furniture.pl,,,,,POLAND,,,,
Meble Polska,02/22/2022,2022,https://www.meblepolska.pl/en/,DM,MANUFAKTURA BB,,,www.bizzarto.com,,,,,POLAND,,,,
Meble Polska,02/22/2022,2022,https://www.meblepolska.pl/en/,DM,MARKOS,,,www.markos.poznan.pl,,,,,POLAND,,,,
Meble Polska,02/22/2022,2022,https://www.meblepolska.pl/en/,DM,MAT-TAR,,,www.mat-tar.pl,,,,,POLAND,,,,
Meble Polska,02/22/2022,2022,https://www.meblepolska.pl/en/,DM,MATERASSO,,,www.materasso.eu,,,,,SLOVAKIA,,,,
Meble Polska,02/22/2022,2022,https://www.meblepolska.pl/en/,DM,MAX,,,,,,,,POLAND,,,,
Meble Polska,02/22/2022,2022,https://www.meblepolska.pl/en/,DM,MAXI,,,www.maxi.bytom.pl,,,,,POLAND,,,,
Meble Polska,02/22/2022,2022,https://www.meblepolska.pl/en/,DM,MC AKCENT,,,www.mcakcent.pl,,,,,POLAND,,,,
Meble Polska,02/22/2022,2022,https://www.meblepolska.pl/en/,DM,MEBAS,,,www.mebas.pl,,,,,POLAND,,,,
Meble Polska,02/22/2022,2022,https://www.meblepolska.pl/en/,DM,MEBELCOM,,,www.nkmebel.com/,,,,,,,,,
Meble Polska,02/22/2022,2022,https://www.meblepolska.pl/en/,DM,MEBLE BEST,,,www.meblebest.com.pl,,,,,POLAND,,,,
Meble Polska,02/22/2022,2022,https://www.meblepolska.pl/en/,DM,MEBLE DOKTÓR,,,www.mebledoktor.pl,,,,,POLAND,,,,
Meble Polska,02/22/2022,2022,https://www.meblepolska.pl/en/,DM,MEBLE MARZENIE,,,www.meble-marzenie.pl,,,,,POLAND,,,,
Meble Polska,02/22/2022,2022,https://www.meblepolska.pl/en/,DM,MEBLE MOSKAŁA,,,www.meblemoskala.pl,,,,,POLAND,,,,
Meble Polska,02/22/2022,2022,https://www.meblepolska.pl/en/,DM,MEBLE WÓJCIK,,,www.meblewojcik.pl,,,,,POLAND,,,,
Meble Polska,02/22/2022,2022,https://www.meblepolska.pl/en/,DM,MEBLE-LASKI,,,www.meble-laski.com.pl,,,,,POLAND,,,,
Meble Polska,02/22/2022,2022,https://www.meblepolska.pl/en/,DM,MEBLE-OKMED,,,www.mebleokmed.pl,,,,,POLAND,,,,
Meble Polska,02/22/2022,2022,https://www.meblepolska.pl/en/,DM,MEBLOMAK,,,www.meblomak.pl,,,,,POLAND,,,,
Meble Polska,02/22/2022,2022,https://www.meblepolska.pl/en/,DM,MEBLOMAX,,,www.meblomax.net.pl,,,,,POLAND,,,,
Meble Polska,02/22/2022,2022,https://www.meblepolska.pl/en/,DM,MEBLOMECH,,,www.meblomech.com,,,,,POLAND,,,,
Meble Polska,02/22/2022,2022,https://www.meblepolska.pl/en/,DM,METTA,,,www.metta.ru,,,,,RUSSIA,,,,
Meble Polska,02/22/2022,2022,https://www.meblepolska.pl/en/,DM,MODALTO,,,www.modalto.pl,,,,,POLAND,,,,
Meble Polska,02/22/2022,2022,https://www.meblepolska.pl/en/,DM,MTL ASCO,,,www.mtlasco.pl,,,,,POLAND,,,,
Meble Polska,02/22/2022,2022,https://www.meblepolska.pl/en/,DM,MUSVENUS MOBILYA,,,www.besteknikplastik.com,,,,,TURKEY,,,,
Meble Polska,02/22/2022,2022,https://www.meblepolska.pl/en/,DM,NORDKOMFORT,,,www.nordkomfort.com,,,,,POLAND,,,,
Meble Polska,02/22/2022,2022,https://www.meblepolska.pl/en/,DM,NOTTO,,,www.notto.eu,,,,,POLAND,,,,
Meble Polska,02/22/2022,2022,https://www.meblepolska.pl/en/,DM,OGRODOWY SALON,,,www.ogrodowysalon.pl,,,,,POLAND,,,,
Meble Polska,02/22/2022,2022,https://www.meblepolska.pl/en/,DM,ORTUS,,,www.ortus.pro,,,,,POLAND,,,,
Meble Polska,02/22/2022,2022,https://www.meblepolska.pl/en/,DM,PIASKI FABRYKA MEBLI,,,www.piaski.com.pl,,,,,POLAND,,,,
Meble Polska,02/22/2022,2022,https://www.meblepolska.pl/en/,DM,PIONIER - MEBLE ŁUBNICE,,,www.meblelubnice.pl,,,,,POLAND,,,,
Meble Polska,02/22/2022,2022,https://www.meblepolska.pl/en/,DM,PLASTIKO,,,www.plastiko.pl,,,,,POLAND,,,,
Meble Polska,02/22/2022,2022,https://www.meblepolska.pl/en/,DM,PLATAN SOFA,,,www.platan-meble.pl,,,,,POLAND,,,,
Meble Polska,02/22/2022,2022,https://www.meblepolska.pl/en/,DM,PMW MIELCZAREK,,,www.pmw.net.pl,,,,,POLAND,,,,
Meble Polska,02/22/2022,2022,https://www.meblepolska.pl/en/,DM,POLDEM,,,www.poldem.pl,,,,,POLAND,,,,
Meble Polska,02/22/2022,2022,https://www.meblepolska.pl/en/,DM,POLYHEDRA FURNITURE,,,www.polyhedra.pl,,,,,POLAND,,,,
Meble Polska,02/22/2022,2022,https://www.meblepolska.pl/en/,DM,PROFILPROM LLC,,,www.profilprom.ru,,,,,RUSSIA,,,,
Meble Polska,02/22/2022,2022,https://www.meblepolska.pl/en/,DM,PROSPERO,,,www.prospero.net.pl,,,,,POLAND,,,,
Meble Polska,02/22/2022,2022,https://www.meblepolska.pl/en/,DM,PUSZMAN-MEBLE,,,www.puszman.com,,,,,POLAND,,,,
Meble Polska,02/22/2022,2022,https://www.meblepolska.pl/en/,DM,QXCONTROL,,,www.qxcontrol.pl,,,,,POLAND,,,,
Meble Polska,02/22/2022,2022,https://www.meblepolska.pl/en/,DM,RAM BEDDING,,,www.rambedding.com,,,,,TURKEY,,,,
Meble Polska,02/22/2022,2022,https://www.meblepolska.pl/en/,DM,RECTICEL,,,www.recticel.pl,,,,,POLAND,,,,
Meble Polska,02/22/2022,2022,https://www.meblepolska.pl/en/,DM,RIVALLI,,,www.rivalli.ru,,,,,RUSSIA,,,,
Meble Polska,02/22/2022,2022,https://www.meblepolska.pl/en/,DM,ROEHR-LOGISTYKA,,,www.anton-roehr.de,,,,,POLAND,,,,
Meble Polska,02/22/2022,2022,https://www.meblepolska.pl/en/,DM,SALONI,,,www.saloni.com.tr,,,,,TURKEY,,,,
Meble Polska,02/22/2022,2022,https://www.meblepolska.pl/en/,DM,SCHATTDECOR,,,www.schattdecor.com,,,,,POLAND,,,,
Meble Polska,02/22/2022,2022,https://www.meblepolska.pl/en/,DM,SHIK GALICHYNA,,,www.shik-galichina.com,,,,,UKRAINE,,,,
Meble Polska,02/22/2022,2022,https://www.meblepolska.pl/en/,DM,SIGNAL MEBLE,,,www.signal.pl,,,,,POLAND,,,,
Meble Polska,02/22/2022,2022,https://www.meblepolska.pl/en/,DM,Starokost (CMF GROUP UKRAINE),,,www.cmfgroup.com.ua,,,,,UKRAINE,,,,
Meble Polska,02/22/2022,2022,https://www.meblepolska.pl/en/,DM,STEMA,,,www.stema-meble.com,,,,,POLAND,,,,
Meble Polska,02/22/2022,2022,https://www.meblepolska.pl/en/,DM,STOLLECH,,,www.stollechmeble.pl/pl,,,,,POLAND,,,,
Meble Polska,02/22/2022,2022,https://www.meblepolska.pl/en/,DM,STOLWIT MEBLE,,,www.stolwitmeble.pl,,,,,POLAND,,,,
Meble Polska,02/22/2022,2022,https://www.meblepolska.pl/en/,DM,STOŁY MKM,,,www.mkm-mebel.com.ua,,,,,POLAND,,,,
Meble Polska,02/22/2022,2022,https://www.meblepolska.pl/en/,DM,STYLE HOME,,,www.stylehome.com.pl,,,,,POLAND,,,,
Meble Polska,02/22/2022,2022,https://www.meblepolska.pl/en/,DM,SZYNAKA MEBLE,,,www.szynaka.pl,,,,,POLAND,,,,
Meble Polska,02/22/2022,2022,https://www.meblepolska.pl/en/,DM,TARANKO,,,www.mebletaranko.pl,,,,,POLAND,,,,
Meble Polska,02/22/2022,2022,https://www.meblepolska.pl/en/,DM,TOPSOLUTION,,,www.topsolution.pl,,,,,POLAND,,,,
Meble Polska,02/22/2022,2022,https://www.meblepolska.pl/en/,DM,TRIYA,,,www.triya.ru,,,,,UKRAINE,,,,
Meble Polska,02/22/2022,2022,https://www.meblepolska.pl/en/,DM,UAFM,,,www.fube.com.ua,,,,,UKRAINE,,,,
Meble Polska,02/22/2022,2022,https://www.meblepolska.pl/en/,DM,UNIQUE FURNITURE A/A,,,www.uniquefurniture.dk,,,,,DENMARK/POLAND,,,,
Meble Polska,02/22/2022,2022,https://www.meblepolska.pl/en/,DM,UNITED FURNITURE COMPANY,,,www.ufctrade.com,,,,,POLAND,,,,
Meble Polska,02/22/2022,2022,https://www.meblepolska.pl/en/,DM,VERIKON,,,www.verikon.com,,,,,POLAND,,,,
Meble Polska,02/22/2022,2022,https://www.meblepolska.pl/en/,DM,VIVALDI MEBLE,,,www.vivaldimeble.pl,,,,,POLAND,,,,
Meble Polska,02/22/2022,2022,https://www.meblepolska.pl/en/,DM,VIYAR,,,www.viyar.com.ua,,,,,UKRAINE,,,,
Meble Polska,02/22/2022,2022,https://www.meblepolska.pl/en/,DM,WAJNERT MEBLE,,,www.wajnert.pl,,,,,POLAND,,,,
Meble Polska,02/22/2022,2022,https://www.meblepolska.pl/en/,DM,WER-SAL,,,www.wersal.pl,,,,,POLAND,,,,
Meble Polska,02/22/2022,2022,https://www.meblepolska.pl/en/,DM,WIPMEB,,,www.wipmeble.com.pl,,,,,POLAND,,,,
Meble Polska,02/22/2022,2022,https://www.meblepolska.pl/en/,DM,WOOD MANUFACTURING INDUSTRY,,,www.wmi.com.ua,,,,,UKRAINE,,,,
Meble Polska,02/22/2022,2022,https://www.meblepolska.pl/en/,DM,ZADBANO,,,www.zadbano.pl,,,,,POLAND,,,,
Meble Polska,02/22/2022,2022,https://www.meblepolska.pl/en/,DM,ZOV,,,www.zov.by,,,,,BELARUS,,,,
