ShowName,ShowDate,ShowYear,ShowWebsite,SubmittedBy,ExhibitorName,BoothNumber,HallLocation,Website,Email,Phone,Fax,Address,Country,Categories,Manufacturers,Brands,Description
Lightfair,10/27/2021,2021,https://www.lightfair.com/,DM,BRIGHT LED,439,LF,www.brightledtx.com,,(281) 601-1133,,TX Missouri City 13746 Pike Rd.,USA,,,,
Lightfair,10/27/2021,2021,https://www.lightfair.com/,DM,BILL BROWN SALES,1905,LF,www.billbrownsales.com,,800-621-1348,,IL Niles 6333 Gross Point Road,USA,,,,"Established in 1955, Bill Brown Sales is the leading component sales agency to North American lighting OEMs.  Represented lines include A.L.P. Lighting Components (LexaLite, Reflek, and Steel Craft brands), Bridgelux, Genesis Plastics Technologies, Inventronics, IR-TEC America, Lynk Labs, RLR Industries, Roytec Industries, Tripar, and Wald Wire."
Lightfair,10/27/2021,2021,https://www.lightfair.com/,DM,BOCK LIGHTING,1026,LF,www.bocklighting.com,,(216) 912-7050,,OH Twinsburg 2476 Edison Blvd,USA,,,,
Lightfair,10/27/2021,2021,https://www.lightfair.com/,DM,BEST LIGHTING PRODUCTS,2165,LF,www.bestlighting.net,,740-964-1198,,OH Pataskala 1213 Etna Parkway,USA,,,,"Best Lighting is the leader in the design, manufacturing and delivery of Life Safety Lighting in the USA market. With manufacturing facilities in various locations in Asia and two office and warehouse facilities in Ohio we supply our customers over 1,000 various Emergency, Exit, Inverter and Battery Pack products."
Lightfair,10/27/2021,2021,https://www.lightfair.com/,DM,BEYOND LED TECHNOLOGY,1357,LF,www.beyondledtechnology.com,,1 866-786-1117,,GA Stone Mountain 1939 Parker Court,USA,,,,"Founded in 2008, Beyond LED Technology designs and manufactures a wide array of LED lighting products.  Based in Atlanta Georgia.  Product line includes Led retrofit, indoor, outdoor, signage and solar led lighting.  We support our customers with aggressive pricing, exceptional product quality, continuous LED product innovation and strong customer service."
Lightfair,10/27/2021,2021,https://www.lightfair.com/,DM,B-K LIGHTING,1238,LF,www.bklighting.com,,(559) 438-5800,,CA Madera 40429 Brickyard Drive,USA,,,,
Lightfair,10/27/2021,2021,https://www.lightfair.com/,DM,BLACKJACK LIGHTING,939,LF,www.blackjacklighting.com,,(847) 941-0588,,IL Buffalo Grove 1547 Barclay Blvd.,USA,,,,
Lightfair,10/27/2021,2021,https://www.lightfair.com/,DM,BEELIGHTING INC,538,LF,www.beelite-led.com,,(937) 554-0511,,OH Dayton 347 Leo Street,USA,,,,
Lightfair,10/27/2021,2021,https://www.lightfair.com/,DM,BARTCO LIGHTING,1166,LF,www.bartcolighting.com,,7144656532,,CA Huntington Beach 5761 Research Dr,USA,,,,
Lightfair,10/27/2021,2021,https://www.lightfair.com/,DM,BENJAMIN ELECTRIC COMPANY,1037,LF,www.benjaminelectric.com,,2137138232,2137473904,CA Los Angeles 1615 Staunton Avenue,USA,,,,
Lightfair,10/27/2021,2021,https://www.lightfair.com/,DM,ZOHNSON LIMITED,1075,LF,www.zohnson-led.com,,+86 13631427687,,HK Hong Kong 7/F,China,,,,
Lightfair,10/27/2021,2021,https://www.lightfair.com/,DM,BASELITE CORPORATION,1454,LF,www.baselite.com,,(909) 548-4554,,CA Chino 12260 East End Ave,USA,,,,
Lightfair,10/27/2021,2021,https://www.lightfair.com/,DM,"BENDER & WIRTH, INC.",1153,LF,www.bender-wirth.com,,(603) 225-6725,,NH Concord 210 Pleasant St. Unit 1,USA,,,,
Lightfair,10/27/2021,2021,https://www.lightfair.com/,DM,"B PLUS L TECHNOLOGIES, INC.",1149,LF,www.bplusl.com,,(408) 269-7884,,CA San Jose 3570 Charter Park Drive,USA,,,,
Lightfair,10/27/2021,2021,https://www.lightfair.com/,DM,BIOS,1456,LF,www.bioslighting.com,,8587740489,,California Carlsbad 2796 Loker Ave W Suite#111,USA,,,,
Lightfair,10/27/2021,2021,https://www.lightfair.com/,DM,ZHAGA CONSORTIUM,2959,LF,www.zhagastandard.org,,+1-732-562-5404,,NJ Piscataway 445 Hoes Lane,USA,,,,"We are a global lighting-industry organization that aims to standardize interfaces of components of LED luminaires, including LED light engines, LED modules, LED arrays, holders, electronic control gear (LED drivers), connectors and sensing/communication modules.

Smart standards. Smarter lighting."
Lightfair,10/27/2021,2021,https://www.lightfair.com/,DM,BRANDON INDUSTRIES,2340,LF,www.brandonindustries.com,,972-542-3000,,TX McKinney 1601 Wilmeth Road,USA,,,,
Lightfair,10/27/2021,2021,https://www.lightfair.com/,DM,BOCA FLASHER,1262,LF,www.bocaflasher.com,,561.982.8327,,FL Deerfield 508 South Military Trail,USA,,,,"For over 26-Years, Boca Flasher, a leading LED solution provider, has dedicated itself to advancing the safety, quality, reliability, and sustainability of LED lighting technology. Together within our 45,000 square-foot facilities in Southeast Florida, our in-house team of Engineers, Inventors, and Developers are committed to meeting the highest design and manufacturing standards. Our broad selection of lighting and control products provides designers with the high-quality solutions necessary to turn their conceptual visions into experienced reality."
Lightfair,10/27/2021,2021,https://www.lightfair.com/,DM,"WILGER TESTING CO., INC.",1041,LF,www.wilgertesting.com,,(941) 925-2049,,FL Sarasota 5654 Sarah Ave,USA,,,,
Lightfair,10/27/2021,2021,https://www.lightfair.com/,DM,ZLED LIGHTING,330,LF,www.zled-lighting.com,,(800) 679-9243,,NJ Mount Laurel 20-B Roland Avenue,USA,,,,
Lightfair,10/27/2021,2021,https://www.lightfair.com/,DM,"YML - SHANGHAI YUANMING LIGHTING TECHNOLOGY CO., L",3056,LF,www.china-yml.com,,+86 13917366888,,"shanghai Fengxian District, Shanghai No. 1251 South Hangnan Road",China,,,,
Lightfair,10/27/2021,2021,https://www.lightfair.com/,DM,WAVE LIGHTING,2616,LF,www.wavelighting.com,,(877) 870-9283,,MO St. Louis 6333 Etzel Ave.,USA,,,,
Lightfair,10/27/2021,2021,https://www.lightfair.com/,DM,WAGNER ARCHITECTURAL SYSTEMS,457,LF,www.wagnerarchitectural.com,,(414) 716-8430,,WI Milwaukee 10600 W. Brown Deer Rd,USA,,,,
Lightfair,10/27/2021,2021,https://www.lightfair.com/,DM,WAC LIGHTING,415,LF,www.waclighting.com,,(800) 526-2588,,NY Port Washington 44 Harbor Park Drive,USA,,,,"A second generation owner-operated company founded in 1984, WAC designs and builds a wide range of advanced LED luminaires across renowned brands such as dweLED decorative sconces, vanity lights, pendants and chandeliers, and WAC architectural lighting and smart ceiling fans. The company’s strengths in original design, emerging technologies, solution-oriented innovations, and vertical manufacturing infrastructures, helped achieve a position of leadership in the industry."
Lightfair,10/27/2021,2021,https://www.lightfair.com/,DM,VITREK,2612,LF,www.vitrek.com,,(858) 689-2755,,CA Poway 12169 Kirkham Road,USA,,,,
Lightfair,10/27/2021,2021,https://www.lightfair.com/,DM,"VODE LIGHTING, LLC.",1163,LF,www.vode.com,,707-800-9016,,CA Sonoma 21684 8th Street,USA,,,,"Vode’s LED products are designed to distribute controlled light through modest forms that don’t detract from the architectural spaces they illuminate. The results are lighting systems with modular and interchangeable parts that reduce size, weight and waste. They’re engineered for simple installation and maintenance-free lives."
Lightfair,10/27/2021,2021,https://www.lightfair.com/,DM,VAOPTO,1148,LF,www.vaopto.com,,(702) 517-5789,,NV Las Vegas 5178 West Patrick Lane,USA,,,,
Lightfair,10/27/2021,2021,https://www.lightfair.com/,DM,VISTA PROFESSIONAL OUTDOOR LIGHTING,2949,LF,www.vistapro.com,,8055270987,888-670-8478,CA Simi Valley 1625 Surveyor ave.,USA,,,,
Lightfair,10/27/2021,2021,https://www.lightfair.com/,DM,VISION3 LIGHTING,1649,LF,www.vision3lighting.com,,(559) 834-5749,,CA Fowler 2850 San Antonio Drive,USA,,,,"Vision3 Lighting manufactures specification grade architectural LED lighting products. Our philosophy is to deliver unique and configurable solutions for the specification-grade marketplace; an industry where standard designs are often not enough to solve everyday challenges. At Vision3, we truly believe in the power of lighting & design and their ability to create beautiful spaces, elevate experiences, and engage people everywhere."
Lightfair,10/27/2021,2021,https://www.lightfair.com/,DM,"VIRIBRIGHT LIGHTING, INC.",1331,LF,www.viribright.us,,(951) 268-7095,,CA Corona 355 E Rincon Street STE 219,USA,,,,
Lightfair,10/27/2021,2021,https://www.lightfair.com/,DM,"Venas Co., Limited",2064,LF,www.jamesindustry.com,,9739601877,,CA Rancho Dominguez 2369 Pacifica Place,USA,,,,
Lightfair,10/27/2021,2021,https://www.lightfair.com/,DM,Veroboard Tech Inc,961,LF,http://www.veroboard.com,,7788388070,,British Columbia vancouver 1470 Kootenay St,Canada,,,,
Lightfair,10/27/2021,2021,https://www.lightfair.com/,DM,VERIZON,2760,LF,http://www.verizonenterprise.com/products/internet-of-things/smart-cities/,,408-438-6179,,CA San Jose 397 W. Trimble Road,USA,,,,
Lightfair,10/27/2021,2021,https://www.lightfair.com/,DM,USAI LIGHTING,2215,LF,www.usailighting.com,,(845) 271-9322,,NY New Windsor 1126 River Road,USA,,,,
Lightfair,10/27/2021,2021,https://www.lightfair.com/,DM,UL,1049,LF,www.ul.com,,(877) 854-3577,,IL Northbrook 333 Pfingsten Rd,USA,,,,
Lightfair,10/27/2021,2021,https://www.lightfair.com/,DM,VISUAL LIGHTING TECHNOLOGIES (VLT),957,LF,www.vltcorp.com,,(949) 581-9398,,TX Cedar Park 1809 Hur Industrial Blvd,USA,,,,
Lightfair,10/27/2021,2021,https://www.lightfair.com/,DM,USA LED,1829,LF,www.usaled.com,,(203) 768-3622,,CT Southbury 330 Main St S,USA,,,,
Lightfair,10/27/2021,2021,https://www.lightfair.com/,DM,"TRASTAR, INC.",556,LF,www.trastarusa.com,,(972) 480-0888,,TX Richardson 860 N. Dorothy Drive,USA,,,,LED Street & Highway Lighting Manufacture
Lightfair,10/27/2021,2021,https://www.lightfair.com/,DM,TSR LED LIGHTING,1768,LF,tsrgrow.com,,(401) 388-0533,,RI Warwick 60 Alahamra Road,USA,,,,
Lightfair,10/27/2021,2021,https://www.lightfair.com/,DM,"TUV SUD AMERICA, INC.",763,LF,www.tuvsud.com/en-us,,9785732500,,MA Wakefield 401 Edgewater Place,USA,,,,"TÜV SÜD is a trusted partner of choice for safety, security and sustainability solutions. As a single source for testing and certification compliance of all lighting types, our comprehensive capabilities simplify the process, allowing manufacturers to bring new and advanced products to market quickly and efficiently. For more information visit www.tuvsud.com/en-us."
Lightfair,10/27/2021,2021,https://www.lightfair.com/,DM,"TRC ELECTRONICS, INC.",338,LF,www.trcelectronics.com,,(267) 705-2282,,PA Doylestown 4171 Stony Lane,USA,,,,TRC Electronics supplies businesses in the electronics industry the power to succeed.  Give our office a call at 1-888-612-9514
Lightfair,10/27/2021,2021,https://www.lightfair.com/,DM,TOGGLED,3024,LF,toggled.com,,844-864-4533,,MI Troy 1820 E. Big Beaver Rd.,United States,,,,
Lightfair,10/27/2021,2021,https://www.lightfair.com/,DM,"TIOSL Technology (Shenzhen) Co., Ltd.",2660,LF,http://www.tiosl.com/,,0086-0755-29553310,,"Guangdong Shenzhen 10th F, Bldg 5, Gate 2, Area A, Huafeng No.1 Science and Technology Park",China,,,,
Lightfair,10/27/2021,2021,https://www.lightfair.com/,DM,TELINK SEMICONDUCTOR,2658,LF,https://www.telink-semi.com/,,408-320-2197,,CA Santa Clara 2975 Scott Blvd #120,United States,,,,
Lightfair,10/27/2021,2021,https://www.lightfair.com/,DM,TELEMATICS WIRELESS LTD.,2756,LF,www.telematics-wireless.com,,(917) 525-3585,,"Israel Holon 26, Hamelacha Street",Israel,,,,
Lightfair,10/27/2021,2021,https://www.lightfair.com/,DM,THE LIGHTING QUOTIENT,1065,LF,www.thelightingquotient.com,,2039314455,2039314464,CT West Haven 114 Boston Post Road,United States of America,,,,
Lightfair,10/27/2021,2021,https://www.lightfair.com/,DM,TECHNO USA LLC,1463,LF,www.technoledlights.com,,4044541755,,GA Lawrenceville 2203 Crestway Ct,USA,,,,"It’s enduring that our map of the journey starts with our mission. Our mission is to serve the commercial and domestic industry with customized solutions in order to save energy in the field of LED Lighting. Our vision is to deliver high-quality products and anticipate the TechnoLED brand portfolio to the world with the satisfaction and long-term relationship of customers.

With the US headquarters in Atlanta, TechnoLED is a brand under Techno USA LLC dba Techno LED Lights. We cater customized solutions of high power LED Luminaries in order to fulfill the demand for a new stylish lighting world and support Green Environment system. Proudly designing fixtures at a manufacturing unit operated by Techno Electromech Pvt. Ltd, India."
Lightfair,10/27/2021,2021,https://www.lightfair.com/,DM,"TECKHO KOBOT, INC",2615,LF,www.techkogroup.com,,949-380-7300,,CA Irvine 10 Mason,USA,,,,"Techko Kobot established in 1982 from consumer telephone, to producing DIY Security products under the brand Techko. Later expanded into Paper Shredders, Office Equipment, Robotic Vacuums (Kobot) and in 2020 with a new product line in Solar Lighting. Our products are in many national retailers with impeccable track records. We believe that going green is the sustainable future and has the potential to expand and improve in features. Techko stands behind creating high quality products at affordable prices that everyday consumers can enjoy."
Lightfair,10/27/2021,2021,https://www.lightfair.com/,DM,TE CONNECTIVITY,1338,LF,www.te.com,,7175793429,,PA Middletown 2900 Fulling Mill Rd,USA,,,,
Lightfair,10/27/2021,2021,https://www.lightfair.com/,DM,TASK LIGHTING,3021,LF,www.tasklighting.com,,(800) 445-6404,,NE Kearney 1206 M Avenue,USA,,,,"Founded in 1985, Task Lighting operates a 35,000 square  foot  manufacturing facility in Kearney, Nebraska.  Task Lighting consists of six brands—Task Lighting®, Task Power™, sempriaLED™, illumaLED™, TandemLED™ and WAV Smart Control™, many of which are made in America. Task Lighting manufactures a range of LED Lighting products and Angle Power Strip products for the kitchen, bath and home.  Innovations include tuning the color temperature from warm to cool, smart home integration, wireless control, and micro waterproof protective coatings."
Lightfair,10/27/2021,2021,https://www.lightfair.com/,DM,"SYNOPSYS, INC.",1156,LF,synopsys.com/optical-solutions.com,,(626) 795-9101,,CA Mountain View 690 E Middlefield Rd,USA,,,,
Lightfair,10/27/2021,2021,https://www.lightfair.com/,DM,TCP,749,LF,www.tcpi.com,,800-324-1496,,OH Aurora 325 Campus Drive,USA,,,,
Lightfair,10/27/2021,2021,https://www.lightfair.com/,DM,"SYNAPSE WIRELESS, INC.",2656,LF,www.synapsewireless.com,,(256) 924-7354,,AL Huntsville 6723 Odyssey Drive  NW,USA,,,,
Lightfair,10/27/2021,2021,https://www.lightfair.com/,DM,SUNLITE MANUFACTURING,1431,LF,www.sunlite.com,,(718) 768-7000,,NY Brooklyn 744 Clinton Street,USA,,,,
Lightfair,10/27/2021,2021,https://www.lightfair.com/,DM,"T-1 LIGHTING, INC",1363,LF,www.t1-lighting.com,,(626) 234-2328,,CA Santa Fe Springs 9929 Pioneer Blvd,USA,,,,
Lightfair,10/27/2021,2021,https://www.lightfair.com/,DM,SUNPARK ELECTRONICS CORPORATION,1240,LF,www.sunparklighting.com,,310-324-8880,310-324-4020,California Gardena 16200 S Figueroa Street,USA,,,,"Lighting fixture manufacturer since 1997. LED fixtures, multiple family fixtures, hospitability fixtures, LED  drivers and re-trofit light engines"
Lightfair,10/27/2021,2021,https://www.lightfair.com/,DM,"STEINEL AMERICA, INC.",2849,LF,www.steinel.net,,6129008846,,Minnesota Bloomington 9051 Lyndale Ave. South,USA,,,,
Lightfair,10/27/2021,2021,https://www.lightfair.com/,DM,"STARTEK LIGHTING AMERICA, LLC",1268,LF,www.starteklightingamerica.com,,8777827835,,IL GURNEE 1960 SWANSON CT,USA,,,,
Lightfair,10/27/2021,2021,https://www.lightfair.com/,DM,STANDARD-TECH,323,LF,http://www.neweast-test.com/,,86-20-32053178,,Guangzhou No. 6 Guanhong Road,CN,,,,
Lightfair,10/27/2021,2021,https://www.lightfair.com/,DM,SPRING LIGHTING GROUP INC,1723,LF,www.slgus.com,,713-389-5680,,TX Stafford 10643 W. Airport Blvd,USA,,,,
Lightfair,10/27/2021,2021,https://www.lightfair.com/,DM,SPORTSBEAMS LED LIGHTING,521,LF,www.sportsbeams.com,,888-905-6680,,TX Round Rock PO Box 2140,USA,,,,
Lightfair,10/27/2021,2021,https://www.lightfair.com/,DM,SPJ LIGHTING,1141,LF,www.spjlighting.com,,(818) 391-4839,,CA South El Monte 2107 Chico Ave,USA,,,,
Lightfair,10/27/2021,2021,https://www.lightfair.com/,DM,SPECGRADE LED,1150,LF,www.specgradeled.com,,(614) 206-1026,,OH Columbus 153 Outerbelt Street,USA,,,,
Lightfair,10/27/2021,2021,https://www.lightfair.com/,DM,SOURIAU,436,LF,https://www.souriau.com,,(805) 226-3571,,CA Paso Robles 1740 Commerce Way,USA,,,,Electrical Connectors Manufacturer for Harsh and Robust environments
Lightfair,10/27/2021,2021,https://www.lightfair.com/,DM,SOLERA SOLAR LIGHTING,3043,LF,www.solera-solar.com,,8473803540,,IL Cary 188 S. Northwest Highway,USA,,,,
Lightfair,10/27/2021,2021,https://www.lightfair.com/,DM,SOL,549,LF,www.solarlighting.com,,+1 (772) 286.9461,,FL Miami 990 Biscayne Blvd,United States of America,,,,"With 30,000+ solar lights installed in the United States and more than 100,000 globally, SOL is the leading solar lighting brand in North America.

We engineer and manufacture a complete range of all-in-one and modular solar lighting solutions for cities and commercial properties.
Thanks to our comprehensive product portfolio, we offer a cost-efficient and environmentally sustainable solution for every outdoor lighting application.

Constant innovation and product reliability are part of SOL’s DNA. With 23 patents and 12 international awards, we have a history of leading on quality and strong product warranty protection. We stand behind our system sizing and product performance. We are proud to offer an industry-leading 10-year warranty on all our product lines."
Lightfair,10/27/2021,2021,https://www.lightfair.com/,DM,"SOLUX CO., LTD",557,LF,www.solux.co.kr,,827088576743,,"Chungcheongnom-do Gongju-si 32-22, Jeongannonggongdanji-gil",South Korea,,,,
Lightfair,10/27/2021,2021,https://www.lightfair.com/,DM,SNAPCOUNT,758,LF,www.streamlinx.com,,(630) 864-3043,,IL Naperville 387 Shuman Blvd,USA,,,,
Lightfair,10/27/2021,2021,https://www.lightfair.com/,DM,SLP LIGHTING,2249,LF,www.slplighting.com,,(636) 600-4084,,MO Fenton 1400 South Old Highway 141,USA,,,,
Lightfair,10/27/2021,2021,https://www.lightfair.com/,DM,SIGNIFY,1349,LF,www.signify.com,,(732) 563-3000,,NJ Somerset 200 Franklin Square Drive,USA,,,,
Lightfair,10/27/2021,2021,https://www.lightfair.com/,DM,SIGNAL TRANSFORMER,321,LF,https://belfuse.com/signal,,866-239-5777,,NY Lynbrook 128 Atlantic Avenue,USA,,,,
Lightfair,10/27/2021,2021,https://www.lightfair.com/,DM,SGM LIGHTING INC.,1823,LF,www.sgmlight.com,,407-440-3601,,FL Orlando 7806 Kingspointe Pkwy,USA,,,,"Engineered and manufactured in Denmark, SGM specializes in premium outdoor rated luminaires for permanent and temporary installations. With short development and delivery times, SGM focuses on impactful solutions and offers integrated customer support from experienced industry professionals. As a specialty manufacturer with deep product legacy in both entertainment and dynamic architectural applications, manufacturing flexibility is a core SGM priority. As the engineers of the first outdoor rated moving light, SGM continues to innovate with patented technology and unique features providing lighting designers and specifiers the tools to create world class imaginative and stimulating designs reliable in even the harshest of conditions."
Lightfair,10/27/2021,2021,https://www.lightfair.com/,DM,SHINETOO LIGHTING USA LLC.,857,LF,www.stledlights.com,,(847) 899-1678,,IL Des Plaines 1263B Rand Road,USA,,,,
Lightfair,10/27/2021,2021,https://www.lightfair.com/,DM,"SHIN-ETSU SILICONES OF AMERICA, INC.",1276,LF,www.shinetsusilicones.com,,(330) 630-9860,,OH Akron 1150 Damar Drive,United States of America,,,,
Lightfair,10/27/2021,2021,https://www.lightfair.com/,DM,SENTRY ELECTRIC LLC.,3039,LF,www.sentrylighting.com,,(516) 379-4660,,NY Freeport 185 Buffalo Ave,USA,,,,"Sentry Electric is North America’s most responsive source of standard and custom exterior lighting, completely committed to end-to-end project success. The company’s specification grade luminaires, cast iron and aluminum bollards, poles, brackets and accessories are installed across America’s prestigious municipal street, park and university settings.  Lighting designers and engineers, architects and urban planners all rely on the company’s commitment to end-to-end project success and its unparalleled knowledge of architecturally significant exterior lighting, honed over the past seventy years."
Lightfair,10/27/2021,2021,https://www.lightfair.com/,DM,SENSORWORX,2657,LF,www.sensorworx.com,,2036784224,,CT WALLINGFORD 2A RESEARCH PARKWAY,USA,,,,
Lightfair,10/27/2021,2021,https://www.lightfair.com/,DM,SEOUL SEMICONDUCTOR,405,LF,www.seoulsemicon.com,,(678) 762-9610,,GA Norcross 1895 Beaver Ridge Cir.,USA,,,,
Lightfair,10/27/2021,2021,https://www.lightfair.com/,DM,SELUX CORPORATION,2606,LF,www.selux.us,,(845) 834-1442,,NY Highland 5 Lumen Lane,USA,,,,
Lightfair,10/27/2021,2021,https://www.lightfair.com/,DM,"SEBCO INDUSTRIES, INC.",1138,LF,www.sebcoindustries.com,,(714) 557-1710,,CA Santa Ana 2621 S. Main St,USA,,,,
Lightfair,10/27/2021,2021,https://www.lightfair.com/,DM,SEAL & DESIGN,2235,LF,www.sealanddesign.com,,7168668229,,New York Clarence 4015 Casilio Parkway,USA,,,,
Lightfair,10/27/2021,2021,https://www.lightfair.com/,DM,"SELF ELECTRONICS CO., LTD",1232,LF,www.self-electronics.com,,7702489023,,GA PEACHTREE CORNERS 3264 SATURN CT,USA,,,,"SELF Electronics is a leader in LED display and accent lighting innovation, design, and production. Our company is proud to offer a complete line of LED lighting and control systems for your retail, commercial and residential display."
Lightfair,10/27/2021,2021,https://www.lightfair.com/,DM,SAVANT,2206,LF,www.savant.com,,(508) 683-1430,,MA Hyannis 45 Perserverance Way,USA,,,,"Savant Systems, Inc., a Massachusetts-based company, is a recognized leader in home control and automation, and one of the fastest-growing smart home companies in the luxury and mid-markets. Savant’s powerful Pro technology brings together all of the vital pillars of the connected home – climate, lighting, entertainment, security and energy – together in a single application interface for the homeowner. This comprehensive whole-home control system, available through iOS and Android, delivers the premiere experience in all of home automation and is available through Magnolia Design Centers and Savant’s global network of Authorized Integrators."
Lightfair,10/27/2021,2021,https://www.lightfair.com/,DM,SAMSUNG ELECTRONICS,1438,LF,www.samsung.com,,(408) 544-4363,,CA San Jose 3655 North First St,USA,,,,
Lightfair,10/27/2021,2021,https://www.lightfair.com/,DM,"REFLECTIVE CONCEPTS, INC.",440,LF,www.reflective-concepts.com,,(262) 287-2828,,WI Kenosha 9571 58th Pl,USA,,,,
Lightfair,10/27/2021,2021,https://www.lightfair.com/,DM,"SATCO PRODUCTS, INC.",1949,LF,www.satco.com,,(631) 243-2022,,NY Brentwood 110 Heartland Blvd,USA,,,,
Lightfair,10/27/2021,2021,https://www.lightfair.com/,DM,"RLR INDUSTRIES, INC.",756,LF,www.rlrindinc.com,,7709486069,,Geor Mableton 575 Discovery Place,USA,,,,
Lightfair,10/27/2021,2021,https://www.lightfair.com/,DM,RAYON LIGHTING,2149,LF,www.rayonlighting.com,,(323) 446-2626,,CA Compton 1517 N Alameda,USA,,,,
Lightfair,10/27/2021,2021,https://www.lightfair.com/,DM,"RED SKY LIGHTING, LLC.",2621,LF,www.redskylighting.com,,(262) 456-5002,,WI Racine 410 Main Street,USA,,,,
Lightfair,10/27/2021,2021,https://www.lightfair.com/,DM,RAGNI LIGHTING,2322,LF,www.ragni-lighting.com,,(720) 370-0400,,CO Denver 14175 East 42nd Ave,USA,,,,
Lightfair,10/27/2021,2021,https://www.lightfair.com/,DM,RAB LIGHTING INC.,1539,LF,www.rablighting.com,,(888) 722-1000,,NJ Northvale 170 Ludlow Ave,USA,,,,
Lightfair,10/27/2021,2021,https://www.lightfair.com/,DM,PUREEDGE LIGHTING,2521,LF,www.pureedgelighting.com,,773-770-1195,,IL Chicago 1718 W. Fullerton Ave.,USA,,,,
Lightfair,10/27/2021,2021,https://www.lightfair.com/,DM,RAAT,1469,LF,www.raat.co.kr,,82227118855,,"Seoul Seoul 14, Wonhyo-ro 97-gil",Korea,,,,
Lightfair,10/27/2021,2021,https://www.lightfair.com/,DM,PURE LIGHTING,1667,LF,www.pure-lighting.com,,9739153133,,NJ Wayne 150 Pompton Plains Xrd #4246,USA,,,,
Lightfair,10/27/2021,2021,https://www.lightfair.com/,DM,POLELED FLAG POLE LIGHTS,455,LF,www.pole-led.us,,0031-318-412965,,netherlands 6716 BV EDE Kelvinsstraat 45,NL,,,,
Lightfair,10/27/2021,2021,https://www.lightfair.com/,DM,PLC-MULTIPOINT,657,LF,www.plcmultipoint.com,,(425) 353-7552,,WA Everett 3101 111th St SW Ste. F,USA,,,,
Lightfair,10/27/2021,2021,https://www.lightfair.com/,DM,POINT LIGHTING CORPORATION,3009,LF,www.pointlighting.com,,(860) 243-0600,8602430665,CT Simsbury P.O. Box 686,USA,,,,"MADE IN USA - FAA Approved Aviation Lighting Manufacturer of Specification Grade Helipad/Helideck & Obstruction Lights/Beacons.  Complete System Solutions.  ETL/UL Listed Industrial Panel Manufacturer. 

Hazardous Area Rated Fixtures for both obstruction lighting systems and offshore platform/vessel installations.

Full specification assistance offered, fully compliant to numerous worldwide standards; FAA, ICAO, Transport Canada, CAA, CAP 437."
Lightfair,10/27/2021,2021,https://www.lightfair.com/,DM,PHOENIX LIGHTING,659,LF,www.phoenixlighting.com,,(414) 973-3300,,WI Milwaukee 8711 West Port Ave,USA,,,,"Phoenix designs and manufactures heavy duty LED lighting for the toughest industrial applications. We provide innovative, durable fixtures that are built to last and support them with technical expertise and outstanding customer service. With over 75 years of industry experience, Phoenix’s LEDs decrease maintenance costs, extend safety initiatives, and light the way to greater productivity.

Phoenix has a wide product range for better visibility in a variety of challenging environments, including wastewater treatment plants, chemical and electrical rooms, processing plants and mills, hazardous locations, and other niche outdoor applications, like loading docks, airports, Government facilities and other large area lighting. 

No matter the certification or requirement, our products hold up to the rigid standards and specifications every project requires. Our LEDs include customized optics, versatile mounting brackets and a range of wattage and size options. Phoenix can offer an unmatched level of dedication and support to our partners. We stand by our Durability by Design® promise and guarantee our products and results."
Lightfair,10/27/2021,2021,https://www.lightfair.com/,DM,PLASKOLITE,2041,LF,www.plaskolite.com,,(614) 294-3281,,"OH Columbus 400 West Nationwide Blvd, Ste 400",USA,,,,
Lightfair,10/27/2021,2021,https://www.lightfair.com/,DM,PACLIGHTS,1358,LF,www.paclights.com,,800-988-6386,,CA Chino Hills PO BOX 928,USA,,,,
Lightfair,10/27/2021,2021,https://www.lightfair.com/,DM,PERFECT POWER SYSTEMS,3064,LF,www.perfectpowersystems.com,,(800) 786-6915,,CA Los Angeles 14000 S. Broadway,USA,,,,
Lightfair,10/27/2021,2021,https://www.lightfair.com/,DM,OXYGEN,627,LF,www.oxygenlighting.com,,877-607-0202,,TX Fort Worth 201 Railhead Rd,USA,,,,
Lightfair,10/27/2021,2021,https://www.lightfair.com/,DM,OVERDRIVE LIGHTING,441,LF,www.overdrive-lighting.com,,(973) 773-5252,,"NJ Fairfield 311, Route 46, Unit A",USA,,,,
Lightfair,10/27/2021,2021,https://www.lightfair.com/,DM,OSRAM,1248,LF,www.osram.us,,(978) 239-7416,,MA Wilmington 200 Ballardvale Street,USA,,,,
Lightfair,10/27/2021,2021,https://www.lightfair.com/,DM,ORIGAMX BY THE BLACK TANK,2920,LF,https://origamx.com/,,(978) 619-0044,,MA Haverhill 147 Essex St,USA,,,,
Lightfair,10/27/2021,2021,https://www.lightfair.com/,DM,"OPTICOLOR, INC.",2237,LF,www.opticolorinc.com,,(714) 893-8839,,CA Huntington Beach 15281 Graham Street,USA,,,,
Lightfair,10/27/2021,2021,https://www.lightfair.com/,DM,OPTEC LED LIGHTING,2269,LF,www.optecledlighting.com,,(414) 935-8483,,CA Ontario 1700 South DeSoto Place,United States,,,,
Lightfair,10/27/2021,2021,https://www.lightfair.com/,DM,"OASIS - INGEN SOFTWARE, INC.",342,LF,www.oasissalessoftware.com,,(501) 843-6750,,AR Cabot 3022 Hwy 367 South,USA,,,,
Lightfair,10/27/2021,2021,https://www.lightfair.com/,DM,NICHIA AMERICA CORPORATION,1256,LF,www.nichia.com,,(248) 349-9800,,"MI Wixom 48561 Alpha Drive, Suite 100",USA,,,,
Lightfair,10/27/2021,2021,https://www.lightfair.com/,DM,NORA LIGHTING,2448,LF,www.noralighting.com,,(800) 686-6672,,CA City Of Commerce 6505 Gayhart St,USA,,,,"Celebrating its 30th year in business, Nora Lighting is a leading manufacturer of luminaires for residential, commercial and institutional applications, including hospitality, retail and healthcare facilities. Nora is known as a pioneer in the development and introduction of LED products and features the industry’s most comprehensive lines of LED downlights, LED track and rail fixtures, LED pendants, LED tape lights, LED linear luminaires and more.

Nora Lighting is a leading manufacturer of LED luminaires for residential, commercial, and institutional applications, including hospitality, retail, and healthcare facilities. Nora is known as a pioneer in the development and introduction of LED products and features the industry’s most comprehensive lines of LED downlights, LED track and rail fixtures, LED pendants, LED tape lights, LED linear luminaires and more."
Lightfair,10/27/2021,2021,https://www.lightfair.com/,DM,NOVA FLEX LED,1669,LF,www.novaflexled.com,,(800) 595-6302,,MN St. Cloud 2789 Clearwater Rd,USA,,,,"Brightening lives for over 10 years, Nova Flex makes custom linear LEDs easy! We give you a complete solution, from quotes in less than 48 hours to orders shipped, ready to install, in less than 4 days. Quality, UL listed products include strip light, neon, 150+ channels, innovative controls and power supplies."
Lightfair,10/27/2021,2021,https://www.lightfair.com/,DM,"NICOLAUDIE AMERICA, INC.",2754,LF,www.nicolaudie.com,,(786) 543-7225,,"FL Orlando 8751 Commodity Circle, Suite #8",USA,,,,
Lightfair,10/27/2021,2021,https://www.lightfair.com/,DM,"MODULAR INTERNATIONAL, INC.",1549,LF,www.modularinternational.com,,(412) 734-9000,(412)7345210,PA Pittsburgh 3941 California Avenue,USA,,,,"We are a specialty lighting company that designs and manufactures innovative and architectural lighting products. We offer uncompromising elegance with superior visual effects.

We excel in the development of distinctive, customizable lighting systems for commercial and residential applications along with holding various domestic and international patents and trademarks to accommodate their designs."
Lightfair,10/27/2021,2021,https://www.lightfair.com/,DM,MORSTAR INC,532,LF,http://www.morstar.com,,1-877-977-3732,1-866-936-1782,MI Livonia 12868 Farmington Road,USA,,,,
Lightfair,10/27/2021,2021,https://www.lightfair.com/,DM,"MIRUS LIGHTING, INC",1152,LF,www.miruslighting.com,,(909) 720-5800,,CA Rancho Cucamonga 9120 Center Ave.,USA,,,,
Lightfair,10/27/2021,2021,https://www.lightfair.com/,DM,"NERI NORTH AMERICA, INC.",1061,LF,www.nerinorthamerica.com,,(786) 315-4367,,FL Miami 1547 NW 79th Ave,USA,,,,"Since 1962 Neri has been designing and creating outdoor lighting, street furniture and modular decorative structures, with a special eye to creating technological and design solutions that work well with their architectural context. A deep-rooted culture for beauty, with uninterrupted research into making the very best when it comes to technical lighting performance, which means that Neri now has at least one product in over half of Italy’s municipalities, as well as the six of the seven continents and over 100 countries around the world. From the start, the quest for quality, as a progressive value to be aspired to, became a distinguishing feature, a characteristic of every stage of production. A plus that is also an integral part of every activity, even outside of production, such as restoration, customization and technical support."
Lightfair,10/27/2021,2021,https://www.lightfair.com/,DM,MODERN FORMS,821,LF,www.modernforms.com,,866-810-6615,,NY Port Washington 44 Harbor Park Drive,,,,,"Modern Forms brings intelligent luxury and revolutionary design to the discerning design community.  All-LED Luminaires and Smart Fans seize upon breakthrough technology and elevated design trends to illuminate and refresh your space.

Created with the best LED tech and upscale materials, silent DC motors and an exclusive App designed for smart integration and cloud-based personalized controls, the Modern Forms story is progressive and refined in both function and form."
Lightfair,10/27/2021,2021,https://www.lightfair.com/,DM,"METRUE, INC.",2957,LF,www.metrue.com,,(510) 697-6475,,CA Hayward 28402 Century St.,USA,,,,
Lightfair,10/27/2021,2021,https://www.lightfair.com/,DM,METEOR LIGHTING,2334,LF,www.meteor-lighting.com,,(213) 255-2060,,CA City of Industry 1300 John Reed Court,USA,,,,"Meteor was founded in Industry, California in 2008 and our vision is to Inspire the Space Around Us. We do that through our product design philosophy which is “Pure Brilliance”. A motto that means we combine performance, aesthetics and technology into all our products."
Lightfair,10/27/2021,2021,https://www.lightfair.com/,DM,"MCWONG INTERNATIONAL, INC.",2662,LF,http://mcwonginc.com/,,(916) 371-8080,,CA Sacramento 1921 Arena Blvd.,USA,,,,"For 35+ years, McWong has produced superior lighting controls and related electrical power and protection components. Now, McWong is engineering advanced lighting control and IoT solutions based on Bluetooth mesh for today’s rapidly changing marketplace. With advanced design and manufacturing facilities, McWong offers robust solutions for specifiers, designers, contractors, ESCOs and facility managers as well as extensive component choices for OEMs."
Lightfair,10/27/2021,2021,https://www.lightfair.com/,DM,"MAXLITE, INC.",1557,LF,www.maxlite.com,,(973) 244-7300,,NJ West Caldwell 12 York Avenue,USA,,,,"MaxLite has provided certified energy-efficient lighting solutions to the commercial and industrial retrofit markets since 1993. One of the first movers into LED technology in the industry, MaxLite offers an extensive line of quality, certified indoor and outdoor LED lamps, luminaires and lighting controls. A one-stop supplier, MaxLite offers a comprehensive selection of products across multiple price tiers, enabling retrofit projects to be value-engineered while maintaining high levels of quality and warranty assurance. Most LED indoor and outdoor fixtures are covered by a 10-year limited warranty, labor allowance included (registration required; see terms and conditions at MaxLite.com/warranties). 

MaxLite offers many products that are BAA and TAA compliant. As a nationally certified Minority Business Enterprise (MBE) by the National Minority Supplier Diversity Council, MaxLite can help companies and government agencies meet their diversity goals."
Lightfair,10/27/2021,2021,https://www.lightfair.com/,DM,MAVERICK ENERGY SOLUTION INTERNATIONAL,2915,LF,www.maverickled.com,,(214) 571-6374,,IL Carol Stream 351 South Main Place,USA,,,,
Lightfair,10/27/2021,2021,https://www.lightfair.com/,DM,MAGTECH INDUSTRIES CORP,346,LF,www.magtechind.com,,(702) 364-9998,,"NV Las Vegas 5625 S. Arville St., Ste A",USA,,,,
Lightfair,10/27/2021,2021,https://www.lightfair.com/,DM,LUX DYNAMICS,3013,LF,www.luxdynamics.com,,(775) 200-0707,,NV Reno 1350 Capital Blvd.,USA,,,,
Lightfair,10/27/2021,2021,https://www.lightfair.com/,DM,LUMEFFICIENT,1132,LF,www.lumefficient.com,,(615) 371-0962,,TN Brentwood 1726C General George Patton Dr,USA,,,,
Lightfair,10/27/2021,2021,https://www.lightfair.com/,DM,"LTI OPTICS, LLC",1039,LF,www.ltioptics.com,,(720) 891-0030,,"CO Westminster 10850 Dover St., Suite 300",USA,,,,"LTI Optics provides the Photopia optical design software, allowing optical and mechanical engineers the opportunity to virtually prototype and design optical systems directly inside their CAD systems."
Lightfair,10/27/2021,2021,https://www.lightfair.com/,DM,"LTF, LLC",626,LF,www.ltftechnology.com,,847-498-5832,,IL Huntley 11966 Oak Creek Pkwy. Unit H,USA,,,,
Lightfair,10/27/2021,2021,https://www.lightfair.com/,DM,LITEK SRL,541,LF,www.litekamerica.com,,(+1) 929 732 5437,,NY New York Litek America Corp.,United States of America,,,,
Lightfair,10/27/2021,2021,https://www.lightfair.com/,DM,LUMENBUILDER,2962,LF,www.lumenbuilder.com,,,,Florida Orlando,United States of America,,,,"LumenBuilder leads the way with innovative cloud-based products to support and enhance the sales process for Agents and Distributors.  We bring emergent technologies to the forefront of the lighting industry, merging SSL complexities with data management solutions."
Lightfair,10/27/2021,2021,https://www.lightfair.com/,DM,LLI ARCHITECTURAL LIGHTING,939,LF,www.llialighting.com,,8474124880,,IL Buffalo Grove 1555 Barclay Rd,USA,,,,
Lightfair,10/27/2021,2021,https://www.lightfair.com/,DM,LIRON LIGHTING,2821,LF,www.lironlighting.com,,(713) 263-3599,,TX Houston 10835 South Wilcrest Dr,USA,,,,
Lightfair,10/27/2021,2021,https://www.lightfair.com/,DM,LENSVECTOR,1160,LF,www.lensvector.com,,(669) 247-5095,,CA San Jose 6203 San Ignacio,USA,,,,
Lightfair,10/27/2021,2021,https://www.lightfair.com/,DM,LEDVANCE,1923,LF,www.sylvania.com,,(978) 753-5000,,MA Wilmington 200 Ballardvale St.,USA,,,,
Lightfair,10/27/2021,2021,https://www.lightfair.com/,DM,LEHIGH ELECTRIC PRODUCTS CO.,2515,LF,www.lehighdim.com,,(610) 395-3386,,PA Allentown 6265 Hamilton Blvd,USA,,,,
Lightfair,10/27/2021,2021,https://www.lightfair.com/,DM,LIGHT EFFICIENT DESIGN,2939,LF,www.led-llc.com,,(847) 380-3540,,IL Cary 188 S. Northwest Hwy,USA,,,,
Lightfair,10/27/2021,2021,https://www.lightfair.com/,DM,"LEDDYNAMICS, INC.",1360,LF,www.leddynamics.com,,(802) 728-4533,,VT Randolph 296 Beanville Road,USA,,,,
Lightfair,10/27/2021,2021,https://www.lightfair.com/,DM,LIGHTSTANZA,2817,LF,www.lightstanza.com,,7207220771,,Colorado Boulder 210 Arapaho Ave,United States of America,,,,
Lightfair,10/27/2021,2021,https://www.lightfair.com/,DM,"LIGHTING ASSESSOR, LLC",1663,LF,www.lightingassessor.com,,(949) 860-1797,,"AZ Gilbert 2473 S. Higley Rd, Ste 104-429",USA,,,,
Lightfair,10/27/2021,2021,https://www.lightfair.com/,DM,LED SMART,1157,LF,www.ledsmart.com,,800450416,6043854560,BC Surrey 18905 32 Ave,CA,,,,"We design, test and build LED lighting for some of the strictest, and most severe applications, so we know what it takes to produce a product that will stand up to the harshest environments. Along with our capacity to produce world class lighting products, LED SMART now specializes in complete lighting systems that integrate AI, IoT, and Mesh Networking to provide a complete project solution. Our control systems are developed with both wired and wireless capability, and our custom sensors work for both software and hardware applications. If you need your lighting to perform when it counts the most, LED SMART has you covered."
Lightfair,10/27/2021,2021,https://www.lightfair.com/,DM,LEDRA BRANDS,1704,LF,www.ledrabrands.com,,(714) 259-9959,,CA Irvine 88 Maxwell,USA,,,,
Lightfair,10/27/2021,2021,https://www.lightfair.com/,DM,LEDTURE INC,463,LF,www.ledture.com,,852-920-13448,,CA San Bernardino 1939 Provost Place,USA,,,,"Design & Manufacture LED fixtures for Sports Lighting, Airport Lighting, Port Lighting, Parking Lot and Industrial Lighting"
Lightfair,10/27/2021,2021,https://www.lightfair.com/,DM,LED ONE CORPORATION,2633,LF,www.ledonecorp.com,,9516511700,,CA Eastvale 12437 Bellegrave Ave,USA,,,,"We see our company growing quickly and evolving with the latest technology on the market. We will continue to provide our customers with the best quality products as well as the best pricing. We plan to open new branches to further provide faster delivery times as well as convenience for local customers. We also will add specialty products to accommodate projects with specific requirements. LED One is increasing market share through transparent business practices in our relationships. We aim to gain traction in additional channels with reputable partners.


LED One Corporation fits into the market by keeping up with the latest technology and continuously improving our products to function as needed in the constant changing industry. We work closely with our factories to make sure the quality of the product is exceptional and working flawlessly. We continue to provide as much information and detail about our products to our customers and try to come up with ways to simplify the process and installation time."
Lightfair,10/27/2021,2021,https://www.lightfair.com/,DM,LED Lighting Concepts LLC,2466,LF,https://www.ledlightingconceptsllc.com/,,(865) 675-3955,,TN Knoxville 519 Lovell Road,United States,,,,
Lightfair,10/27/2021,2021,https://www.lightfair.com/,DM,"LDPI, INC.",1969,LF,www.ldpi-inc.com,,7158333340,,WISCONSIN EAU CLAIRE 4404 ANDERSON DRIVE,USA,,,,
Lightfair,10/27/2021,2021,https://www.lightfair.com/,DM,LAMBDA RESEARCH CORPORATION,963,LF,www.lambdares.com,,(978) 486-0766,,MA Littleton 25 Porter Road Upper,USA,,,,
Lightfair,10/27/2021,2021,https://www.lightfair.com/,DM,L.A. LIGHTING MFG. CO.,965,LF,www.lalighting.com,,6264548300,,CA El Monte 10141 Olney Street,USA,,,,
Lightfair,10/27/2021,2021,https://www.lightfair.com/,DM,KYOCERA SLD LASER,1457,LF,www.kyocera-sldlaser.com,,8667535273,,CA Goleta 485 Pine Ave,USA,,,,"KYOCERA SLD Laser, Inc. (KSLD) is a wholly owned subsidiary and group company of KYOCERA Corporation, commercializing a new generation of gallium nitride based laser light sources for automotive, mobility, specialty lighting, and consumer applications. The company is ISO 9001 certified and automotive compliant to IATF 16949, and operates facilities in Santa Barbara, CA and in Fremont, CA. KSLD’s high luminance LaserLightTM sources are UL and IEC safety certified and are utilized in a myriad of applications including automotive & mobility, specialty & portable lighting, entertainment & outdoor, projection & AR/VR displays, biomedical instrumentation & therapeutics, and industrial imaging & material processing. The company was recently ranked 7th in Fortune magazine’s “2020 Best Workplaces in Manufacturing & ProductionTM,” having promoted an employee-centric corporate culture since its founding. To learn more about KSLD, visit www.kyocera-sldlaser.com or contact the company at info@kyocera-sldlaser.com or 1-866-753-5273."
Lightfair,10/27/2021,2021,https://www.lightfair.com/,DM,"KOPP GLASS, INC.",1967,LF,www.koppglass.com,,412-271-0190,,PA Pittsburgh 2108 Palmer St,USA,,,,"Kopp Glass, Inc. manufactures high-performance glass for mission-critical applications. Grounded in Pittsburgh, Pennsylvania’s industrious history, Kopp employs applications engineering expertise to develop solutions that meet demanding specifications. Kopp’s material science mastery supports an expansive composition portfolio including over 200 glasses that transmit wavelengths from ultraviolet to visible to infrared. For nearly a century, Kopp has helped customers effectively navigate emerging technologies and develop innovative products that enable a safer and more productive world."
Lightfair,10/27/2021,2021,https://www.lightfair.com/,DM,KONICA MINOLTA SENSING AMERICAS,1151,LF,www.sensing.konicaminolta.us,,201-236-4300,,NJ Ramsey 101 Williams Drive,USA,,,,
Lightfair,10/27/2021,2021,https://www.lightfair.com/,DM,KHATOD NORTH AMERICA,1056,LF,www.khatod.com,,(781) 826-8164,,MA Pembroke 370 Corporate Park,USA,,,,
Lightfair,10/27/2021,2021,https://www.lightfair.com/,DM,"JESCO LIGHTING GROUP, LLC",1040,LF,www.jescolighting.com,,8005277796,,NY PORT WASHINGTON 15 HARBOR PARK DRIVE,USA,,,,"A leader of advanced linear & display LED lighting - shelf, cove, undercabinet & accent lighting as well as general lighting (downlights, track, & decorative)"
Lightfair,10/27/2021,2021,https://www.lightfair.com/,DM,KEYSTONE TECHNOLOGIES,1525,LF,https://keystonetech.com/,,(215) 283-2600,,PA Lansdale 2750 Morris Rd,USA,,,,
Lightfair,10/27/2021,2021,https://www.lightfair.com/,DM,IR-TEC INTERNATIONAL LTD.,2765,LF,www.irtec.com,,1-855-GOIRTEC,,CA Brea 590 W. Central Avenue,USA,,,,
Lightfair,10/27/2021,2021,https://www.lightfair.com/,DM,KLUS,1468,LF,www.klusdesign.com,,772-321-2260,,FL Vero Beach 673 US HWY 1,USA,,,,"Leading manufacturer of custom LED lighting providing the highest quality LED Luminaires, light engines, extrusions and components."
Lightfair,10/27/2021,2021,https://www.lightfair.com/,DM,JARVIS LIGHTING,355,LF,www.jarvislighting.com,,800-363-1075,,IL Schaumburg 1056 National Parkway,USA,,,,
Lightfair,10/27/2021,2021,https://www.lightfair.com/,DM,INVICTUS LIGHTING LLC,356,LF,www.invictuslighting.com,,828-855-9324,,NC Hickory 1401 Main Avenue SW,USA,,,,
Lightfair,10/27/2021,2021,https://www.lightfair.com/,DM,JASCO PRODUCTS,528,LF,www.byjasco.com,,(405) 752-0710,,OK Oklahoma City 10 East Memorial Road,USA,,,,
Lightfair,10/27/2021,2021,https://www.lightfair.com/,DM,INTERMATIC,1959,LF,www.Intermatic.com,,(815) 675-7043,,IL Spring Grove 7777 Winn Rd,USA,,,,
Lightfair,10/27/2021,2021,https://www.lightfair.com/,DM,INTERTEK,1133,LF,www.intertek.com/lighting,,(800) 967-5352,,IL Arlington Heights 545 E. Algonquin Road,USA,,,,
Lightfair,10/27/2021,2021,https://www.lightfair.com/,DM,"INTELLIGENT LIGHTING CONTROLS, INC.",1140,LF,www.ilc-usa.com,,(952) 829-1900,,MN Minneapolis 5229 Edina Industrial Blvd,USA,,,,
Lightfair,10/27/2021,2021,https://www.lightfair.com/,DM,INVENTRONICS,2067,LF,www.inventronics-co.com,,(405) 602-6039,,OK Oklahoma City 2825 S. Tulsa Ave,USA,,,,
Lightfair,10/27/2021,2021,https://www.lightfair.com/,DM,INDATECH LIGHTING,314,LF,www.indatechlighting.com,,(832) 977-1536,,TX Houston 8622 Fairbanks N. Houston Rd.,USA,,,,
Lightfair,10/27/2021,2021,https://www.lightfair.com/,DM,ILLUMRA,2565,LF,www.illumra.com,,(801) 349-1200,,UT Lindon 115 South State Street,USA,,,,
Lightfair,10/27/2021,2021,https://www.lightfair.com/,DM,ILLUMUS,1356,LF,www.illumus.com,,(407) 478-3759,,FL Sanford 519 Codisco Way,USA,,,,
Lightfair,10/27/2021,2021,https://www.lightfair.com/,DM,ILLUMINATING ENGINEERING SOCIETY (IES),2739,LF,www.ies.org,,212-248-5000,,NY New York 120 Wall St  17th Flr,USA,,,,
Lightfair,10/27/2021,2021,https://www.lightfair.com/,DM,IKIO LED LIGHTING,421,LF,www.ikioledlighting.com,,3178530667,,Indiana Indianapolis 8470 Allison Pointe Blvd,USA,,,,
Lightfair,10/27/2021,2021,https://www.lightfair.com/,DM,IGLO LLC,757,LF,www.igloled.net,,(703) 9014941,,TX Fort Worth 4924 Cambridge Road,USA,,,,
Lightfair,10/27/2021,2021,https://www.lightfair.com/,DM,"IDEAL INDUSTRIES, INC.",1060,LF,www.idealindustries.com,,(800) 435-0705,,IL Sycamore 1375 Park Avenue,USA,,,,
Lightfair,10/27/2021,2021,https://www.lightfair.com/,DM,HK LIGHTING GROUP,1265,LF,www.hklightinggroup.com,,(805) 480-4881,,"CA Newbury Park 3529 Old Conejo Road, Suite 118",USA,,,,
Lightfair,10/27/2021,2021,https://www.lightfair.com/,DM,HIDE-A-TRIM,2813,LF,www.hideatrim.com,,954-532-3514,,FL Pompano Beach 2450 NW 17th Lane,USA,,,,
Lightfair,10/27/2021,2021,https://www.lightfair.com/,DM,HI-LITE MFG.,1254,LF,www.hilitemfg.com,,(909) 465-1999,,CA Chino 13450 Monte Vista Ave,USA,,,,
Lightfair,10/27/2021,2021,https://www.lightfair.com/,DM,"HEVI LITE, INC.",1762,LF,www.hevilite.com,,(818) 341-8091,,CA Chatsworth 9714 Variel Avenue,USA,,,,"The Best in Modern Architectural, Landscape and Custom Lighting"
Lightfair,10/27/2021,2021,https://www.lightfair.com/,DM,IALD,2539,LF,www.iald.org,,(312) 527-3677,,"IL Chicago 440 N. Wells St., Ste. 210",USA,,,,"Founded in 1969 and based in Chicago, IL, USA, the International Association of Lighting Designers (IALD) is an internationally recognized organization dedicated to supporting a network of 1,500 independent lighting design professionals who satisfy its rigorous qualification process. The IALD strives to set the global standard for lighting design excellence by promoting the advancement and recognition of professional lighting designers."
Lightfair,10/27/2021,2021,https://www.lightfair.com/,DM,HEI TECHNOLOGY INTERNATIONAL GMBH,2607,LF,www.hei.at,,+43191213510,,Vienna Vienna Ameisgasse 65,AT,,,,
Lightfair,10/27/2021,2021,https://www.lightfair.com/,DM,"HERITAGE CASTING & IRONWORKS, LTD",1062,LF,www.hcilighting.com,,(905) 238-2648,,ON Mississauga 1280 Fewster Dr.,Canada,,,,"Here at HCI Lighting, our team is devoted in
researching and developing the perfect lighting
solution for residential, commercial, industrial, and
institutional applications. As an industry leading custom manufacturer,
we understand that not one size fits all.
Our dedicated engineering team is here to work
with you to achieve your lighting vision and still
come in under budget."
Lightfair,10/27/2021,2021,https://www.lightfair.com/,DM,"GRIPLOCK SYSTEMS, LLC",1257,LF,www.griplocksystems.com,,(805) 566-0064,,CA Carpinteria 1029 Cindy Lane,USA,,,,
Lightfair,10/27/2021,2021,https://www.lightfair.com/,DM,"GRIPPLE, INC.",2058,LF,www.gripple.com,,(630) 406-0600,,IL Aurora 1611 Emily Lane,USA,,,,
Lightfair,10/27/2021,2021,https://www.lightfair.com/,DM,"HEALTHE, INC.",2716,LF,www.healthelighting.com,,321-779-5520,,Florida Melbourne 3905 W. Eau Gallie Blvd.,USA,,,,
Lightfair,10/27/2021,2021,https://www.lightfair.com/,DM,GREENAPSIS SMART CITIES LLC,2916,LF,www.greenapsis.com,,210-399-9060,,Texas San Antonio 15900 La Cantera Parkway,United States of America,,,,
Lightfair,10/27/2021,2021,https://www.lightfair.com/,DM,GREEN PLANET LED,2157,LF,www.greenplanetled.us.com,,8006760208,,MI Garden City 29145 Warren Avenue,USA,,,,
Lightfair,10/27/2021,2021,https://www.lightfair.com/,DM,GREEN BUILDING & DESIGN,2961,LF,gbdmagazine.com,,312-857-5562,,IL Chicago 47 Polk Street,,,,,
Lightfair,10/27/2021,2021,https://www.lightfair.com/,DM,GL OPTIC,1136,LF,www.gloptic.com,,(267) 852-2200,,"PA Langhorne 2000 Cabot Blvd. W., Suite 120",USA,,,,"GL Optic - full-line manufacturer of precision, broad spectrum, light measurement solutions for field and laboratory use. Measure and generate .ies and .ldt files in-house, ensuring standards conformance. Rapid prototyping, incoming parts inspection and final product QA. Sold and serviced worldwide - comprehensive, intelligently designed, intuitive systems: spectrometers, integrating spheres, goniometers, programmable LED & reference light sources, thermal & electrical controllers, and analytical software, ideally suited to measure all types of LED components, modules, luminaires, systems and audit installed systems. Backed by Just Normlicht with 45 years of lighting industry expertise."
Lightfair,10/27/2021,2021,https://www.lightfair.com/,DM,GLINT LIGHTING,1252,LF,www.glintphotonics.com,,(415) 987-3875,,CA Burlingame 1520 Gilbreth Rd,USA,,,,"Glint exists to beautifully illuminate spaces for improved well-being, while consuming a minimum of space and resources. Our products disappear into the architecture to provide exceptional light utilization and visual comfort, never drawing undue attention to themselves."
Lightfair,10/27/2021,2021,https://www.lightfair.com/,DM,"GM LIGHTING, LLC",326,LF,www.gmlighting.net,,(303) 619-6419,,"IL Tinley Park, IL 60477 18700 Ridgeland Ave Unit 150",USA,,,,
Lightfair,10/27/2021,2021,https://www.lightfair.com/,DM,GKOLED,863,LF,www.gkoled.com,,(630) 793-9449,,IL Woodridge 10330 Argonne Woods Drive,USA,,,,
Lightfair,10/27/2021,2021,https://www.lightfair.com/,DM,GILLINDER GLASS,2613,LF,www.gillinderglass.com,,845-856-5375,,NY Port Jervis 51 Erie Street,USA,,,,"Established in 1861, Gillinder Glass is a sixth-generation owned glass manufacturer and glass fabricator. Located in Port Jervis, NY, Gillinder Glass specializes in pressed and custom molded, clear, and colored glass products. Gillinder Glass products include par, convex & Fresnel lenses for traditional & LED lighting applications. Vaporproof, military, residential & industrial globes. Marine, airport & aircraft glass. Moulded lenses for landscape, fountain, pool, & outdoor lighting installation. Gillinder offers turnkey solutions for the various industries and customers they serve. Our testing and engineering departments are state-of-the-art with glass composition advancements offering over 60 different types including tempering and annealing capabilities.  Glasses include crystal, flat, clear or colored, heat resisting borosilicate, soda-lime, infrared, visible blocking, UV transmitting, and much more including an open-stock catalog. Gillinder Glass represents superior quality standards with our products ISO 9001:2015 certification. An in-house mold shop offers custom design opportunities and proprietary project development. Additional finishing capabilities include coatings, cutting, drilling, and sandblasting. As a leader in our industry, we take great pride in our rich heritage and long-standing relationships with our clients. We are dedicated to meeting our customers' expectations with competitive pricing, product quality, customer service, and on-time delivery."
Lightfair,10/27/2021,2021,https://www.lightfair.com/,DM,"GE CURRENT, A DAINTREE COMPANY",1164,LF,www.gecurrent.com,,18886943533,,OH Cleveland 1975 Noble Rd,USA,,,,
Lightfair,10/27/2021,2021,https://www.lightfair.com/,DM,GENESIS PLASTICS TECHNOLOGIES,2556,LF,www.genesisplastech.com,,(970) 356-3487,,CO Greeley 1226 E 18th Street,USA,,,,
Lightfair,10/27/2021,2021,https://www.lightfair.com/,DM,GIGAHERTZ-OPTIK INC.,2614,LF,www.gigahertz-optik.com,,978-462-1818,,MA Amesbury 110 Haverhill Road,USA,,,,"Gigahertz-Optik manufactures innovative light measurement instrumentation for specification critical industrial, medical and research applications. 

A complete instrumentation line of standard, private label options and custom design solutions are available for UV-Vis-NIR radiometric, photometric, color and spectral measurement of traditional light and LED based sources. 

The product line covers a wide range of applications include optometers, radiometers, photometers, color meters, laser power meters, spectrometers, hand-held spectrophotometer, pulsed light analyzers & dataloggers, current-to-voltage detector amplifiers, integrating spheres, goniometers, optically diffuse materials, calibration lamp and detector standards, light reflection / transmission meters and all associated accessory components.

Our optical radiation calibration laboratory is ISO/IEC 17025 accredited to ensure the highest industry level traceable calibration.

Whether you are looking for a simple portable light meter, an OEM supplier or a fully customized system, we can help while staying within budget."
Lightfair,10/27/2021,2021,https://www.lightfair.com/,DM,"FOCUS INDUSTRIES, INC.",302,LF,www.focusindustries.com,,19498301350110,949-830-3390,CA LAKE FOREST 25301 COMMERCENTRE DR,USA,,,,"FOCUS is proud to be one of the few dedicated US lighting manufacturers.  Our product line of architectural, landscape, and other outdoor lighting products comes with a custom touch. FOCUS offers its large and extensive product line in multiple finishes, materials, voltages, light sources and accessories. Just about any exterior application can be made your way by FOCUS."
Lightfair,10/27/2021,2021,https://www.lightfair.com/,DM,FSP TECHNOLOGY INC.,762,LF,www.fspusainc.com/,,(949) 877-3713,,CA Irvine 8831 Research Dr. Ste 200,USA,,,,
Lightfair,10/27/2021,2021,https://www.lightfair.com/,DM,"FUNCTIONAL DEVICES, INC.",1556,LF,www.functionaldevices.com,,(765) 883-5538,,IN Sharpsville 101 Commerce Drive,USA,,,,"Functional Devices, Inc. has designed and manufactured electronic devices in the USA since 1969. Celebrating our 52nd anniversary this year, our current product offerings include our UL924 Emergency Lighting Automatic Load Control relays, including our ByPass/Shunt relays, our EnOcean enabled wireless relay technology, small Light Controllers and our Latching Relay series."
Lightfair,10/27/2021,2021,https://www.lightfair.com/,DM,FERROLUCE SRL,933,LF,www.ferroluce.it,,+39 0481909541,,IT-V Romans d'lsonzo Via XXV Maggio 17,IT,,,,
Lightfair,10/27/2021,2021,https://www.lightfair.com/,DM,FANLIGHT / NATURALED,1364,LF,http://mynaturaled.com/,,(909) 930-6868,,CA Ontario 2000 S. Grove Ave. Bldg B,USA,,,,
Lightfair,10/27/2021,2021,https://www.lightfair.com/,DM,ETI SOLID STATE LIGHTING INC.,339,LF,www.etissl.com,,608+512-9711,,"IL Wheeling 720 Northgate Parkway,",USA,,,,
Lightfair,10/27/2021,2021,https://www.lightfair.com/,DM,ETC,2921,LF,www.etcconnect.com,,(608) 831-4116,,WI Middleton P.O. Box 620979,USA,,,,"From sophisticated wall stations to beautiful LED luminaires, ETC offers comprehensive solutions for every part of your architectural lighting system. For more than 40 years, ETC has supplied award-winning products for architectural installations ranging from campus-wide systems to LED retrofits. ETC products include the new ArcSystem Navis line of LED luminaires, featuring pristine light and a modular design as well as the F-Drive centralized LED driver solution. Additional architectural solutions include smooth-dimming ArcSystem Pro LED luminaires, Unison control systems, Foundry power control, Echoflex wireless controls, and more. All ETC products are backed by our renowned 24/7/365 customer and technical support."
Lightfair,10/27/2021,2021,https://www.lightfair.com/,DM,EURI LIGHTING,561,LF,www.eurilighting.com,,(310) 787-1100,,CA Torrance 20900 Normandie Avenue,USA,,,,
Lightfair,10/27/2021,2021,https://www.lightfair.com/,DM,"EVERLAST LIGHTING, INC.",2527,LF,www.everlastlight.com,,(888) 383-7578,,MI Jackson 2021 Wellworth Ave,USA,,,,
Lightfair,10/27/2021,2021,https://www.lightfair.com/,DM,ERG LIGHTING,1369,LF,www.erglighting.com,,(607) 754-9187,,NY Endicott 2601 Wayne Street,USA,,,,
Lightfair,10/27/2021,2021,https://www.lightfair.com/,DM,FC LIGHTING,1804,LF,www.fclighting.com,,(630) 889-8100,,IL St Charles 3609 Swenson Ave,USA,,,,
Lightfair,10/27/2021,2021,https://www.lightfair.com/,DM,"ENVISION LED LIGHTING, INC.",2627,LF,www.envisionledlighting.com,,(213) 741-1550,,CA Bell 4845 S Eastern Ave,USA,,,,
Lightfair,10/27/2021,2021,https://www.lightfair.com/,DM,ENOCEAN ALLIANCE,2865,LF,www.enocean-alliance.org,,(925) 275-6601,,"CA San Ramon 5000 Executive Parkway, Suite 302",USA,,,,
Lightfair,10/27/2021,2021,https://www.lightfair.com/,DM,"ENVOY LIGHTING, INC.",308,LF,www.envoylighting.com,,(215) 512-7000,,PA Trevose 4 Neshaminy Interplex Drive,USA,,,,
Lightfair,10/27/2021,2021,https://www.lightfair.com/,DM,"ENLIGHTED, INC.",2557,LF,www.enlightedinc.com,,650-964-1094,,CA Santa Clara 3979 Freedom Circle,USA,,,,"Enlighted, a Siemens company, is the world’s most advanced Building IoT Platform and provides advanced wireless lighting control systems. Powered by innovative smart sensors, equipped with Bluetooth technology, the system makes each light intelligent, delivering granular data and control. The Enlighted system is proven to reduce energy costs by 85% or more while capturing unparalleled building data, while improving the comfort of workspaces and the efficiency of the people who work in them. Future proof and upgradable, it is simple for users to unlock an entire ecosystem of IoT applications. The Enlighted system is installed in more than 410 million square feet of building space."
Lightfair,10/27/2021,2021,https://www.lightfair.com/,DM,ENERGY FOCUS,1857,LF,www.energyfocus.com,,(800) 327-7877,,OH Solon 32000 Aurora Rd.,USA,,,,
Lightfair,10/27/2021,2021,https://www.lightfair.com/,DM,EMERGENSEE LIGHTING,663,LF,www.emergenseelighting.com,,(215) 512-8100,,PA Trevose 4 Neshaminy Interplex Drive,USA,,,,
Lightfair,10/27/2021,2021,https://www.lightfair.com/,DM,ENEDO,352,LF,www.enedopower.com,,973-957-0055,,"NJ Denville 66 Ford Road, Suite 213B",USA,,,,
Lightfair,10/27/2021,2021,https://www.lightfair.com/,DM,ENCENTIV ENERGY,1459,LF,www.encentivenergy.com,,4127231516,,"PA Pittsburgh 1501 Ardmore Blvd, Suite 102",USA,,,,
Lightfair,10/27/2021,2021,https://www.lightfair.com/,DM,ELITE LIGHTING,1849,LF,www.iuseelite.com,,(323) 888-1973,,CA Commerce 5424 E. Slauson Ave.,USA,,,,
Lightfair,10/27/2021,2021,https://www.lightfair.com/,DM,EEMA LIGHTING GROUP,1033,LF,www.liton.com,,(323) 904-0200,,CA Los Angeles 5461 W Jefferson Blvd,USA,,,,
Lightfair,10/27/2021,2021,https://www.lightfair.com/,DM,EDISON OPTO CORPORATION,2432,LF,www.edison-opto.com,,(909) 284-9710,,CA Ontario 1809 Excise Ave,USA,,,,
Lightfair,10/27/2021,2021,https://www.lightfair.com/,DM,"EELP, INC",420,LF,www.eelp.net,,(215) 244-4496,,PA Trevose One Neshaminy Interplex,USA,,,,
Lightfair,10/27/2021,2021,https://www.lightfair.com/,DM,"EIKO GLOBAL, LLC",2007,LF,www.eiko.com,,(913) 667-8552,,KS Shawnee 23220 W 84th St,USA,,,,
Lightfair,10/27/2021,2021,https://www.lightfair.com/,DM,"EARTHTRONICS, INC.",1865,LF,www.earthtronics.com,,(231) 332-1188,,MI Norton Shores 755 E. Ellis Rd.,USA,,,,
Lightfair,10/27/2021,2021,https://www.lightfair.com/,DM,EASY ADAPTER INC.,866,LF,www.easyadapter.org,,2346006369,,OH Cortland 468 Rosewae Ave,USA,,,,SURPRISE!!! WE ARE NEW AND NOTHING OUT THERE LIKE US! We are an Ohio based company created in 2020. Easy Adapter electrical system. Our product is an electrical easy connect mounting system that give customers the freedom to move and interchange multiple lighting fixtures and Tv's.. etc.. (currently working on other products)
Lightfair,10/27/2021,2021,https://www.lightfair.com/,DM,ECOINSIGHT,1261,LF,www.ecoinsight.com,,(800) 423-2050,,,USA,,,,"ecoInsight is a software provider for the entire lighting industry. ecoInsight develops and deploys software for electrical contractors, lighting contractors, lighting agents, lighting manufacturers, ESCOs, and more!"
Lightfair,10/27/2021,2021,https://www.lightfair.com/,DM,DSPM INC.,2513,LF,www.dspmanufacturing.com,,(909) 930-3353,,CA San Bernadinio 439 S. Stoddard Ave.,USA,,,,
Lightfair,10/27/2021,2021,https://www.lightfair.com/,DM,DIMONOFF INC.,2857,LF,www.dimonoff.com,,4186823636,,Quebec Quebec 1015 Wilfrid Pelletier,Canada,,,,
Lightfair,10/27/2021,2021,https://www.lightfair.com/,DM,DESIGNING LIGHTING,2965,LF,,,,,SC Anderson 2315 N. Main Street - Suite 202,,,,,
Lightfair,10/27/2021,2021,https://www.lightfair.com/,DM,"DABMAR LIGHTING, INC.",649,LF,www.dabmar.com,,(805) 604-9090,,CA Oxnard 320 Graves Ave,USA,,,,
Lightfair,10/27/2021,2021,https://www.lightfair.com/,DM,DALI ALLIANCE (DIIA),424,LF,www.digitalilluminationinterface.org,,(732) 562-5464,,NJ Piscataway 445 Hoes Lane,USA,,,,"The DALI Alliance (also known as the Digital Illumination Interface Alliance or DiiA) is an open, global consortium of lighting companies spearheading growth of lighting-control solutions based on Digital Addressable Lighting Interface (DALI) technology. The organization is driving the adoption of DALI-2, the latest version of the internationally-standardized DALI protocol, and operates the DALI-2 and D4i certification programs to boost levels of cross-vendor interoperability. Options to combine DALI with wireless technology are in development."
Lightfair,10/27/2021,2021,https://www.lightfair.com/,DM,CYANTEK LED LIGHTING,1965,LF,www.cyantekLEDLighting.com,,844-456-2926,,CA Paramount 15323 Garfield Ave,United States,,,,
Lightfair,10/27/2021,2021,https://www.lightfair.com/,DM,CUSTOM CONTRACT LIGHTING,1032,LF,www.customcontractlighting.com,,3157683711,,New Yorkville 55 Oriskany Blvd.,USA,,,,
Lightfair,10/27/2021,2021,https://www.lightfair.com/,DM,"CUSTOM PLASTICS, INC",324,LF,www.customplasticsinc.com,,847-439-6770,,IL Elk Grove Village 1940 Lunt Ave,USA,,,,
Lightfair,10/27/2021,2021,https://www.lightfair.com/,DM,CUSTOM ALUMINUM PRODUCTS,2366,LF,www.custom-aluminum.com,,(847) 717-5000,,IL South Elgin 500 Division Street,USA,,,,
Lightfair,10/27/2021,2021,https://www.lightfair.com/,DM,CSA GROUP TESTING & CERTIFICATION INC.,1764,LF,www.csagroup.org,,+1 866 797 4272,,Ontario Toronto 178 Rexdale Blvd,Canada,,,,
Lightfair,10/27/2021,2021,https://www.lightfair.com/,DM,"CreeLED, Inc.",2406,LF,www.cree-led.com,,919-313-5330,,NC Durham 4400 Silicon Drive,USA,,,,
Lightfair,10/27/2021,2021,https://www.lightfair.com/,DM,CRISTAL CONTROLS,3029,LF,www.cristalcontrols.com,,(418) 681-9590,,"QC Quebec City 2025 Lavoisier St., Suite 135",CA,,,,
Lightfair,10/27/2021,2021,https://www.lightfair.com/,DM,CRUCIAL POWER PRODUCTS,1053,LF,www.crucialpower.com,,(800) 244-4069,,"CA Los Angeles 14000 So. Broadway,",USA,,,,
Lightfair,10/27/2021,2021,https://www.lightfair.com/,DM,COOPER LIGHTING SOLUTIONS,1449,LF,www.Cooperlighting.com,,(770) 486-4024,,GA Peachtree City 1121 Highway 74 S,USA,,,,"At Cooper Lighting Solutions, we build forward-thinking lighting solutions that make people’s lives safer, while making buildings, homes and cities smarter and more sustainable. We deliver an industry-leading portfolio of indoor and outdoor lighting, lighting controls and smart lighting systems.

We question, we seek and we solve. Because building a better world means asking tough questions and pushing harder for answers. Together with our customers, we create solutions that build a better world. At Cooper Lighting Solutions, we push past the ordinary to build brighter.

Cooper Lighting Solutions is a business unit of Signify, the world leader in lighting. Together we have a shared purpose to unlock the extraordinary potential of light for brighter lives and a better world."
Lightfair,10/27/2021,2021,https://www.lightfair.com/,DM,COOLTRON INDUSTRIAL SUPPLY INC.,529,LF,www.cooltron.com,,(909) 598-6033,(909) 598-6043,"CA City of Industry 19929 Harrison Avenue,",USA,,,,
Lightfair,10/27/2021,2021,https://www.lightfair.com/,DM,CRESTRON ELECTRONICS,2422,LF,www.crestron.com,,(201) 767-3400,,NJ Rockleigh 15 Volvo Drive,USA,,,,"Scalable Lighting Control and Management for Your Enterprise.

Crestron simplifies design, installation, and startup of commercial lighting control with the right products and systems designed to work for the needs of each space in a building and integrate easily together for enterprise-wide monitoring, management and control. Our process dramatically reduces the time required to complete each phase of a lighting control project while greatly improving efficiency and scalability."
Lightfair,10/27/2021,2021,https://www.lightfair.com/,DM,"CIMCON LIGHTING, INC.",1554,LF,www.cimconlighting.com,,(978) 320-4002,,MA Burlington 200 Summit Road,USA,,,,
Lightfair,10/27/2021,2021,https://www.lightfair.com/,DM,CITEL SURGE PROTECTION,1963,LF,www.citel.us,,(716) 348-1964,,FL Miramar 10108 USA Today Way,USA,,,,
Lightfair,10/27/2021,2021,https://www.lightfair.com/,DM,CONCEALITE LIFE SAFETY PRODUCTS,2707,LF,https://www.concealite.com,,605-542-4444,,SD Elkton 202 Elk Street,USA,,,,
Lightfair,10/27/2021,2021,https://www.lightfair.com/,DM,"CHUROD AMERICAS, INC.",2059,LF,www.churod.com/enindex.asp,,610-608-1547,,PA Wayne 485 Devon Park Drive,USA,,,,
Lightfair,10/27/2021,2021,https://www.lightfair.com/,DM,COLOR-DEC NORTH AMERICA,1359,LF,WWW.COLOR-DEC.COM,,(877) 542 1863,,KY Erlanger 1985 Airport Exchange,United States of America,,,,
Lightfair,10/27/2021,2021,https://www.lightfair.com/,DM,CARCLO TECHNICAL PLASTICS,1935,LF,www.carclo-optics.com,,(724) 539-6994,,PA Latrobe 600 Depot Street,USA,,,,
Lightfair,10/27/2021,2021,https://www.lightfair.com/,DM,CARL STAHL ARC GMBH,2831,LF,www.x-led.de,,497162-948150310,,Baden-Wuerttemberg Suessen Siemensstrasse 2,Germany,,,,
Lightfair,10/27/2021,2021,https://www.lightfair.com/,DM,CANDEX LIGHTING,429,LF,www.candexlighting.com,,(949) 939-5363,,CA Irvine 1822 McGaw Avenue,USA,,,,
Lightfair,10/27/2021,2021,https://www.lightfair.com/,DM,"CABLE GRIPPERS, INC.",1139,LF,www.cablegrippers.com,,(702) 869-0755,,NV Las Vegas 6647 Schuster Street,USA,,,,
Lightfair,10/27/2021,2021,https://www.lightfair.com/,DM,BUILDING SERVICES MANAGEMENT MAGAZINE,3062,LF,https://www.bsmmag.com/,,2059822536,,"AL Birmingham 114 Trade Center Drive, Suite B",,,,,"The goal of Building Services Management magazine is to be the primary source of information for today ’s facility maintenance professional. Each month, we take a whole-building approach to covering the industry, offering our readers techniques and equipment that increase productivity and efficiency, while emphasizing workplace safety. We continuously strive to meet the information needs of facility maintenance managers and contractors with decision-making and purchasing power in a variety of commercial , industrial and institutional settings thereby offering manufacturers and service providers a unique audience for their products."
Lightfair,10/27/2021,2021,https://www.lightfair.com/,DM,AVNET,2549,LF,www.avnet.com,,(858) 385-7555,,CA San Diego 13500 Evening Creek Dr. N.,USA,,,,
Lightfair,10/27/2021,2021,https://www.lightfair.com/,DM,CALI LIGHTING,2839,LF,http://www.calilighting.com/,,7145357900,714.535.7902,CA Anaheim 2820 E. Gretta Lane,USA,,,,
Lightfair,10/27/2021,2021,https://www.lightfair.com/,DM,"AVI-ON LABS, INC",2749,LF,www.avi-on.com,,(415) 315-9682,,UT Park City 2700 Rasmussen Road,USA,,,,
Lightfair,10/27/2021,2021,https://www.lightfair.com/,DM,"ATG ELECTRONICS, INC.",2507,LF,www.atgledlighting.com,,(877) 461-5333,,Ca MontClair 10588 Monte Vista,USA,,,,
Lightfair,10/27/2021,2021,https://www.lightfair.com/,DM,ASSOCIATION OF ENERGY ENGINEERS (AEE),2963,LF,www.aeecenter.org,,7704475083,,GA Atlanta 3168 Mercer University Drive,,,,,
Lightfair,10/27/2021,2021,https://www.lightfair.com/,DM,ARTIKA,725,LF,www.artika.com,,5146366668,,QC Lachine 1756 50th Ave,Canada,,,,
Lightfair,10/27/2021,2021,https://www.lightfair.com/,DM,AUTANI,2649,LF,www.autani.com,,(443) 320-2233,,MD Columbia 7090 Columbia Gateway Drive,USA,,,,
Lightfair,10/27/2021,2021,https://www.lightfair.com/,DM,ARKEMA INC,2468,LF,www.plexiglas.com,,(215) 826-2631,,PA Bristol 100 Route 413,USA,,,,
Lightfair,10/27/2021,2021,https://www.lightfair.com/,DM,ARRLUX INC,363,LF,www.arrlux.com,,(650) 868-2193,,CA Pleasanton 4695 Chabot Drive,USA,,,,
Lightfair,10/27/2021,2021,https://www.lightfair.com/,DM,"AMERICAN LIGHTING, INC.",2439,LF,www.americanlighting.com,,(303) 695-3019,3039231159,CO Denver 11775 E 45th Ave,USA,,,,
Lightfair,10/27/2021,2021,https://www.lightfair.com/,DM,ARKALUMEN INC.,2663,LF,www.arkalumen.com,,877-856-5533,613-800-0855,"Ontario Ottawa 1750 Courtwood Crescent, Suite 308",Canada,,,,
Lightfair,10/27/2021,2021,https://www.lightfair.com/,DM,APOGEE LIGHTING,2240,LF,https://apogee-lighting.com/,,631-245-3860,,NY Deer Park 593 Acorn St.,,,,,
Lightfair,10/27/2021,2021,https://www.lightfair.com/,DM,AOK INDUSTRIAL COMPANY LIMITED,2228,LF,www.aokledlight.com,,6264208777,,"GD Shenzhen Building 1 floor 3, St George Industrial Park",China,,,,
Lightfair,10/27/2021,2021,https://www.lightfair.com/,DM,AMBIENTECH,2561,LF,https://www.ambientechinc.com/,,347-334-6368,,NY Brooklyn 63 Flushing Avenue,United States of America,,,,
Lightfair,10/27/2021,2021,https://www.lightfair.com/,DM,"AMAX LIGHTING, INC.",1137,LF,www.amaxlighting.com,,15629455221,5624641664,CA Santa Fe Springs 10268 Santa Fe Springs Rd.,USA,,,,
Lightfair,10/27/2021,2021,https://www.lightfair.com/,DM,"ALPHALITE, INC.",2236,LF,www.alphalite.com,,(888) 287-9228,,CA Santa Fe Springs 10715 Springdale Ave,USA,,,,
Lightfair,10/27/2021,2021,https://www.lightfair.com/,DM,ALMAG ALUMINUM INC,1462,LF,www.almag.com,,(905) 457-9000,,ON Brampton 22 Finley Road,CA,,,,
Lightfair,10/27/2021,2021,https://www.lightfair.com/,DM,ALLIED SCIENTIFIC PRO,340,LF,https://alliedscientificpro.com/,,8002534107,,QC Gatineau 815 Boul de la carriére suite 203,Canada,,,,"Allied Scientific Pro (ASP) specializes in the manufacturing, distribution, and innovation of high quality and cost-effective photonics hardware for the scientific community from all around the globe."
Lightfair,10/27/2021,2021,https://www.lightfair.com/,DM,"ALLSTAR LIGHTING SUPPLIES, INC.",320,LF,www.allstarlighting.com,,(732) 882-1500,,NJ Avenel 33 Randolph Avenue,USA,,,,
Lightfair,10/27/2021,2021,https://www.lightfair.com/,DM,ALEDDRA LED LIGHTING,2909,LF,www.aleddra.com,,(425) 430-4555,,"WA Renton 2210 Lind Ave. SW, Ste. 109",USA,,,,"Aleddra, a Seattle-based lighting technology company. Aleddra is the technology and market leader in the Emergency T8/T5 segment with over 10 patents and 5 products that are competitively priced. Its Gen2 and Gen4 Emergency T8 have been recognized by IES (Illuminating Engineering Society) in 2019 and 2020, respectively, and are included in the Progress Report, which is the highest technical achievement in the lighting industry. Aleddra is also a known innovator with 6 ground-breaking Wellness Lighting products included in IES Progress Report, and they are effective in fighting against COVID-19. Visit Aleddra booth to see the latest Emergency LED Lighting and Wellness Lighting solutions."
Lightfair,10/27/2021,2021,https://www.lightfair.com/,DM,ALANOD GMBH & CO. KG,2414,LF,www.alanod.de,,+49 2333 986 500,,Germany Ennepetal Egerstrasse 12,Germany,,,,
Lightfair,10/27/2021,2021,https://www.lightfair.com/,DM,ABSOLUME LLC,2511,LF,www.absolume.com,,(732) 369-1130,,NJ Jackson 360 Faraday Ave,USA,,,,
Lightfair,10/27/2021,2021,https://www.lightfair.com/,DM,ACUITY BRANDS LIGHTING,1712,LF,www.acuitybrands.com,,(770) 922-9000,,GA Conyers One Lithonia Way,USA,,,,
Lightfair,10/27/2021,2021,https://www.lightfair.com/,DM,AKT LIGHTING,2062,LF,www.aktlighting.com,,(347) 732-3557,,NJ Edgewater 725 River Rd,USA,,,,
Lightfair,10/27/2021,2021,https://www.lightfair.com/,DM,ABOVE ALL LIGHTING INC.,2013,LF,www.abovealllighting.com,,(866) 222-8866,,NJ Toms River 1501 Industrial Way North,USA,,,,
Lightfair,10/27/2021,2021,https://www.lightfair.com/,DM,ACCESS LIGHTING,835,LF,www.accesslighting.com,,(714) 247-1270,,CA Irvine 144410 Myford Road,USA,,,,
Lightfair,10/27/2021,2021,https://www.lightfair.com/,DM,"AFX, INC.",729,LF,www.afxinc.com,,(847) 249-5970,,IL Waukegan 2345 Ernie Krueger Circle,USA,,,,
Lightfair,10/27/2021,2021,https://www.lightfair.com/,DM,1000LED INC.,1763,LF,https://1000LED.com,,(877) 340-1700,,"TX McKinney 1250 Wattley Way, Building A, Suite 100",USA,,,,
Lightfair,10/27/2021,2021,https://www.lightfair.com/,DM,A.L.P.,1905,LF,www.alplighting.com,,(773) 774-9550,,IL Niles 6333 W Gross Point Rd,USA,,,,
Lightfair,10/27/2021,2021,https://www.lightfair.com/,DM,"ABLE POWER PRODUCTS, INC",449,LF,www.ablepowerproducts.com,,727-495-7816,,VA Manassas 8535 Phoenix Drive,USA,,,,
