ShowName,ShowDate,ShowYear,ShowWebsite,SubmittedBy,ExhibitorName,BoothNumber,HallLocation,Website,Email,Phone,Fax,Address,Country,Categories,Manufacturers,Brands,Description
KBIS 2022,02/08/2022,2022,https://kbis.com/,DM,InSinkErator,544,,http://www.insinkerator.com,,,,"Mt. Pleasant, WI United States",United States,Kitchen Accessories | Garbage Disposals | Faucets | Water Filtration,,,"Headquartered in Racine, Wisconsin, InSinkErator, a business unit of Emerson Electric Co., is the worlds largest manufacturer of food waste disposers and instant hot water dispensers for home and commercial use. For more information about InSinkErator products, call 1-800-558-5700 or visit the companys website at www.insinkerator.com"
KBIS 2022,02/08/2022,2022,https://kbis.com/,DM,Beko US Inc.,1657,,https://www.beko.com/us-en/,,,,"Bolingbrook, IL United States",United States,Cooking | Dishwashers | Laundry | Refrigeration | Healthy Home/Wellness,,,"Beko Home Appliances, the U.S. subsidiary of Arçelik, is a global appliance manufacturer with a product presence in 400 million homes in more than 140 countries. Beko is the leading freestanding home appliances brand in Europe and the No. 1 large home appliances brand in the UK, France and Poland.  This year, it makes its largest KBIS presence ever with the reveal of the"
KBIS 2022,02/08/2022,2022,https://kbis.com/,DM,Bad Dog Tools,6020,,http://www.baddogtools.com,,,,"Bristol, RI United States",United States,Power Tools and Machinery,,,"Since 1988 we've been making specialty & multi-purpose tools so good we guarantee 'em for life! Always the right tool for the job: Multi-purpose and specialty tools drill, cut, grind the hardest and softest metals along with carbon fiber, wood, PVC and more. Choose from Drill Bits from 3/32”, HDII Endless cutting/grinding wheel in 9 sizes, Biter Sheet Material Cutter turns hand drill into nibbler."
KBIS 2022,02/08/2022,2022,https://kbis.com/,DM,Ballerina-Küchen H.-E. Ellersiek GmbH,5625,,http://www.ballerina-kitchens.eu,,,,"Roedinghausen, Germany",Germany,Kitchen Accessories | Full-Custom,,,"A trendsetter among German kitchen manufacturers, Ballerina-Küchen is a medium-sized enterprise based in Rödinghausen (Bünde/Westphalia) which produces 30,000 individual top-quality kitchens each year with the characteristic ""quality made in Germany""."
KBIS 2022,02/08/2022,2022,https://kbis.com/,DM,Bemis Manufacturing Company,1273,,http://toiletseats.com,,,,"Sheboygan Falls, WI United States",United States,Bathroom Accessories | Bidets | Faucets | Toilet Seats | Toilets | Business-To-Business | Consumer,,,
KBIS 2022,02/08/2022,2022,https://kbis.com/,DM,BACA Systems,5809,,https://bacasystems.com,,,,"Lake Orion, MI United States",United States,Power Tools and Machinery,,,
KBIS 2022,02/08/2022,2022,https://kbis.com/,DM,Baldwin Hardware,2013,,http://www.baldwinhardware.com,,,,"Lake Forest, CA United States",United States,,,,
KBIS 2022,02/08/2022,2022,https://kbis.com/,DM,"Atotech USA, LLC.",4277,,http://www.atotech.com/,,,,"Rock Hill, SC United States",United States,Cleaners/Caulks/Adhesives/Polishes | Other,,,
KBIS 2022,02/08/2022,2022,https://kbis.com/,DM,Asterisk Lighting,6030,,http://www.asterisklighting.com,,,,"Brooklyn, NY United States",United States,Kitchen Accessories | Shelving/Storage Systems | Other | Decorative Fixtures | Dimming and Lighting Controls,,,
KBIS 2022,02/08/2022,2022,https://kbis.com/,DM,BACA Systems,5807,,https://bacasystems.com,,,,"Lake Orion, MI United States",United States,Power Tools and Machinery,,,
KBIS 2022,02/08/2022,2022,https://kbis.com/,DM,Belwith-Keeler Décor Solutions®,872,,http://www.belwithkeeler.com,,,,"Grandville, MI United States",United States,Decorative | Functional,,,
KBIS 2022,02/08/2022,2022,https://kbis.com/,DM,"Ashley Norton, Inc.",254,,http://www.ashleynorton.com,,,,"Pompton Plains, NJ United States",United States,Bathroom Accessories | Kitchen Accessories | ADA Compliant | Decorative | Functional,,,"Ashley Norton offers a complete line of solid bronze and solid brass architectural hardware including door handlesets, cabinet knobs/pulls, door pulls, cabinet pulls, and other decorative accessories.  Our hardware is offered in wide choice of finishes and hand applied patinas. Also presenting 'Manzoni', an extensive line of cabinet hardware encompassing contemporary, transitional and ornate styles available in multiple finishes."
KBIS 2022,02/08/2022,2022,https://kbis.com/,DM,Atlas Plan,5407,,https://www.atlasplan.com/en/,,,,"Spezzano di Fiorano, Italy",Italy,Natural Stone and Tile | Other | Tile | Hardscapes | Sinks | Vanities | Wall Coverings,,,"Atlas Plan is a global specialist in premium porcelain slabs for countertops, workrtops and furniture applications. Porcelain slabs are suitable for every style and application in residential, commercial and public architecture."
KBIS 2022,02/08/2022,2022,https://kbis.com/,DM,aspectLED,3777,,https://www.aspectled.com/,,,,"White Bear Township, MN United States",United States,Bathroom Accessories | Kitchen Accessories | Decorative Fixtures | Dimming and Lighting Controls | Outdoor Lighting,,,
KBIS 2022,02/08/2022,2022,https://kbis.com/,DM,ATL Cabinetry Depo,3765,,https://www.atlcabinetry.com/,,,,"Peachtree Corners, GA United States",United States,Ready to Assemble | Stock,,,
KBIS 2022,02/08/2022,2022,https://kbis.com/,DM,Asmoke USA,4268,,https://asmokegrill.com,,,,"Newark, DE United States",United States,Grills/Outdoor Cooking,,,
KBIS 2022,02/08/2022,2022,https://kbis.com/,DM,WPPO LLC,4238,,https://wppollc.com/,,,,"Orangeville, IL United States",United States,Cooking | Grills | Grills/Outdoor Cooking,,,"At WPPO, LLC, we pride ourselves on people over profits, quality over quantity, and service over self-service. With these 3 priorities at the top of our list, we have become one of the fastest-growing, highly respected Wood Fired Oven manufacturers in North America and abroad."
KBIS 2022,02/08/2022,2022,https://kbis.com/,DM,"ZBOM Cabinets Co., Ltd.",4321,,http://www.zbomcabinets.com,,,,"Azusa, CA United States",United States,Full-Custom | Ready to Assemble | Semi-Custom | Stock,,,"ZBOM is one of the largest cabinetry manufacturer leading the industry. ZBOM has 3 major factoies at Europe and Asia, with over 20,000 employees globally. In the past 12 years, ZBOM has completed hundreds of projects all over the world. With our professionism and expertise, we continue to provide the high standard quality products at the best value to our customers."
KBIS 2022,02/08/2022,2022,https://kbis.com/,DM,Zip Water,5132,,https://us.zipwater.com,,,,"Rosemont, IL United States",United States,Kitchen Accessories | Cooking | Water Conservation | Smart Appliances | Faucets | Water Filtration,,,Zip Water’s history is rooted in innovation and we remain committed to advancing and perfecting drinking water technology.
KBIS 2022,02/08/2022,2022,https://kbis.com/,DM,Z Line Kitchen and Bath,2384,,http://www.zlinekitchen.com,,,,"Reno, NV United States",United States,Cooking | Dishwashers | Grills | Faucets | Sinks | Range Hoods,,,"A passion for innovation has led ZLINE to be the first range hood manufacturer to bring copper and hand carved wooden range hoods to the mass market. We also offer built in range hood motors with a LIFETIME warranty; an industry first. Beyond that, we offer a unique line of ranges, dishwashers, microwave drawers and plumbing. Our goal is to improve the quality of life in your home, by offering exceptional kitchen appliances along with unparalleled customer service"
KBIS 2022,02/08/2022,2022,https://kbis.com/,DM,Woodland,5838,,http://www.woodlandfurniture.com,,,,"Idaho Falls, ID United States",United States,Architectural Services/Interior Design | Full-Custom | Semi-Custom | Wine Storage,,,We are a high-end cabinetry company that offers furniture-grade finishes and a range of standard options as well as complete custom capabilites. Our cabinetry line is manufactured and Made in the U.S.A.   We deliver and install across the country and have worked on a few international projects as well.  Visit our KBIS display to see our custom capabilities along with finish samples and standard door styles/molding options from our standard Classic Cabinetry line.
KBIS 2022,02/08/2022,2022,https://kbis.com/,DM,Wellborn Cabinet Inc,1536,,https://www.wellborn.com,,,,"Ashland, AL United States",United States,Bathroom Accessories | Kitchen Accessories | Shelving/Storage Systems | Full-Custom | Semi-Custom | Stock | Universal Design/Aging in Place | Vanities,,,
KBIS 2022,02/08/2022,2022,https://kbis.com/,DM,Watrline,5935,,https://watrline.com/,,,,"North Miami Beach, FL United States",United States,ADA Compliant | Pool & Spa | Bathtubs | Faucets | Showers | Sinks,,,
KBIS 2022,02/08/2022,2022,https://kbis.com/,DM,Westbrass,5678,,http://www.westbrass.com,,,,"Los Angeles, CA United States",United States,Bathroom Accessories | Kitchen Accessories | ADA Compliant | Bathtubs | Components | Faucets | Shower Trays,,,
KBIS 2022,02/08/2022,2022,https://kbis.com/,DM,Weatherstrong,3836,,https://www.weatherstrong.com,,,,"Jupiter, FL United States",United States,Semi-Custom | Grills/Outdoor Cooking | Outdoor Cabinetry | Outdoor Furniture | Outdoor Lighting,,,"With the desire to spend more quality time outdoors, WeatherStrong Outdoor Cabinetry is designed with your lifestyle in mind. Our cabinets are manufactured in the U.S.A. with a 3/4"" All‑Weatherboard™ composite material to stand up to the harsh elements Mother Nature can send your way. Pounding rain, hot summers, and cold snowy winters are no problem."
KBIS 2022,02/08/2022,2022,https://kbis.com/,DM,Wasseman Faucets,4179,,http://www.wassermanfaucets.com,,,,"Chicago, IL United States",United States,ADA Compliant | Faucets,,,We pride ourselves on providing high quality products at a great and competitive value! We produce our stainless steel faucets and sinks 100% in Indonesia; which means no tariffs or duties. Call us with your kitchen and bath needs.
KBIS 2022,02/08/2022,2022,https://kbis.com/,DM,Volpa USA Inc.,4065,,https://volpausa.com/,,,,"Sun Valley , CA United States",United States,,,,
KBIS 2022,02/08/2022,2022,https://kbis.com/,DM,VoVo Corporation,5081,,http://www.vovousa.com/,,,,"Torrance, CA United States",United States,Bathroom Accessories | Smart Appliances | Bidets,,,"VOVO Corporation was established in Seoul, Korea in 2001."
KBIS 2022,02/08/2022,2022,https://kbis.com/,DM,WarmlyYours,5071,,https://www.warmlyyours.com,,,,"Lake Zurich, IL United States",United States,Bathroom Accessories | Mirrors | Towel Warmers | Radiant Heat | Energy Efficiency | Home Automation | Shower Trays,,,
KBIS 2022,02/08/2022,2022,https://kbis.com/,DM,Vito Laera and Company,5474,,http://www.lav.al,,,,"Charlotte, NC United States",United States,Faucets | Sinks,,,
KBIS 2022,02/08/2022,2022,https://kbis.com/,DM,VR Consultants,4754,,Myvrkitchen.com,,,,"St Lucie, FL United States",United States,,,,
KBIS 2022,02/08/2022,2022,https://kbis.com/,DM,Vision Cabinet Source,4437,,http://www.visioncabinet.com,,,,"CAMPBELLSVILLE, KY United States",United States,Ready to Assemble,,,"RTA Cabinets, In stock and ready to ship."
KBIS 2022,02/08/2022,2022,https://kbis.com/,DM,VESTEL,5265,,https://vestelinternational.com,,,,"Manisa, Turkey",Turkey,Cooking | Dishwashers | Laundry | Refrigeration | Consumer Electronics | Smart Appliances | Televisions,,,"Vestel Group is a multi-industry manufacturer that operates in consumer electronics, home appliances, professional displays, LED lighting, and EV Chargers. Testimony to the global importance of Zorlu Holding across multiple technology sectors, Vestel is not only thriving at home in Turkey, but also through a further 10 subsidiaries that have been set up in various other parts of the world.Vestel exports to 157 countries and keeps its position as a global player."
KBIS 2022,02/08/2022,2022,https://kbis.com/,DM,VIEFE,4681,,http://www.viefe.com,,,,"Sant Pere De Torello, Barcelona Spain",Spain,Bathroom Accessories | Kitchen Accessories | Decorative,,,
KBIS 2022,02/08/2022,2022,https://kbis.com/,DM,WineRacks.com,5778,,https://www.wineracks.com,,,,"Tillson, NY United States",United States,Shelving/Storage Systems | Air Conditioning and Heating | Closets | Doors | Architectural Services/Interior Design | Remodeling | Full-Custom | Wine Storage,,,
KBIS 2022,02/08/2022,2022,https://kbis.com/,DM,Vent-A-Hood,1562,,http://www.ventahood.com,,,,"Richardson, TX United States",United States,Cooking | Grills/Outdoor Cooking | Outdoor Appliances/Refrigeration | Range Hoods,,,"Founded in 1933, Vent-A-Hood is the oldest manufacturer of residential range hoods in North America. For 89 years, the Texas-based company has maintained its specialization and focus as the definitive home ventilation brand. Vent-A-Hood's commitment to ensuring time-tested technology combined with superior American-Made craftsmanship contributes greatly to why this family owned company is one of the most respected brands in the appliance industry."
KBIS 2022,02/08/2022,2022,https://kbis.com/,DM,Vernet SAS,155,,http://www.vernet.fr,,,,"Arpajon, France",France,Bathroom Accessories | Kitchen Accessories | Air Conditioning and Heating | Outdoor Appliances/Refrigeration | Components | Faucets | Showers | Bathroom,,,"Vernet is established as the worldwide leading company for more than 90 years in engineering and manufacturing of thermostatic elements and cartridges for sanitary applications, as well as electrothermal actuators and zone valves for HVAC applications."
KBIS 2022,02/08/2022,2022,https://kbis.com/,DM,Vatti,4125,,http://www.vatti.com.cn,,,,"Zhongshan, China",China,Cooking | Grills/Outdoor Cooking | Range Hoods,,,
KBIS 2022,02/08/2022,2022,https://kbis.com/,DM,Valiryo Technologies S.L.,444,,http://www.valiryo.com,,,,"Barbatain - Navarra, Spain",Spain,Bathroom Accessories | Smart Appliances | Pool & Spa,,,is a young company based in Spain. We are thrilled to present in the US an innovative and eco-friendly concept in the field of personal care:
KBIS 2022,02/08/2022,2022,https://kbis.com/,DM,Verum Italy,4032,,http://www.verumitaly.com,,,,"Bulciago, LC Italy",Italy,Bathroom Accessories | Other | Decorative | Functional | Outdoor Furniture | Pool & Spa | Faucets | Showers,,,"Verum Italy is an ideas accelerator, a company where innovation and research meet to create unique products: smart solutions for living spaces. Verum Italy operates in the design field to offer to the market original and revolutionary products characterised by design and functionality."
KBIS 2022,02/08/2022,2022,https://kbis.com/,DM,VDM - The German Furniture Industry,5528,,http://www.koelnmesse.de,,,,"Cologne, Germany",Germany,,,,
KBIS 2022,02/08/2022,2022,https://kbis.com/,DM,Vermont Quarries Corp.,560,,http://www.vermontquarries.com,,,,"Mendon, VT United States",United States,Natural Stone and Tile,,,"Since 1993 Vermont Quarries Corp. has operated the famous white Vermont Danby Marble quarry in Danby, Vermont.  With a precious heritage of producing the most prestigious white marble in North America, Vermont Quarries boasts a centrury of craftmanship and quarry know-how.  Vermont Danby Marble has been chosen for many of the most prominent and impresive buildings and monumnets that have come to symbolize American Civilization."
KBIS 2022,02/08/2022,2022,https://kbis.com/,DM,VDM - The German Furniture Industry,5528,,http://www.moebelindustrie.de,,,,"Bad Honnef, Germany",Germany,Associations,,,"The Association of the German Furniture Industry (VDM) represents the economic, political, legal and technical interests of around 500 German furniture manufacturers."
KBIS 2022,02/08/2022,2022,https://kbis.com/,DM,Valinge Innovation,6066,,http://www.valinge.se,,,,"Viken, Sweden",Sweden,Closets | Ready to Assemble | Semi-Custom | Stock,,,
KBIS 2022,02/08/2022,2022,https://kbis.com/,DM,"US GO GOAL CABINET, INC.",4256,,http://www.roccabinetry.com,,,,"Norcross, GA United States",United States,Bathroom Accessories | Kitchen Accessories | Ready to Assemble | Stock,,,
KBIS 2022,02/08/2022,2022,https://kbis.com/,DM,Valleywood Cabinetry,4635,,http://valleywoodcabinetry.com,,,,"Waverly, OH United States",United States,,,,
KBIS 2022,02/08/2022,2022,https://kbis.com/,DM,United States Postal Service,5811,,http://www.usps.com,,,,"Washington, DC United States",United States,Other,,,"The US Postal Service is the only delivery service that reaches every address in the nation -- delivering to nearly 155 million addresses in every state, city and town in the country. The Postal Service and the mailing industry help power our nation's economy, and we're not standing still."
KBIS 2022,02/08/2022,2022,https://kbis.com/,DM,United Cabinetry,5179,,http://www.unitedcabinetry.com,,,,"Richardson, TX United States",United States,Shelving/Storage Systems | Full-Custom | Ready to Assemble | Semi-Custom | Stock | Wood | Functional | Vanities,,,"At United Cabinetry we put your success before our own. We strive to do as much as possible for our dealers and disturbers, from discounted door samples to free marketing materials and of course a great price for the products. Come talk to us about what we can do for you!"
KBIS 2022,02/08/2022,2022,https://kbis.com/,DM,Vadara Quartz,5478,,https://www.vadaraquartz.com,,,,"Austin, TX United States",United States,Quartz,,,"Vadara represents the finest quartz surfaces, combining beauty, function, innovation, and value. Our striking collection of veined products are meticulously handcrafted and manufactured to the highest global standard – offering a superior, versatile color range with some of the most unique and natural-looking surfaces available. Learn more at"
KBIS 2022,02/08/2022,2022,https://kbis.com/,DM,UNIQUE APPLIANCES,4671,,http://uniqueappliances.com,,,,"Oakville, ON Canada",Canada,Kitchen Accessories | ADA Compliant | Cooking | Refrigeration | Energy Efficiency | Smart Appliances | Range Hoods,,,Unique's 50+ years of engineering and manufacturing industry leading appliances is why we are your one stop shop. With a broad line-up of convection gas ranges and matched pair retro appliances in a variety of sizes and colors to choose from you'll find there's something for everyone.
KBIS 2022,02/08/2022,2022,https://kbis.com/,DM,Use Natural Stone,4875,,https://usenaturalstone.org/,,,,"Oberlin, OH United States",United States,Associations | Architectural Services/Interior Design | Natural Stone and Tile | Marble | Building Materials | Hardscapes | Business-To-Business | Consumer,,,"Launched in 2016, Use Natural Stone is the official promotional campaign of the Natural Stone Institute. The"
KBIS 2022,02/08/2022,2022,https://kbis.com/,DM,Uneeda,4975,,http://www.uneeda.com,,,,"Spring Valley, NY United States",United States,Other,,,
KBIS 2022,02/08/2022,2022,https://kbis.com/,DM,Unihopper,4279,,http://www.unihopper.biz,,,,"Guangzhaou, Guangdong China",China,Bathroom Accessories | Kitchen Accessories | Closets | Functional,,,"Kitchen, wardrobe, bathroom hardware and furniture manufacturer,"
KBIS 2022,02/08/2022,2022,https://kbis.com/,DM,True Residential,1472,,http://www.true-residential.com,,,,"O'Fallon, MO United States",United States,ADA Compliant | Refrigeration | Outdoor Appliances/Refrigeration,,,"For more than 70 years, True has been an industry leader in commercial refrigeration. Now, homeowners can experience that same quality with True Residential, a luxury brand with commercial DNA. Handcrafted in the USA with the same meticulous attention to detail that industry professionals demand, the residential series includes full-size refrigerators, refrigerator columns, undercounter units, ice machines, and more combined with unparalled style."
KBIS 2022,02/08/2022,2022,https://kbis.com/,DM,TRONE,5074,,http://www.troneplumbing.com,,,,"Cedar City, UT United States",United States,ADA Compliant | Home Automation | Smart Appliances | Bidets | Toilets,,,"Trone provides innovative bathroom products that improve everyones quality of live. Our smart bidet toilets help improve hygiene, increase independence, and reduce your carbon footprint."
KBIS 2022,02/08/2022,2022,https://kbis.com/,DM,Trem SRL,4573,,https://www.idoors.it/en/projects,,,,"Pordenone, Italy",Italy,Bathroom Accessories | Kitchen Accessories | Doors | Full-Custom | Ready to Assemble | Semi-Custom | Vanities | Wall Coverings,,,"Kitchens for projects,vanities and medicine cabinets for projects;  european design with american standard; full customisation."
KBIS 2022,02/08/2022,2022,https://kbis.com/,DM,UMUT KULP SAN TİC PAZ LTD STI,5816,,http://www.umutkulp.com.tr,,,,"Istanbul, Turkey",Turkey,Bathroom Accessories | Kitchen Accessories | Decorative,,,
KBIS 2022,02/08/2022,2022,https://kbis.com/,DM,Top Knobs - Hardware Resources,2272,,http://www.topknobs.com,,,,"Branchburg, NJ United States",United States,Bathroom Accessories | Kitchen Accessories | Ready to Assemble | Decorative | Functional | Dimming and Lighting Controls | Outdoor Lighting | Vanities,,,"Divisions of Dimora Brands, Top Knobs and Hardware Resources offer a robust line of products that adds the perfect finishing touches to any kitchen, bath, or closet. Their diverse line of products includes decorative cabinet knobs and pulls, bath vanities, bath hardware, cabinet organizers, cabinetry, LED lighting, power solutions, decorative carved wood products, dovetail drawer boxes, and functional cabinet hardware."
KBIS 2022,02/08/2022,2022,https://kbis.com/,DM,Timber Products Company,4248,,https://www.timberproducts.com/,,,,"Springfield, OR United States",United States,Shelving/Storage Systems | Doors | Stock | Other | Building Materials | Energy Efficiency,,,
KBIS 2022,02/08/2022,2022,https://kbis.com/,DM,TRANSFORMAD,3868,,https://transformad.com,,,,"Canovelles, Barcelona Spain",Spain,Closets | Doors | Full-Custom | Ready to Assemble | Semi-Custom | Stock | Other | Wood,,,"At Transformad we work with state-of-the-art technology in order to achieve unique characteristics using our own developed lacquer system. One of our best products is the Tmatt range. Tmatt, a special lacquer finish that gives a super matte finish to the board with extreme good quality. Anti-fingerprint, auto regeneration, scratch resistant, impact resistant, silk touch and durability."
KBIS 2022,02/08/2022,2022,https://kbis.com/,DM,TONA,4647,,http://www.tona.com,,,,"Taizhou, Zhejiang, China",China,Bathroom Accessories | Bathtubs | Sinks | Vanities | Bathroom,,,Tona Inc is one of the fastest growing global manufacturers of bathroom products for the residential and commercial markets.
KBIS 2022,02/08/2022,2022,https://kbis.com/,DM,Thompson Traders,5638,,http://www.thompsontraders.com,,,,"Greensboro, NC United States",United States,Bathroom Accessories | Kitchen Accessories | Bathtubs | Sinks | Vanities | Range Hoods,,,"Thompson Traders, masters of crafting authentic Mexican hand-hammered sinks, tubs and accessories for the kitchen and bath, is the largest decorative metals product provider in the United States, adding hammered stainless to their metal offerings. Located in Greensboro, NC, the company is family-owned and operated. Working with artisans in Mexico and India, Thompson Traders transforms the highest-quality materials into one-of-a kind designs for the home."
KBIS 2022,02/08/2022,2022,https://kbis.com/,DM,The Vetta Group,115,,http://www.thevettagroup.com,,,,"Waterloo, ON Canada",Canada,Cooking | Dishwashers | Grills | Refrigeration | Range Hoods,,,
KBIS 2022,02/08/2022,2022,https://kbis.com/,DM,TOTO USA,928,,http://www.toto.com,,,,"Morrow, GA United States",United States,ADA Compliant | Water Conservation | Bathtubs | Faucets | Showers | Sinks | Toilet Seats | Toilets,,,
KBIS 2022,02/08/2022,2022,https://kbis.com/,DM,TEKCOM Corporation,5625,,http://www.tekcom.vn,,,,"Binh Duong Province, Vietnam",Vietnam,Ready to Assemble,,,
KBIS 2022,02/08/2022,2022,https://kbis.com/,DM,Tecnozeta srl OF outdoorkitchens,4138,,http://www.ofoutdoorkitchens.com,,,,"Colli Al Metauro, Pesaro Urbino Italy",Italy,Outdoor Cabinetry | Outdoor Furniture,,,"OF outdoorkitchens is a leader in the production of outdoor kitchens, as it introduces a new and revolutionary concept of enjoyment of the open spaces, by combining the durability of the steel used for all the structural parts with the most innovative finishes required by the best designers in the world."
KBIS 2022,02/08/2022,2022,https://kbis.com/,DM,Susan Lee and Associates LLC,3973,,http://www.susanleeandassociates.com,,,,"Atlanta, GA United States",United States,Faucets | Sinks | Vanities | Ready to Assemble | Semi-Custom | Stock,,,"Susan Lee has more 10 yrs experence in Kitchen and Bath Industry, found her own manufacture in china 4 years ago - we provide high qualtiy cabinets and vanity for USA market."
KBIS 2022,02/08/2022,2022,https://kbis.com/,DM,Sugatsune America Inc,673,,http://www.sugatsune.com,,,,"Carson, CA United States",United States,Bathroom Accessories | Kitchen Accessories | Doors | Semi-Custom | Decorative | Functional | Outdoor Cabinetry | Universal Design/Aging in Place,,,"Since 1930, Sugatsune is associated with quality, innovation and service. In 1982, Sugatsune America Inc. was established to"
KBIS 2022,02/08/2022,2022,https://kbis.com/,DM,Teltos,1277,,http://www.teltos.net,,,,"Zhaoqing, Guangdong China",China,Quartz | Tile,,,
KBIS 2022,02/08/2022,2022,https://kbis.com/,DM,"Strategic Brands, Inc",554,,http://www.strategicbrandsincorporated.com,,,,"Pompano Beach, FL United States",United States,Functional | Decorative | Kitchen Accessories | Bathroom Accessories,,,Designers and Manufacturers of Fine Decorative Hardware since 1990.
KBIS 2022,02/08/2022,2022,https://kbis.com/,DM,Superior Brands,163,,http://www.superiorbrandscorp.com,,,,"Elmhurst, IL United States",United States,,,,"We are a manufacturer of Bath and Shower Products, such asstand-alone bathtubs, shower kits, shower doors, shower panels and much more. Our products are made of the best materials with highest quality of workmanship, yet the most affordable pricing. You are very welcome to visit our booth and our website to check it out!"
KBIS 2022,02/08/2022,2022,https://kbis.com/,DM,Stone Profit Systems,4781,,http://Stoneprofits.com,,,,"Chicago, IL United States",United States,,,,
KBIS 2022,02/08/2022,2022,https://kbis.com/,DM,The SixPlus,4228,,http://www.thesixplus.com,,,,"Stafford, TX United States",United States,Bathroom Accessories | Kitchen Accessories | Mirrors | Vinyl | Bathtubs | Sinks | Walk-In Bathtubs | Vanities,,,
KBIS 2022,02/08/2022,2022,https://kbis.com/,DM,"Stevens Industries, Inc.",5018,,http://www.stevens-wood.com,,,,"Teutopolis, IL United States",United States,Shelving/Storage Systems | Closets | Doors | Full-Custom | Ready to Assemble | Semi-Custom | Laminate | Building Materials | Recycled Materials | Wall Coverings,,,...
KBIS 2022,02/08/2022,2022,https://kbis.com/,DM,Sterling Rivers Inc,4973,,https://www.houzz.com/collections/sterlingrivers,,,,"Concord, ON Canada",Canada,Ready to Assemble | Natural Stone and Tile | Quartz | Vanities,,,
KBIS 2022,02/08/2022,2022,https://kbis.com/,DM,Titus Group,364,,http://www.titusplus.com,,,,"Bellevue, WA United States",United States,Bathroom Accessories | Kitchen Accessories | Shelving/Storage Systems | ADA Compliant | Closets | Doors | Decorative | Functional | Universal Design/Aging in Place,,,
KBIS 2022,02/08/2022,2022,https://kbis.com/,DM,The Marble Group - Ozer,5939,,http://www.ozermarblegroup.com,,,,"Newark, NJ United States",United States,Bathroom Accessories | Kitchen Accessories | Natural Stone and Tile | Marble | Tile | Decorative | Functional | Vanities,,,"Oz​er International is a family owned Natural Marble Group extracts more than 50,000m3 of blocks from its quarries into slabs, tiles & mosaics. Raw materials are sent to factory in Turkey, then sent to our 32,000sf warehouse in Newark, NJ where you will also find our full flege fabrication sector."
KBIS 2022,02/08/2022,2022,https://kbis.com/,DM,Sterling Plumbing - A Kohler Company,1100,,http://www.sterlingplumbing.com,,,,"Kohler, WI United States",United States,Mirrors | Bathtubs | Shower Trays | Showers | Sinks | Surrounds | Toilet Seats | Toilets,,,"STERLING® is all about making it easier for the pro to get in, out, and on to the next job. Whether it’s remodeling, new construction, or multi-family units - STERLING bathroom and kitchen products provide a range of options with dependable performance, versatile style, and ease of installation. Sterling is a Kohler® company, which means every product must meet or exceed Kohler’s high standards, and everything is backed by over 140 years of manufacturing excellence."
KBIS 2022,02/08/2022,2022,https://kbis.com/,DM,Soss Door Hardware,6027,,https://www.soss.com,,,,"Pioneer, OH United States",United States,ADA Compliant | Other | Decorative | Functional | Universal Design/Aging in Place,,,"Welcome to SOSS Door Hardware, home of the original Invisible Hinge. Check out the SOSS Door, hung on SOSS Invisible Hinges and Closers; with a Magnetic Door Stop and UltraLatch Handle."
KBIS 2022,02/08/2022,2022,https://kbis.com/,DM,Solaira Radiant Heating Technologies,4038,,http://www.solairaheaters.com,,,,"Mississauga, ON Canada",Canada,Air Conditioning and Heating | Energy Efficiency | Hardscapes | Outdoor Appliances/Refrigeration | Outdoor Furniture | Outdoor Lighting,,,"Engineered radiant patio heating for any outdoor room, kitchen or seating area."
KBIS 2022,02/08/2022,2022,https://kbis.com/,DM,"SMEG USA, Inc.",1573,,http://www.smegusa.com,,,,"New York, NY United States",United States,Kitchen Accessories | Wine Storage | Cooking | Dishwashers | Refrigeration | Other | Energy Efficiency | Water Conservation | Range Hoods,,,"SMEG is an Italian domestic appliances brand, producing beautiful products that combine technology and style for consumers who follow design and its evolution. SMEG expresses “Made in Italy” style by flawlessly combining design, performance and attention to detail. Distinctive appliances are born from collaborations with leading architects around the world. Every new product is a handmade special, born from a place where form, ergonomics and function combine."
KBIS 2022,02/08/2022,2022,https://kbis.com/,DM,Simfer IC VE DIS TIC.A.S.,5409,,http://www.simferexport.com,,,,"Istanbul, Turkey",Turkey,Kitchen Accessories | Cooking | Grills | Refrigeration | Smart Appliances,,,"Simfer started its business with manufacturing Turkey’s first integrated solid fuel stoves in 1977. This was followed in 1997 by the production of cookers. Primary focus is on home appliance products.Simfer is one of the leading Turkish manufacturer of home appliances with exporting to more than 150 countries.Main products are; Built-in and Freestanding Cooking Appliances (Ovens, Hoods, Hobs), Midi Ovens, Coollers, Freezers, Indoor & Outdoor Heaters."
KBIS 2022,02/08/2022,2022,https://kbis.com/,DM,"Sietra Electrical Appliance Co., Ltd.",4271,,http://www.qianhui.com,,,,"Wujin Changzhou, Jiangsu China",China,Mirrors,,,Sietra is a professional manufacturer of lighted mirror&cabinet based in China.We specialize in making and selling lighted mirrors&cabinets to Europ and US/Canada since 1998 With high Quality control and customize develop abilities.CE/UL/ULC listed
KBIS 2022,02/08/2022,2022,https://kbis.com/,DM,Spectrum Quartz,4200,,http://www.spectrumquartz.com,,,,"Cranbury, NJ United States",United States,Natural Stone and Tile | Quartz | Tile,,,
KBIS 2022,02/08/2022,2022,https://kbis.com/,DM,Signature Kitchen Suite,2029,,http://www.signaturekitchensuite.com,,,,"Englewood Cliffs, NJ United States",United States,Cooking | Dishwashers | Refrigeration | Range Hoods,,,
KBIS 2022,02/08/2022,2022,https://kbis.com/,DM,Siematic Möbelwerke USA,5327,,http://www.koelnmesse.de,,,,"Cologne, Germany",Germany,,,,
KBIS 2022,02/08/2022,2022,https://kbis.com/,DM,Shelfology,4873,,https://shelfology.com/,,,,"Rexburg, ID United States",United States,Full-Custom | Semi-Custom | Decorative | Functional | Outdoor Cabinetry,,,
KBIS 2022,02/08/2022,2022,https://kbis.com/,DM,SiYi America,4773,,http://www.siyiamerica.com,,,,"Houston, TX United States",United States,,,,
KBIS 2022,02/08/2022,2022,https://kbis.com/,DM,SieMatic Möbelwerke USA,5327,,http://www.siematic.com,,,,"New York, NY United States",United States,Shelving/Storage Systems | Full-Custom | Semi-Custom | Vanities | Range Hoods,,,
KBIS 2022,02/08/2022,2022,https://kbis.com/,DM,Sento USA,6017,,http://www.sento.com.cn/,,,,"Mill Valley, CA United States",United States,Faucets | Sinks,,,"Manufacturer of stainless steel sinks & faucets.  Also, manufacturer of ceramic vanity sinks and stainless steel lavatory faucets."
KBIS 2022,02/08/2022,2022,https://kbis.com/,DM,Silkroad Exclusive Inc,6007,,http://www.silkroadexclusive.com,,,,"Stockton, CA United States",United States,Stock | Sinks | Vanities,,,"Homeowners want to raise the value of their homes and set their homes apart from their neighbors. One of the most effective ways to achieve this is by remodeling the bathrooms in their house. We are extremely proud here at Silkroad Exclusive Inc to introduce to you and your clients our exciting new collection of bathroom vanities. We are specialized in traditional bathroom vanities, transitional bathroom sink cabinets, stone vessel sinks and more."
KBIS 2022,02/08/2022,2022,https://kbis.com/,DM,Sentrel Bath Systems,4076,,http://www.sentrelproducts.com,,,,"Orem, UT United States",United States,Bathroom Accessories | Enclosures | Shower Trays | Showers | Surrounds,,,"With a Sentrel shower, you don't have to sacrifice beauty for functionality. Sentrel captures the look of real stone using a composite material that's easy to install, easier to clean and designed to last a lifetime. From bath surrounds to shower bases, Sentrel offers a wide variety of stone colors and styles to upgrade the look of any bathroom."
KBIS 2022,02/08/2022,2022,https://kbis.com/,DM,Senoplast USA,6064,,http://www.senoplast.com,,,,"Aurora, IL United States",United States,Home Automation,,,"Senoplast is a producer of high quality co-extruded plastic sheets made of ABS, ABS/PC, ASA, PMMA, PS, PC, TPR, TPO and sheets with laminated Acrylic film for bathware applications and kitchen cabinets. Our plastic sheets are well known for high quality surfaces, excellent scratch resistance and great chemical resistance. Plastic sheets are developed to your needs, with the color and gloss you want either in smooth or textured surfaces."
KBIS 2022,02/08/2022,2022,https://kbis.com/,DM,SFC Center Inc,135,,http://www.sfccenter.com,,,,"Ontario, CA United States",United States,Mirrors | Faucets | Sinks | Toilets,,,
KBIS 2022,02/08/2022,2022,https://kbis.com/,DM,Schwinn Hardware,6013,,http://www.schwinnhardware.com,,,,"Scottsdale, AZ United States",United States,Decorative | Functional,,,"Schwinn is a global leader in decorative and functional furniture hardware. For over 80 years Schwinn has been providing integrated solutions from designing, to engineering, tooling, manufacturing, finishing and supply chain management for the furniture industry. Schwinn has become the preferred choice of the architecture and design community because of its high level of design, quality, value, and customer service."
KBIS 2022,02/08/2022,2022,https://kbis.com/,DM,Scilm America Inc,1851,,http://www.scilmamerica.com,,,,"Hallandale, FL United States",United States,Bathroom Accessories | Kitchen Accessories | Shelving/Storage Systems | Stock | Laminate | Functional,,,offers leading-edge technology to the global furniture industry.Our products and systems offer the manufacturing professional innovative solutions and enhancements to the woodworking industry. Since 1977
KBIS 2022,02/08/2022,2022,https://kbis.com/,DM,SAPPHIRE BATH,4276,,http://sapphirebath.com,,,,"PATERSON, NJ United States",United States,Mirrors | Shelving/Storage Systems | Full-Custom | Ready to Assemble | Stock | Sinks | Vanities,,,"Sapphire Bath, Inc., is a supplier of designer bathroom vanities, sinks, and fixtures. We offer a range of collections, styles, colors, and sizes to fit the needs and styles of a wide variety of customers. Here at Sapphire Bath, we pride ourselves in quality products, and as importantly, quality customer service. We specialize in supplying over 100 showrooms, as well as, multi sized developments and projects for developers and designers all over the U.S. and Canada."
KBIS 2022,02/08/2022,2022,https://kbis.com/,DM,SapienStone,228,,http://www.sapienstone.us,,,,"Chicago, IL United States",United States,Natural Stone and Tile | Tile | Energy Efficiency | Recycled Materials | Decorative | Functional | Wall Coverings,,,"SapienStone’s porcelain slabs are crafted from ceramic clay and mineral coloring's – these slabs will not be altered by heat, light, or chemical cleaners and disinfectant products. SapienStone dresses up your space with a complete range of colors and finishes to create an exclusive, dynamic look. This range includes products that cater to a variety of tastes, from the ultra-modern to the more classic and traditional style."
KBIS 2022,02/08/2022,2022,https://kbis.com/,DM,Sedal Group,151,,http://www.sedal.com,,,,"Barcelona, Spain Spain",Spain,Energy Efficiency | Water Conservation | Functional | Consumer Electronics | Home Automation | Smart Appliances | Components | Showers,,,"SEDAL GROUP is a leading global manufaturer of components for the faucet and sanitary industry headquartered in Spain, which operates in over 44 countries around the world, providing us with a broad knowledge of the market. Sedal offers a wide range of products and solutions that meet the most demanding requirements, including technical ceramics from SEDAL CERAMICS division and electronic water mixing systems from SEDAL DIGITAL SYSTEMS."
KBIS 2022,02/08/2022,2022,https://kbis.com/,DM,Sandi Global Group,4377,,,,,,"Chino, CA United States",United States,Ready to Assemble,,,
KBIS 2022,02/08/2022,2022,https://kbis.com/,DM,Sannora,3881,,http://www.sannora.com,,,,"Foshan, Guandong China",China,Bathtubs | Sauna/Spa | Shower Trays | Showers | Walk-In Bathtubs | Whirlpools,,,"Founded in 1998, SANNORA is a professional sanitary ware manufacturing company. Eight series with more than 500 designs and items, including whirlpool massage bathtub, free standing bathtub and shower base, among which many were granted patents in appearance design and practicability. The products have got CE and CUPC certification. SANNORA products have been exported to 80 countries and region."
KBIS 2022,02/08/2022,2022,https://kbis.com/,DM,Sharp Home Electronics Company of America,264,,https://shop.sharpusa.com/,,,,"Montvale, NJ United States",United States,ADA Compliant | Cooking | Dishwashers | Refrigeration | Consumer Electronics | Home Automation | Smart Appliances,,,
KBIS 2022,02/08/2022,2022,https://kbis.com/,DM,S.T.S.R. SRL,4952,,http://www.STSR.IT,,,,"Lacchiarella, Milan Italy",Italy,Water Conservation | Consumer Electronics | Smart Appliances | Bathtubs | Components | Faucets | Showers | Toilets,,,"Water management - Italian leading producer of high quality ceramic cartridges for single lever mixer faucets, thermostatics faucets, headvalves for traditional taps, ceramic discs diverters and electronic technologies for taps : sensor, touch, piezo, colourtherapy since 1985. Research, development and production with latest automatic technologies, customisation, wide production range of water and energy saving mechanical and electronics. Made in Italy"
KBIS 2022,02/08/2022,2022,https://kbis.com/,DM,Salice America Inc,300,,http://www.saliceamerica.com,,,,"Charlotte, NC United States",United States,Bathroom Accessories | Kitchen Accessories | Shelving/Storage Systems | Functional,,,"Salice America is a worldwide leader in the production of innovative functional hardware for the cabinetry and furniture industry. Salice distributes a complete range of components produced in Italy by the three main manufacturing locations of the Salice group, consisting of concealed hinge & runner systems, drawer runners, lift systems, coplanar sliding systems, pocket door systems, vertical sliding systems & kitchen & closet accessories. Visit us at booth W1273."
KBIS 2022,02/08/2022,2022,https://kbis.com/,DM,Ron Sherman Advertising,5679,,ronshermanprodutions. com,,,,"Little Rock, AR United States",United States,,,,
KBIS 2022,02/08/2022,2022,https://kbis.com/,DM,Robern,1100,,http://www.robern.com,,,,"Bristol, PA United States",United States,Mirrors | Full-Custom | Semi-Custom | Stock | Consumer Electronics | Decorative Fixtures | Showers | Vanities,,,
KBIS 2022,02/08/2022,2022,https://kbis.com/,DM,"Ruvati USA, Inc.",4621,,http://www.ruvati.com,,,,"Round Rock, TX United States",United States,Bathroom Accessories | Kitchen Accessories | Sinks,,,
KBIS 2022,02/08/2022,2022,https://kbis.com/,DM,Richelieu Hardware Ltd,2172,,http://www.richelieu.com,,,,"Montreal, QC Canada",Canada,Bathroom Accessories | Kitchen Accessories | Closets | Doors | Stock | Decorative | Functional | Decorative Fixtures,,,"Richelieu is a major importer and distributor of specialty hardware and complementary products serving kitchen cabinet manufacturers, kitchen dealers and woodworkers. We offer more than 130,000 products such as kitchen accessories, pulls and knobs, decorative panels, functional hardware, closets and sliding doors. Serving you from 90 distribution centers across North America."
KBIS 2022,02/08/2022,2022,https://kbis.com/,DM,Riflesso Interiors,6038,,https://www.riflessointeriors.com/,,,,"Houston, TX United States",United States,Ready to Assemble | Semi-Custom | Natural Stone and Tile | Quartz | Marble,,,"Riflesso Interiors offers high quality Italian design elements for interiors, especially Italian kitchens."
KBIS 2022,02/08/2022,2022,https://kbis.com/,DM,S.G. srl,5671,,http://www.sistemaingenius.it,,,,"San Maurizio D'opaglio, Novara Italy",Italy,Bathroom Accessories | Kitchen Accessories | Pool & Spa | Bathtubs | Bidets | Components | Faucets | Showers,,,The patented
KBIS 2022,02/08/2022,2022,https://kbis.com/,DM,Rev-A-Shelf,951,,http://www.rev-a-shelf.com,,,,"Louisville, KY United States",United States,Bathroom Accessories | Kitchen Accessories | Shelving/Storage Systems | Closets | Functional | Decorative Fixtures | Dimming and Lighting Controls | Universal Design/Aging in Place,,Tresco Lighting By Rev-A-Shelf,"Rev-A-Shelf manufactures thousands of innovative accessories for your kitchen, bath, or closet. With Tresco Lighting, Rev-A-Shelf offers a full line of LED lighting options for residential cabinetry and commercial display fixtures. Rev-A-Shelf’s primary markets include cabinet hardware distributors, large OEM cabinet manufacturers, Lowe’s and Menards home centers, and an array of online web resellers."
KBIS 2022,02/08/2022,2022,https://kbis.com/,DM,Rangaire Manufacturing Company,4576,,http://www.rangairemfg.com,,,,"Cleburne, TX United States",United States,Bathroom Accessories | Mirrors,,,"Manufacturer of quality medicine cabinets, framed mirrors, wall mirrors and other accessories for the kitchen and bath sold under the Jensen brand. Custom designs available."
KBIS 2022,02/08/2022,2022,https://kbis.com/,DM,Seawin,4861,,http://www.seawinglobal.com,,,,"Piscataway, NJ United States",United States,Mirrors | Enclosures | Shower Trays | Showers | Surrounds | Vanities | Wall Coverings,,,
KBIS 2022,02/08/2022,2022,https://kbis.com/,DM,RH Peterson Company,5056,,http://www.rhpeterson.com,,,,"LA PUENTE, CA United States",United States,Grills/Outdoor Cooking,,,Manufacture of …
KBIS 2022,02/08/2022,2022,https://kbis.com/,DM,Residential Design,129,,http://www.residentialdesignmagazine.com,,,,"Chicago, IL United States",United States,Marketing Consultants | Business-To-Business,,,
KBIS 2022,02/08/2022,2022,https://kbis.com/,DM,R&T,4844,,http://www.rtplumbing.com,,,,"Xiamen, China",China,Bathroom Accessories | Home Automation | Components | Faucets | Toilet Seats | Toilets | Water Filtration,,,
KBIS 2022,02/08/2022,2022,https://kbis.com/,DM,Robam,5825,,http://www.robamworld.com,,,,"Hangzhou, Zhejiang China",China,Cooking | Dishwashers | Energy Efficiency | Consumer Electronics | Smart Appliances | Business-To-Business | Range Hoods,,,"Dated from 1979, ROBAM has precipitated deeply in kitchen appliances industry for 42 years specialized in the production of range hood, gas hob, sterilizer, steam oven, micro oven, dishwasher, water purifier and other household kitchen appliances. ROBAM is a global leader company of high-end kitchen appliances which has kept the record of No.1 in global sales of range hoods and built-in hobs for 6 consecutive years. ROBAM gain more than 1000 core patents."
KBIS 2022,02/08/2022,2022,https://kbis.com/,DM,RainStick Shower,4752,,http://www.rainstickshower.com,,,,"Kelowna, BC Canada",Canada,Water Conservation | Functional | Healthy Home/Wellness | Consumer Electronics | Smart Appliances | Faucets | Showers,,,
KBIS 2022,02/08/2022,2022,https://kbis.com/,DM,Quote Countertops,4854,,http://quotecountertops.com,,,,"Phoenix, AZ United States",United States,Architectural Services/Interior Design | Computer Software Services | Marketing Consultants | Remodeling | Natural Stone and Tile | Quartz | Tile | Business-To-Business,,,
KBIS 2022,02/08/2022,2022,https://kbis.com/,DM,Puronics Water Systems,3769,,https://puronics.com,,,,"Livermore, CA United States",United States,Bathroom Accessories | Kitchen Accessories | Remodeling | Water Conservation | Smart Appliances | Bathtubs | Showers | Sinks | Water Filtration,,,"Puronics Water Systems, Inc. is a leading water treatment equipment manufacturer headquartered in Livermore, California."
KBIS 2022,02/08/2022,2022,https://kbis.com/,DM,Quartzforms SpA,1851,,http://www.quartzforms.com,,,,"Magdeburg, Deutschland Germany",Germany,Kitchen Accessories | Quartz | Vanities,,,The stone evolution in pure technology.
KBIS 2022,02/08/2022,2022,https://kbis.com/,DM,QuickDrain USA,3825,,https://www.quickdrain.com/,,,,"Denver, CO United States",United States,Bathroom Accessories | ADA Compliant | Recycled Materials | Universal Design/Aging in Place,,,
KBIS 2022,02/08/2022,2022,https://kbis.com/,DM,Pulse Shower Spas Inc,464,,http://www.pulseshowerspas.com,,,,"Watsonville, CA United States",United States,Showers,,,"PULSE Showerspas, Inc., an American company specializing in affordable pre-plumbed shower systems distributed thru a network of authorized dealers. Our Showerspas easily transform traditional showers into sanctuaries with 4-8 multifunction body sprays, soothing rainfall or multifunction showerhead and handheld wand. The entire line is designed for an easy retrofit installation or new construction. Several distinctive styles are available, all creating hydro euphoria through the power of water."
KBIS 2022,02/08/2022,2022,https://kbis.com/,DM,Profile,2215,,https://www.geappliances.com/ge/profile.htm,,,,"Louisville, KY United States",United States,ADA Compliant | Cooking | Dishwashers | Laundry | Refrigeration,,,x
KBIS 2022,02/08/2022,2022,https://kbis.com/,DM,QM Drain,566,,http://www.qmdrain.com,,,,"Fort Lauderdale, FL United States",United States,Bathroom Accessories | ADA Compliant | Other | Recycled Materials | Decorative | Components | Showers,,,QM® DRAIN is a member of the Quality Metal Group family with over 21 years of experience committed to the best product design using the highest quality Stainless Steel. Dedicated to eco-friendly manufacturing a complete line of drains for use from your shower to your pool.
KBIS 2022,02/08/2022,2022,https://kbis.com/,DM,Raphael Porcelain,5007,,http://www.raphaelporcelain.com,,,,"Lodi, NJ United States",United States,Other | Quartz | Solid Surface | Tile,,,
KBIS 2022,02/08/2022,2022,https://kbis.com/,DM,Premier Copper Products,6021,,http://www.premiercopperproducts.com,,,,"Phoenix, AZ United States",United States,Bathroom Accessories | Mirrors | Tile | Recycled Materials | Decorative Fixtures | Bathtubs | Sinks | Range Hoods,,,"Premier Copper Products is committed to designing and delivering durable eco-friendly products that are 100% handcrafted in our exclusive factory in Mexico.  Products include a large selection of copper sinks, bathtubs, table tops, tiles, mirrors, range hoods, lighting, a full line of accessories, faucets & more. We offer competitive pricing, fast delivery, progressive design features, and environmentally sound copper products & packaging."
KBIS 2022,02/08/2022,2022,https://kbis.com/,DM,Qualified Remodeler,129,,http://www.qualifiedremodeler.com,,,,"Chicago, IL United States",United States,Marketing Consultants | Business-To-Business,,,
KBIS 2022,02/08/2022,2022,https://kbis.com/,DM,Pokarna Engineered Stone Limited,1172,,http://www.quantra.in,,,,"Secunderabad, Telangana India",India,Bathroom Accessories | Kitchen Accessories | Natural Stone and Tile | Quartz | Other | Shower Trays | Sinks | Vanities,,,
KBIS 2022,02/08/2022,2022,https://kbis.com/,DM,PPI,281,,http://www.xmzhongyu.com,,,,"Haicang, Xiamen, China",China,Functional | Faucets,,,"We are professional manufacturer of faucets. ISO 9001 : ISO 14001: 2004 Certificated, own R&D centre and completed maunfacturing process in house. Our products have been approved by cUPC, ACS, WRAS, KIWA. OEM orders are welcome."
KBIS 2022,02/08/2022,2022,https://kbis.com/,DM,Prosperous Lighting,4481,,http://Prosperous-lighting.com,,,,"Ningbo, Zhejiang China",China,Mirrors | Decorative Fixtures,,,"Prosperous-Lighitng is the manufacturer for bathroom lamp,lamp mirror,cabinet lamp with First class quality in China."
KBIS 2022,02/08/2022,2022,https://kbis.com/,DM,PITT Cooking Systems,5432,,http://www.pittcookingsystems.com,,,,"Cos Cob, CT United States",United States,Kitchen Accessories | Cooking,,,The world's most innovative gas burners.
KBIS 2022,02/08/2022,2022,https://kbis.com/,DM,Pioneer Cabinetry,3781,,www.pioneercabinet.com,,,,"kent, WA United States",United States,,,,
KBIS 2022,02/08/2022,2022,https://kbis.com/,DM,"Plato Woodwork, Inc.",4856,,http://www.platowoodwork.com,,,,"Plato, MN United States",United States,Full-Custom | Semi-Custom,,,
KBIS 2022,02/08/2022,2022,https://kbis.com/,DM,Perlick Corporation,1843,,http://www.perlick.com,,,,"Milwaukee, WI United States",United States,ADA Compliant | Refrigeration | Energy Efficiency | Outdoor Appliances/Refrigeration | Universal Design/Aging in Place,,,"Perlick's award-winning, luxury residential product line features indoor and outdoor undercounter refrigerators, wine reserves, freezers, ice makers, beverage dispensers and more. In 2018, the company brought its history of innovation to the full-size appliance category with the introduction of the Perlick Collection, which includes column refrigerators, freezers and wine reserves."
KBIS 2022,02/08/2022,2022,https://kbis.com/,DM,Pfister,2013,,https://www.pfisterfaucets.com/,,,,"Lake Forest, CA United States",United States,Bathroom Accessories | Kitchen Accessories | ADA Compliant | Water Conservation | Faucets | Showers,,,"For more than a century, families have welcomed Pfister into their homes. We repay that favor with respect for value, craftsmanship and style. Functionality that elevates everyday life is our promise, a promise from people who think through every element of every fixture in our collection. Our goal is simple; we want the faucets that take shape in our heads to frame the heart of your home – for a long time to come."
KBIS 2022,02/08/2022,2022,https://kbis.com/,DM,ProCraft Cabinetry,4161,,http://www.procraftcabinetry.com,,,,"Hillside, IL United States",United States,Bathroom Accessories | Kitchen Accessories | Ready to Assemble | Semi-Custom | Stock | Vanities,,,"As a major supplier to the cabinet industry, ProCraft Cabinetry is able to bring you kitchen and bath cabinets of unmatched quality for competitive pricing. With 8 day production time, 9 locations and Route Truck delivery, we want your business.  Our new Mobile App is availble from your app store under Procraftcabinetry. Please send an email to"
KBIS 2022,02/08/2022,2022,https://kbis.com/,DM,Pasgo,1885,,http://www.caizhou.com,,,,"Shuikou Town, Guangdong China",China,Bathroom Accessories | Faucets | Showers,,,"Our company was founded in 1992 and located at the Faucet Base of China,Shuikou Town,Kaiping City,China. The modern factory occupis about 70,000 square meters which specializes in gathering designing,developing,making mold,producing goods,sales and service together. We focus on life, health and environment protection as our responsibility and advocate ""Green water,health life""philosophy. We rely on good quality, high efficiency to gain our reputation."
KBIS 2022,02/08/2022,2022,https://kbis.com/,DM,Peerless-Premier Appliance Co,3975,,http://www.premierrange.com,,,,"Belleville, IL United States",United States,Kitchen Accessories | ADA Compliant | Cooking,,,"Since 1912 Peerless-Premier Appliance Company, a privately held U.S Company and manufacturer of Gas and Electric ranges has worked to exceed our customer’s expectation in quality, delivery, and customer service. These core values are achieved through our commitment of continuous improvement of every aspect in the manufacturing and delivery our Premier Ranges. Our dedicated employees strive to deliver our promise to each and every customer who chooses our U.S made products. We hope all of our customers will enjoy our ranges. Our motto “Built to Last “  is more than a slogan. We take great pride in our products"
KBIS 2022,02/08/2022,2022,https://kbis.com/,DM,Panda Kitchen & Bath,5000,,http://www.pandakitchen.com,,,,"Doral, FL United States",United States,Kitchen Accessories | Stock | Ready to Assemble | Quartz | Solid Surface,,,
KBIS 2022,02/08/2022,2022,https://kbis.com/,DM,Plastivar,4032,,http://www.plastivar.com,,,,"Verderio, LC Italy",Italy,Bathroom Accessories | Kitchen Accessories | Functional,,,MORE THAN EDGES
KBIS 2022,02/08/2022,2022,https://kbis.com/,DM,ONUS,4638,,http://www.onus.cc/,,,,"Zhongshan, Guangdong China",China,Bathroom Accessories | Kitchen Accessories | Decorative | Functional,,,
KBIS 2022,02/08/2022,2022,https://kbis.com/,DM,PanminQuartz,4838,,https://www.panmin.com,,,,"Xiamen, Fujian China",China,Architectural Services/Interior Design | Natural Stone and Tile | Quartz | Solid Surface | Components | Surrounds | Vanities | Wall Coverings,,,
KBIS 2022,02/08/2022,2022,https://kbis.com/,DM,Oz Cabinetry,5350,,http://www.bluemoonglobal.com,,,,"Orlando, FL United States",United States,Closets | Moulding and Millwork | Architectural Services/Interior Design | Full-Custom | Ready to Assemble | Semi-Custom | Stock,,,
KBIS 2022,02/08/2022,2022,https://kbis.com/,DM,NuWhirl Systems,4177,,http://www.nuwhirl.com,,,,"Corona, CA United States",United States,Bathroom Accessories | Kitchen Accessories | ADA Compliant | Decorative | Functional | Healthy Home/Wellness | Bathtubs | Components | Showers | Walk-In Bathtubs,,,"NiuWhirl creates beautiful products and incredible innovations for luxury bathing and independent living. We design, produce, and supply the components that shape the industry, with full range of hydrotherapy systems, jets, pumps, controllers, and accessories. Our high quality parts give manufacturers a strategic sdvantage in the market."
KBIS 2022,02/08/2022,2022,https://kbis.com/,DM,Peerless Faucet,1901,,http://www.peerlessfaucet.com,,,,"Indianapolis, IN United States",United States,Bathroom Accessories | Kitchen Accessories | Faucets,,,
KBIS 2022,02/08/2022,2022,https://kbis.com/,DM,NUOVOCORSO SPA,4281,,http://www.nuovocorso.it,,,,"Carpineti, Italy",Italy,Natural Stone and Tile | Tile,,,"Nuovocorso, with its brand Big Slabs, is increasingly becoming a reference company in the large format porcelain stoneware slabs industry, up to 162X324cm. 3 thicknesses (2CM-12mm-6.5mm) and 4 finishes (polished, honed, matt and structured) suitable for multiple uses: furniture sector, traditional ceramics and ventilated facades."
KBIS 2022,02/08/2022,2022,https://kbis.com/,DM,Osborne Wood Products. Inc,5041,,http://www.osbornewood.com,,,,"Toccoa, GA United States",United States,Bathroom Accessories | Kitchen Accessories | Moulding and Millwork | Full-Custom | Semi-Custom | Stock | Decorative | Functional,,,"Osborne Wood Products, Inc. manufacturers and distributes high-quality components specializing in turnings, carvings, and mouldings. Providing table legs, kitchen island legs, moulding, carvings, corbels, and more; Osborne Wood Products supplies the cabinet and furniture industries. Most items are available in more than 10 wood species including pine, maple, oak, cherry, alder, hard maple, and walnut. Custom quotes are free, and there are no minimum orders."
KBIS 2022,02/08/2022,2022,https://kbis.com/,DM,Nobilia,4921,,http://www.koelnmesse.de,,,,"Miami, FL United States",United States,,,,The German Pavilion is:
KBIS 2022,02/08/2022,2022,https://kbis.com/,DM,Northville Cabinetry,4173,,http://www.northvillecabinetry.com,,,,"Houston, TX United States",United States,Ready to Assemble | Stock | Vanities,,,"With unrivaled cost and quality, Northville cabinets arrive ready-to-assemble, only require minimal tools. As the manufacturer of our entire selection of RTA cabinets, we are in complete control of the engineering, design and manufacturing processes. This affords us the ability to make high-quality RTA cabinetry that is both easy to assemble and built to last."
KBIS 2022,02/08/2022,2022,https://kbis.com/,DM,Nuova Lofra S.r.l.,4578,,http://www.lofra.it,,,,"Torreglia, Padua Italy",Italy,Cooking,,,"Lofra is one of the most prestigious Italian brands in the world manufacturing Made in Italy high quality home appliances since 1956. The quality of materials, the wide range of technical and esthetical solutions developed by our advanced research & development department, the total safety and the best performances are the secrets of our success on the international markets. Enjoy cooking for your family & friends. Italian Quality and Design in Your Kitchen. Since 1956."
KBIS 2022,02/08/2022,2022,https://kbis.com/,DM,Nicos International SPA,5213,,http://www.nicosinternational.it,,,,"Portobuffole, Treviso Italy",Italy,,,,
KBIS 2022,02/08/2022,2022,https://kbis.com/,DM,Neoperl Inc,145,,http://www.neoperl.com,,,,"Waterbury, CT United States",United States,Kitchen Accessories | Energy Efficiency | Water Conservation | Components | Water Filtration,,,"NEOPERL offers products to enhance stream quality, control flow rate, provide backflow protection and facilitate compliance with international Codes and Standards. The product line includes faucet aerators, laminar and spray attachments, pressure compensating flow regulators and shower controllers (flow range 0.1 to 30 gpm) as well as a new range of check valve cartridges listed to ASME A112.18.3M (backflow protection) in plumbing fixture fittings."
KBIS 2022,02/08/2022,2022,https://kbis.com/,DM,Niagara,1550,,http://www.pro.niagaracorp.com,,,,"Flower Mound, TX United States",United States,Building Materials | Energy Efficiency | Water Conservation | Showers | Toilets,,,
KBIS 2022,02/08/2022,2022,https://kbis.com/,DM,NGY Group Inc,328,,https://www.parriottwood.com/,,,,"Chino, CA United States",United States,ADA Compliant | Remodeling | Full-Custom | Ready to Assemble | Semi-Custom | Stock | Wine Storage | Natural Stone and Tile | Quartz | Marble | Outdoor Cabinetry | Vanities,,,"We are a cabinet manufacturer and wholesaler of custom, semi-custom, and RTA ready-to-assemble cabinets. We want to be your supplier for modern cabinets, shaker-style, traditional cabinets, and everything in between. We exclusively sell directly to contractors, builders, and related professionals. However, our kitchen and bath showroom is open to the public and welcome all homeowners to visit our showrooms."
KBIS 2022,02/08/2022,2022,https://kbis.com/,DM,"Nuevopoly, LLC.",4652,,,,,,"Indianapolis, IN United States",United States,,,,
KBIS 2022,02/08/2022,2022,https://kbis.com/,DM,Neolith By TheSize,101,,https://www.neolith.com/en,,,,"Madrid, C.P. Spain",Spain,Natural Stone and Tile | Solid Surface | Tile | Building Materials | Recycled Materials | Hardscapes | Pool & Spa | Vanities | Wall Coverings,,,"Founded in 2009, Neolith is the leading global brand in sintered stone. A revolutionary and innovative architectural surface made from natural materials and with superior technical characteristics, Neolith is ideal for the most demanding interior and exterior building projects. Designed and manufactured to satisfy the most stringent needs in the worlds of architecture and interior design, Neolith is renowned for its quality, versatility, durability, elegance and style as well as sustainability and practicality. Around the world it has become a trusted “go-to” or “wow” element in any uniquely designed kitchen, bathroom, facade, flooring and even furniture for indoor and outdoor spaces."
KBIS 2022,02/08/2022,2022,https://kbis.com/,DM,Nobilia,4921,,http://www.nobilia.com,,,,"Miami, FL United States",United States,Kitchen Accessories | Full-Custom | Semi-Custom | Laminate | Vanities,,,"nobilia is Europe's largest kitchen manufacturer. Made in Germany, more than 3000 high quality, modern design kitchens leave the factory every day. nobilia exports in more than 90 countries worldwide and now enters the US. nobilia kitchens are known for their modern design, exceptional quality and their good price to value ratio."
KBIS 2022,02/08/2022,2022,https://kbis.com/,DM,NCIP Inc,6023,,http://www.ncipfaucet.com,,,,"Taipei, Taiwan",Taiwan,Faucets | Bathroom Accessories,,,"Since 1979, NCIP Inc. has been engaged in the business of bathroom and kitchen accessories. We endeavor to be a company implementing the """"scientific and technological art of water"""" to cultivate a philosophy of """"constant product research and development"""" which results in our prominent position in making faucets and accessories for bathrooms and kitchens. Our goal is to be a professional faucet supplier worldwide in accordance with our tenet """"customer satisfaction and customer success."""""
KBIS 2022,02/08/2022,2022,https://kbis.com/,DM,National Craft Industries Inc,167,,http://www.nationalcraft.biz,,,,"New Taipei City, Taiwan",Taiwan,Bathroom Accessories | Kitchen Accessories | Mirrors | Decorative | Bathtubs | Components | Faucets | Showers,,,"National Craft features a variety of faucet, bathroom accessories and O.E.M. projects to serve the plumbing, heating , hydraulic and foodservice industry. All our brass, bronze, stainless steel and die casting zinc parts/products meet standard of EN, UL, AGA, UPC, CSA, AWWA, NSF or ASTM.National Craft is not satisfied with average performance. Strive for excellence !"
KBIS 2022,02/08/2022,2022,https://kbis.com/,DM,NatureKast,3841,,https://www.naturekast.com,,,,"St. Catharines, ON Canada",Canada,Shelving/Storage Systems | Computer Software Services | Full-Custom | Semi-Custom | Grills/Outdoor Cooking | Outdoor Cabinetry | Outdoor Furniture | Wall Coverings,,,Weatherproof cabinets that look & feel like high-end indoor kitchens.
KBIS 2022,02/08/2022,2022,https://kbis.com/,DM,MS International,1984,,http://www.msisurfaces.com,,,,"Orange, CA United States",United States,Natural Stone and Tile | Quartz | Marble | Tile | Vinyl | Hardscapes,,,
KBIS 2022,02/08/2022,2022,https://kbis.com/,DM,Natufia Labs PLC,5138,,http://www.natufia.com,,,,"Tallinn, Estonia",Estonia,Healthy Home/Wellness | Consumer Electronics | Smart Appliances,,,
KBIS 2022,02/08/2022,2022,https://kbis.com/,DM,Native Trails,4641,,http://www.nativetrailshome.com,,,,"San Luis Obispo, CA United States",United States,Kitchen Accessories | Mirrors | ADA Compliant | Concrete | Recycled Materials | Bathtubs | Sinks | Vanities,,,"Native Trails has produced high quality, artisan crafted kitchen and bath fixtures for over 16 years. Founder and CEO, Naomi Neilson, established the company to pair the stunning copper craftsmanship she discovered in her travels through Mexico with contemporary design and sustainable business practices. Native Trails high quality product, use of recycled and sustainable materials, and excellenct customer service has made them an industry leader."
KBIS 2022,02/08/2022,2022,https://kbis.com/,DM,National Kitchen & Bath Association (NKBA),1528,,http://www.nkba.org,,,,"Hackettstown, NJ United States",United States,Associations,,,"The National Kitchen & Bath Association (NKBA) is the not-for-profit trade association that owns the Kitchen & Bath Industry Show® (KBIS), as part of Design and Construction Week ® (DCW). With nearly 50,000 members in all segments of the kitchen and bath design and remodeling industry, the NKBA has educated and led the industry since the association’s founding in 1963. The NKBA envisions a world where everyone enjoys safe, beautiful and functional kitchen and bath spaces. The mission of the NKBA is to inspire, lead and empower the kitchen and bath industry through the creations of certifications, specialty badges, marketplaces and networks. For more information, visit"
KBIS 2022,02/08/2022,2022,https://kbis.com/,DM,Mohawk Finishing Products & FinishWorks,4661,,http://www.mohawkfinishing.com,,,,"Hickory, NC United States",United States,Cleaners/Caulks/Adhesives/Polishes | Paints/Varnishes/Stains,,,"Mohawk Finishing Products & FinishWorks- Mohawk Finishing Products is the industry leader of professional wood touch-up, repair & finishing products and professional training workshops.  FinishWorks is a recognized leader in supplying custom wood finishing solutions to the furniture and cabinet industries, as well as abrasives, adhesives and spray equipment.  Together we have you covered!  www.finishworks.com & www.mohawkfinishing.com."
KBIS 2022,02/08/2022,2022,https://kbis.com/,DM,Mont Alpi Grills,4232,,www.montalpionline.com,,,,"Irvine, CA United States",United States,,,,
KBIS 2022,02/08/2022,2022,https://kbis.com/,DM,NASONI,447,,http://www.nasoni.com,,,,"Suffolk, VA United States",United States,ADA Compliant | Water Conservation | Faucets | Business-To-Business | Consumer | Water Filtration,,,"With global warming concerns heating up, water conservation is even more important. Bold innovation is needed."
KBIS 2022,02/08/2022,2022,https://kbis.com/,DM,Modern Mirrors,4071,,http://modernmirrors.com,,,,"Irvine, CA United States",United States,Bathroom Accessories | Mirrors | Shelving/Storage Systems | Consumer Electronics | Business-To-Business | Consumer | Vanities,,,"Modern Mirrors offers beautiful contemporary illuminated bath + vanity mirrors at a wide range of style, size, and options that perfectly fit and instantly upgrade any bath, beauty, or business space."
KBIS 2022,02/08/2022,2022,https://kbis.com/,DM,Modular Vanity Tops,4676,,http://www.modular-tops.com,,,,"Juarez, Nuevo Leon Mexico",Mexico,Full-Custom | Other | Quartz | Showers | Sinks | Surrounds | Vanities,,,
KBIS 2022,02/08/2022,2022,https://kbis.com/,DM,MONOGRAM,2001,,http://www.monogram.com,,,,"Louisville, KY United States",United States,ADA Compliant | Cooking | Dishwashers | Garbage Disposals | Refrigeration | Smart Appliances | Universal Design/Aging in Place,,,
KBIS 2022,02/08/2022,2022,https://kbis.com/,DM,Moen Incorporated,401,,http://www.moen.com,,,,"North Olmsted, OH United States",United States,Bathroom Accessories | Garbage Disposals | Communication Devices | Consumer Electronics | Home Automation | Faucets | Showers | Sinks,,,
KBIS 2022,02/08/2022,2022,https://kbis.com/,DM,Miele Inc,1328,,http://www.mieleusa.com,,,,"Princeton, NJ United States",United States,Cooking | Dishwashers | Laundry | Refrigeration | Smart Appliances,,,"Miele, a German family-owned premium appliance manufacturer, is committed to the highest quality, performance and environmental standards. Miele’s range of consumer appliances includes: vacuum cleaners; laundry systems; rotary irons; dishwashers; ranges; built-in convection, speed, steam and combi-steam ovens; cooktops; ventilation hoods; refrigeration; wine storage and espresso/coffee systems."
KBIS 2022,02/08/2022,2022,https://kbis.com/,DM,Miracle Sealants Company,4575,,http://www.miraclesealants.com,,,,"Vernon Hills, IL United States",United States,Natural Stone and Tile | Quartz | Marble | Tile | Vinyl | Wood | Other,,,"Miracle Sealants Company is one of the World's Leading Manufacturers of Care & Maintenance Products for Tile, Natural Stone, Grout & Masonry Surfaces. Miracle Sealants has a full line of products to Install, Protect, Enhance, Clean, Maintain and Restore all your surface needs. Miracle Sealants products are the choice of the Professional and have been used on billions of square feet worldwide."
KBIS 2022,02/08/2022,2022,https://kbis.com/,DM,Monopy,5675,,,,,,"Tangshan, Hebel China",China,,,,
KBIS 2022,02/08/2022,2022,https://kbis.com/,DM,Modenus Media LLC,5441,,,,,,"Lancaster, PA United States",United States,,,,
KBIS 2022,02/08/2022,2022,https://kbis.com/,DM,"Microvisor Products, LLC",3772,,http://www.microvisorhood.com,,,,"Belmar, NJ United States",United States,Kitchen Accessories | Cooking | Healthy Home/Wellness,,,"Manufacturer and patent owner of Microvisor, mini hood extension for microwave over the range.  Improves venting performance for microwaves when installed over a range."
KBIS 2022,02/08/2022,2022,https://kbis.com/,DM,Meijie,1556,,http://www.meijiefaucet.com,,,,"Dongguan, Guangdong China",China,Bathroom Accessories | Kitchen Accessories | ADA Compliant | Building Materials | Functional | Bathtubs | Faucets | Showers,,,"Meijie Faucet Company is the largest Chinese owned producer of kitchen and bath faucets and related accessories located in Guangdong Province, China, dedicated exclusively to developing OEM, ODM and Private Label products for the North American marketplace.Our North American customer base is diverse and serves all sectors of the marketplace, including Professional and Retail which enables us to understand market requirements and expectations."
KBIS 2022,02/08/2022,2022,https://kbis.com/,DM,Medi Air Purifier,4552,,https://mediairpurifier.com/,,,,"Orlando, FL United States",United States,,,,
KBIS 2022,02/08/2022,2022,https://kbis.com/,DM,Mcocod,5875,,http://www.usmcocod.com,,,,"Foshan, Guangdong China",China,Bathroom Accessories | Doors | Showers | Business-To-Business | Consumer,,,"At Covey, while keeping pace with advanced technologies, we choose only the finest grade material for production to ensure what we offer stands the test of the time. The lifetime warranty on our product is crucial for quality."
KBIS 2022,02/08/2022,2022,https://kbis.com/,DM,Megabrand,261,,http://www.megabrandkitchen.com,,,,"Cerritos, CA United States",United States,Pool & Spa | Bathtubs | Bidets | Enclosures | Shower Trays | Showers | Sinks | Toilets | Whirlpools | Vanities,,,
KBIS 2022,02/08/2022,2022,https://kbis.com/,DM,Melbourne Architectural Millwork,4236,,https://www.mamillwork.com/,,,,"Melbourne, FL United States",United States,Ready to Assemble | Outdoor Cabinetry | Outdoor Furniture,,,
KBIS 2022,02/08/2022,2022,https://kbis.com/,DM,Michigan Maple / Bally Block Company,5455,,http://www.butcherblock.com,,,,"Petoskey, MI United States",United States,Kitchen Accessories | Wood,,,"Since 1881 Bally Block Co. and Michigan Maple Block Co. have been supplying Homes, Kitchens,and Industry with the finest Butcher Block products available. We offer 7 species of wood and infinite sizes, both standard and custom. Special edges, cut outs and shapes are not a problem. The thickness of our blocks can be as thin as 1 1/4"" up to 6"" and in some special cases even thicker. We can manufacture top with the FSC Mixed certification upon request. Our product also works well as workbench tops."
KBIS 2022,02/08/2022,2022,https://kbis.com/,DM,"LX Hausys America, Inc",1829,,http://www.lgviaterausa.com,,,,"Atlanta, GA United States",United States,ADA Compliant | Quartz | Solid Surface | Recycled Materials,,,"LX Hausys America, Inc. is a part of Korean-based LX Hausys Ltd., one of the world’s leading providers of building and decorative materials. Headquartered in Atlanta, Ga., LX Hausys America uses the industry’s most advanced technology to design beautiful and functional spaces with sustainable products. LX Hausys America’s product lines include Viatera Quartz Surface and HIMACS Solid Surface."
KBIS 2022,02/08/2022,2022,https://kbis.com/,DM,Makellos Cabinetry,5068,,http://www.makellos.com,,,,"Philadelphia, PA United States",United States,Ready to Assemble | Semi-Custom | Stock,,,
KBIS 2022,02/08/2022,2022,https://kbis.com/,DM,M.V.T. Minuterie eViterie Tornite S.p.A.,5672,,www.mvtspa.it,,,,"Bedizzole, Brescia Italy",Italy,,,,
KBIS 2022,02/08/2022,2022,https://kbis.com/,DM,Loongken,4468,,http://www.loongken.com,,,,"Xiang'An District, Xiamen, FUJIAN China",China,Natural Stone and Tile | Other | Quartz | Solid Surface,,,
KBIS 2022,02/08/2022,2022,https://kbis.com/,DM,Marmite,3800,,http://www.marmite.eu,,,,"Dopiewo, Poland",Poland,Bathtubs | Shower Trays | Sinks,,,"Marmite is a European leader in manufacturing products for the sanitary market, producing washbasins, bathtubs using Mineral Composite material. The company combines precision with passion to produce outstanding product for private label business, supplied via all distribution channels."
KBIS 2022,02/08/2022,2022,https://kbis.com/,DM,Maplevilles Cabinetry,5909,,http://www.maplevillescabinetry.com,,,,"El Monte, CA United States",United States,Ready to Assemble | Semi-Custom | Stock | Vanities,,,"Maplevilles specializes in providing premium quality ready to assemble Inset cabinets. Traditionally, inset cabinets are difficult to construct which is why they were only available from very experienced custom cabinetmakers. Maplevilles developed and perfected our unique line of RTA inset cabinets that are easy to assemble, cost effective, and are readily available."
KBIS 2022,02/08/2022,2022,https://kbis.com/,DM,LOTTE Chemical,972,,https://www.staron.com/intro/us,,,,"La Palma, CA United States",United States,ADA Compliant | Quartz | Solid Surface | Building Materials | Showers | Sinks,,,"LOTTE Chemical California, Inc. manufactures high-performance decorative surfaces, delivering new dimensions of choice for interior designers, architects, builders, and their residential and commercial customers. The company is rapidly expanding its North American presence with its premium quartz surface, Radianz"
KBIS 2022,02/08/2022,2022,https://kbis.com/,DM,Liebherr,1151,,http://home.liebherr.com,,,,"Miami, FL United States",United States,ADA Compliant | Refrigeration | Other | Energy Efficiency | Smart Appliances | Outdoor Appliances/Refrigeration | Universal Design/Aging in Place,,,
KBIS 2022,02/08/2022,2022,https://kbis.com/,DM,"Living In Place Institute, LLC",440,,http://www.livinginplace.institute/,,,,"Louisville, CO United States",United States,Bathroom Accessories | Kitchen Accessories | ADA Compliant | Associations | Architectural Services/Interior Design | Remodeling | Home Automation | Universal Design/Aging in Place,,,
KBIS 2022,02/08/2022,2022,https://kbis.com/,DM,Lenova,4175,,http://www.lenovasinks.com,,,,"Hillside, IL United States",United States,Showers | Sinks | Faucets | Vanities | Bathroom Accessories | ADA Compliant | Water Conservation,,,
KBIS 2022,02/08/2022,2022,https://kbis.com/,DM,Merola Tile,6002,,http://merolatile.us,,,,"Amityville, NY United States",United States,Bathroom Accessories | Kitchen Accessories | Marble | Tile | Building Materials | Wall Coverings,,,"""Born in Brooklyn in 1988"" Merola Tile has been the Preeminent national distributor of the worlds most sought after porcelain , ceramic, stone and glass tile products in the latest styles and trends for over 34 years."
KBIS 2022,02/08/2022,2022,https://kbis.com/,DM,Lefroy Brooks/Cooper & Graham,5841,,http://www.lefroybrooks.com,,,,"New York, NY United States",United States,Bathroom Accessories | Kitchen Accessories | Towel Warmers | Bathtubs | Faucets | Showers | Sinks | Toilets,,,
KBIS 2022,02/08/2022,2022,https://kbis.com/,DM,La Bastille,6040,,https://labastille.com/,,,,"Savannah, GA United States",United States,Cooking | Other | Range Hoods | Wall Coverings,,,
KBIS 2022,02/08/2022,2022,https://kbis.com/,DM,LG Electronics,2029,,http://www.lg.com,,,,"Englewood Cliffs, NJ United States",United States,Refrigeration | Laundry | Cooking | Dishwashers | Consumer Electronics | Smart Appliances | Range Hoods,,,
KBIS 2022,02/08/2022,2022,https://kbis.com/,DM,Laser Products Industries Inc,5809,,http://www.laserproductsus.com,,,,"Romeoville, IL United States",United States,Power Tools and Machinery | Computer Software Services | Glass | Natural Stone and Tile | Quartz | Solid Surface,,,
KBIS 2022,02/08/2022,2022,https://kbis.com/,DM,KZ Kitchen,4607,,http://www.kzkitchen.com,,,,"San Jose, CA United States",United States,Ready to Assemble | Laminate | Quartz | Tile | Wood | Faucets | Sinks,,,"• Established in 2002, US based company"
KBIS 2022,02/08/2022,2022,https://kbis.com/,DM,L.R Brands-An Oatey Innovation,3825,,http://www.LRbrands.com,,,,"Cleveland, OH United States",United States,Bathroom Accessories | ADA Compliant | Recycled Materials | Universal Design/Aging in Place,,,Below the parent brand live two brands that share L.R. Brands’ commitment to craftsmanship – QuickDrain and
KBIS 2022,02/08/2022,2022,https://kbis.com/,DM,Laser Products Industries Inc,5807,,http://www.laserproductsus.com,,,,"Romeoville, IL United States",United States,Power Tools and Machinery | Computer Software Services | Glass | Natural Stone and Tile | Quartz | Solid Surface,,,
KBIS 2022,02/08/2022,2022,https://kbis.com/,DM,Krugg Reflections,4674,,http://www.Krugg.us,,,,"Huntingdon Valley, PA United States",United States,Bathroom Accessories | Mirrors | Shelving/Storage Systems | ADA Compliant | Laundry,,,"Fusing classical tradition with contemporary style, Krugg offers the best in high-quality LED Mirrors & Medicine Cabinets. Our core strengths – unparalleled customer service & Design oriented taste's – are met with our passion for technology and a modern flair. Some Highlights:"
KBIS 2022,02/08/2022,2022,https://kbis.com/,DM,LTL Home Products,5818,,http://www.ltlhomeproducts.com,,,,"Schuylkill Haven, PA United States",United States,Bathroom Accessories | Mirrors | Decorative | Decorative Fixtures,,,
KBIS 2022,02/08/2022,2022,https://kbis.com/,DM,Lavelle Industries/Korky Toilet Repair,141,,http://www.lavelle.com,,,,"Burlington, WI United States",United States,Decorative | Toilets,,,"Lavelle Industries is the manufacturer of Korky toilet repair products and toilet tank trim, including flappers, fill valves and flush valves. Lavelle's proprietary chloramine resistant material, Chlorazone, resists chlorine and toilet tank cleaners. Chlorazone is also NSF 61 certified for safe drinking water applications. Lavelle offers many solutions for the plumbing industry with both innovative products and materials."
KBIS 2022,02/08/2022,2022,https://kbis.com/,DM,KUCHT,5144,,http://www.kucht.com,,,,"Clifton, NJ United States",United States,Kitchen Accessories | Cooking | Dishwashers | Grills | Refrigeration,,,
KBIS 2022,02/08/2022,2022,https://kbis.com/,DM,KP Water,4373,,http://www.waterfaucet.cn,,,,"Kaiping City, Guangdong China",China,Bathroom Accessories | Kitchen Accessories | ADA Compliant | Building Materials | Functional | Bathtubs | Faucets | Showers,,,"KP WATER is an innovative manufacturer of kitchen and bath faucets and related accessories, founded in 2006, located in Guangdong Province, China. KP WATER prides itself on their expert knowledge of bath and kitchen faucets, is able to manufacture thousands of faucet models, offer competitive pricing, customized product assortments, and various faucet programs. Up to year 2019, KP WATER has got thousands of CUPC certified products specially for North American market"
KBIS 2022,02/08/2022,2022,https://kbis.com/,DM,KOHLER,1100,,http://www.kohler.com,,,,"Kohler, WI United States",United States,Bathroom Accessories | Kitchen Accessories | Mirrors | Shelving/Storage Systems | ADA Compliant | Associations | Architectural Services/Interior Design | Stock | Solid Surface | Wood | Marble | Tile | Energy Efficiency | Recycled Materials | Water Conservation | Decorative | Functional | Consumer Electronics | Smart Appliances | Decorative Fixtures | Dimming and Lighting Controls | Bathtubs | Bidets | Components | Enclosures | Faucets | Sauna/Spa | Showers | Sinks | Surrounds | Toilet Seats | Toilets | Walk-In Bathtubs | Whirlpools | Universal Design/Aging in Place | Vanities | Water Filtration,,,"Kohler Co. leads the way in design, craftsmanship and innovation - knit together by uncompromising quality. Kohler's product offering spans across all price points, offering a wide variety of options in kitchen and bath fixtures and faucets, furniture, cabinetry, tile and stone. As the recognized industry leader and best-known brand name in kitchen and bath design, Kohler offers products and services to create a complete design solution."
KBIS 2022,02/08/2022,2022,https://kbis.com/,DM,KOHLER Generators,1100,,http://www.KohlerGenerators.com,,,,"Kohler, WI United States",United States,Other,,,"KOHLER automatic standby generators are permanently installed outside a home like a central air conditioning unit. They attach to a home’s existing natural gas or propane lines and turn on automatically within seconds when the power goes out; homeowners do not need to be present to operate. Standby generators can power an entire house, from essentials like the refrigerator, sump pump, lights and water heater to conveniences such as TVs, computers and more."
KBIS 2022,02/08/2022,2022,https://kbis.com/,DM,Konkretus Home,5338,,https://www.konkretushome.co/,,,,"La Estrella - Antioquia, Colombia",Colombia,,,,
KBIS 2022,02/08/2022,2022,https://kbis.com/,DM,Kitchen Kompact Inc,6004,,http://www.kitchenkompact.com,,,,"Jeffersonville, IN United States",United States,ADA Compliant | Stock | Universal Design/Aging in Place,,,"Kitchen Kompact is a Nationwide / Family Owned Manufacturer of Kitchen and Bath Cabinetry since 1937. The philosophy of KK is very simple. We will offer a quality product at a reasonable price and, most importantly, deliver these goods in the most dependable lead time in the industry."
KBIS 2022,02/08/2022,2022,https://kbis.com/,DM,"Kitchen Cabinet Distributors, LLC",5361,,http://www.kcdus.com,,,,"Raleigh, NC United States",United States,Bathroom Accessories | Kitchen Accessories | Ready to Assemble | Semi-Custom | Stock | Vanities,,,
KBIS 2022,02/08/2022,2022,https://kbis.com/,DM,Kwikset,2013,,http://www.kwikset.com,,,,"Lake Forest, CA United States",United States,,,,
KBIS 2022,02/08/2022,2022,https://kbis.com/,DM,Kitchen365,6008,,https://www.kitchen365.com,,,,"Lawrenceville, Georgia",Georgia,Computer Software Services | Full-Custom | Ready to Assemble | Semi-Custom | Stock,,,"Kitchen365 is a website building solution for businesses that sell kitchen cabinets. Our proven integrated solutions will help build a profitable online cabinet business by bringing design, sales, marketing and order management to one platform. We strongly believe that in today's day and age, having an online presence isn't an expensive luxury but a fundamental tool that every company needs. We empower people to create their online presence for one low monthly cost."
KBIS 2022,02/08/2022,2022,https://kbis.com/,DM,Kitchen & Bath Design News,129,,http://www.kitchenbathdesign.com,,,,"Chicago, IL United States",United States,Marketing Consultants | Business-To-Business,,,"is the industry’s leading business, design and product resource for the kitchen and bath trade.  It provides industry news, expert opinions and product information to professionals in the design, construction and remodeling of kitchens and baths, as well as manufacturers and retailers of kitchen and bath products."
KBIS 2022,02/08/2022,2022,https://kbis.com/,DM,Kingston Brass,5036,,http://www.kingstonbrass.com,,,,"Chino, CA United States",United States,Bathroom Accessories | Kitchen Accessories | ADA Compliant | Bathtubs | Bidets | Components | Faucets | Showers | Sinks | Toilets,,,"Combining aesthetics and functionality to the plumbing community is what we, at Kingston Brass have focused and centered around. Born from the dedicated minds of industry professionals in 1998, Kingston Brass has worked diligently in creating the top quality products to the plumbing/kitchen and bath market."
KBIS 2022,02/08/2022,2022,https://kbis.com/,DM,Kitchen & Bath Marketing Solutions,3775,,https://www.kitchenandbathmarketingsolutions.com/,,,,"Grapevine, TX United States",United States,Architectural Services/Interior Design | Marketing Consultants | Business-To-Business,,,"Kitchen & Bath Marketing Solutions offers expert digital marketing solutions tailored to the Interior Design & Home Remodeling Industry. We help designers/remodelers save time & money by freeing them up to focus on what they love to do while we take care of the things like marketing, lead generation, branding & PR that may bog them down. As designers ourselves, we are uniquely qualified to get you measurable results that grow your online presence & build a memorable brand."
KBIS 2022,02/08/2022,2022,https://kbis.com/,DM,Kessick Wine Storage Systems,5836,,http://www.kessickwinecellars.com,,,,"Greenville, SC United States",United States,Shelving/Storage Systems | Wine Storage | Architectural Services/Interior Design | Full-Custom | Semi-Custom | Wine Storage | Decorative | Business-To-Business,,,
KBIS 2022,02/08/2022,2022,https://kbis.com/,DM,King Slide,572,,http://www.kingslide.com,,,,"Kaohsiung, Taiwan",Taiwan,Bathroom Accessories | Kitchen Accessories | Energy Efficiency | Functional,,,"King Slide is ISO9001 and ISO14001 certified factory in Kaohsiung, Taiwan. With more than 30 years of experience in producing functional drawer slide and hinge for furniture and electronic equipment industries, our high quality has earned high reputation and the products are popular in the global market."
KBIS 2022,02/08/2022,2022,https://kbis.com/,DM,Kay Hardware,4073,,http://www.kayhardware.com,,,,"ALIGARH, Uttar Pradesh India",India,Decorative | Functional,,,"Kay Hardware is an Indian manufacturer and exporter of Solid Bronze, Solid Brass & Cast Iron Architectural Hardware. Their main product categories include Door Hardware (Mortise, Tubular & Dummy Entrysets; Passage, Privacy & Dummy Interior Sets), Cabinet Hardware (Knobs, Pulls, Appliance Pulls), Outdoor Hardware (House Numbers & Letters, Door Knockers, Pull Handles) and Decorative Floor Registers."
KBIS 2022,02/08/2022,2022,https://kbis.com/,DM,Kessebohmer USA Inc.,5027,,https://www.cleverstorage.com,,,,"Wilmington, NC United States",United States,Bathroom Accessories | Kitchen Accessories | Shelving/Storage Systems | Full-Custom | Other | Functional | Universal Design/Aging in Place,,,"Founded in 1954, Kesseböhmer is the leading manufacturer of clever kitchen storage solutions. German designed and built, Kesseböhmer distributes to more than 60 countries, and the US headquarters are located in Wilmington, NC. Products are sold to consumers through thousands of kitchen design showrooms and distributors across the country. For more information, storage solution applications, photos, and catalog requests please visit CleverStorage.com"
KBIS 2022,02/08/2022,2022,https://kbis.com/,DM,Kallista,1100,,http://www.Kallista.com,,,,"Kohler, WI United States",United States,Bathroom Accessories | ADA Compliant | Bathtubs | Faucets | Showers | Sinks | Toilets | Vanities,,,"Founded in 1979, KALLISTA® – Greek for “most beautiful” – combines timeless aesthetics with superb craftsmanship to create kitchen and bath collections that are second to none. With its first showroom in San Francisco, KALLISTA established a reputation for custom finishes and materials. Aquired by Kohler Co. in the late 1980's, KALLISTA and its diverse luxury portfolio began to flourish and still today has stayed true its original mission."
KBIS 2022,02/08/2022,2022,https://kbis.com/,DM,"Kessebohmer USA, Inc.",5027,,http://www.koelnmesse.de,,,,"Miami, FL United States",United States,,,,The German Pavilion is:
KBIS 2022,02/08/2022,2022,https://kbis.com/,DM,KABS Software,6003,,http://www.kbglobalpartners.com,,,,"Fairfax, VA United States",United States,Computer Software Services,,,
KBIS 2022,02/08/2022,2022,https://kbis.com/,DM,"Kingmore Imports, LLC.",4079,,http://www.KingmoreImports.com,,,,"North Houston, TX United States",United States,Energy Efficiency | Bidets | Components | Faucets | Showers | Sinks | Toilets,,,
KBIS 2022,02/08/2022,2022,https://kbis.com/,DM,Kerox Ltd,251,,http://www.kerox.net,,,,"Budapest, Hungary",Hungary,Energy Efficiency | Water Conservation | Components,,,
KBIS 2022,02/08/2022,2022,https://kbis.com/,DM,John Boos & Co,661,,http://www.johnboos.com,,,,"Effingham, IL United States",United States,Kitchen Accessories | Wood | Energy Efficiency,,,
KBIS 2022,02/08/2022,2022,https://kbis.com/,DM,JK Burnersystems LLC,5881,,http://www.Jk-burnersystems.com,,,,"Las Vegas, NV United States",United States,Cooking,,,JK Burnersystems LLC
KBIS 2022,02/08/2022,2022,https://kbis.com/,DM,JSI Cabinetry,4207,,http://www.jsicabinetry.com,,,,"Fall River, MA United States",United States,Stock | Semi-Custom,,,
KBIS 2022,02/08/2022,2022,https://kbis.com/,DM,Johns Manville,4817,,https://www.jm.com/goboard,,,,"Littleton, CO United States",United States,Natural Stone and Tile | Other | Quartz | Tile | Other | Building Materials | Energy Efficiency | Showers | Wall Coverings,,,"Tile installation using GoBoard® by Johns Manville saves you time in all your projects, including mudrooms, bathrooms, entryways, or showers. GoBoard® is an ultra-lightweight, waterproof, and durable tile backer board that is easy to cut, handle and install. GoBoard weighs up to 80% less than cement backer boards, and its engineered and tested for strength and durability yet can be cut right where it’s installed using a utility knife. Best of all, you can be ready to tile on the same day!"
KBIS 2022,02/08/2022,2022,https://kbis.com/,DM,Karran USA,1773,,http://www.karran.com,,,,"Vincennes, IN United States",United States,ADA Compliant | Bathtubs | Faucets | Sinks,,,"Karran has been making some of the finest kitchen and bathroom products for over two decades. We are proud to offer a very broad range of kitchen and bathroom sinks, kitchen and bathroom faucets and assorted accessories. Our kitchen sinks are made from a variety of durable and long-lasting materials including stainless steel, quartz composite and solid surface acrylic. Our industry-leading seamless undermount-to-laminate sinks showed the industry a new way to install sinks. Our quartz composite sink line has grown to over 270 different options to choose from. We continue to create more beautiful bathroom sinks such as the new Valera Collection and the stunning Sternhagen Collection. To complement our vast range of kitchen sinks and bathroom sinks, we offer a continuously expanding range of the highest quality kitchen and bathroom faucets. At Karran we are always focusing on bringing innovative, functional and aesthetically beautiful products to the home."
KBIS 2022,02/08/2022,2022,https://kbis.com/,DM,John Michael Kitchens,5136,,http://www.johnmichaelkitchens.com,,,,"Chester, SC United States",United States,Cooking | Refrigeration | Architectural Services/Interior Design | Full-Custom | Semi-Custom | Building Materials | Grills/Outdoor Cooking | Outdoor Appliances/Refrigeration | Outdoor Cabinetry | Outdoor Furniture,,,
KBIS 2022,02/08/2022,2022,https://kbis.com/,DM,InSinkErator,544,,http://www.insinkerator.com,,,,"Mt. Pleasant, WI United States",United States,Kitchen Accessories | Garbage Disposals | Faucets | Water Filtration,,,"Headquartered in Racine, Wisconsin, InSinkErator, a business unit of Emerson Electric Co., is the worlds largest manufacturer of food waste disposers and instant hot water dispensers for home and commercial use. For more information about InSinkErator products, call 1-800-558-5700 or visit the companys website at www.insinkerator.com"
KBIS 2022,02/08/2022,2022,https://kbis.com/,DM,Integrax LLC,4278,,http://www.integraxglobal.com,,,,"Phoenix, AZ United States",United States,Full-Custom | Ready to Assemble | Semi-Custom | Stock | Natural Stone and Tile | Quartz | Vinyl | Wood,,,"Integrax LLC is a family owned business and direct seller of kitchen cabinets and countertops manufacured by our own factories in Asian countries. Since 1998, we have been supplying for builders and wholesaleers across the US with the expertise and promise that people trust. Our goal is to offer the ultimate peace of mind for all bulk buyers; buying quality-guaranteed products at factory direct price."
KBIS 2022,02/08/2022,2022,https://kbis.com/,DM,Irinox Spa,5078,,https://www.irinoxhome.com/eng/,,,,"Tarzo, Treviso Italy",Italy,,,,
KBIS 2022,02/08/2022,2022,https://kbis.com/,DM,INOX,3871,,http://www.inoxproducts.com,,,,"Sacramento, CA United States",United States,Bathroom Accessories | Kitchen Accessories | ADA Compliant | Doors | Decorative | Functional,,,"INOX door hardware is engineered beautifully to raise the level of the hardware’s performance and exceed the expectation of the public for fresh, innovative designs and functionality. By managing all aspects of engineering, production, assembly, and quality control, solves problems that naturally arise between architectural design, function requirements, budget, and customer demands. To learn more, visit www.inoxproducts.com."
KBIS 2022,02/08/2022,2022,https://kbis.com/,DM,ILVE SPA,5663,,http://www.ilveusa.com,,,,"Brooklyn, NY United States",United States,ADA Compliant | Cooking | Energy Efficiency,,,
KBIS 2022,02/08/2022,2022,https://kbis.com/,DM,Infinity Drain,3832,,http://www.infinitydrain.com,,,,"Amityville, NY United States",United States,Bathroom Accessories | ADA Compliant | Pool & Spa | Showers | Universal Design/Aging in Place,,,
KBIS 2022,02/08/2022,2022,https://kbis.com/,DM,Infinity,5413,,http://www.infinitysurfaces.it,,,,"Pavullo nel Frignano (MO), Italy",Italy,Natural Stone and Tile | Other | Tile | Outdoor Furniture | Vanities | Wall Coverings,,,
KBIS 2022,02/08/2022,2022,https://kbis.com/,DM,India International House Ltd,6009,,http://www.builderhardware.com,,,,"New Delhi, India",India,Decorative | Decorative Fixtures,,,"Manufacturers & Exporters of Forged, die casted, investment casted Switch plates, Hinges, Door & Window & Builder’s Hardware to USA, Canada, UK, Denmark, New Zealand"
KBIS 2022,02/08/2022,2022,https://kbis.com/,DM,James Martin Signature Vanities,3818,,https://jamesmartinfurniture.com/,,,,"Dallas, TX United States",United States,Mirrors | Natural Stone and Tile | Quartz | Solid Surface | Building Materials | Universal Design/Aging in Place | Vanities,,,Our designs start with quality materials and centuries old construction techniques.  James Martin's artisans build furniture pieces constructed to last and designed to be both functional and beautiful.
KBIS 2022,02/08/2022,2022,https://kbis.com/,DM,IKONNI,5256,,http://www.ikonni.com,,,,"New York City, NY United States",United States,Full-Custom | Ready to Assemble | Concrete | Glass | Other | Wood | Wall Coverings,,,"Ikonni brings to your home the finest materials and quality craftsmanship from around the world. Measured to embellish walls and kitchen cabinetry, Ikonni is the signature surfacing to compliment any space"
KBIS 2022,02/08/2022,2022,https://kbis.com/,DM,IL FLESSIBILE di Nicastri & C. SRL,5673,,http://www.ilflessibile.it,,,,"Invorio, Novara Italy",Italy,Bathroom Accessories | Kitchen Accessories,,,"Il Flessibile is an italian firm founded in 1993, specialized in flexible hoses production certified ""OQC"" by NSF. Specialized staff, a well-equipped machine park and the use of quality raw materials, combined with regular tests performed in the internal testing laboratory, allow us to create an absolutely reliable product that has obtained several international certifications, as well as NSF 61-9, NSF-372, ASME A 112.18.1/CSA B125.1 & UPC."
KBIS 2022,02/08/2022,2022,https://kbis.com/,DM,INALCO,3807,,https://www.inalco.es/,,,,"Alcora-Castellon, Spain",Spain,Natural Stone and Tile | Carpet | Tile | Building Materials | Recycled Materials | Shower Trays | Wall Coverings,,,"In Inalco we are specialists in creating MDi surfaces for the construction industry, architecture and interior design sectors."
KBIS 2022,02/08/2022,2022,https://kbis.com/,DM,"Inox Market Messico, S.A. DE C.V.",4881,,http://www.inoxmarketmessico.com,,,,"Queretaro, Querétaro Mexico",Mexico,Dishwashers | Refrigeration | Doors | Outdoor Appliances/Refrigeration | Outdoor Cabinetry | Outdoor Furniture | Sinks | Whirlpools,,,"INOX MARKET M provides stainless steel with several thicknesses and minimum guaranteed dimensional tolerances. The special mechanical characteristics and the optimum quality in surface finishes make this material unique and unmatched in terms of strength and design. The new sheets - anti fingerprint -can be for the most versatile and sophisticated applications. In addition, its special production system limits to the maximum the alterations due to the process."
KBIS 2022,02/08/2022,2022,https://kbis.com/,DM,i2M - Innovation 2 Manufacturing,3874,,http://i2M.us.com,,,,"Mountain Top, PA United States",United States,Doors | Laminate | Vinyl | Recycled Materials | Decking | Pool & Spa | Sauna/Spa | Showers,,,
KBIS 2022,02/08/2022,2022,https://kbis.com/,DM,ICC-ES-PMG,5032,,http://www.icc-es.org,,,,"Brea, CA United States",United States,Associations | Bathtubs | Components | Faucets | Sauna/Spa | Showers | Toilets,,,
KBIS 2022,02/08/2022,2022,https://kbis.com/,DM,House of Rohl,415,,http://www.houseofrohl.com,,,,"Irvine, CA United States",United States,Bathroom Accessories | Kitchen Accessories | Decorative | Bathtubs | Faucets | Showers | Sinks | Water Filtration,,,The Story Craft Tells
KBIS 2022,02/08/2022,2022,https://kbis.com/,DM,IAPMO,4813,,http://www.iapmort.org,,,,"ONTARIO, CA United States",United States,Associations | Energy Efficiency | Pool & Spa | Bathtubs | Faucets | Showers | Toilets | Water Filtration,,,"IAPMO R&T is the most trusted listing agency in the plumbing & mechanical industry. Our long standing 90 years of history has made us the agency that code officials, inspectors & major manufacturers rely upon when it comes to accepting or certifying plumbing & mechanical products. We look forward to testing & certifying your products to their applicable codes, standards, & programs such as UPC, ASME, NSF/ANSI 61, Lead Free, WaterSense, ENERGY STAR, GREEN & several others."
KBIS 2022,02/08/2022,2022,https://kbis.com/,DM,Home Remodeler SEO,4554,,www.HomeRemodelerSeo.com,,,,"Denver, CO United States",United States,,,,
KBIS 2022,02/08/2022,2022,https://kbis.com/,DM,Hammerton Inc.,6036,,http://www.hammerton.com,,,,"Salt Lake City, UT United States",United States,ADA Compliant | Energy Efficiency | Recycled Materials | Decorative Fixtures | Outdoor Lighting,,,
KBIS 2022,02/08/2022,2022,https://kbis.com/,DM,Hang It Yourself,4654,,https://www.hiysystem.com/,,,,"Charleston, SC United States",United States,Full-Custom | Ready to Assemble | Semi-Custom | Stock,,,"Hang-It-Yourself is the only universal fit, auto aligning, cabinet installation sytem that works on any domestic style (rear mounting), framed or frameless, pre-assembled or ready-to assemble (RTA) cabinets. Designed as a DIY product but also saves time and labor for the professional. 1 Attach the rail to the wall... 2 Mount the brackets... and 3 Hang the cabinets!"
KBIS 2022,02/08/2022,2022,https://kbis.com/,DM,Hallmark Hardwoods,5636,,http://www.hallmarkfloors.com,,,,"Ontario, CA United States",United States,Ready to Assemble | Semi-Custom | Stock | Wood | Vinyl | Wood | Vanities,,,"Since our inception in 1998, Hallmark Hardwood continues to be driven by our love for wood, care for the environment and  passion for developing, producing and marketing the most beautiful and innovative products - flooring, cabinets and countertops. All our products are developed and designed to enhance the beauty of all types of interiors, from cozy and traditional to cool and contemporary. Hallmark...the True Mark of Quality."
KBIS 2022,02/08/2022,2022,https://kbis.com/,DM,Hafele America Co,761,,http://www.hafele.com,,,,"Archdale, NC United States",United States,Kitchen Accessories | Mirrors | Shelving/Storage Systems | Decorative | Functional | Decorative Fixtures | Dimming and Lighting Controls | Universal Design/Aging in Place,,,"Here at Häfele, hardware is our passion and our expertise. We manufacture and sell many of the “little invisibles” that you use every day – from LED lighting to kitchen drawer slides and cabinet hinges to closet hardware, decorative hardware, commercial and residential sliding door hardware and even some pretty amazing tape measures. We’re a company focused on solving problems – in many instances problems you didn’t even know you had – and bringing our creativity and ingenuity to a very specialized group of businesses and customers. Your designs are great. Our products will make them even better."
KBIS 2022,02/08/2022,2022,https://kbis.com/,DM,HieBAR Design,4075,,http://www.hiebar.com,,,,"Brooklyn, NY United States",United States,Kitchen Accessories | Shelving/Storage Systems | Decorative | Functional | Home Automation | Smart Appliances,,,
KBIS 2022,02/08/2022,2022,https://kbis.com/,DM,Hacker Kuchen GmbH & Co. KG,5324,,http://www.koelnmesse.de,,,,"Cologne, Germany",Germany,,,,
KBIS 2022,02/08/2022,2022,https://kbis.com/,DM,Hacker Kuchen GmbH & Co. KG,5324,,http://www.haecker-kuechen.us,,,,"Rödinghausen, Germany",Germany,Kitchen Accessories | Full-Custom | Semi-Custom | Laminate | Natural Stone and Tile | Quartz | Solid Surface | Wood,,,"Häcker Kitchens – The Company Häcker manufactures premium kitchens that meet the highest requirements in terms of quality, functionality, durability and design. The family-run business is considered a guarantee for reliability, commitment and sustainability in the industry. The premium brand Häcker is available in more than 60 countries worldwide."
KBIS 2022,02/08/2022,2022,https://kbis.com/,DM,Goldenhome,4600,,http://www.goldenhomekitchen.com,,,,"Xiamen, China",China,Remodeling | Full-Custom | Ready to Assemble | Semi-Custom | Stock | Quartz | Vanities,,,
KBIS 2022,02/08/2022,2022,https://kbis.com/,DM,Green Forest Cabinetry,1857,,http://www.greenforestcabinetry.com,,,,"Chesapeake, VA United States",United States,ADA Compliant | Semi-Custom | Stock | Vanities,,,
KBIS 2022,02/08/2022,2022,https://kbis.com/,DM,Gold Heat,3875,,http://www.goldheat.com,,,,"Hillsboro, OR United States",United States,Air Conditioning and Heating | Radiant Heat | Healthy Home/Wellness,,,
KBIS 2022,02/08/2022,2022,https://kbis.com/,DM,Global Connect Pavilion,5625,,,,,,"Alpharetta, GA United States",United States,,,,
KBIS 2022,02/08/2022,2022,https://kbis.com/,DM,GoBravura,4428,,http://Gobravura.com,,,,"Suite 200, TX United States",United States,Ready to Assemble | Semi-Custom | Stock,,,"GoBravura & Impress Cabinetry is the frameless cabinetry wholesaler,  we offer 10 plus stock door colors selection and 96 plus semi-custom door colors selection on our kitchen cabinets and vanity cabinets."
KBIS 2022,02/08/2022,2022,https://kbis.com/,DM,Huayi,373,,http://www.huayi-faucet.com,,,,"Kaiping City, Guangdong China",China,Bathroom Accessories | ADA Compliant | Water Conservation | Functional | Smart Appliances | Faucets | Business-To-Business | Vanities,,,"Shuikou Town Kaiping City- the famous production base for bathroom faucets and fittings. With more than 28 years’ development, HUAYI has become one of the biggest and most professional manufacturers which now has 10 subsidiaries. HUAYI is an integrated enterprise including R&D, moulds making, manufacturing and marketing. It specializes in faucets and bathroom accessories, ceramic sanitary wares, bathroom cabinets, etc."
KBIS 2022,02/08/2022,2022,https://kbis.com/,DM,Houzz,4869,,http://www.houzz.com,,,,"Irvine, CA United States",United States,Other,,,
KBIS 2022,02/08/2022,2022,https://kbis.com/,DM,Grass America Inc,1629,,http://www.grassusa.com,,,,"Kernersville, NC United States",United States,Functional,,,"Grass America is a manufacturer of functional cabinet hardware for the woodworking industry.  Products include DYNAPRO, full extension concealed drawer slide; Vionaro, 13mm slim drawer system; Tiomos hinge system with an integrated soft-close damper concealed within the hinge arm; TEC Soft-close with a three-tiered switch to regulate the closing action of a door; NOVA PRO SCALA double-wall drawer system in four heights and three colors."
KBIS 2022,02/08/2022,2022,https://kbis.com/,DM,GaslandChef,4841,,http://www.gaslandchef.com,,,,"North Charleston, TN United States",United States,Cooking,,,"Gasland Chef, Light Your Kitchen!"
KBIS 2022,02/08/2022,2022,https://kbis.com/,DM,Gatco Inc,1263,,http://www.gatco-inc.com,,,,"San Leandro, CA United States",United States,Bathroom Accessories | Mirrors | ADA Compliant | Decorative | Functional | Components,,,"From towel bars to mirrors, shower curtain rods, and countertop accessories, it is Gatco’s commitment to Design, Quality, and Passion that has made it the brand of choice for discerning homeowners and hospitality professionals for over 40 years running."
KBIS 2022,02/08/2022,2022,https://kbis.com/,DM,Fulgor Milano,115,,http://www.fulgor-milano.us,,,,"Rosà, Vicenza Italy",Italy,Cooking | Dishwashers | Grills | Refrigeration | Grills/Outdoor Cooking | Range Hoods,,,"With a rich manufacturing heritage of over 70 years,"
KBIS 2022,02/08/2022,2022,https://kbis.com/,DM,Fortune,4213,,http://www.fortune-vietnam.com,,,,"Trang Bang District, Tay Ninh Province Vietnam",Vietnam,Kitchen Accessories | Cooking | Stock | Sinks,,,
KBIS 2022,02/08/2022,2022,https://kbis.com/,DM,GIAMI S.R.L.,5574,,www.giami-srl.it,,,,"Bolzano Novarese, Novara Italy",Italy,,,,
KBIS 2022,02/08/2022,2022,https://kbis.com/,DM,GlassArt Design,4675,,www.glassartdesign.com,,,,"Minneapolis, MN United States",United States,,,,
KBIS 2022,02/08/2022,2022,https://kbis.com/,DM,Florida Tile,754,,http://www.floridatile.com,,,,"Lexington, KY United States",United States,Tile | Building Materials | Wall Coverings,,,"Florida Tile is committed to producing exceptional products that far exceed the conventional expectation of our industry.  We make a full spectrum of porcelain floor and wall coverings and distribute ceramic, glass, metal, and natural stone.  We continually invest in our facilities and our team in order to advance our role as innovators in our field.  We stand ready to provide you the highest level of quality product and customer care to ensure your satisfaction."
KBIS 2022,02/08/2022,2022,https://kbis.com/,DM,German Pavilion,5329,,http://www.koelnmesse.de,,,,"Cologne, Germany",Germany,Associations | Other,,,The German Pavilion is:
KBIS 2022,02/08/2022,2022,https://kbis.com/,DM,FELP ASSEMBLY SYSTEMS SRL,5773,,www.felpassembly.com,,,,"Palosco, Bergamo Italy",Italy,,,,
KBIS 2022,02/08/2022,2022,https://kbis.com/,DM,Fluehs Drehtechnik / PSI Systems North America Inc,247,,http://www.fluehs.de,,,,"Bartlett, IL United States",United States,Water Conservation | Home Automation | Bathtubs | Components | Faucets | Showers | Walk-In Bathtubs | Water Filtration,,,"Fluehs of Germany is the world's most trusted, innovative, and reliable valve producer for faucet and shower applications. For decades Fluehs has been developing unique valve solutions that open up new concepts for controlling water. See our new"
KBIS 2022,02/08/2022,2022,https://kbis.com/,DM,FOTILE America LLC,5419,,http://us.fotileglobal.com,,,,"Parsippany, NJ United States",United States,Cooking | Dishwashers | Energy Efficiency | Healthy Home/Wellness | Consumer Electronics | Smart Appliances | Consumer | Range Hoods,,,"Established in 1996, FOTILE has been committed to the original aspiration for the past 25 years, focusing always on the research, development and manufacturing of high-end built-in kitchen appliances, dedicated to providing high-quality products and services for people in pursuit of quality life, creating a healthy and environment-friendly, tasteful and cultural lifestyle for the happiness and reassurance of hundreds of millions of families."
KBIS 2022,02/08/2022,2022,https://kbis.com/,DM,Fabuwood Cabinetry Corp,637,,http://www.fabuwood.com,,,,"Newark, NJ United States",United States,Bathroom Accessories | Kitchen Accessories | ADA Compliant | Semi-Custom | Stock | Vanities,,,"As an industry leader, Fabuwood’s cabinets are the perfect blend of style, selection, and affordability. Highly committed to quality, Fabuwood manufactures cabinets that will maintain its beauty for years. Their focus on craftsmanship provide end users with creative selections designed for better living. Constantly innovating, the company offers cabinet lines that appeal to a range of styles."
KBIS 2022,02/08/2022,2022,https://kbis.com/,DM,Fittings Metal Collection,5436,,https://fittingscollection.com/,,,,"Medina, OH United States",United States,Bathroom Accessories | Kitchen Accessories | Shelving/Storage Systems | Wine Storage | Wine Storage | Decorative | Vanities | Range Hoods,,,
KBIS 2022,02/08/2022,2022,https://kbis.com/,DM,FGM Cabinetry LLC,5013,,http://www.fgmcabinetry.com,,,,"Linden, NJ United States",United States,Semi-Custom | Stock | Full-Custom | Ready to Assemble | Vanities | Kitchen Accessories | Bathroom Accessories,,,​FGM CABINETRY LLC
KBIS 2022,02/08/2022,2022,https://kbis.com/,DM,Evimetal Drain&Profiles,3838,,http://www.eviusa.com,,,,"Myrtle Beach, SC United States",United States,Bathroom Accessories | Architectural Services/Interior Design | Remodeling | Building Materials | Decorative | Functional | Showers | Sinks,,,'Evimetal Drain and finish Profiles' has been the leader of the sector since 1967 with the international award-winning design team.
KBIS 2022,02/08/2022,2022,https://kbis.com/,DM,Federal Brace,4128,,http://www.federalbrace.com,,,,"Belmont, NC United States",United States,Bathroom Accessories | Kitchen Accessories | Shelving/Storage Systems | ADA Compliant | Stock | Other | Functional | Decorative Fixtures | Outdoor Furniture | Vanities,,,"Providing you with heavy duty supports for your projects. Federal Brace delivers the complete solution for support needs. With the largest selection of designer-style support brackets particularly crafted for the high capacity support of granite and other solid surface countertops, Federal Brace has become a standard for innovative solutions in the market. Federal Brace incorporates heavy duty capacity with appealing contemporary and traditional appearance in its designer supports. Products are made in the USA."
KBIS 2022,02/08/2022,2022,https://kbis.com/,DM,Fleurco Products Inc,645,,http://www.fleurco.com,,,,"Montreal, QC Canada",Canada,Bathroom Accessories | Mirrors | ADA Compliant | Bathtubs | Enclosures | Showers | Vanities | Wall Coverings,,,"FLEURCO specializes in the design , manufacture and distribution of a full range of glass shower doors. Our company relies on the latest technology and designs to offer you top quality products. Come see our expanded line of bathroom products making us a one-stop shop! We pride ourselves on these three pillars: Quality. Design. Service. Fleurco is unparalelled in the industry, offering our customers the highest level of service, both before and after purchase."
KBIS 2022,02/08/2022,2022,https://kbis.com/,DM,Elias Woodwork,6000,,http://www.eliaswoodwork.com,,,,"Winkler, MB Canada",Canada,Kitchen Accessories | Shelving/Storage Systems | Moulding and Millwork | Full-Custom | Ready to Assemble | Semi-Custom | Stock | Wood | Wood | Vanities,,,"Established in 1983, Elias Woodwork is a manufacturer of wood raw or finished cabinet doors, moldings, dovetail drawer boxes, curved doors and components, refacing material, custom cabinet boxes and many other wood accessories. Other product offerings include thermofoil, laminate and acrylic doors and accessories. Elias Woodwork has made themselves known for their vast product selection, high quality finishes and competitive prices. As a Lean Manufacturer, Elias Woodwork caters to a wide range of industries across North America and offers FREE shipping on orders of 30 or more 5 piece construction wood doors. Get your instant estimates and track shipments with Access Now online ordering."
KBIS 2022,02/08/2022,2022,https://kbis.com/,DM,Emtek Products,528,,http://www.emtek.com,,,,"Irwindale, CA United States",United States,Bathroom Accessories | Kitchen Accessories | Other | Decorative | Functional,,,"Door and cabinet hardware is more than just a way to open, close, and secure a space. Since"
KBIS 2022,02/08/2022,2022,https://kbis.com/,DM,Elegant Lighting,3857,,http://www.elegantlighting.com,,,,"Philadelphia, PA United States",United States,Mirrors | Decorative | Decorative Fixtures | Bathtubs | Vanities,,,"Vanity, lighting, and bath tub supplier. Over 1800 vanity styles, 2500 lighting fixtures and 72 free standing bath tubs offered. All items stocked in Philadlephia, Pa. with over 850,000 square feet of warehouse.  Vanities with over 100 collections, offered in sizes from 18"" to 72"", in up to 6 different finishes with or without backsplashes.Lighting from traditional to contemporary, from iron to crystal, and all priced to sell.  Visit us at elegantlighting.com"
KBIS 2022,02/08/2022,2022,https://kbis.com/,DM,Element Designs,157,,http://www.element-designs.com,,,,"Charlotte, NC United States",United States,Kitchen Accessories | Shelving/Storage Systems | Doors | Full-Custom | Glass | Decorative | Functional | Decorative Fixtures,,,"Element Designs is a leading manufacturer of custom aluminum, glass and acrylic casework components, surfacing solutions and shelving systems for residential interiors. Our products include aluminum frame cabinet and sliding doors, backpainted glass, glass markerboards, aluminum frame base systems, high gloss solid acrylic doors, decorative hardware and new shelving systems. Our products are available in numerous finishes and color options to meet your needs."
KBIS 2022,02/08/2022,2022,https://kbis.com/,DM,Electrolux,2248,,http://www.electroluxappliances.com,,,,"Charlotte, NC United States",United States,ADA Compliant | Cooking | Dishwashers | Laundry | Refrigeration | Air Conditioning and Heating | Energy Efficiency | Water Conservation,,,"Electrolux is a global leader in appliances for home and professional use, selling over 60 million products in 150 countries every year. Offering a full line of kitchen and laundry appliances, we place the consumer at the heart of everything we do. Through our brands, including the Frigidaire® series, we strive to"
KBIS 2022,02/08/2022,2022,https://kbis.com/,DM,ELKAY,800,,http://www.elkay.com,,,,"Downers Grove, IL United States",United States,ADA Compliant | Energy Efficiency | Recycled Materials | Water Conservation | Faucets | Sinks | Universal Design/Aging in Place | Water Filtration,,,
KBIS 2022,02/08/2022,2022,https://kbis.com/,DM,Effebi US,3776,,http://www.effebi.com,,,,"Pine Brook, NJ United States",United States,Kitchen Accessories | Other | Decorative | Functional | Hardscapes | Faucets | Water Filtration,,,EFFEBI is an Italian manufacturer of valves. Established in 1971 the company is family owned and has a leadership position in Europe and ready  to  enter the American (branch EFFEBI US - PINE BROOK - NJ)
KBIS 2022,02/08/2022,2022,https://kbis.com/,DM,EGGER Wood Products LLC,5218,,http://www.egger.com,,,,"Linwood, NC United States",United States,Closets | Doors | Moulding and Millwork | Laminate | Other | Solid Surface | Vinyl | Recycled Materials,,,
KBIS 2022,02/08/2022,2022,https://kbis.com/,DM,EnerBank USA,5457,,http://enerbank.com,,,,"Salt Lake City, UT United States",United States,Financial/Mortgage Services | Other,,,"Providing excellence in unsecured home improvement loan programs.EnerBank USA specializes in unsecured home improvement and home energy loans through strategic business partners in all 50 states and the District of Columbia. Customized, private-label loan programs are available for larger sponsors, and a special Express Loan Program is available to independent contractors and smaller companies."
KBIS 2022,02/08/2022,2022,https://kbis.com/,DM,Dynabrade Inc,246,,http://www.dynabrade.com,,,,"Clarence, NY United States",United States,Other,,,"Since 1969, Dynabrade,Inc. has earned a reputation and position of leadership in design and manufacturing of quality air tools . These tools are for use on medal,wood,solid surface,composites and more . A large variety of our tools will be shown including Random Orbital Sanders,Buffers,Abrasive Belt Machines,Finishing Tools,and more. A large offering of accessories are available as well."
KBIS 2022,02/08/2022,2022,https://kbis.com/,DM,Falmec SPA,115,,http://www.falmecnorthamerica.com,,,,"Vittorio Veneto, Treviso Italy",Italy,Healthy Home/Wellness | Grills/Outdoor Cooking | Range Hoods,,,"an award-winning Italian company, brings exceptionally designed and technologically advanced range hoods to the international market. Falmec’s Noise Reduction System (NRS™) delivers up to 86% less noise than traditional ventilation. This family-owned company has married impeccable Italian craftsmanship and innovation to emerge as a tech-savvy producer of premier ventilation solutions."
KBIS 2022,02/08/2022,2022,https://kbis.com/,DM,EISEN HOME,4068,,http://www.eisenhome.com,,,,"Los Angeles, CA United States",United States,Bathtubs | Faucets | Showers | Sinks | Vanities,,,We are family-owned and operated and take pride in providing our clients with a personalized shopping experience. Whether it is a
KBIS 2022,02/08/2022,2022,https://kbis.com/,DM,Eviva,4361,,http://eviva.us,,,,"Monroe Township, NJ United States",United States,Bathroom Accessories | Mirrors | Bathtubs | Faucets | Showers | Toilets | Vanities,,,"Eviva is an industry leader in bathroom furniture, specifically bathroom vanities. We are constantly looking for new ideas and products to add to our already large and diverse catalog. Our goal at Eviva is to provide quality products at competitive pricepoints for the place that matters most to everyone, home."
KBIS 2022,02/08/2022,2022,https://kbis.com/,DM,East Brass,4441,,http://www.ebt.cn,,,,"Miami, FL United States",United States,Decorative | Components | Faucets | Showers | Sinks,,,One of the largest brass tubular manufacturer in China.
KBIS 2022,02/08/2022,2022,https://kbis.com/,DM,DUKO Plumbing Fixtures,5281,,http://www.dukobrands.com,,,,"Fullerton, CA United States",United States,Bathtubs | Bidets | Faucets | Shower Trays | Showers | Sinks | Toilet Seats | Toilets,,,Duko has been leading Pumbing Fxiture industry in Socal region since the establishment of the company in 2016.
KBIS 2022,02/08/2022,2022,https://kbis.com/,DM,"ECI Software Solutions, Inc.",3773,,http://www.ecisolutions.com,,,,"Fort Worth, TX United States",United States,Computer Software Services,,,
KBIS 2022,02/08/2022,2022,https://kbis.com/,DM,Duro Corporation,4865,,http://www.durocorp.com,,,,"City Of Industry, CA United States",United States,Cooking | Grills,,,
KBIS 2022,02/08/2022,2022,https://kbis.com/,DM,Diverse Surface Solutions,5175,,http://www.diversurfacesolutions.com,,,,"Mesa, AZ United States",United States,Showers | Surrounds,,,Announcing the new revolutionary Porcelain Panel Shower System. Ditch outdated acrylic/fiberglass one-piece shower alcoves and set the new bar with porcelain panels in your new builds and remodels. Achieve the look and feel without the high cost of natural stone and technical installation times while receiving the same benefits from real tile. Great look + Easy installation in less than 3 hours + Cleanliness and Longevity = Best Shower Wall Solution in the Industry.
KBIS 2022,02/08/2022,2022,https://kbis.com/,DM,Dometic,5863,,http://www.dometic.com,,,,"Cerritos, CA United States",United States,Wine Storage | Grills | Refrigeration | Grills/Outdoor Cooking | Outdoor Appliances/Refrigeration | Range Hoods,,,
KBIS 2022,02/08/2022,2022,https://kbis.com/,DM,Dowell Kitchen & Bath,3757,,https://dowellusa.com/,,,,"Westbury, NY United States",United States,Bathroom Accessories | Kitchen Accessories | Mirrors | Functional | Bathtubs | Faucets | Vanities,,,
KBIS 2022,02/08/2022,2022,https://kbis.com/,DM,Duplach Group SAU,5416,,http://www.duplach.com,,,,"Cordoba, Spain",Spain,Shower Trays,,,"Duplach Group was established in 2010 dedicated to create and manufacture shower bases made of resin, mineral fillers and Gel Coat. This material provides a great antibacterial resistance for personal and domestic use."
KBIS 2022,02/08/2022,2022,https://kbis.com/,DM,Diresco,5065,,http://www.diresco.be,,,,"Oudsbergen, Belgium",Belgium,Quartz | Tile | Building Materials | Hardscapes | Vanities,,,
KBIS 2022,02/08/2022,2022,https://kbis.com/,DM,Diamond,4081,,http://www.diamonddoor.com.tr,,,,"IZMiR, Turkey",Turkey,Closets | Doors | Moulding and Millwork | Full-Custom | Ready to Assemble | Semi-Custom | Stock | Vanities,,,"Diamond is a leader in the design and manufacturing of kitchen cabinets,bahtroom vanities,millwork and exterior and interior doors for residential and commercial properties.Founded 2002,our factory comprises of an area 110.000 sqft,has a dedicated staff of 230 employees and is located in Izmır/Turkey."
KBIS 2022,02/08/2022,2022,https://kbis.com/,DM,DL Cabinetry,4265,,http://dlcabinetry.com,,,,"Orlando, FL United States",United States,,,,
KBIS 2022,02/08/2022,2022,https://kbis.com/,DM,Delta Faucet Co,1707,,http://www.deltafaucet.com,,,,"Indianapolis, IN United States",United States,Bathroom Accessories | Kitchen Accessories | Faucets,,,"The Delta brand lives by three tenets: water has the power to transform the way people feel every day, there can be magic in simple solutions and innovations flow from human insight. Inspired by our customers' needs, we've brought you technological magic with simple-solution"
KBIS 2022,02/08/2022,2022,https://kbis.com/,DM,Design Milk,5441,,http://www.design-milk.com,,,,"Columbus, OH United States",United States,Other,,,
KBIS 2022,02/08/2022,2022,https://kbis.com/,DM,"Designs of Distinction by Brown Wood, Inc.",5241,,http://www.brownwoodinc.com/dod,,,,"Lincolnwood, IL United States",United States,Bathroom Accessories | Kitchen Accessories | Shelving/Storage Systems | ADA Compliant | Moulding and Millwork | Other | Building Materials | Decorative | Functional | Universal Design/Aging in Place,,,"The premier provider of decorative and functional wood, metal and lucite components for kitchen, bath and furniture. Island columns, table legs, bun feet, finials, corbels, onlays and mouldings all MADE IN AMERICA and ready to be shipped within 24 hours. Ten species stocked and any species available on a single piece custom basis. Ask about manufacturer and distributor programs tailored to suit your needs. Specializing in SMALL QUANTITY CUSTOM with 2 week lead times."
KBIS 2022,02/08/2022,2022,https://kbis.com/,DM,Deson Bath,5821,,http://www.china-deson.com,,,,"Nanhai District, Foshan China",China,Bathtubs,,,"Foshan Deson Sanitary Ware Co., Ltd. was established in 2004 which located in Foshan, as one of the biggest &professional manufacturer in China we only produce the highest quality acrylic bathtubs. High quality is our fundamental philosophy.We pursue providing the best quality products and service to our customer by strictly following ISO9001:2000 Quality Management System. Meanwhile all tubs have cUPC and CE Certification."
KBIS 2022,02/08/2022,2022,https://kbis.com/,DM,Dein Konfigurator GmbH,5527,,www.dein-konfigurator.de,,,,"Zülpich, Germany",Germany,,,,
KBIS 2022,02/08/2022,2022,https://kbis.com/,DM,DecoTeak,5803,,http://www.decoteak.com,,,,"Melbourne, FL United States",United States,Bathroom Accessories | Mirrors | ADA Compliant | Healthy Home/Wellness | Outdoor Cabinetry | Outdoor Furniture | Universal Design/Aging in Place | Vanities,,,"DecoTeak is the premier provider of  solid teak bathroom vanities, mirrors, storage closets, shelving, shower stools, shower benches, hampers, floor mats, and bathtub benches.   We also provide a full line of solid teak indoor outdoor furntiure including a variety of garden benches, tables, and chairs.   Introducing Innovato modular wall hung shower chairs and accessories.    SwapAble family allows exchanging shower chairs with grab bars, shelves, and towel racks.   A variety of , designed, and manufactured in Europe, ADA compliant wall mounted shower seats, grab bars, and accessories are availble."
KBIS 2022,02/08/2022,2022,https://kbis.com/,DM,Delmei,4644,,http://www.delmei.com.cn,,,,"Xiamen, China",China,Bathroom Accessories | Kitchen Accessories | Components | Faucets | Showers | Sinks,,,
KBIS 2022,02/08/2022,2022,https://kbis.com/,DM,"Dawn Kitchen & Bath Products, Inc",1365,,http://www.dawnusa.net,,,,"Hayward, CA United States",United States,Bathroom Accessories | Kitchen Accessories | Mirrors | ADA Compliant | Faucets | Showers | Sinks | Vanities,,,"Dawn Kitchen & Bath Products is a California-based wholesale company that specializes in manufacturing and distributing quality kitchen and bath products at value pricing. Dawn has over 25 years of experience in designing, developing and producing stainless steel sinks, faucets and accessories with its own designers, engineers and technicians."
KBIS 2022,02/08/2022,2022,https://kbis.com/,DM,DTC,340,,http://www.dtcdtc.com,,,,"New Territories, Hong Kong",Hong Kong,Functional,,,"Dongtai Hardware Group is also known as DTC, an R&D and manufacturing facility, is a professional provider of hardware accessory solutions concerning concealed hinges, ball bearing slides, undermount slides, double wall drawer systems and connecting fittings mainly for kitchen and bathroom cabinets."
KBIS 2022,02/08/2022,2022,https://kbis.com/,DM,Dackor,4176,,http://Dackor.com,,,,"WINTER GARDEN, FL United States",United States,Full-Custom | Stock | Other | Building Materials | Wall Coverings,,,
KBIS 2022,02/08/2022,2022,https://kbis.com/,DM,DAG WorldWide LLC,6019,,https://www.trufiore.com/industrial,,,,"Las Vegas, NV United States",United States,Other | Pool & Spa | Business-To-Business | Consumer,,,"We have brought together a team of skin care professionals with decades of experience to create a new, powerful, age-defying skin care line that is one of a kind. Using decades of experience in producing successful age-defying formulas across global markets using truffles, and caviar we have created the ultimate line of luxury skin care products that not only help you look good but also have the perfect complexion. Come to Booth # S6019 and find out what we can do for your skin!"
KBIS 2022,02/08/2022,2022,https://kbis.com/,DM,Dein Konfigurator GmbH,5527,,http://www.koelnmesse.de,,,,"Cologne, Germany",Germany,,,,
KBIS 2022,02/08/2022,2022,https://kbis.com/,DM,Cutler Kitchen & Bath,5321,,http://www.cutlergroup.com,,,,"Vaughan, ON Canada",Canada,Ready to Assemble | Semi-Custom | Stock | Mirrors | Shelving/Storage Systems | Vanities,,,"Since 2007, Cutler Kitchen and Bath has been transforming kitchens and bathrooms for style-conscious homeowners across North America. Let Cutler personalize your space, and perfect your home."
KBIS 2022,02/08/2022,2022,https://kbis.com/,DM,Danby Appliances,4668,,http://www.danby.com,,,,"Guelph, ON Canada",Canada,Dishwashers | Laundry | Refrigeration | Air Conditioning and Heating | Smart Appliances | Outdoor Appliances/Refrigeration,,,"At Danby, we continually strive to bring desirable and unique products to market. Our product innovation and quality in compact, wine and beverage refrigeration as well as microwaves has made us a leader in North America for over 70 years. Danby’s latest offering is Parcel Guard – the Smart Mailbox designed to keep your parcel deliveries safe."
KBIS 2022,02/08/2022,2022,https://kbis.com/,DM,Croydex Ltd,4761,,http://www.croydex.com,,,,"Andover, Hampshire United Kingdom",United Kingdom,Bathroom Accessories | Mirrors | Shelving/Storage Systems | Full-Custom | Ready to Assemble | Decorative Fixtures | Showers | Toilet Seats,,,"Croydex are a leading supplier of bathroom accessories, celebrating 100 years of supplying products to the trade and commercial markets."
KBIS 2022,02/08/2022,2022,https://kbis.com/,DM,CTM International,4613,,http://www.ctm-inter.com,,,,"Montreal, QC Canada",Canada,Refrigeration | Cooking | Dishwashers | Range Hoods,,,
KBIS 2022,02/08/2022,2022,https://kbis.com/,DM,Cosentino North America,1401,,https://www.cosentino.com,,,,"CORAL GABLES, FL United States",United States,Architectural Services/Interior Design | Natural Stone and Tile | Quartz | Solid Surface | Tile | Building Materials | Shower Trays | Sinks,,,"The Cosentino Group is a global, family-owned company that produces and distributes high value innovative surfaces for architecture and design. This is possible by pioneering brands that are leaders in their respective segments such as Silestone®, Dekton® and Sensa by Cosentino."
KBIS 2022,02/08/2022,2022,https://kbis.com/,DM,Covered Bridge Cabinetry,3761,,http://www.coveredbridgecabinetry.com,,,,"E Hanover, NJ United States",United States,Full-Custom,,,
KBIS 2022,02/08/2022,2022,https://kbis.com/,DM,CTDPlus,4453,,www.ctdesignplus.com,,,,"Las Vegas, NV United States",United States,,,,
KBIS 2022,02/08/2022,2022,https://kbis.com/,DM,CopperSmith,3813,,http://WorldCopperSmith.com,,,,"Maple Plain, MN United States",United States,Cooking | Other | Bathtubs | Sinks | Range Hoods,,,"Our vision is to build the world’s leading custom metalwork platform.  Our mission is to bring unmatched value to manufacturers, artisans, showrooms, and consumers through continuous improvement of design, technology integrations, and marketing of custom metalwork. We started in 2009 originally as a custom manufacturing company in Minneapolis, MN working in home exteriors. Currently the company offers range hoods, sinks, tables, bathtubs and fire pits sold through interior designer trade program & showroom wholesale partnerships. We us over 80 finishes to help our customers create one of a kind masterpieces. Utilizing our online 3-D configurator, trade partners are able to take their experience with customers to another level."
KBIS 2022,02/08/2022,2022,https://kbis.com/,DM,Compass Manufacturing International,5800,,http://www.cmiproduct.com,,,,"Louisville, KY United States",United States,Bathroom Accessories | ADA Compliant | Faucets | Sinks | Toilets,,,"Compass Manufacturing International has an extensive offering of quality Kitchen & Bath products, enabling us to provide full services to both Retailers & Wholesalers in the Plumbing and Hardware Industry."
KBIS 2022,02/08/2022,2022,https://kbis.com/,DM,CRASinc.com,6011,,http://www.crasinc.com,,,,"Orange, CA United States",United States,Outdoor Furniture | Sinks | Toilets | Walk-In Bathtubs | Whirlpools | Vanities | Range Hoods,,,
KBIS 2022,02/08/2022,2022,https://kbis.com/,DM,ClearMirror,4775,,https://www.clearmirror.com,,,,"Saint Paul, MN United States",United States,Bathroom Accessories | Mirrors | Other | Energy Efficiency | Decorative | Functional | Decorative Fixtures | Components | Showers | Surrounds,,,
KBIS 2022,02/08/2022,2022,https://kbis.com/,DM,Cutco Business Gifts,6006,,http://www.cutcoclosinggifts.com,,,,"St Louis, MO United States",United States,Marketing Consultants | Business-To-Business | Consumer,,,﻿
KBIS 2022,02/08/2022,2022,https://kbis.com/,DM,"Compac Stone USA, Inc",961,,http://www.compac.us,,,,"Miami, FL United States",United States,Architectural Services/Interior Design | Remodeling | Quartz | Marble | Building Materials | Recycled Materials | Decking | Wall Coverings,,,
KBIS 2022,02/08/2022,2022,https://kbis.com/,DM,COANTE,4627,,http://www.coante.com,,,,"Mugla, Turkey",Turkey,Quartz,,,
KBIS 2022,02/08/2022,2022,https://kbis.com/,DM,Clean Robotics LLC,4352,,https://www.clean-robotics.com,,,,"Las Vegas, NV United States",United States,Bathroom Accessories | Consumer Electronics | Home Automation | Smart Appliances | Toilets,,,
KBIS 2022,02/08/2022,2022,https://kbis.com/,DM,Chariot International Pvt Ltd,5079,,http://www.chariotinternational.com,,,,"Malur Taluk, Kolar Dt., Karnataka India",India,Glass | Natural Stone and Tile | Quartz | Marble | Tile | Building Materials | Vanities | Wall Coverings,,,
KBIS 2022,02/08/2022,2022,https://kbis.com/,DM,Coohom,360,,https://www.coohom.com/,,,,"Long Island, NY United States",United States,Architectural Services/Interior Design | Computer Software Services | Marketing Consultants | Remodeling | Other | Consumer Electronics | Business-To-Business,,,
KBIS 2022,02/08/2022,2022,https://kbis.com/,DM,CG Air Systemes Inc,2072,,http://www.cgair.com,,,,"Ste-Marguerite, QC Canada",Canada,Smart Appliances | Bathtubs | Components | Faucets | Showers | Walk-In Bathtubs | Whirlpools | Universal Design/Aging in Place,,,"Innovation, excellent customer service and continued commitment to making products of the highest quality have set CG Air Systèmes apart from the crowd for over 20 years. The company has developed products with exclusive design and exceptional quality, including Air and Whirlpool Massage components, electronic controls and keypads, as well as accessories in a variety of design, that surpass industry standards. For information, visit our website at www.cgair.com."
KBIS 2022,02/08/2022,2022,https://kbis.com/,DM,Clear Drawer,4354,,http://www.cleardrawer.com,,,,"Birmingham, AL United States",United States,Bathroom Accessories | Kitchen Accessories | Shelving/Storage Systems,,,
KBIS 2022,02/08/2022,2022,https://kbis.com/,DM,Chemcore Industries Inc,161,,http://www.chemcore.com,,,,"Austin, TX United States",United States,Faucets | Sinks,,,"CHEMCORE INDUSTRIES, Inc. is one of the largest WHOLESALE ONLY sink and faucet distributors in the US. Chemcore has 4 US locations from coast to coast. These locations allow for fast ""same day"" shipping and next day receiving for most of the country, with a significant savings in shipping costs. Chemcore has almost any type of stainless steel, copper, porcelain, acrylic, cast iron, or granite sink made. Chemcore is a huge BLANCO distributor. Known for GREAT CUSTOMER SERVICE!"
KBIS 2022,02/08/2022,2022,https://kbis.com/,DM,Century Components,4471,,http://centurymade.com,,,,"Sugarcreek, OH United States",United States,Kitchen Accessories | Functional,,,"Century Components manufactures all of their Kitchen Accessories in Holmes County, Ohio, USA.  Each are bench-made to ensure the highest quality.  Products include wood lazy susans, waste systems, organizer pull-outs, drawer organizer trays, knife blocks and vanity units. They also produce the popular X-Series Bracket System. This system has proven to be the benchmark for toolless adjustable roll-out pantry drawers. Custom sizes are welcome!"
KBIS 2022,02/08/2022,2022,https://kbis.com/,DM,Carriage House Cabinet,4244,,http://www.carriagehousecabinet.com,,,,"Cape Girardeau, MO United States",United States,,,,
KBIS 2022,02/08/2022,2022,https://kbis.com/,DM,Castello USA,4762,,http://www.castellousa.com,,,,"Canoga Park, CA United States",United States,Bathroom Accessories | Mirrors | Solid Surface | Bathtubs | Faucets | Sinks | Toilets | Vanities,,,
KBIS 2022,02/08/2022,2022,https://kbis.com/,DM,"Caregiver Smart Solutions, Inc.",4353,,http://www.CaregiverSmartSolutions.com,,,,"Pompton Plains, NJ United States",United States,Healthy Home/Wellness | Communication Devices | Consumer Electronics | Home Automation | Universal Design/Aging in Place,,,
KBIS 2022,02/08/2022,2022,https://kbis.com/,DM,Cebi Design,5052,,http://www.cebidesign.com,,,,"Istanbul, Turkey",Turkey,Bathroom Accessories | Kitchen Accessories | Decorative | Functional,,,
KBIS 2022,02/08/2022,2022,https://kbis.com/,DM,Cartisan Design,4225,,http://www.kartonrepublic.com,,,,"City of industry, CA United States",United States,Bathtubs | Vanities,,,
KBIS 2022,02/08/2022,2022,https://kbis.com/,DM,CAE,346,,http://www.china-cae.com,,,,"Kaiping, Guangdong P.R., Guangdong China",China,Faucets | Showers,,,"CAE: THE EXCELLENCE FROM PERSISTENCE:With 29 years' professional experience in tap designing, developing & manufacturing, CAE ranks the Top Ten Branded Faucet Company in China. Under ISO9001 QC managing system, CAE has developed to become well-known for it's advanced technology, fine quality, unique design and excellent after-sales service.Up to year 2013, CAE has got 18 series of CUPC certified products specially for North American market."
KBIS 2022,02/08/2022,2022,https://kbis.com/,DM,Cambria,1961,,http://www.cambriausa.com,,,,"Eden Prairie, MN United States",United States,Remodeling | Quartz | Other | Building Materials | Surrounds | Vanities | Wall Coverings,,,"Family owned, American made Cambria is the countertop industry leader, with the most innovative designs available today. Cambria's styles range from sleek and monochromatic to those that dazzle like jewels, move like marble and captivate like exotic stone; all with the maintenance-free benefits of quartz."
KBIS 2022,02/08/2022,2022,https://kbis.com/,DM,Challenger Designs LLC,4036,,http://www.challengerdesignsllc.com,,,,"Nappanee, IN United States",United States,Semi-Custom | Grills/Outdoor Cooking | Outdoor Cabinetry,,,"Manufacturer of Aluminum Outdoor Kitchens and Built-in Inserts, as well as Superior Garage Cabinetry. Build your own layout using our Kitchen or Garage series, each consisting of hundreds sku's. Outdoor Cabinetry boasts a gasketed sealed storage, making it weather and waterproof. We have outdoor kitchen cabinetry to accommodate appliances from any manufacturer. All cabinetry features a double wall, insulated door."
KBIS 2022,02/08/2022,2022,https://kbis.com/,DM,Cabinet City,4618,,http://www.innocraftcabinetry.com,,,,"San Gabriel, CA United States",United States,Ready to Assemble | Stock | Vanities,,,
KBIS 2022,02/08/2022,2022,https://kbis.com/,DM,Caesarstone,629,,http://www.caesarstoneus.com,,,,"Charlotte, NC United States",United States,Natural Stone and Tile | Quartz | Building Materials | Recycled Materials | Sinks | Surrounds | Vanities | Wall Coverings,,,"Caesarstone is a leading developer and manufacturer of high-quality engineered quartz surfaces. Established in 1987, the company pioneered the quartz material utilizing advanced technologies and expertise. Caesarstone continues to lead the industry with its new products and color innovation, sustainability and customer service as evidenced by the recently launched Caesarstone Connect platform for kitchen and bath retailers."
KBIS 2022,02/08/2022,2022,https://kbis.com/,DM,"Brown Wood, Inc",5241,,http://www.brownwoodinc.com,,,,"Lincolnwood, IL United States",United States,,,,
KBIS 2022,02/08/2022,2022,https://kbis.com/,DM,Cafe,2300,,http://cafeappliances.com,,,,"Louisville, KY United States",United States,Kitchen Accessories | Wine Storage | Cooking | Dishwashers | Refrigeration | Smart Appliances | Range Hoods,,,
KBIS 2022,02/08/2022,2022,https://kbis.com/,DM,Bonotti,5667,,http://www.bonotti.com,,,,"Massa, Massa and Carrara Italy",Italy,Natural Stone and Tile | Other | Marble | Tile,,,...
KBIS 2022,02/08/2022,2022,https://kbis.com/,DM,CABINET VISION | Hexagon Manufacturing Intelligence,4836,,http://www.cabinetvision.com,,,,"Tuscaloosa, AL United States",United States,Computer Software Services,,,"CABINET VISION, a Hexagon Manufacturing Intelligence product, is the most widely used design-for-manufacturing software capable of custom cabinet and room design, photo realistic renderings, material optimization, bidding and costing, and cutlists and bill of materials. Combined with the powerful SCREEN-TO-MACHINE™ (S2M) CENTER, it can automatically create machine-ready G-Code for CNC flat table routers, point-to-point machines, panel saws, drill and dowel machines, chop saws and other specialized CNC machinery."
KBIS 2022,02/08/2022,2022,https://kbis.com/,DM,Brondell Inc,241,,http://www.brondell.com,,,,"San Francisco,, CA United States",United States,Healthy Home/Wellness | Consumer Electronics | Bidets | Faucets | Showers | Toilet Seats | Universal Design/Aging in Place | Water Filtration,,,"Brondell’s healthy home innovations bring a unique perspective to the kitchen and bath industry. In their mission to bring the hi-tech bidet market to the American consumer, they’ve managed to develop some of the most innovative and bestselling products in their class while expanding into the markets of smart air purification and efficient water filtration."
KBIS 2022,02/08/2022,2022,https://kbis.com/,DM,Brizo,1413,,http://www.brizo.com,,,,"Indianapolis, IN United States",United States,Bathroom Accessories | Kitchen Accessories | Decorative | Faucets | Showers,,,
KBIS 2022,02/08/2022,2022,https://kbis.com/,DM,"Bodelair, Inc.",5438,,http://www.bodelair.com,,,,"Los Angeles, CA United States",United States,Bathroom Accessories | Kitchen Accessories | Concrete | Natural Stone and Tile | Decorative | Functional | Faucets | Sinks,,,
KBIS 2022,02/08/2022,2022,https://kbis.com/,DM,BOCCHI,3821,,http://www.bocchiusa.com,,,,"Alpharetta, GA United States",United States,Bathroom Accessories | Kitchen Accessories | ADA Compliant | Building Materials | Faucets | Sinks | Toilet Seats | Toilets | Universal Design/Aging in Place,,,Italian by birth. Turkish by design. American by demand.
KBIS 2022,02/08/2022,2022,https://kbis.com/,DM,BlueVue Inc.,5275,,http://www.bluevueinc.com,,,,"Lake Zurich, IL United States",United States,Bathroom Accessories | Other | Decorative | Functional | Components | Walk-In Bathtubs,,,"BlueVue is a new age forward thinking global supply company specializing in leak protection with our highly innovative Perfect Fit Gasket Product.  With over 20+ years in the bathroom remodeling business and our expertise of product development, procurement, and distribution, BlueVue is proud to provide competitive high volume pricing and cost effective pricing for the DIY home owner project, contractors and retail vendors."
KBIS 2022,02/08/2022,2022,https://kbis.com/,DM,Blaze Outdoor Products,4218,,http://www.blazegrills.com,,,,"Baton Rouge, LA United States",United States,Grills/Outdoor Cooking | Outdoor Appliances/Refrigeration | Outdoor Cabinetry | Faucets | Sinks,,,"Blaze Outdoor Products started because grilling and outdoor living is a passion that we all share. Our founding team has a combined 45 years of experience in the outdoor living and grilling industry, and we’ve used the experience to develop, test and make our products fantastic – because we all love what we do each and every single day. The same passion that we bring to the company is transferred to our customers through every product that we manufacture."
KBIS 2022,02/08/2022,2022,https://kbis.com/,DM,Cooksy Corporation,4253,,http://www.cooksy.com,,,,"tucson, AZ United States",United States,Consumer Electronics | Home Automation | Smart Appliances,,,"A smart device that helps perfect stove-top dishes as they cook, Cooksy is the closest thing to having a master chef over your shoulder to help improve your skills while creating restaurant-quality dishes over and over again. Easy to install, Cooksy uses visual and thermal sensors to measure thousands of temperatures across the entire pan surface allowing for more consistency in cooking."
KBIS 2022,02/08/2022,2022,https://kbis.com/,DM,Blum Inc,714,,http://www.blum.com,,,,"Stanley, NC United States",United States,Functional | Universal Design/Aging in Place,,,"Blum, Inc. is a leading manufacturer of functional hardware for the kitchen cabinet and commercial casework industries specializing in lift, concealed hinge, and drawer runner systems. Virtually all the hardware needed to make cabinets functional are available within the wide range of quality Blum products. Blum supports the U.S. market with a network or more than 150 dependable distributors, 50+ knowledgeable Blum sales and customer service people."
KBIS 2022,02/08/2022,2022,https://kbis.com/,DM,Binli,4678,,http://www.binli-bathroom.com,,,,"Chaozhao, Guangdong China",China,Bathroom Accessories | Full-Custom | Quartz | Bathtubs | Faucets | Showers | Sinks | Toilets,,,"Binli, pursuing the spirit of “being attentive and professional and keep moving”, located in Chaozhou, founded in2007, it has been engaged in the R&D, manufacture and marketing of sanitary ware products. The cabinet factory has various modern whole-set processing lines, become a professional hi-tech factory in the sanitary ware industry. The ceramics factory has two computer automatically controlled shuttle kilns and a modern R&D center laboratory."
KBIS 2022,02/08/2022,2022,https://kbis.com/,DM,Bestbath,5468,,http://www.bestbath.com,,,,"Caldwell, ID United States",United States,Bathroom Accessories | ADA Compliant | Bathtubs | Enclosures | Showers | Surrounds | Walk-In Bathtubs | Universal Design/Aging in Place,,,
KBIS 2022,02/08/2022,2022,https://kbis.com/,DM,Bienal,4665,,http://www.bienal.com,,,,"Antalya, Turkey",Turkey,Closets | Full-Custom | Vanities,,,"With more than 30 years of experience within the furniture industry,we have started a new era in contemporary design and solutions,undertaking projects, manifacturing custom closets,cabinets and vanities for your homes,hotels,offices. Our aim is to create excellence in order to meet our clients quality standards and requiriments with using the latest technology and fine workmanship"
KBIS 2022,02/08/2022,2022,https://kbis.com/,DM,Bertazzoni,1647,,http://www.bertazzoni.com,,,,"Guastalla, RE Italy",Italy,Cooking | Dishwashers | Refrigeration | Range Hoods,,,"Bertazzoni is an Italian manufacturer of luxury kitchen appliances. Established in 1882, this family company is known all over the world for the quality engineering of its products, their authentic Italian style, and the passion for food and cooking."
KBIS 2022,02/08/2022,2022,https://kbis.com/,DM,Bernier Cabinetry,4473,,http://www.berniercabinetry.com,,,,"Levis, QC Canada",Canada,Outdoor Cabinetry | Full-Custom | Closets,,,"Bernier is proud to be a family owned and operated international company. Three generations, striving for excellence and providing unmatched quality. Our culture instills a boutique level of customer service to our partners. Encompassing a high sense of urgency and satisfaction that is continually demanded of every team member. Bernier's international footprint  spans across the USA and Canada. Together, we will grow a partnership in order to benefit your future."
KBIS 2022,02/08/2022,2022,https://kbis.com/,DM,Bestview International,4432,,http://www.bestviewintl.com,,,,"Glenview, IL United States",United States,Mirrors | Natural Stone and Tile | Quartz | Solid Surface | Marble | Tile | Faucets | Vanities,,,
KBIS 2022,02/08/2022,2022,https://kbis.com/,DM,Artesano Iron Works,3778,,http://www.abbaappliances.com,,,,"Philadelphia, PA United States",United States,Kitchen Accessories | Cooking | Grills | Grills/Outdoor Cooking,,,"Artesano features an assortment of dishware accessories and grills in addition, we are introducing our ABBA cooktops and stovetops, a brand with 65 years of experience in the appliance manufacturing business."
KBIS 2022,02/08/2022,2022,https://kbis.com/,DM,Benjamin Moore & Co.,5465,,http://www.benjaminmoore.com,,,,"Montvale, NJ United States",United States,Closets | Doors | Moulding and Millwork | Paints/Varnishes/Stains | Architectural Services/Interior Design | Remodeling | Building Materials | Wall Coverings,,,"is North America’s favorite paint, color and coatings brand. A leading manufacturer of premium quality residential and commercial coatings, Benjamin Moore is renowned for its expansive product offerings and color portfolio of more than 3,500 colors. Benjamin Moore paints are available exclusively from its more than 5,000 locally owned and operated"
KBIS 2022,02/08/2022,2022,https://kbis.com/,DM,Arstar S A DE CV,250,,http://www.arstarinc.com,,,,"Guadalupe, NL, Nuevo Leon Mexico",Mexico,Bathroom Accessories | Mirrors | Shower Trays | Showers | Sinks | Toilets | Vanities | Wall Coverings,,,
KBIS 2022,02/08/2022,2022,https://kbis.com/,DM,Art For Everyday Inc,4876,,http://www.artforeveryday.com,,,,"Toronto, ON Canada",Canada,Bathroom Accessories | Kitchen Accessories | Closets | Moulding and Millwork | Full-Custom | Wood,,,"is the largest manufacturer and designer of architectural woodcarvings in North America. For over 20 years we've combined the skill of our experienced master carvers with the most advanced 3D & CNC technology to create high quality woodcarvings. We offer a selection of over 1,500 ready-to-ship products as well as our unique ability to bring design visions to life with custom carving and design applications."
KBIS 2022,02/08/2022,2022,https://kbis.com/,DM,BNK Bathroom and Kitchen INC,4465,,http://www.bnk-global.com,,,,"Doral, FL United States",United States,Bathroom Accessories | Kitchen Accessories | Dimming and Lighting Controls | Faucets | Showers | Sinks | Toilets | Vanities,,,"BNK is a direct importer of home improvement products, Here we do stock and distribute our mid to high-end products lines to wholesales and dealers nationwide, including vanities , LED lights, Prefabricated stone, toilets, faucets and more. We have over ten years of experience in bath & Kitchen products wholesale and constructions, provide customers with all-round services on the basis of strong support by 1 million sqf manufacturing plant around the world."
KBIS 2022,02/08/2022,2022,https://kbis.com/,DM,Bluefish Plumbing Supply Inc,5279,,https://www.rainlex-store.com,,,,"Santa Clara, CA United States",United States,Bathroom Accessories | Kitchen Accessories | Faucets,,,Rainlex - Your E-commerce Bathroom Partner
KBIS 2022,02/08/2022,2022,https://kbis.com/,DM,Articraft Cabinetry,5400,,https://www.articraftcabinetry.com,,,,"Fountain Valley, CA United States",United States,Bathroom Accessories | Kitchen Accessories | Ready to Assemble | Semi-Custom | Stock | Natural Stone and Tile | Quartz | Vanities,,,
KBIS 2022,02/08/2022,2022,https://kbis.com/,DM,Antolini Luigi & C. Spa,1637,,http://www.antolini.com,,,,"Sega di Cavaion, Italy",Italy,Natural Stone and Tile | Quartz | Marble | Tile | Outdoor Furniture | Vanities | Wall Coverings,,,
KBIS 2022,02/08/2022,2022,https://kbis.com/,DM,Architectural Surfaces,5161,,http://arcsurfaces.com/,,,,"Austin, TX United States",United States,Natural Stone and Tile | Quartz | Tile | Vanities | Wall Coverings,,,"MetroQuartz brings you the world’s finest engineered stone in a variety of stylish, contemporary hues to help you get the look you’ve been dreaming of. Beautiful yet durable, it’s the perfect choice to bring your countertops and other surfaces to life. MetroQuartz offers the beauty and feel of natural stone with the performance and design versatility of an engineered product. All of our surfaces come with a limited lifetime warranty so you can rest easy knowing your surface will always look as good as the day it was installed."
KBIS 2022,02/08/2022,2022,https://kbis.com/,DM,Armadi Art USA,458,,http://www.trinitybath.com,,,,"Millburn, NJ United States",United States,Vanities,,,"Official importers and distributors of Armadi Art luxury bathroom vanities and cabinets for USA. Our collections include, Acqua, Moderno, Vallessi, Dolce, Avantgarde and Classico brands by Armadi Art. All production is 100% made in Europe."
KBIS 2022,02/08/2022,2022,https://kbis.com/,DM,Ann Sacks,1100,,http://www.annsacks.com,,,,"Portland, OR United States",United States,Natural Stone and Tile | Tile,,,
KBIS 2022,02/08/2022,2022,https://kbis.com/,DM,Angi,4636,,http://www.angi.com,,,,"Denver, CO United States",United States,Computer Software Services | Marketing Consultants | Other | Communication Devices | Business-To-Business,,,HomeAdvisor and Angie's List are now
KBIS 2022,02/08/2022,2022,https://kbis.com/,DM,Arauco,4141,,https://na.arauco.com/,,,,"Atlanta, GA United States",United States,Closets | Doors | Moulding and Millwork | Building Materials,,,
KBIS 2022,02/08/2022,2022,https://kbis.com/,DM,American Quartz,4478,,www.americanquartz.com,,,,"Barstow, CA United States",United States,,,,
KBIS 2022,02/08/2022,2022,https://kbis.com/,DM,Angel Guard Cookware,4452,,https://youtu.be/DNmfy_BcnRM,,,,"Lake Elsinore, CA United States",United States,Kitchen Accessories | Cooking,,,"After respoinding on two seperate 911 calls were chidren were badly burned I invented the worlds first tip proof cookware. Our cookware locks into the burner grate of a gas cooking range, and will prevent the World's leading cause of burns to children. Gold medal winner in the Edison Awards, and now set to be available in the RV industry this year we are looking to bring it to kitchens accros the world and start preventing the worlds leading cause of burns today!"
KBIS 2022,02/08/2022,2022,https://kbis.com/,DM,Aojin,5681,,http://www.aojin-frp.com,,,,"Shanghai, Shanghai China",China,Bathtubs,,,"Established in 1993, Aojin is a professional manufacturer of Sanitary Wares and Composite Building Materials. Aojin has wild range of products, such as Acrylic Bathtubs and Whirlpool Baths; Polymarble & Solid Surface Bathtubs,Vanities and Shower Trays; various materials of Bathroom Cabinets. Our products are globally exported to main European countries, Americans, most of Asian countries, Australia and New Zealand etc."
KBIS 2022,02/08/2022,2022,https://kbis.com/,DM,"AmeriFirst Home Improvement Finance, LLC",3971,,http://www.trustamerifirst.com,,,,"Omaha, NE United States",United States,Financial/Mortgage Services,,,AmeriFirst Finance created the First Advantage Platnium loan program to help you finance more customers while simplifiing the loan process.  30+ years of common sense underwriting supports contractors nationwide.
KBIS 2022,02/08/2022,2022,https://kbis.com/,DM,Amerfit Hardware Inc.,6012,,http://www.amerfithardware.com,,,,"City of Industry, CA United States",United States,Bathroom Accessories | Kitchen Accessories | Shelving/Storage Systems | Closets | Doors | Decorative | Functional,,,"30Years Experiences on Cabinet Hardware, Furniture Hardware and Closet Hardware; Stock Series of  Hinges, Slides, Pulls and Knobs, Lazy Susan, Kinds of  Trash Bins, Barn Door Hardware, Hardware Accessories,etc in City Of  Industry, CA91746. SILVERLINE Hardware is our Registed Mark. We are the member of  NKBA, CMA, WI, AWFS;  Please Find our products on Linkedin, Facebook, Amazon, Ebay and our website: www. amerfithardware.com; OEM is warmly welcome;"
KBIS 2022,02/08/2022,2022,https://kbis.com/,DM,ACUVA Technologies,446,,http://www.acuvatech.com,,,,"Burnaby, BC Canada",Canada,Healthy Home/Wellness | Water Filtration,,,"Acuva™ is a world leader in UV-LED disinfection technology and designs innovative products for water disinfection. Acuva™ designs products that integrate the most advanced and compact technology, allowing for energy-efficiency and ultra-low maintenance. We strive to make a positive social impact with our technology, especially in these unprecedented times where safety from microbiological contamination has never been more important."
KBIS 2022,02/08/2022,2022,https://kbis.com/,DM,Amica Group,3865,,http://www.amica-group.com,,,,"Poznań, Wielkopolskie Poland",Poland,Cooking | Dishwashers | Laundry | Refrigeration | Home Automation | Smart Appliances,,,
KBIS 2022,02/08/2022,2022,https://kbis.com/,DM,Aline International,4834,,http://www.alinecabinets.com,,,,"Mokena, IL United States",United States,ADA Compliant | Ready to Assemble | Stock,,,"Factory direct wholesale cabinet company located in Chicago IL, deep inventory, ship RTA orders within 1-2 days."
KBIS 2022,02/08/2022,2022,https://kbis.com/,DM,ACO ShowerDrain,4425,,http://acoshowerdrain.us,,,,"Casa Grande, AZ United States",United States,Bathroom Accessories | ADA Compliant | Decorative | Showers | Universal Design/Aging in Place,,,"Whether you are building or remodeling your unique dream bath or shower, or the next luxury spa and resort, ACO designer shower drains and point drains are worth a serious look. In use in private homes, luxury resorts and spas worldwide. Visually appealing, easy to install and made of the highest quality stainless steel. Our line of ADA complaint linear / trench drains and square designer spa drains are the perfect complement to high quality marble and tile flooring."
KBIS 2022,02/08/2022,2022,https://kbis.com/,DM,Ally Lending,4878,,http://www.allylending.com/homeimprovement,,,,"Charlotte, NC United States",United States,Air Conditioning and Heating | Doors | Windows/Frames | Financial/Mortgage Services | Remodeling | Full-Custom | Decking,,,"Ally Lending provides home improvement financing solutions that give your customers the option to pay over time, while you get paid up front."
KBIS 2022,02/08/2022,2022,https://kbis.com/,DM,Adornus,4200,,http://www.adornus.com,,,,"Doral, FL United States",United States,Stock,,,"Adornus a leading manufacturer and distributor of elegant, yet affordable frameless kitchen and bathroom cabinets. Over the past several years, we have been trusted by our clients for our ability to provide cost effective home solutions without compromising the quality of our products."
KBIS 2022,02/08/2022,2022,https://kbis.com/,DM,ACE LIFE COMPANY LTD,5481,,http://www.acelifekorea.com,,,,"Asan-si, Chungcheongnam-do Korea (South)",Korea (South),Bathroom Accessories | Energy Efficiency | Water Conservation | Healthy Home/Wellness | Consumer Electronics | Smart Appliances | Bidets | Toilets,,,
KBIS 2022,02/08/2022,2022,https://kbis.com/,DM,Acorn Manufacturing Company Inc,5916,,http://www.acornmfg.com,,,,"Mansfield, MA United States",United States,Decorative | Functional,,,"Acorn Manufacturing Company offers a vast assortment of decorative forged iron and stainless hardware for your kitchen, bathroom, interior and exterior door, shutter and garage. Also cast iron grilles, registers and Tremont cut nails for wide plank flooring. Come see these and more at booth #S3971."
KBIS 2022,02/08/2022,2022,https://kbis.com/,DM,ABKSTONE,5271,,http://www.abkstone.com,,,,"Finale Emilia, Modena Italy",Italy,Natural Stone and Tile | Tile | Consumer Electronics | Grills/Outdoor Cooking,,,"ABKSTONE is a brand of ABKGROUP and uses the group’s production facilities located in the heart of the Emilia region’s ceramic district. ABKGROUP has been operating in the large size slab segment since several years and through its brand ABK Emozioni in Superficie in particular has developed a unique and original product vision based on research into raw materials, new compaction techniques and constant attention to style trends and the market."
KBIS 2022,02/08/2022,2022,https://kbis.com/,DM,James Martin Signature Vanities,3818,,https://jamesmartinfurniture.com/,,,,"Dallas, TX United States",United States,Mirrors | Natural Stone and Tile | Quartz | Solid Surface | Building Materials | Universal Design/Aging in Place | Vanities,,,Our designs start with quality materials and centuries old construction techniques.  James Martin's artisans build furniture pieces constructed to last and designed to be both functional and beautiful.
KBIS 2022,02/08/2022,2022,https://kbis.com/,DM,Bemis Manufacturing Company,1273,,http://toiletseats.com,,,,"Sheboygan Falls, WI United States",United States,Bathroom Accessories | Bidets | Faucets | Toilet Seats | Toilets | Business-To-Business | Consumer,,,
KBIS 2022,02/08/2022,2022,https://kbis.com/,DM,2020,1700,,https://www.2020spaces.com/,,,,"Grand Rapids, MI United States",United States,Computer Software Services,,,"2020 helps professional designers, retailers and manufacturers in the interior design and furniture industries bring ideas to life, inspire innovation and streamline processes. By providing end-to-end solutions and the world’s largest collection of manufacturers’ catalogs, 2020 provides businesses with the software and content to be more efficient, integrated and productive. For more information, visit our website"
KBIS 2022,02/08/2022,2022,https://kbis.com/,DM,Goldenhome,4600,,http://www.goldenhomekitchen.com,,,,"Xiamen, China",China,Remodeling | Full-Custom | Ready to Assemble | Semi-Custom | Stock | Quartz | Vanities,,,
KBIS 2022,02/08/2022,2022,https://kbis.com/,DM,Amica Group,3865,,http://www.amica-group.com,,,,"Poznań, Wielkopolskie Poland",Poland,Cooking | Dishwashers | Laundry | Refrigeration | Home Automation | Smart Appliances,,,
KBIS 2022,02/08/2022,2022,https://kbis.com/,DM,Airmada Drying Solutions,3771,,http://www.airmadadry.com,,,,"Lincoln, NE United States",United States,Bathroom Accessories | Other | Decorative | Home Automation | Showers,,,"The Airmada Shower Drying System is a new, revolutionary product taking the bathroom industry by storm. The patented system uses air-jet nozzles to help dry the shower space after use. By drying out the shower surfaces, Airmada helps to prevent mold, mildew, slippery floors, water marks and after shower humidity.We are featured in the 2022 New American Home at the International Builders Show and most recently the 2021 New American Home at the International Builders Show as well as Parade of Homes in Florida, and Washington. Our Shower Drying Systems were included an article about solving and preventing water issues in bathrooms in The Washington Post."
