ShowName,ShowDate,ShowYear,ShowWebsite,SubmittedBy,ExhibitorName,BoothNumber,HallLocation,Website,Email,Phone,Fax,Address,Country,Categories,Manufacturers,Brands,Description
Global Pet Expo,03/23/2022,2022,https://globalpetexpo.org/,DM,Aquael,4444,North/South Building,,,,,,,,,,
Global Pet Expo,03/23/2022,2022,https://globalpetexpo.org/,DM,Animal Essentials,644,North/South Building,,,,,,,,,,
Global Pet Expo,03/23/2022,2022,https://globalpetexpo.org/,DM,Aquael,4444,North/South Building,,,,,,,,,,
Global Pet Expo,03/23/2022,2022,https://globalpetexpo.org/,DM,Annamaet Petfoods Inc,229,North/South Building,,,,,,,,,,
Global Pet Expo,03/23/2022,2022,https://globalpetexpo.org/,DM,"Applaws Pet Food - MPM Products USA, Inc.",441,North/South Building,,,,,,,,,,
Global Pet Expo,03/23/2022,2022,https://globalpetexpo.org/,DM,Animal Supply Company,661,North/South Building,,,,,,,,,,
Global Pet Expo,03/23/2022,2022,https://globalpetexpo.org/,DM,ZYMOX and Oratene by Pet King Brands,1600,North/South Building,,,,,,,,,,
Global Pet Expo,03/23/2022,2022,https://globalpetexpo.org/,DM,Animal Essentials,644,North/South Building,,,,,,,,,,
Global Pet Expo,03/23/2022,2022,https://globalpetexpo.org/,DM,Amici Pet,6008,North/South Building,,,,,,,,,,
Global Pet Expo,03/23/2022,2022,https://globalpetexpo.org/,DM,Animal ID Platfrom,3268,North/South Building,,,,,,,,,,
Global Pet Expo,03/23/2022,2022,https://globalpetexpo.org/,DM,Annamaet Petfoods Inc,229,North/South Building,,,,,,,,,,
Global Pet Expo,03/23/2022,2022,https://globalpetexpo.org/,DM,Closer Pets,2439,North/South Building,,,,,,,,,,
Global Pet Expo,03/23/2022,2022,https://globalpetexpo.org/,DM,Andersons Pet Care Products,2109,North/South Building,,,,,,,,,,
Global Pet Expo,03/23/2022,2022,https://globalpetexpo.org/,DM,AndesFoods Cia. Ltda.,1668,North/South Building,,,,,,,,,,
Global Pet Expo,03/23/2022,2022,https://globalpetexpo.org/,DM,AndesFoods Cia. Ltda.,1668,North/South Building,,,,,,,,,,
Global Pet Expo,03/23/2022,2022,https://globalpetexpo.org/,DM,Andis Company,4826,North/South Building,,,,,,,,,,
Global Pet Expo,03/23/2022,2022,https://globalpetexpo.org/,DM,Animal ID Platfrom,3268,North/South Building,,,,,,,,,,
Global Pet Expo,03/23/2022,2022,https://globalpetexpo.org/,DM,Zoo Med,5221,North/South Building,,,,,,,,,,
Global Pet Expo,03/23/2022,2022,https://globalpetexpo.org/,DM,Zenta Pets,5240,North/South Building,,,,,,,,,,
Global Pet Expo,03/23/2022,2022,https://globalpetexpo.org/,DM,Zen Habitats,2668,North/South Building,,,,,,,,,,
Global Pet Expo,03/23/2022,2022,https://globalpetexpo.org/,DM,Zinpro Corporation,5617,North/South Building,,,,,,,,,,
Global Pet Expo,03/23/2022,2022,https://globalpetexpo.org/,DM,ZippyPaws,5200,North/South Building,,,,,,,,,,
Global Pet Expo,03/23/2022,2022,https://globalpetexpo.org/,DM,ZenPet,2463,North/South Building,,,,,,,,,,
Global Pet Expo,03/23/2022,2022,https://globalpetexpo.org/,DM,Zoo Med,5221,North/South Building,,,,,,,,,,
Global Pet Expo,03/23/2022,2022,https://globalpetexpo.org/,DM,Yummy Combs,1504,North/South Building,,,,,,,,,,
Global Pet Expo,03/23/2022,2022,https://globalpetexpo.org/,DM,Yellow Dog Design,6011,North/South Building,,,,,,,,,,
Global Pet Expo,03/23/2022,2022,https://globalpetexpo.org/,DM,Travel Cat | Your Cat Backpack,6022,North/South Building,,,,,,,,,,
Global Pet Expo,03/23/2022,2022,https://globalpetexpo.org/,DM,Yeti Corporation,1150,North/South Building,,,,,,,,,,
Global Pet Expo,03/23/2022,2022,https://globalpetexpo.org/,DM,Yeowww! Catnip,2644,North/South Building,,,,,,,,,,
Global Pet Expo,03/23/2022,2022,https://globalpetexpo.org/,DM,Yak9 Dog Chews,648,North/South Building,,,,,,,,,,
Global Pet Expo,03/23/2022,2022,https://globalpetexpo.org/,DM,"Zeigler Bros., Inc.",4839,North/South Building,,,,,,,,,,
Global Pet Expo,03/23/2022,2022,https://globalpetexpo.org/,DM,Wyo-Ben Pet,2768,North/South Building,,,,,,,,,,
Global Pet Expo,03/23/2022,2022,https://globalpetexpo.org/,DM,Xtreme Aquatic Foods,4139,North/South Building,,,,,,,,,,
Global Pet Expo,03/23/2022,2022,https://globalpetexpo.org/,DM,Zen Habitats,2668,North/South Building,,,,,,,,,,
Global Pet Expo,03/23/2022,2022,https://globalpetexpo.org/,DM,Yuup! Cosmetics for pets,5826,North/South Building,,,,,,,,,,
Global Pet Expo,03/23/2022,2022,https://globalpetexpo.org/,DM,Wyo-Ben Pet,2768,North/South Building,,,,,,,,,,
Global Pet Expo,03/23/2022,2022,https://globalpetexpo.org/,DM,Xtreme Aquatic Foods,4139,North/South Building,,,,,,,,,,
Global Pet Expo,03/23/2022,2022,https://globalpetexpo.org/,DM,WizSmart by Petix,1958,North/South Building,,,,,,,,,,
Global Pet Expo,03/23/2022,2022,https://globalpetexpo.org/,DM,Wolfgang Man & Beast,5823,North/South Building,,,,,,,,,,
Global Pet Expo,03/23/2022,2022,https://globalpetexpo.org/,DM,Woofkies,1868,North/South Building,,,,,,,,,,
Global Pet Expo,03/23/2022,2022,https://globalpetexpo.org/,DM,Wolf Spring,2071,North/South Building,,,,,,,,,,
Global Pet Expo,03/23/2022,2022,https://globalpetexpo.org/,DM,Woof Wear Collars,6017,North/South Building,,,,,,,,,,
Global Pet Expo,03/23/2022,2022,https://globalpetexpo.org/,DM,SuperZoo by WPA,3064,North/South Building,,,,,,,,,,
Global Pet Expo,03/23/2022,2022,https://globalpetexpo.org/,DM,"Worldwise, Inc.",3636,North/South Building,,,,,,,,,,
Global Pet Expo,03/23/2022,2022,https://globalpetexpo.org/,DM,Shernbao USA Inc,5141,North/South Building,,,,,,,,,,
Global Pet Expo,03/23/2022,2022,https://globalpetexpo.org/,DM,PETIPET,2868,North/South Building,,,,,,,,,,
Global Pet Expo,03/23/2022,2022,https://globalpetexpo.org/,DM,Wildlife Sciences,2409,North/South Building,,,,,,,,,,
Global Pet Expo,03/23/2022,2022,https://globalpetexpo.org/,DM,Connolly's RED MILLS,1473,North/South Building,,,,,,,,,,
Global Pet Expo,03/23/2022,2022,https://globalpetexpo.org/,DM,Wet Noses Natural Dog Treat Co.,232,North/South Building,,,,,,,,,,
Global Pet Expo,03/23/2022,2022,https://globalpetexpo.org/,DM,Wet Noses Natural Dog Treat Co.,232,North/South Building,,,,,,,,,,
Global Pet Expo,03/23/2022,2022,https://globalpetexpo.org/,DM,Suzie's CBD Treats,2958,North/South Building,,,,,,,,,,
Global Pet Expo,03/23/2022,2022,https://globalpetexpo.org/,DM,White Dog Club USA,2968,North/South Building,,,,,,,,,,
Global Pet Expo,03/23/2022,2022,https://globalpetexpo.org/,DM,Westminster Pet Products,1819,North/South Building,,,,,,,,,,
Global Pet Expo,03/23/2022,2022,https://globalpetexpo.org/,DM,West Paw,814,North/South Building,,,,,,,,,,
Global Pet Expo,03/23/2022,2022,https://globalpetexpo.org/,DM,Wellness,1850,North/South Building,,,,,,,,,,
Global Pet Expo,03/23/2022,2022,https://globalpetexpo.org/,DM,Wee Away Company,2506,North/South Building,,,,,,,,,,
Global Pet Expo,03/23/2022,2022,https://globalpetexpo.org/,DM,Weelywally,1303,North/South Building,,,,,,,,,,
Global Pet Expo,03/23/2022,2022,https://globalpetexpo.org/,DM,Wellness,1850,North/South Building,,,,,,,,,,
Global Pet Expo,03/23/2022,2022,https://globalpetexpo.org/,DM,Wahl Clipper Corporation,4001,North/South Building,,,,,,,,,,
Global Pet Expo,03/23/2022,2022,https://globalpetexpo.org/,DM,Walk About Pet,1213,North/South Building,,,,,,,,,,
Global Pet Expo,03/23/2022,2022,https://globalpetexpo.org/,DM,Walk About Pet,1213,North/South Building,,,,,,,,,,
Global Pet Expo,03/23/2022,2022,https://globalpetexpo.org/,DM,Walkin' Pets,3141,North/South Building,,,,,,,,,,
Global Pet Expo,03/23/2022,2022,https://globalpetexpo.org/,DM,Ware Pet Products,5204,North/South Building,,,,,,,,,,
Global Pet Expo,03/23/2022,2022,https://globalpetexpo.org/,DM,Ware Pet Products,5204,North/South Building,,,,,,,,,,
Global Pet Expo,03/23/2022,2022,https://globalpetexpo.org/,DM,Warren London,4906,North/South Building,,,,,,,,,,
Global Pet Expo,03/23/2022,2022,https://globalpetexpo.org/,DM,Wagz,3806,North/South Building,,,,,,,,,,
Global Pet Expo,03/23/2022,2022,https://globalpetexpo.org/,DM,Wagsdale,2960,North/South Building,,,,,,,,,,
Global Pet Expo,03/23/2022,2022,https://globalpetexpo.org/,DM,Waggin Water,939,North/South Building,,,,,,,,,,
Global Pet Expo,03/23/2022,2022,https://globalpetexpo.org/,DM,Wagz,3806,North/South Building,,,,,,,,,,
Global Pet Expo,03/23/2022,2022,https://globalpetexpo.org/,DM,The Missing Link,1039,North/South Building,,,,,,,,,,
Global Pet Expo,03/23/2022,2022,https://globalpetexpo.org/,DM,Volkman Pet Products,5600,North/South Building,,,,,,,,,,
Global Pet Expo,03/23/2022,2022,https://globalpetexpo.org/,DM,Vital Pet Provisions,3138,North/South Building,,,,,,,,,,
Global Pet Expo,03/23/2022,2022,https://globalpetexpo.org/,DM,VICTOR SUPER PREMIUM PET FOOD,4223,North/South Building,,,,,,,,,,
Global Pet Expo,03/23/2022,2022,https://globalpetexpo.org/,DM,REX Animal Nutrition,1970,North/South Building,,,,,,,,,,
Global Pet Expo,03/23/2022,2022,https://globalpetexpo.org/,DM,Vitakraft Sun Seed Inc,2004,North/South Building,,,,,,,,,,
Global Pet Expo,03/23/2022,2022,https://globalpetexpo.org/,DM,Vital Essentials,253,North/South Building,,,,,,,,,,
Global Pet Expo,03/23/2022,2022,https://globalpetexpo.org/,DM,Vetdiet,2870,North/South Building,,,,,,,,,,
Global Pet Expo,03/23/2022,2022,https://globalpetexpo.org/,DM,Vitakraft Sun Seed Inc,2004,North/South Building,,,,,,,,,,
Global Pet Expo,03/23/2022,2022,https://globalpetexpo.org/,DM,"Vets Plus, Inc.",902,North/South Building,,,,,,,,,,
Global Pet Expo,03/23/2022,2022,https://globalpetexpo.org/,DM,Vetsource,6037,North/South Building,,,,,,,,,,
Global Pet Expo,03/23/2022,2022,https://globalpetexpo.org/,DM,Vital Essentials,253,North/South Building,,,,,,,,,,
Global Pet Expo,03/23/2022,2022,https://globalpetexpo.org/,DM,VARUN UDYOG PETS,5812,North/South Building,,,,,,,,,,
Global Pet Expo,03/23/2022,2022,https://globalpetexpo.org/,DM,Versele-Laga/Higgins Premium Pet Foods,4009,North/South Building,,,,,,,,,,
Global Pet Expo,03/23/2022,2022,https://globalpetexpo.org/,DM,Veritas Farms,1052,North/South Building,,,,,,,,,,
Global Pet Expo,03/23/2022,2022,https://globalpetexpo.org/,DM,Van Ness Pets,3430,North/South Building,,,,,,,,,,
Global Pet Expo,03/23/2022,2022,https://globalpetexpo.org/,DM,Verus Pet Foods,1041,North/South Building,,,,,,,,,,
Global Pet Expo,03/23/2022,2022,https://globalpetexpo.org/,DM,VARUN UDYOG PETS,5812,North/South Building,,,,,,,,,,
Global Pet Expo,03/23/2022,2022,https://globalpetexpo.org/,DM,Finish Line Pets/Vet Worthy,3050,North/South Building,,,,,,,,,,
Global Pet Expo,03/23/2022,2022,https://globalpetexpo.org/,DM,ValuePetSupplies,1112,North/South Building,,,,,,,,,,
Global Pet Expo,03/23/2022,2022,https://globalpetexpo.org/,DM,Van Ness Pets,3430,North/South Building,,,,,,,,,,
Global Pet Expo,03/23/2022,2022,https://globalpetexpo.org/,DM,VAFO Group a.s.,3273,North/South Building,,,,,,,,,,
Global Pet Expo,03/23/2022,2022,https://globalpetexpo.org/,DM,Up Country inc.,5800,North/South Building,,,,,,,,,,
Global Pet Expo,03/23/2022,2022,https://globalpetexpo.org/,DM,VAFO Group a.s.,3273,North/South Building,,,,,,,,,,
Global Pet Expo,03/23/2022,2022,https://globalpetexpo.org/,DM,Up Country inc.,5800,North/South Building,,,,,,,,,,
Global Pet Expo,03/23/2022,2022,https://globalpetexpo.org/,DM,Pet Stores USA,2015,North/South Building,,,,,,,,,,
Global Pet Expo,03/23/2022,2022,https://globalpetexpo.org/,DM,Ultra Pet,4036,North/South Building,,,,,,,,,,
Global Pet Expo,03/23/2022,2022,https://globalpetexpo.org/,DM,"Unipet, LLC",5922,North/South Building,,,,,,,,,,
Global Pet Expo,03/23/2022,2022,https://globalpetexpo.org/,DM,UMMP llc.,111,North/South Building,,,,,,,,,,
Global Pet Expo,03/23/2022,2022,https://globalpetexpo.org/,DM,UMMP llc.,111,North/South Building,,,,,,,,,,
Global Pet Expo,03/23/2022,2022,https://globalpetexpo.org/,DM,"Unipet, LLC",5922,North/South Building,,,,,,,,,,
Global Pet Expo,03/23/2022,2022,https://globalpetexpo.org/,DM,Unique Petz,464,North/South Building,,,,,,,,,,
Global Pet Expo,03/23/2022,2022,https://globalpetexpo.org/,DM,Under the Weather,2760,North/South Building,,,,,,,,,,
Global Pet Expo,03/23/2022,2022,https://globalpetexpo.org/,DM,Tuscan Natural Pet Foods & Treats,650,North/South Building,,,,,,,,,,
Global Pet Expo,03/23/2022,2022,https://globalpetexpo.org/,DM,Uckele Health & Nutrition,3255,North/South Building,,,,,,,,,,
Global Pet Expo,03/23/2022,2022,https://globalpetexpo.org/,DM,Tug Pet Products,5822,North/South Building,,,,,,,,,,
Global Pet Expo,03/23/2022,2022,https://globalpetexpo.org/,DM,UCARI,1672,North/South Building,,,,,,,,,,
Global Pet Expo,03/23/2022,2022,https://globalpetexpo.org/,DM,uahpet,1371,North/South Building,,,,,,,,,,
Global Pet Expo,03/23/2022,2022,https://globalpetexpo.org/,DM,Tucker's Raw Frozen and Freeze-Dried,406,North/South Building,,,,,,,,,,
Global Pet Expo,03/23/2022,2022,https://globalpetexpo.org/,DM,Uckele Health & Nutrition,3255,North/South Building,,,,,,,,,,
Global Pet Expo,03/23/2022,2022,https://globalpetexpo.org/,DM,UCM GROUP,5247,North/South Building,,,,,,,,,,
Global Pet Expo,03/23/2022,2022,https://globalpetexpo.org/,DM,NutriSource Pet Foods,614,North/South Building,,,,,,,,,,
Global Pet Expo,03/23/2022,2022,https://globalpetexpo.org/,DM,Ultra Pet,4036,North/South Building,,,,,,,,,,
Global Pet Expo,03/23/2022,2022,https://globalpetexpo.org/,DM,Tug Pet Products,5822,North/South Building,,,,,,,,,,
Global Pet Expo,03/23/2022,2022,https://globalpetexpo.org/,DM,Cosmos Corporation (TropiClean® Pet Products – Naturél Promise Pet Products – Urine Off® Stain & Odor Solutions),2609,North/South Building,,,,,,,,,,
Global Pet Expo,03/23/2022,2022,https://globalpetexpo.org/,DM,True Leaf,739,North/South Building,,,,,,,,,,
Global Pet Expo,03/23/2022,2022,https://globalpetexpo.org/,DM,Tucker's Raw Frozen and Freeze-Dried,406,North/South Building,,,,,,,,,,
Global Pet Expo,03/23/2022,2022,https://globalpetexpo.org/,DM,True Leaf,739,North/South Building,,,,,,,,,,
Global Pet Expo,03/23/2022,2022,https://globalpetexpo.org/,DM,Tropical Fish International,5038,North/South Building,,,,,,,,,,
Global Pet Expo,03/23/2022,2022,https://globalpetexpo.org/,DM,"Healthy Tracks for Pets / Trividia Health, Inc.",1471,North/South Building,,,,,,,,,,
Global Pet Expo,03/23/2022,2022,https://globalpetexpo.org/,DM,Trisha Yearwood Pet Collection,538,North/South Building,,,,,,,,,,
Global Pet Expo,03/23/2022,2022,https://globalpetexpo.org/,DM,Treatibles,948,North/South Building,,,,,,,,,,
Global Pet Expo,03/23/2022,2022,https://globalpetexpo.org/,DM,TriNova,2170,North/South Building,,,,,,,,,,
Global Pet Expo,03/23/2022,2022,https://globalpetexpo.org/,DM,Tribe 9 Foods,1005,North/South Building,,,,,,,,,,
Global Pet Expo,03/23/2022,2022,https://globalpetexpo.org/,DM,Travel Cat | Your Cat Backpack,6022,North/South Building,,,,,,,,,,
Global Pet Expo,03/23/2022,2022,https://globalpetexpo.org/,DM,Treat Planet,222,North/South Building,,,,,,,,,,
Global Pet Expo,03/23/2022,2022,https://globalpetexpo.org/,DM,Treat Planet,222,North/South Building,,,,,,,,,,
Global Pet Expo,03/23/2022,2022,https://globalpetexpo.org/,DM,Tony La Russa's Animal Rescue Foundation Pets and Vets Program,3409,North/South Building,,,,,,,,,,
Global Pet Expo,03/23/2022,2022,https://globalpetexpo.org/,DM,Top Dog Brand K-9 Leather Gear,2539,North/South Building,,,,,,,,,,
Global Pet Expo,03/23/2022,2022,https://globalpetexpo.org/,DM,DoggyRade,1172,North/South Building,,,,,,,,,,
Global Pet Expo,03/23/2022,2022,https://globalpetexpo.org/,DM,Timberline Live Pet Foods,5214,North/South Building,,,,,,,,,,
Global Pet Expo,03/23/2022,2022,https://globalpetexpo.org/,DM,Top Dog Brand K-9 Leather Gear,2539,North/South Building,,,,,,,,,,
Global Pet Expo,03/23/2022,2022,https://globalpetexpo.org/,DM,Tony La Russa's Animal Rescue Foundation Pets and Vets Program,3409,North/South Building,,,,,,,,,,
Global Pet Expo,03/23/2022,2022,https://globalpetexpo.org/,DM,TicklessUSA,5244,North/South Building,,,,,,,,,,
Global Pet Expo,03/23/2022,2022,https://globalpetexpo.org/,DM,Tibetan Dog Chew,544,North/South Building,,,,,,,,,,
Global Pet Expo,03/23/2022,2022,https://globalpetexpo.org/,DM,ThunderWorks,4423,North/South Building,,,,,,,,,,
Global Pet Expo,03/23/2022,2022,https://globalpetexpo.org/,DM,Durkha Dog Chew,850,North/South Building,,,,,,,,,,
Global Pet Expo,03/23/2022,2022,https://globalpetexpo.org/,DM,TickledPet,241,North/South Building,,,,,,,,,,
Global Pet Expo,03/23/2022,2022,https://globalpetexpo.org/,DM,ThunderWorks,4423,North/South Building,,,,,,,,,,
Global Pet Expo,03/23/2022,2022,https://globalpetexpo.org/,DM,Calmr Dog Toys,1170,North/South Building,,,,,,,,,,
Global Pet Expo,03/23/2022,2022,https://globalpetexpo.org/,DM,Original Territory,2462,North/South Building,,,,,,,,,,
Global Pet Expo,03/23/2022,2022,https://globalpetexpo.org/,DM,The Wild Bone Company,1054,North/South Building,,,,,,,,,,
Global Pet Expo,03/23/2022,2022,https://globalpetexpo.org/,DM,The Worthy Dog,5804,North/South Building,,,,,,,,,,
Global Pet Expo,03/23/2022,2022,https://globalpetexpo.org/,DM,The Natural Dog Company,1109,North/South Building,,,,,,,,,,
Global Pet Expo,03/23/2022,2022,https://globalpetexpo.org/,DM,The Missing Link,1039,North/South Building,,,,,,,,,,
Global Pet Expo,03/23/2022,2022,https://globalpetexpo.org/,DM,The MicroBarkery,1602,North/South Building,,,,,,,,,,
Global Pet Expo,03/23/2022,2022,https://globalpetexpo.org/,DM,The little Cat,2663,North/South Building,,,,,,,,,,
Global Pet Expo,03/23/2022,2022,https://globalpetexpo.org/,DM,The MicroBarkery,1602,North/South Building,,,,,,,,,,
Global Pet Expo,03/23/2022,2022,https://globalpetexpo.org/,DM,"The Lazy Dog Cookie Co., Inc.",809,North/South Building,,,,,,,,,,
Global Pet Expo,03/23/2022,2022,https://globalpetexpo.org/,DM,The Marvelous Company,1368,North/South Building,,,,,,,,,,
Global Pet Expo,03/23/2022,2022,https://globalpetexpo.org/,DM,The Honest Kitchen,414,North/South Building,,,,,,,,,,
Global Pet Expo,03/23/2022,2022,https://globalpetexpo.org/,DM,The Green Pet Shop,226,North/South Building,,,,,,,,,,
Global Pet Expo,03/23/2022,2022,https://globalpetexpo.org/,DM,The Gralen Company,2009,North/South Building,,,,,,,,,,
Global Pet Expo,03/23/2022,2022,https://globalpetexpo.org/,DM,The Culture Club,738,North/South Building,,,,,,,,,,
Global Pet Expo,03/23/2022,2022,https://globalpetexpo.org/,DM,Tender & True Pet Nutrition,548,North/South Building,,,,,,,,,,
Global Pet Expo,03/23/2022,2022,https://globalpetexpo.org/,DM,The F.L. Emmert Company,6010,North/South Building,,,,,,,,,,
Global Pet Expo,03/23/2022,2022,https://globalpetexpo.org/,DM,FunDog Bandanas,6004,North/South Building,,,,,,,,,,
Global Pet Expo,03/23/2022,2022,https://globalpetexpo.org/,DM,Thai Awesome,1773,North/South Building,,,,,,,,,,
Global Pet Expo,03/23/2022,2022,https://globalpetexpo.org/,DM,The Marvelous Company,1368,North/South Building,,,,,,,,,,
Global Pet Expo,03/23/2022,2022,https://globalpetexpo.org/,DM,Thai Awesome,1773,North/South Building,,,,,,,,,,
Global Pet Expo,03/23/2022,2022,https://globalpetexpo.org/,DM,Tevra Brand Products,3005,North/South Building,,,,,,,,,,
Global Pet Expo,03/23/2022,2022,https://globalpetexpo.org/,DM,TALL TAILS,2460,North/South Building,,,,,,,,,,
Global Pet Expo,03/23/2022,2022,https://globalpetexpo.org/,DM,TarHong,2758,North/South Building,,,,,,,,,,
Global Pet Expo,03/23/2022,2022,https://globalpetexpo.org/,DM,Ready Go Ice Melter - No Salts or Chlorides + Traction,5144,North/South Building,,,,,,,,,,
Global Pet Expo,03/23/2022,2022,https://globalpetexpo.org/,DM,Targeted PetCare,2454,North/South Building,,,,,,,,,,
Global Pet Expo,03/23/2022,2022,https://globalpetexpo.org/,DM,Tether Tug,1311,North/South Building,,,,,,,,,,
Global Pet Expo,03/23/2022,2022,https://globalpetexpo.org/,DM,"TAIZHOU HUANGYAN AOTONG PET PRODUCTS CO., LTD",2661,North/South Building,,,,,,,,,,
Global Pet Expo,03/23/2022,2022,https://globalpetexpo.org/,DM,Barkworthies/Paw Love,209,North/South Building,,,,,,,,,,
Global Pet Expo,03/23/2022,2022,https://globalpetexpo.org/,DM,"TAIZHOU HUANGYAN AOTONG PET PRODUCTS CO., LTD",2661,North/South Building,,,,,,,,,,
Global Pet Expo,03/23/2022,2022,https://globalpetexpo.org/,DM,Tailspring,2173,North/South Building,,,,,,,,,,
Global Pet Expo,03/23/2022,2022,https://globalpetexpo.org/,DM,Synergy Labs,5046,North/South Building,,,,,,,,,,
Global Pet Expo,03/23/2022,2022,https://globalpetexpo.org/,DM,Synergy Labs,5046,North/South Building,,,,,,,,,,
Global Pet Expo,03/23/2022,2022,https://globalpetexpo.org/,DM,Suzie's CBD Treats,2958,North/South Building,,,,,,,,,,
Global Pet Expo,03/23/2022,2022,https://globalpetexpo.org/,DM,SwedencareUSA,4909,North/South Building,,,,,,,,,,
Global Pet Expo,03/23/2022,2022,https://globalpetexpo.org/,DM,PF active,3370,North/South Building,,,,,,,,,,
Global Pet Expo,03/23/2022,2022,https://globalpetexpo.org/,DM,"Suzhou Ropet Co., Ltd.",1571,North/South Building,,,,,,,,,,
Global Pet Expo,03/23/2022,2022,https://globalpetexpo.org/,DM,"Suzhou Vacs Electrical Co.,Ltd",2560,North/South Building,,,,,,,,,,
Global Pet Expo,03/23/2022,2022,https://globalpetexpo.org/,DM,SuperZoo by WPA,3064,North/South Building,,,,,,,,,,
Global Pet Expo,03/23/2022,2022,https://globalpetexpo.org/,DM,Supreme Petfoods,5044,North/South Building,,,,,,,,,,
Global Pet Expo,03/23/2022,2022,https://globalpetexpo.org/,DM,Supreme Petfoods,5044,North/South Building,,,,,,,,,,
Global Pet Expo,03/23/2022,2022,https://globalpetexpo.org/,DM,Superior Farms Pet Provisions,400,North/South Building,,,,,,,,,,
Global Pet Expo,03/23/2022,2022,https://globalpetexpo.org/,DM,Supercan Bully Sticks LLC,1104,North/South Building,,,,,,,,,,
Global Pet Expo,03/23/2022,2022,https://globalpetexpo.org/,DM,Sustainably Yours,1606,North/South Building,,,,,,,,,,
Global Pet Expo,03/23/2022,2022,https://globalpetexpo.org/,DM,Summma International,5236,North/South Building,,,,,,,,,,
Global Pet Expo,03/23/2022,2022,https://globalpetexpo.org/,DM,Super Snouts,955,North/South Building,,,,,,,,,,
Global Pet Expo,03/23/2022,2022,https://globalpetexpo.org/,DM,Sunrise Farms Pet Products LLC,203,North/South Building,,,,,,,,,,
Global Pet Expo,03/23/2022,2022,https://globalpetexpo.org/,DM,"Sunshine Mills, Inc.",1236,North/South Building,,,,,,,,,,
Global Pet Expo,03/23/2022,2022,https://globalpetexpo.org/,DM,"Sunshine Mills, Inc.",1236,North/South Building,,,,,,,,,,
Global Pet Expo,03/23/2022,2022,https://globalpetexpo.org/,DM,Summma International,5236,North/South Building,,,,,,,,,,
Global Pet Expo,03/23/2022,2022,https://globalpetexpo.org/,DM,Super Snouts,955,North/South Building,,,,,,,,,,
Global Pet Expo,03/23/2022,2022,https://globalpetexpo.org/,DM,Steve's Real Food,617,North/South Building,,,,,,,,,,
Global Pet Expo,03/23/2022,2022,https://globalpetexpo.org/,DM,Steve's Real Food,617,North/South Building,,,,,,,,,,
Global Pet Expo,03/23/2022,2022,https://globalpetexpo.org/,DM,Beg & Barker,437,North/South Building,,,,,,,,,,
Global Pet Expo,03/23/2022,2022,https://globalpetexpo.org/,DM,Suitical International B.V.,3041,North/South Building,,,,,,,,,,
Global Pet Expo,03/23/2022,2022,https://globalpetexpo.org/,DM,Stashios,1064,North/South Building,,,,,,,,,,
Global Pet Expo,03/23/2022,2022,https://globalpetexpo.org/,DM,Starmark Pet Products,1644,North/South Building,,,,,,,,,,
Global Pet Expo,03/23/2022,2022,https://globalpetexpo.org/,DM,Steeldog LLC,5311,North/South Building,,,,,,,,,,
Global Pet Expo,03/23/2022,2022,https://globalpetexpo.org/,DM,Stephens Pipe & Steel,2112,North/South Building,,,,,,,,,,
Global Pet Expo,03/23/2022,2022,https://globalpetexpo.org/,DM,Stella & Chewy's,620,North/South Building,,,,,,,,,,
Global Pet Expo,03/23/2022,2022,https://globalpetexpo.org/,DM,"Doctor's, Canine, Equine, and Pet Hemp Solutions",1670,North/South Building,,,,,,,,,,
Global Pet Expo,03/23/2022,2022,https://globalpetexpo.org/,DM,Standard Fiber,3464,North/South Building,,,,,,,,,,
Global Pet Expo,03/23/2022,2022,https://globalpetexpo.org/,DM,Standlee Premium Products,2964,North/South Building,,,,,,,,,,
Global Pet Expo,03/23/2022,2022,https://globalpetexpo.org/,DM,Standlee Premium Products,2964,North/South Building,,,,,,,,,,
Global Pet Expo,03/23/2022,2022,https://globalpetexpo.org/,DM,SquarePet,1603,North/South Building,,,,,,,,,,
Global Pet Expo,03/23/2022,2022,https://globalpetexpo.org/,DM,SquarePet,1603,North/South Building,,,,,,,,,,
Global Pet Expo,03/23/2022,2022,https://globalpetexpo.org/,DM,Springer,811,North/South Building,,,,,,,,,,
Global Pet Expo,03/23/2022,2022,https://globalpetexpo.org/,DM,Spunky Pup,5436,North/South Building,,,,,,,,,,
Global Pet Expo,03/23/2022,2022,https://globalpetexpo.org/,DM,SpoiledRottenDogz,5902,North/South Building,,,,,,,,,,
Global Pet Expo,03/23/2022,2022,https://globalpetexpo.org/,DM,Sport It LLC,1964,North/South Building,,,,,,,,,,
Global Pet Expo,03/23/2022,2022,https://globalpetexpo.org/,DM,SPINS,1013,North/South Building,,,,,,,,,,
Global Pet Expo,03/23/2022,2022,https://globalpetexpo.org/,DM,SPINS,1013,North/South Building,,,,,,,,,,
Global Pet Expo,03/23/2022,2022,https://globalpetexpo.org/,DM,Spectrum Brands / Global Pet Care,4228,North/South Building,,,,,,,,,,
Global Pet Expo,03/23/2022,2022,https://globalpetexpo.org/,DM,"Specialty Products Resources, Inc",3036,North/South Building,,,,,,,,,,
Global Pet Expo,03/23/2022,2022,https://globalpetexpo.org/,DM,Specialty Enzymes & Probiotics,1713,North/South Building,,,,,,,,,,
Global Pet Expo,03/23/2022,2022,https://globalpetexpo.org/,DM,"Specialty Products Resources, Inc",3036,North/South Building,,,,,,,,,,
Global Pet Expo,03/23/2022,2022,https://globalpetexpo.org/,DM,Sovereign Silver PETS by Natural Immunogenics,5314,North/South Building,,,,,,,,,,
Global Pet Expo,03/23/2022,2022,https://globalpetexpo.org/,DM,Songbird Essentials,2748,North/South Building,,,,,,,,,,
Global Pet Expo,03/23/2022,2022,https://globalpetexpo.org/,DM,Spina Organics LLC,947,North/South Building,,,,,,,,,,
Global Pet Expo,03/23/2022,2022,https://globalpetexpo.org/,DM,Southpoint S.A.,461,North/South Building,,,,,,,,,,
Global Pet Expo,03/23/2022,2022,https://globalpetexpo.org/,DM,Spectrum Brands / Global Pet Care,4228,North/South Building,,,,,,,,,,
Global Pet Expo,03/23/2022,2022,https://globalpetexpo.org/,DM,Southeast Pet,820,North/South Building,,,,,,,,,,
Global Pet Expo,03/23/2022,2022,https://globalpetexpo.org/,DM,Sovereign Silver PETS by Natural Immunogenics,5314,North/South Building,,,,,,,,,,
Global Pet Expo,03/23/2022,2022,https://globalpetexpo.org/,DM,Solarmeter®,5040,North/South Building,,,,,,,,,,
Global Pet Expo,03/23/2022,2022,https://globalpetexpo.org/,DM,Snoozer Pet Products,5913,North/South Building,,,,,,,,,,
Global Pet Expo,03/23/2022,2022,https://globalpetexpo.org/,DM,Snappy Tom Pet Supply,444,North/South Building,,,,,,,,,,
Global Pet Expo,03/23/2022,2022,https://globalpetexpo.org/,DM,H&H North America,409,North/South Building,,,,,,,,,,
Global Pet Expo,03/23/2022,2022,https://globalpetexpo.org/,DM,Solarmeter®,5040,North/South Building,,,,,,,,,,
Global Pet Expo,03/23/2022,2022,https://globalpetexpo.org/,DM,Snap Lock Chicken Coops and Dog Houses,1306,North/South Building,,,,,,,,,,
Global Pet Expo,03/23/2022,2022,https://globalpetexpo.org/,DM,Smallbatch Pets,104,North/South Building,,,,,,,,,,
Global Pet Expo,03/23/2022,2022,https://globalpetexpo.org/,DM,SmarterPaw LLC,2860,North/South Building,,,,,,,,,,
Global Pet Expo,03/23/2022,2022,https://globalpetexpo.org/,DM,Smallbatch Pets,104,North/South Building,,,,,,,,,,
Global Pet Expo,03/23/2022,2022,https://globalpetexpo.org/,DM,SITKA FARMS,2040,North/South Building,,,,,,,,,,
Global Pet Expo,03/23/2022,2022,https://globalpetexpo.org/,DM,Wolf Spring,2071,North/South Building,,,,,,,,,,
Global Pet Expo,03/23/2022,2022,https://globalpetexpo.org/,DM,Skout's Honor,450,North/South Building,,,,,,,,,,
Global Pet Expo,03/23/2022,2022,https://globalpetexpo.org/,DM,Simmons Pet Food,5620,North/South Building,,,,,,,,,,
Global Pet Expo,03/23/2022,2022,https://globalpetexpo.org/,DM,Simmons Pet Food,5620,North/South Building,,,,,,,,,,
Global Pet Expo,03/23/2022,2022,https://globalpetexpo.org/,DM,Petorama,1313,North/South Building,,,,,,,,,,
Global Pet Expo,03/23/2022,2022,https://globalpetexpo.org/,DM,Shernbao USA Inc,5141,North/South Building,,,,,,,,,,
Global Pet Expo,03/23/2022,2022,https://globalpetexpo.org/,DM,SiliDog - The Silent Pet Tag,2841,North/South Building,,,,,,,,,,
Global Pet Expo,03/23/2022,2022,https://globalpetexpo.org/,DM,Shepherd Boy Farms,636,North/South Building,,,,,,,,,,
Global Pet Expo,03/23/2022,2022,https://globalpetexpo.org/,DM,Shepherd Boy Farms,636,North/South Building,,,,,,,,,,
Global Pet Expo,03/23/2022,2022,https://globalpetexpo.org/,DM,CBD American Shaman,1372,North/South Building,,,,,,,,,,
Global Pet Expo,03/23/2022,2022,https://globalpetexpo.org/,DM,PetIQ,3801,North/South Building,,,,,,,,,,
Global Pet Expo,03/23/2022,2022,https://globalpetexpo.org/,DM,sera,5041,North/South Building,,,,,,,,,,
Global Pet Expo,03/23/2022,2022,https://globalpetexpo.org/,DM,Shameless Pets,640,North/South Building,,,,,,,,,,
Global Pet Expo,03/23/2022,2022,https://globalpetexpo.org/,DM,uahpet,1371,North/South Building,,,,,,,,,,
Global Pet Expo,03/23/2022,2022,https://globalpetexpo.org/,DM,Scoochie Pet Products,2838,North/South Building,,,,,,,,,,
Global Pet Expo,03/23/2022,2022,https://globalpetexpo.org/,DM,De' Vora,2172,North/South Building,,,,,,,,,,
Global Pet Expo,03/23/2022,2022,https://globalpetexpo.org/,DM,Scarlett,2746,North/South Building,,,,,,,,,,
Global Pet Expo,03/23/2022,2022,https://globalpetexpo.org/,DM,Scott Pet,1431,North/South Building,,,,,,,,,,
Global Pet Expo,03/23/2022,2022,https://globalpetexpo.org/,DM,Scandinavian Pet,3139,North/South Building,,,,,,,,,,
Global Pet Expo,03/23/2022,2022,https://globalpetexpo.org/,DM,sera,5041,North/South Building,,,,,,,,,,
Global Pet Expo,03/23/2022,2022,https://globalpetexpo.org/,DM,Scholtus Special Products b.v.,1204,North/South Building,,,,,,,,,,
Global Pet Expo,03/23/2022,2022,https://globalpetexpo.org/,DM,Scott Pet,1431,North/South Building,,,,,,,,,,
Global Pet Expo,03/23/2022,2022,https://globalpetexpo.org/,DM,Savory Prime Pet Treats,1205,North/South Building,,,,,,,,,,
Global Pet Expo,03/23/2022,2022,https://globalpetexpo.org/,DM,Savic nv,1406,North/South Building,,,,,,,,,,
Global Pet Expo,03/23/2022,2022,https://globalpetexpo.org/,DM,Sauder Pet Home,4623,North/South Building,,,,,,,,,,
Global Pet Expo,03/23/2022,2022,https://globalpetexpo.org/,DM,Pure Cravings,3472,North/South Building,,,,,,,,,,
Global Pet Expo,03/23/2022,2022,https://globalpetexpo.org/,DM,Sauder Pet Home,4623,North/South Building,,,,,,,,,,
Global Pet Expo,03/23/2022,2022,https://globalpetexpo.org/,DM,Ruff Dawg,1500,North/South Building,,,,,,,,,,
Global Pet Expo,03/23/2022,2022,https://globalpetexpo.org/,DM,"Rush Direct, Inc.",5217,North/South Building,,,,,,,,,,
Global Pet Expo,03/23/2022,2022,https://globalpetexpo.org/,DM,Ruby Reef,4838,North/South Building,,,,,,,,,,
Global Pet Expo,03/23/2022,2022,https://globalpetexpo.org/,DM,"Ry Enterprises, Inc",1270,North/South Building,,,,,,,,,,
Global Pet Expo,03/23/2022,2022,https://globalpetexpo.org/,DM,Royal Pet Inc,1804,North/South Building,,,,,,,,,,
Global Pet Expo,03/23/2022,2022,https://globalpetexpo.org/,DM,Rubie's Pet Boutique,5344,North/South Building,,,,,,,,,,
Global Pet Expo,03/23/2022,2022,https://globalpetexpo.org/,DM,Ruby Reef,4838,North/South Building,,,,,,,,,,
Global Pet Expo,03/23/2022,2022,https://globalpetexpo.org/,DM,Drymate,2636,North/South Building,,,,,,,,,,
Global Pet Expo,03/23/2022,2022,https://globalpetexpo.org/,DM,Royal Pet Inc,1804,North/South Building,,,,,,,,,,
Global Pet Expo,03/23/2022,2022,https://globalpetexpo.org/,DM,Rubie's Pet Boutique,5344,North/South Building,,,,,,,,,,
Global Pet Expo,03/23/2022,2022,https://globalpetexpo.org/,DM,Royal Canin / Eukanuba,3831,North/South Building,,,,,,,,,,
Global Pet Expo,03/23/2022,2022,https://globalpetexpo.org/,DM,Royal Animals/ SABRINIS Royal Treats,4813,North/South Building,,,,,,,,,,
Global Pet Expo,03/23/2022,2022,https://globalpetexpo.org/,DM,Royal Animals/ SABRINIS Royal Treats,4813,North/South Building,,,,,,,,,,
Global Pet Expo,03/23/2022,2022,https://globalpetexpo.org/,DM,Rockster,106,North/South Building,,,,,,,,,,
Global Pet Expo,03/23/2022,2022,https://globalpetexpo.org/,DM,Royal Canin / Eukanuba,3831,North/South Building,,,,,,,,,,
Global Pet Expo,03/23/2022,2022,https://globalpetexpo.org/,DM,Rockster,106,North/South Building,,,,,,,,,,
Global Pet Expo,03/23/2022,2022,https://globalpetexpo.org/,DM,Round Lake Farm Products,1271,North/South Building,,,,,,,,,,
Global Pet Expo,03/23/2022,2022,https://globalpetexpo.org/,DM,Green coat,247,North/South Building,,,,,,,,,,
Global Pet Expo,03/23/2022,2022,https://globalpetexpo.org/,DM,Rover's Wellness,273,North/South Building,,,,,,,,,,
Global Pet Expo,03/23/2022,2022,https://globalpetexpo.org/,DM,Rocco & Roxie Supply Co,2468,North/South Building,,,,,,,,,,
Global Pet Expo,03/23/2022,2022,https://globalpetexpo.org/,DM,RNF Pet Products Inc,238,North/South Building,,,,,,,,,,
Global Pet Expo,03/23/2022,2022,https://globalpetexpo.org/,DM,Roam Pets,626,North/South Building,,,,,,,,,,
Global Pet Expo,03/23/2022,2022,https://globalpetexpo.org/,DM,RNF Pet Products Inc,238,North/South Building,,,,,,,,,,
Global Pet Expo,03/23/2022,2022,https://globalpetexpo.org/,DM,Rocco & Roxie Supply Co,2468,North/South Building,,,,,,,,,,
Global Pet Expo,03/23/2022,2022,https://globalpetexpo.org/,DM,REX Animal Nutrition,1970,North/South Building,,,,,,,,,,
Global Pet Expo,03/23/2022,2022,https://globalpetexpo.org/,DM,Poultry Pro Feeder,2070,North/South Building,,,,,,,,,,
Global Pet Expo,03/23/2022,2022,https://globalpetexpo.org/,DM,Rex Specs,5928,North/South Building,,,,,,,,,,
Global Pet Expo,03/23/2022,2022,https://globalpetexpo.org/,DM,Revnaq LLC,440,North/South Building,,,,,,,,,,
Global Pet Expo,03/23/2022,2022,https://globalpetexpo.org/,DM,"Retail NXI, Inc",1147,North/South Building,,,,,,,,,,
Global Pet Expo,03/23/2022,2022,https://globalpetexpo.org/,DM,Reptiles by Mack,4941,North/South Building,,,,,,,,,,
Global Pet Expo,03/23/2022,2022,https://globalpetexpo.org/,DM,"Retail NXI, Inc",1147,North/South Building,,,,,,,,,,
Global Pet Expo,03/23/2022,2022,https://globalpetexpo.org/,DM,Reptiles by Mack,4941,North/South Building,,,,,,,,,,
Global Pet Expo,03/23/2022,2022,https://globalpetexpo.org/,DM,Restaurant Pro,2160,North/South Building,,,,,,,,,,
Global Pet Expo,03/23/2022,2022,https://globalpetexpo.org/,DM,Redbarn Pet Products,1636,North/South Building,,,,,,,,,,
Global Pet Expo,03/23/2022,2022,https://globalpetexpo.org/,DM,Red Rocket LLC,1513,North/South Building,,,,,,,,,,
Global Pet Expo,03/23/2022,2022,https://globalpetexpo.org/,DM,Redbarn Pet Products,1636,North/South Building,,,,,,,,,,
Global Pet Expo,03/23/2022,2022,https://globalpetexpo.org/,DM,Remy's Kitchen,436,North/South Building,,,,,,,,,,
Global Pet Expo,03/23/2022,2022,https://globalpetexpo.org/,DM,RelaxoPet - Europet Inc.,1809,North/South Building,,,,,,,,,,
Global Pet Expo,03/23/2022,2022,https://globalpetexpo.org/,DM,HempVet Pet Health Remedies,344,North/South Building,,,,,,,,,,
Global Pet Expo,03/23/2022,2022,https://globalpetexpo.org/,DM,Red Rocket LLC,1513,North/South Building,,,,,,,,,,
Global Pet Expo,03/23/2022,2022,https://globalpetexpo.org/,DM,Red Collar Pet Foods,1273,North/South Building,,,,,,,,,,
Global Pet Expo,03/23/2022,2022,https://globalpetexpo.org/,DM,Rawz Natural Pet Food,841,North/South Building,,,,,,,,,,
Global Pet Expo,03/23/2022,2022,https://globalpetexpo.org/,DM,Ramard,2744,North/South Building,,,,,,,,,,
Global Pet Expo,03/23/2022,2022,https://globalpetexpo.org/,DM,Ready Go Ice Melter - No Salts or Chlorides + Traction,5144,North/South Building,,,,,,,,,,
Global Pet Expo,03/23/2022,2022,https://globalpetexpo.org/,DM,PetSafe,4412,North/South Building,,,,,,,,,,
Global Pet Expo,03/23/2022,2022,https://globalpetexpo.org/,DM,Raw Dog Chews,911,North/South Building,,,,,,,,,,
Global Pet Expo,03/23/2022,2022,https://globalpetexpo.org/,DM,Raised Right,840,North/South Building,,,,,,,,,,
Global Pet Expo,03/23/2022,2022,https://globalpetexpo.org/,DM,Raised Right,840,North/South Building,,,,,,,,,,
Global Pet Expo,03/23/2022,2022,https://globalpetexpo.org/,DM,Ramard,2744,North/South Building,,,,,,,,,,
Global Pet Expo,03/23/2022,2022,https://globalpetexpo.org/,DM,Quick-Tag,3809,North/South Building,,,,,,,,,,
Global Pet Expo,03/23/2022,2022,https://globalpetexpo.org/,DM,Quick-Tag,3809,North/South Building,,,,,,,,,,
Global Pet Expo,03/23/2022,2022,https://globalpetexpo.org/,DM,"Qingdao Azulsky Biological Technology Co., Ltd.",5313,North/South Building,,,,,,,,,,
Global Pet Expo,03/23/2022,2022,https://globalpetexpo.org/,DM,"QT Dog, LLC",2805,North/South Building,,,,,,,,,,
Global Pet Expo,03/23/2022,2022,https://globalpetexpo.org/,DM,"Qingdao Myjian Foodstuff Co., Ltd.",5811,North/South Building,,,,,,,,,,
Global Pet Expo,03/23/2022,2022,https://globalpetexpo.org/,DM,Tuscan Natural Pet Foods & Treats,650,North/South Building,,,,,,,,,,
Global Pet Expo,03/23/2022,2022,https://globalpetexpo.org/,DM,Baolede,1570,North/South Building,,,,,,,,,,
Global Pet Expo,03/23/2022,2022,https://globalpetexpo.org/,DM,Purina Pet Care Innovation Prize,2511,North/South Building,,,,,,,,,,
Global Pet Expo,03/23/2022,2022,https://globalpetexpo.org/,DM,Purity Pet,2873,North/South Building,,,,,,,,,,
Global Pet Expo,03/23/2022,2022,https://globalpetexpo.org/,DM,Pure Treats Inc.,834,North/South Building,,,,,,,,,,
Global Pet Expo,03/23/2022,2022,https://globalpetexpo.org/,DM,Pure Treats Inc.,834,North/South Building,,,,,,,,,,
Global Pet Expo,03/23/2022,2022,https://globalpetexpo.org/,DM,Pure Cravings,3472,North/South Building,,,,,,,,,,
Global Pet Expo,03/23/2022,2022,https://globalpetexpo.org/,DM,"PSINC CO.,LTD.",2068,North/South Building,,,,,,,,,,
Global Pet Expo,03/23/2022,2022,https://globalpetexpo.org/,DM,Project Sudz,446,North/South Building,,,,,,,,,,
Global Pet Expo,03/23/2022,2022,https://globalpetexpo.org/,DM,Puppy Cake,5900,North/South Building,,,,,,,,,,
Global Pet Expo,03/23/2022,2022,https://globalpetexpo.org/,DM,TicklessUSA,5244,North/South Building,,,,,,,,,,
Global Pet Expo,03/23/2022,2022,https://globalpetexpo.org/,DM,Pure and Natural Pet,1250,North/South Building,,,,,,,,,,
Global Pet Expo,03/23/2022,2022,https://globalpetexpo.org/,DM,Project Sudz,446,North/South Building,,,,,,,,,,
Global Pet Expo,03/23/2022,2022,https://globalpetexpo.org/,DM,Progato Brazil,2641,North/South Building,,,,,,,,,,
Global Pet Expo,03/23/2022,2022,https://globalpetexpo.org/,DM,Project Hive Pet Company,4804,North/South Building,,,,,,,,,,
Global Pet Expo,03/23/2022,2022,https://globalpetexpo.org/,DM,Primo Animal Health,4812,North/South Building,,,,,,,,,,
Global Pet Expo,03/23/2022,2022,https://globalpetexpo.org/,DM,Primo Animal Health,4812,North/South Building,,,,,,,,,,
Global Pet Expo,03/23/2022,2022,https://globalpetexpo.org/,DM,Pro Clear Aquatic,4244,North/South Building,,,,,,,,,,
Global Pet Expo,03/23/2022,2022,https://globalpetexpo.org/,DM,Primetime Petz,5415,North/South Building,,,,,,,,,,
Global Pet Expo,03/23/2022,2022,https://globalpetexpo.org/,DM,Primetime Petz,5415,North/South Building,,,,,,,,,,
Global Pet Expo,03/23/2022,2022,https://globalpetexpo.org/,DM,"Professional Pet Products, Inc.",817,North/South Building,,,,,,,,,,
Global Pet Expo,03/23/2022,2022,https://globalpetexpo.org/,DM,Primal Pet Group,417,North/South Building,,,,,,,,,,
Global Pet Expo,03/23/2022,2022,https://globalpetexpo.org/,DM,Primal Pet Group,417,North/South Building,,,,,,,,,,
Global Pet Expo,03/23/2022,2022,https://globalpetexpo.org/,DM,Pride + Groom,946,North/South Building,,,,,,,,,,
Global Pet Expo,03/23/2022,2022,https://globalpetexpo.org/,DM,"Prevue Pet Products, Inc.",2136,North/South Building,,,,,,,,,,
Global Pet Expo,03/23/2022,2022,https://globalpetexpo.org/,DM,Preston,5915,North/South Building,,,,,,,,,,
Global Pet Expo,03/23/2022,2022,https://globalpetexpo.org/,DM,Preppy Puppy Inc.,6000,North/South Building,,,,,,,,,,
Global Pet Expo,03/23/2022,2022,https://globalpetexpo.org/,DM,Preppy Puppy Inc.,6000,North/South Building,,,,,,,,,,
Global Pet Expo,03/23/2022,2022,https://globalpetexpo.org/,DM,Preen Pets,5803,North/South Building,,,,,,,,,,
Global Pet Expo,03/23/2022,2022,https://globalpetexpo.org/,DM,Natoo Petfoods,1705,North/South Building,,,,,,,,,,
Global Pet Expo,03/23/2022,2022,https://globalpetexpo.org/,DM,Dr. Elsey's Precious Cat,2501,North/South Building,,,,,,,,,,
Global Pet Expo,03/23/2022,2022,https://globalpetexpo.org/,DM,Preen Pets,5803,North/South Building,,,,,,,,,,
Global Pet Expo,03/23/2022,2022,https://globalpetexpo.org/,DM,Precious Metal Prints,5911,North/South Building,,,,,,,,,,
Global Pet Expo,03/23/2022,2022,https://globalpetexpo.org/,DM,PoochPad Products,600,North/South Building,,,,,,,,,,
Global Pet Expo,03/23/2022,2022,https://globalpetexpo.org/,DM,PoochPad Products,600,North/South Building,,,,,,,,,,
Global Pet Expo,03/23/2022,2022,https://globalpetexpo.org/,DM,Portland Pet Food Company,1155,North/South Building,,,,,,,,,,
Global Pet Expo,03/23/2022,2022,https://globalpetexpo.org/,DM,Poultry Pro Feeder,2070,North/South Building,,,,,,,,,,
Global Pet Expo,03/23/2022,2022,https://globalpetexpo.org/,DM,Polkadog,1058,North/South Building,,,,,,,,,,
Global Pet Expo,03/23/2022,2022,https://globalpetexpo.org/,DM,Plush / DoggyTales,5931,North/South Building,,,,,,,,,,
Global Pet Expo,03/23/2022,2022,https://globalpetexpo.org/,DM,Polkadog,1058,North/South Building,,,,,,,,,,
Global Pet Expo,03/23/2022,2022,https://globalpetexpo.org/,DM,P.L.A.Y. Pet Lifestyle and You,1840,North/South Building,,,,,,,,,,
Global Pet Expo,03/23/2022,2022,https://globalpetexpo.org/,DM,Plush / DoggyTales,5931,North/South Building,,,,,,,,,,
Global Pet Expo,03/23/2022,2022,https://globalpetexpo.org/,DM,Pisces USA,4644,North/South Building,,,,,,,,,,
Global Pet Expo,03/23/2022,2022,https://globalpetexpo.org/,DM,PlanetWise Products Inc.,1102,North/South Building,,,,,,,,,,
Global Pet Expo,03/23/2022,2022,https://globalpetexpo.org/,DM,Pisces USA,4644,North/South Building,,,,,,,,,,
Global Pet Expo,03/23/2022,2022,https://globalpetexpo.org/,DM,New Age Pet,3425,North/South Building,,,,,,,,,,
Global Pet Expo,03/23/2022,2022,https://globalpetexpo.org/,DM,PlanetWise Products Inc.,1102,North/South Building,,,,,,,,,,
Global Pet Expo,03/23/2022,2022,https://globalpetexpo.org/,DM,PIJAC,3511,North/South Building,,,,,,,,,,
Global Pet Expo,03/23/2022,2022,https://globalpetexpo.org/,DM,PetShop by Fringe Studio,2850,North/South Building,,,,,,,,,,
Global Pet Expo,03/23/2022,2022,https://globalpetexpo.org/,DM,Phillips Pet Food & Supplies,1800,North/South Building,,,,,,,,,,
Global Pet Expo,03/23/2022,2022,https://globalpetexpo.org/,DM,PF active,3370,North/South Building,,,,,,,,,,
Global Pet Expo,03/23/2022,2022,https://globalpetexpo.org/,DM,"Petsport usa, Inc.",3612,North/South Building,,,,,,,,,,
Global Pet Expo,03/23/2022,2022,https://globalpetexpo.org/,DM,Phillips Pet Food & Supplies,1800,North/South Building,,,,,,,,,,
Global Pet Expo,03/23/2022,2022,https://globalpetexpo.org/,DM,"Pets Global, Inc",268,North/South Building,,,,,,,,,,
Global Pet Expo,03/23/2022,2022,https://globalpetexpo.org/,DM,"Pets Global, Inc",268,North/South Building,,,,,,,,,,
Global Pet Expo,03/23/2022,2022,https://globalpetexpo.org/,DM,Pets+,5809,North/South Building,,,,,,,,,,
Global Pet Expo,03/23/2022,2022,https://globalpetexpo.org/,DM,PetSafe,4412,North/South Building,,,,,,,,,,
Global Pet Expo,03/23/2022,2022,https://globalpetexpo.org/,DM,Yummy Combs,1504,North/South Building,,,,,,,,,,
Global Pet Expo,03/23/2022,2022,https://globalpetexpo.org/,DM,Pets First,4041,North/South Building,,,,,,,,,,
Global Pet Expo,03/23/2022,2022,https://globalpetexpo.org/,DM,"Pet's Area Code, Inc",1203,North/South Building,,,,,,,,,,
Global Pet Expo,03/23/2022,2022,https://globalpetexpo.org/,DM,"Petpals Group, Inc.",4409,North/South Building,,,,,,,,,,
Global Pet Expo,03/23/2022,2022,https://globalpetexpo.org/,DM,"Pet's Area Code, Inc",1203,North/South Building,,,,,,,,,,
Global Pet Expo,03/23/2022,2022,https://globalpetexpo.org/,DM,PetRageous Designs Ltd.,2809,North/South Building,,,,,,,,,,
Global Pet Expo,03/23/2022,2022,https://globalpetexpo.org/,DM,Petorama,1313,North/South Building,,,,,,,,,,
Global Pet Expo,03/23/2022,2022,https://globalpetexpo.org/,DM,Petmate,3619,North/South Building,,,,,,,,,,
Global Pet Expo,03/23/2022,2022,https://globalpetexpo.org/,DM,PETMAIS,2062,North/South Building,,,,,,,,,,
Global Pet Expo,03/23/2022,2022,https://globalpetexpo.org/,DM,Petlingo Wholesale Bakery,873,North/South Building,,,,,,,,,,
Global Pet Expo,03/23/2022,2022,https://globalpetexpo.org/,DM,PETMAIS,2062,North/South Building,,,,,,,,,,
Global Pet Expo,03/23/2022,2022,https://globalpetexpo.org/,DM,Petking,1700,North/South Building,,,,,,,,,,
Global Pet Expo,03/23/2022,2022,https://globalpetexpo.org/,DM,Petknowledgy,100,North/South Building,,,,,,,,,,
Global Pet Expo,03/23/2022,2022,https://globalpetexpo.org/,DM,Petkin Inc,2158,North/South Building,,,,,,,,,,
Global Pet Expo,03/23/2022,2022,https://globalpetexpo.org/,DM,Petking,1700,North/South Building,,,,,,,,,,
Global Pet Expo,03/23/2022,2022,https://globalpetexpo.org/,DM,Petlingo Wholesale Bakery,873,North/South Building,,,,,,,,,,
Global Pet Expo,03/23/2022,2022,https://globalpetexpo.org/,DM,PetIQ,3801,North/South Building,,,,,,,,,,
Global Pet Expo,03/23/2022,2022,https://globalpetexpo.org/,DM,Petkin Inc,2158,North/South Building,,,,,,,,,,
Global Pet Expo,03/23/2022,2022,https://globalpetexpo.org/,DM,WizSmart by Petix,1958,North/South Building,,,,,,,,,,
Global Pet Expo,03/23/2022,2022,https://globalpetexpo.org/,DM,PETIPET,2868,North/South Building,,,,,,,,,,
Global Pet Expo,03/23/2022,2022,https://globalpetexpo.org/,DM,Sustainably Yours,1606,North/South Building,,,,,,,,,,
Global Pet Expo,03/23/2022,2022,https://globalpetexpo.org/,DM,Petcurean Pet Nutrition,422,North/South Building,,,,,,,,,,
Global Pet Expo,03/23/2022,2022,https://globalpetexpo.org/,DM,"Pet-Ag, Inc",4419,North/South Building,,,,,,,,,,
Global Pet Expo,03/23/2022,2022,https://globalpetexpo.org/,DM,"Pet-Ag, Inc",4419,North/South Building,,,,,,,,,,
Global Pet Expo,03/23/2022,2022,https://globalpetexpo.org/,DM,Boss Pet Products,468,North/South Building,,,,,,,,,,
Global Pet Expo,03/23/2022,2022,https://globalpetexpo.org/,DM,PET TAO,1105,North/South Building,,,,,,,,,,
Global Pet Expo,03/23/2022,2022,https://globalpetexpo.org/,DM,Petcurean Pet Nutrition,422,North/South Building,,,,,,,,,,
Global Pet Expo,03/23/2022,2022,https://globalpetexpo.org/,DM,Pet Stores USA,2015,North/South Building,,,,,,,,,,
Global Pet Expo,03/23/2022,2022,https://globalpetexpo.org/,DM,Pet Sustainability Coalition,655,North/South Building,,,,,,,,,,
Global Pet Expo,03/23/2022,2022,https://globalpetexpo.org/,DM,PET TAO,1105,North/South Building,,,,,,,,,,
Global Pet Expo,03/23/2022,2022,https://globalpetexpo.org/,DM,Pet Tech Labs,855,North/South Building,,,,,,,,,,
Global Pet Expo,03/23/2022,2022,https://globalpetexpo.org/,DM,Roam Pets,626,North/South Building,,,,,,,,,,
Global Pet Expo,03/23/2022,2022,https://globalpetexpo.org/,DM,PetRageous Designs Ltd.,2809,North/South Building,,,,,,,,,,
Global Pet Expo,03/23/2022,2022,https://globalpetexpo.org/,DM,"Pet Retail Direct, Inc.",2014,North/South Building,,,,,,,,,,
Global Pet Expo,03/23/2022,2022,https://globalpetexpo.org/,DM,Pet South America,5820,North/South Building,,,,,,,,,,
Global Pet Expo,03/23/2022,2022,https://globalpetexpo.org/,DM,Pet Releaf,1647,North/South Building,,,,,,,,,,
Global Pet Expo,03/23/2022,2022,https://globalpetexpo.org/,DM,Pet Palette Distribution,261,North/South Building,,,,,,,,,,
Global Pet Expo,03/23/2022,2022,https://globalpetexpo.org/,DM,Pet Parents®,2763,North/South Building,,,,,,,,,,
Global Pet Expo,03/23/2022,2022,https://globalpetexpo.org/,DM,Pet Parents®,2763,North/South Building,,,,,,,,,,
Global Pet Expo,03/23/2022,2022,https://globalpetexpo.org/,DM,Pet Product News,4806,North/South Building,,,,,,,,,,
Global Pet Expo,03/23/2022,2022,https://globalpetexpo.org/,DM,Pet Palette Distribution,261,North/South Building,,,,,,,,,,
Global Pet Expo,03/23/2022,2022,https://globalpetexpo.org/,DM,Freely Pet,4844,North/South Building,,,,,,,,,,
Global Pet Expo,03/23/2022,2022,https://globalpetexpo.org/,DM,Pet Obsession,4913,North/South Building,,,,,,,,,,
Global Pet Expo,03/23/2022,2022,https://globalpetexpo.org/,DM,"Pet Gifts USA, LLC",6003,North/South Building,,,,,,,,,,
Global Pet Expo,03/23/2022,2022,https://globalpetexpo.org/,DM,Pet Naturals®️; VetriScience®️ Laboratories,855,North/South Building,,,,,,,,,,
Global Pet Expo,03/23/2022,2022,https://globalpetexpo.org/,DM,Pet House by One Fur All,711,North/South Building,,,,,,,,,,
Global Pet Expo,03/23/2022,2022,https://globalpetexpo.org/,DM,Pet Injet Comércio de acessórios para animais Eireli ME,2558,North/South Building,,,,,,,,,,
Global Pet Expo,03/23/2022,2022,https://globalpetexpo.org/,DM,Pet Food Compliance,1146,North/South Building,,,,,,,,,,
Global Pet Expo,03/23/2022,2022,https://globalpetexpo.org/,DM,PIJAC,3511,North/South Building,,,,,,,,,,
Global Pet Expo,03/23/2022,2022,https://globalpetexpo.org/,DM,ZYMOX and Oratene by Pet King Brands,1600,North/South Building,,,,,,,,,,
Global Pet Expo,03/23/2022,2022,https://globalpetexpo.org/,DM,Pet Engine Marketing,5920,North/South Building,,,,,,,,,,
Global Pet Expo,03/23/2022,2022,https://globalpetexpo.org/,DM,"Pet Center, Inc.",823,North/South Building,,,,,,,,,,
Global Pet Expo,03/23/2022,2022,https://globalpetexpo.org/,DM,Pet Factory Inc,2819,North/South Building,,,,,,,,,,
Global Pet Expo,03/23/2022,2022,https://globalpetexpo.org/,DM,Pet Factory Inc,2819,North/South Building,,,,,,,,,,
Global Pet Expo,03/23/2022,2022,https://globalpetexpo.org/,DM,"Pet Brands Products, LLC",1240,North/South Building,,,,,,,,,,
Global Pet Expo,03/23/2022,2022,https://globalpetexpo.org/,DM,Lick Lick Pad,2405,North/South Building,,,,,,,,,,
Global Pet Expo,03/23/2022,2022,https://globalpetexpo.org/,DM,Pet Adventures Worldwide,2441,North/South Building,,,,,,,,,,
Global Pet Expo,03/23/2022,2022,https://globalpetexpo.org/,DM,"Pet Brands Products, LLC",1240,North/South Building,,,,,,,,,,
Global Pet Expo,03/23/2022,2022,https://globalpetexpo.org/,DM,Pet Business Magazine,3411,North/South Building,,,,,,,,,,
Global Pet Expo,03/23/2022,2022,https://globalpetexpo.org/,DM,PEPPY PET,3470,North/South Building,,,,,,,,,,
Global Pet Expo,03/23/2022,2022,https://globalpetexpo.org/,DM,peaksNpaws,4805,North/South Building,,,,,,,,,,
Global Pet Expo,03/23/2022,2022,https://globalpetexpo.org/,DM,"Penn-Plax, Inc.",5138,North/South Building,,,,,,,,,,
Global Pet Expo,03/23/2022,2022,https://globalpetexpo.org/,DM,PEPPY PET,3470,North/South Building,,,,,,,,,,
Global Pet Expo,03/23/2022,2022,https://globalpetexpo.org/,DM,Pet Adventures Worldwide,2441,North/South Building,,,,,,,,,,
Global Pet Expo,03/23/2022,2022,https://globalpetexpo.org/,DM,PAWZ Dog Boots,2936,North/South Building,,,,,,,,,,
Global Pet Expo,03/23/2022,2022,https://globalpetexpo.org/,DM,Patchwork Pet,4609,North/South Building,,,,,,,,,,
Global Pet Expo,03/23/2022,2022,https://globalpetexpo.org/,DM,PAWZ Dog Boots,2936,North/South Building,,,,,,,,,,
Global Pet Expo,03/23/2022,2022,https://globalpetexpo.org/,DM,Paw Pops,1772,North/South Building,,,,,,,,,,
Global Pet Expo,03/23/2022,2022,https://globalpetexpo.org/,DM,Patchwork Pet,4609,North/South Building,,,,,,,,,,
Global Pet Expo,03/23/2022,2022,https://globalpetexpo.org/,DM,BEEFEATERS,5603,North/South Building,,,,,,,,,,
Global Pet Expo,03/23/2022,2022,https://globalpetexpo.org/,DM,Woofkies,1868,North/South Building,,,,,,,,,,
Global Pet Expo,03/23/2022,2022,https://globalpetexpo.org/,DM,PAIKKA,2058,North/South Building,,,,,,,,,,
Global Pet Expo,03/23/2022,2022,https://globalpetexpo.org/,DM,PAIKKA,2058,North/South Building,,,,,,,,,,
Global Pet Expo,03/23/2022,2022,https://globalpetexpo.org/,DM,Parrot Safe Candles,246,North/South Building,,,,,,,,,,
Global Pet Expo,03/23/2022,2022,https://globalpetexpo.org/,DM,Pacific Store Designs,2011,North/South Building,,,,,,,,,,
Global Pet Expo,03/23/2022,2022,https://globalpetexpo.org/,DM,P.L.A.Y. Pet Lifestyle and You,1840,North/South Building,,,,,,,,,,
Global Pet Expo,03/23/2022,2022,https://globalpetexpo.org/,DM,Oscar Newman Luxury Pet Couture,747,North/South Building,,,,,,,,,,
Global Pet Expo,03/23/2022,2022,https://globalpetexpo.org/,DM,Outward Hound,3001,North/South Building,,,,,,,,,,
Global Pet Expo,03/23/2022,2022,https://globalpetexpo.org/,DM,Home Range-Open Range Pet Treats,3261,North/South Building,,,,,,,,,,
Global Pet Expo,03/23/2022,2022,https://globalpetexpo.org/,DM,Original Territory,2462,North/South Building,,,,,,,,,,
Global Pet Expo,03/23/2022,2022,https://globalpetexpo.org/,DM,CocoTherapy,748,North/South Building,,,,,,,,,,
Global Pet Expo,03/23/2022,2022,https://globalpetexpo.org/,DM,Oscar Newman Luxury Pet Couture,747,North/South Building,,,,,,,,,,
Global Pet Expo,03/23/2022,2022,https://globalpetexpo.org/,DM,Optimeal,3258,North/South Building,,,,,,,,,,
Global Pet Expo,03/23/2022,2022,https://globalpetexpo.org/,DM,Open Farm,214,North/South Building,,,,,,,,,,
Global Pet Expo,03/23/2022,2022,https://globalpetexpo.org/,DM,Pet House by One Fur All,711,North/South Building,,,,,,,,,,
Global Pet Expo,03/23/2022,2022,https://globalpetexpo.org/,DM,Omnipet,1403,North/South Building,,,,,,,,,,
Global Pet Expo,03/23/2022,2022,https://globalpetexpo.org/,DM,"One Source International, LLC",668,North/South Building,,,,,,,,,,
Global Pet Expo,03/23/2022,2022,https://globalpetexpo.org/,DM,Only An Ocean,5226,North/South Building,,,,,,,,,,
Global Pet Expo,03/23/2022,2022,https://globalpetexpo.org/,DM,OC Raw Dog,434,North/South Building,,,,,,,,,,
Global Pet Expo,03/23/2022,2022,https://globalpetexpo.org/,DM,Snoozer Pet Products,5913,North/South Building,,,,,,,,,,
Global Pet Expo,03/23/2022,2022,https://globalpetexpo.org/,DM,IHPP PET SUPPLIES,1140,North/South Building,,,,,,,,,,
Global Pet Expo,03/23/2022,2022,https://globalpetexpo.org/,DM,Obi Pet Supplies,1962,North/South Building,,,,,,,,,,
Global Pet Expo,03/23/2022,2022,https://globalpetexpo.org/,DM,Pure and Natural Pet,1250,North/South Building,,,,,,,,,,
Global Pet Expo,03/23/2022,2022,https://globalpetexpo.org/,DM,NVM Pet,4023,North/South Building,,,,,,,,,,
Global Pet Expo,03/23/2022,2022,https://globalpetexpo.org/,DM,"Nutreco Canada, Inc.",448,North/South Building,,,,,,,,,,
Global Pet Expo,03/23/2022,2022,https://globalpetexpo.org/,DM,NVM Pet,4023,North/South Building,,,,,,,,,,
Global Pet Expo,03/23/2022,2022,https://globalpetexpo.org/,DM,Oase Living Water,4841,North/South Building,,,,,,,,,,
Global Pet Expo,03/23/2022,2022,https://globalpetexpo.org/,DM,Oase Living Water,4841,North/South Building,,,,,,,,,,
Global Pet Expo,03/23/2022,2022,https://globalpetexpo.org/,DM,Nutrire Industria de Alimentos Ltda.,2060,North/South Building,,,,,,,,,,
Global Pet Expo,03/23/2022,2022,https://globalpetexpo.org/,DM,NUPRO SUPPLEMENTS,944,North/South Building,,,,,,,,,,
Global Pet Expo,03/23/2022,2022,https://globalpetexpo.org/,DM,Nutram Pet Products,3640,North/South Building,,,,,,,,,,
Global Pet Expo,03/23/2022,2022,https://globalpetexpo.org/,DM,NUPRO SUPPLEMENTS,944,North/South Building,,,,,,,,,,
Global Pet Expo,03/23/2022,2022,https://globalpetexpo.org/,DM,NutriSource Pet Foods,614,North/South Building,,,,,,,,,,
Global Pet Expo,03/23/2022,2022,https://globalpetexpo.org/,DM,"NPIC, the Makers of Get Naked and N-Bone Pet Treats",3205,North/South Building,,,,,,,,,,
Global Pet Expo,03/23/2022,2022,https://globalpetexpo.org/,DM,Nulo Pet Food,1226,North/South Building,,,,,,,,,,
Global Pet Expo,03/23/2022,2022,https://globalpetexpo.org/,DM,"NPIC, the Makers of Get Naked and N-Bone Pet Treats",3205,North/South Building,,,,,,,,,,
Global Pet Expo,03/23/2022,2022,https://globalpetexpo.org/,DM,Northwest Natuals,826,North/South Building,,,,,,,,,,
Global Pet Expo,03/23/2022,2022,https://globalpetexpo.org/,DM,North States MyPet,5606,North/South Building,,,,,,,,,,
Global Pet Expo,03/23/2022,2022,https://globalpetexpo.org/,DM,Northwest Natuals,826,North/South Building,,,,,,,,,,
Global Pet Expo,03/23/2022,2022,https://globalpetexpo.org/,DM,North States MyPet,5606,North/South Building,,,,,,,,,,
Global Pet Expo,03/23/2022,2022,https://globalpetexpo.org/,DM,North American Pet,3009,North/South Building,,,,,,,,,,
Global Pet Expo,03/23/2022,2022,https://globalpetexpo.org/,DM,NOBL Foods and Dog Almighty Elixirs,658,North/South Building,,,,,,,,,,
Global Pet Expo,03/23/2022,2022,https://globalpetexpo.org/,DM,"Nite Ize, Inc",5315,North/South Building,,,,,,,,,,
Global Pet Expo,03/23/2022,2022,https://globalpetexpo.org/,DM,North Coast Seafoods,1168,North/South Building,,,,,,,,,,
Global Pet Expo,03/23/2022,2022,https://globalpetexpo.org/,DM,Nature's Logic,606,North/South Building,,,,,,,,,,
Global Pet Expo,03/23/2022,2022,https://globalpetexpo.org/,DM,Nootie-Koha Pet,540,North/South Building,,,,,,,,,,
Global Pet Expo,03/23/2022,2022,https://globalpetexpo.org/,DM,Nootie-Koha Pet,540,North/South Building,,,,,,,,,,
Global Pet Expo,03/23/2022,2022,https://globalpetexpo.org/,DM,NINGBO HOMEPETS IMPORT & EXPORT CO. LTD,2513,North/South Building,,,,,,,,,,
Global Pet Expo,03/23/2022,2022,https://globalpetexpo.org/,DM,"Ningbo Sentian Pet Supplies Co.,Ltd",1573,North/South Building,,,,,,,,,,
Global Pet Expo,03/23/2022,2022,https://globalpetexpo.org/,DM,"Nilodor, Inc",2836,North/South Building,,,,,,,,,,
Global Pet Expo,03/23/2022,2022,https://globalpetexpo.org/,DM,"Nilodor, Inc",2836,North/South Building,,,,,,,,,,
Global Pet Expo,03/23/2022,2022,https://globalpetexpo.org/,DM,"Nite Ize, Inc",5315,North/South Building,,,,,,,,,,
Global Pet Expo,03/23/2022,2022,https://globalpetexpo.org/,DM,"N-Gage Brand, LLC",5828,North/South Building,,,,,,,,,,
Global Pet Expo,03/23/2022,2022,https://globalpetexpo.org/,DM,Next Gen International Corp,909,North/South Building,,,,,,,,,,
Global Pet Expo,03/23/2022,2022,https://globalpetexpo.org/,DM,NexPet Retailer Co.op,1402,North/South Building,,,,,,,,,,
Global Pet Expo,03/23/2022,2022,https://globalpetexpo.org/,DM,Next Gen International Corp,909,North/South Building,,,,,,,,,,
Global Pet Expo,03/23/2022,2022,https://globalpetexpo.org/,DM,New York Puzzle Company,4911,North/South Building,,,,,,,,,,
Global Pet Expo,03/23/2022,2022,https://globalpetexpo.org/,DM,Necoichi,2664,North/South Building,,,,,,,,,,
Global Pet Expo,03/23/2022,2022,https://globalpetexpo.org/,DM,Necoichi,2664,North/South Building,,,,,,,,,,
Global Pet Expo,03/23/2022,2022,https://globalpetexpo.org/,DM,Nestle Purina PetCare,1826,North/South Building,,,,,,,,,,
Global Pet Expo,03/23/2022,2022,https://globalpetexpo.org/,DM,Neater Pets,2436,North/South Building,,,,,,,,,,
Global Pet Expo,03/23/2022,2022,https://globalpetexpo.org/,DM,Nestle Purina PetCare,1826,North/South Building,,,,,,,,,,
Global Pet Expo,03/23/2022,2022,https://globalpetexpo.org/,DM,New Age Pet,3425,North/South Building,,,,,,,,,,
Global Pet Expo,03/23/2022,2022,https://globalpetexpo.org/,DM,Nature's Logic,606,North/South Building,,,,,,,,,,
Global Pet Expo,03/23/2022,2022,https://globalpetexpo.org/,DM,Nature's Own Pet Chews by Best Buy Bones,734,North/South Building,,,,,,,,,,
Global Pet Expo,03/23/2022,2022,https://globalpetexpo.org/,DM,Neater Pets,2436,North/South Building,,,,,,,,,,
Global Pet Expo,03/23/2022,2022,https://globalpetexpo.org/,DM,The Natural Dog Company,1109,North/South Building,,,,,,,,,,
Global Pet Expo,03/23/2022,2022,https://globalpetexpo.org/,DM,NaturVet,4201,North/South Building,,,,,,,,,,
Global Pet Expo,03/23/2022,2022,https://globalpetexpo.org/,DM,K9 Natural & Feline Natural,629,North/South Building,,,,,,,,,,
Global Pet Expo,03/23/2022,2022,https://globalpetexpo.org/,DM,CannaLove,250,North/South Building,,,,,,,,,,
Global Pet Expo,03/23/2022,2022,https://globalpetexpo.org/,DM,Natural Cravings & Barking Buddha Pet,611,North/South Building,,,,,,,,,,
Global Pet Expo,03/23/2022,2022,https://globalpetexpo.org/,DM,Natural Dog Company,741,North/South Building,,,,,,,,,,
Global Pet Expo,03/23/2022,2022,https://globalpetexpo.org/,DM,Naturally Fresh Cat Litter,5615,North/South Building,,,,,,,,,,
Global Pet Expo,03/23/2022,2022,https://globalpetexpo.org/,DM,Natural Farm Pet,206,North/South Building,,,,,,,,,,
Global Pet Expo,03/23/2022,2022,https://globalpetexpo.org/,DM,Natural Balance Pet Foods,4014,North/South Building,,,,,,,,,,
Global Pet Expo,03/23/2022,2022,https://globalpetexpo.org/,DM,Native Pet,652,North/South Building,,,,,,,,,,
Global Pet Expo,03/23/2022,2022,https://globalpetexpo.org/,DM,Natural Cravings & Barking Buddha Pet,611,North/South Building,,,,,,,,,,
Global Pet Expo,03/23/2022,2022,https://globalpetexpo.org/,DM,Natoo Petfoods,1705,North/South Building,,,,,,,,,,
Global Pet Expo,03/23/2022,2022,https://globalpetexpo.org/,DM,National Animal Supplement Council,1103,North/South Building,,,,,,,,,,
Global Pet Expo,03/23/2022,2022,https://globalpetexpo.org/,DM,Native Pet,652,North/South Building,,,,,,,,,,
Global Pet Expo,03/23/2022,2022,https://globalpetexpo.org/,DM,Arkus Daily,5346,North/South Building,,,,,,,,,,
Global Pet Expo,03/23/2022,2022,https://globalpetexpo.org/,DM,Mutts and Mittens,6007,North/South Building,,,,,,,,,,
Global Pet Expo,03/23/2022,2022,https://globalpetexpo.org/,DM,Nala Barry Labs,347,North/South Building,,,,,,,,,,
Global Pet Expo,03/23/2022,2022,https://globalpetexpo.org/,DM,Nashies,248,North/South Building,,,,,,,,,,
Global Pet Expo,03/23/2022,2022,https://globalpetexpo.org/,DM,myfamily,1409,North/South Building,,,,,,,,,,
Global Pet Expo,03/23/2022,2022,https://globalpetexpo.org/,DM,myfamily,1409,North/South Building,,,,,,,,,,
Global Pet Expo,03/23/2022,2022,https://globalpetexpo.org/,DM,Mutts and Mittens,6007,North/South Building,,,,,,,,,,
Global Pet Expo,03/23/2022,2022,https://globalpetexpo.org/,DM,GRANDPET MEXICO,5347,North/South Building,,,,,,,,,,
Global Pet Expo,03/23/2022,2022,https://globalpetexpo.org/,DM,Multipet International Inc.,1847,North/South Building,,,,,,,,,,
Global Pet Expo,03/23/2022,2022,https://globalpetexpo.org/,DM,Muenster Pet Foods,653,North/South Building,,,,,,,,,,
Global Pet Expo,03/23/2022,2022,https://globalpetexpo.org/,DM,Multipet International Inc.,1847,North/South Building,,,,,,,,,,
Global Pet Expo,03/23/2022,2022,https://globalpetexpo.org/,DM,MOZ,6036,North/South Building,,,,,,,,,,
Global Pet Expo,03/23/2022,2022,https://globalpetexpo.org/,DM,Moso Natural,1053,North/South Building,,,,,,,,,,
Global Pet Expo,03/23/2022,2022,https://globalpetexpo.org/,DM,Tibetan Dog Chew,544,North/South Building,,,,,,,,,,
Global Pet Expo,03/23/2022,2022,https://globalpetexpo.org/,DM,Muenster Pet Foods,653,North/South Building,,,,,,,,,,
Global Pet Expo,03/23/2022,2022,https://globalpetexpo.org/,DM,Mount Ara,1009,North/South Building,,,,,,,,,,
Global Pet Expo,03/23/2022,2022,https://globalpetexpo.org/,DM,The Worthy Dog,5804,North/South Building,,,,,,,,,,
Global Pet Expo,03/23/2022,2022,https://globalpetexpo.org/,DM,Moretti's Inc,805,North/South Building,,,,,,,,,,
Global Pet Expo,03/23/2022,2022,https://globalpetexpo.org/,DM,"Morning Bird, Inc.",4039,North/South Building,,,,,,,,,,
Global Pet Expo,03/23/2022,2022,https://globalpetexpo.org/,DM,Mon Ami and Pet & Pop,5923,North/South Building,,,,,,,,,,
Global Pet Expo,03/23/2022,2022,https://globalpetexpo.org/,DM,Molly Mutt,2736,North/South Building,,,,,,,,,,
Global Pet Expo,03/23/2022,2022,https://globalpetexpo.org/,DM,Molly Mutt,2736,North/South Building,,,,,,,,,,
Global Pet Expo,03/23/2022,2022,https://globalpetexpo.org/,DM,Moretti's Inc,805,North/South Building,,,,,,,,,,
Global Pet Expo,03/23/2022,2022,https://globalpetexpo.org/,DM,Mosaic Pet Food,839,North/South Building,,,,,,,,,,
Global Pet Expo,03/23/2022,2022,https://globalpetexpo.org/,DM,Minus Forty QBD Corp.,829,North/South Building,,,,,,,,,,
Global Pet Expo,03/23/2022,2022,https://globalpetexpo.org/,DM,Restaurant Pro,2160,North/South Building,,,,,,,,,,
Global Pet Expo,03/23/2022,2022,https://globalpetexpo.org/,DM,Midwestern Pet Foods,3236,North/South Building,,,,,,,,,,
Global Pet Expo,03/23/2022,2022,https://globalpetexpo.org/,DM,Millennium Pet Group,5833,North/South Building,,,,,,,,,,
Global Pet Expo,03/23/2022,2022,https://globalpetexpo.org/,DM,Millennium Pet Group,5833,North/South Building,,,,,,,,,,
Global Pet Expo,03/23/2022,2022,https://globalpetexpo.org/,DM,MidWest Homes for Pets,3014,North/South Building,,,,,,,,,,
Global Pet Expo,03/23/2022,2022,https://globalpetexpo.org/,DM,Minus Forty QBD Corp.,829,North/South Building,,,,,,,,,,
Global Pet Expo,03/23/2022,2022,https://globalpetexpo.org/,DM,VICTOR SUPER PREMIUM PET FOOD,4223,North/South Building,,,,,,,,,,
Global Pet Expo,03/23/2022,2022,https://globalpetexpo.org/,DM,Mendota Pet,2164,North/South Building,,,,,,,,,,
Global Pet Expo,03/23/2022,2022,https://globalpetexpo.org/,DM,METROVAC (AIR FORCE),4801,North/South Building,,,,,,,,,,
Global Pet Expo,03/23/2022,2022,https://globalpetexpo.org/,DM,Mendota Pet,2164,North/South Building,,,,,,,,,,
Global Pet Expo,03/23/2022,2022,https://globalpetexpo.org/,DM,SmarterPaw LLC,2860,North/South Building,,,,,,,,,,
Global Pet Expo,03/23/2022,2022,https://globalpetexpo.org/,DM,Merrick Pet Care,5230,North/South Building,,,,,,,,,,
Global Pet Expo,03/23/2022,2022,https://globalpetexpo.org/,DM,Messy Mutts,1200,North/South Building,,,,,,,,,,
Global Pet Expo,03/23/2022,2022,https://globalpetexpo.org/,DM,Medterra,1003,North/South Building,,,,,,,,,,
Global Pet Expo,03/23/2022,2022,https://globalpetexpo.org/,DM,McLovin's Pet,5147,North/South Building,,,,,,,,,,
Global Pet Expo,03/23/2022,2022,https://globalpetexpo.org/,DM,Mazuri Exotic Animal Nutrition,1309,North/South Building,,,,,,,,,,
Global Pet Expo,03/23/2022,2022,https://globalpetexpo.org/,DM,Barker's Bowtique,3264,North/South Building,,,,,,,,,,
Global Pet Expo,03/23/2022,2022,https://globalpetexpo.org/,DM,Medterra,1003,North/South Building,,,,,,,,,,
Global Pet Expo,03/23/2022,2022,https://globalpetexpo.org/,DM,AL's PAL's Natural Dog Treats,1272,North/South Building,,,,,,,,,,
Global Pet Expo,03/23/2022,2022,https://globalpetexpo.org/,DM,McLovin's Pet,5147,North/South Building,,,,,,,,,,
Global Pet Expo,03/23/2022,2022,https://globalpetexpo.org/,DM,Marshall Pet,2429,North/South Building,,,,,,,,,,
Global Pet Expo,03/23/2022,2022,https://globalpetexpo.org/,DM,Mast Pet,609,North/South Building,,,,,,,,,,
Global Pet Expo,03/23/2022,2022,https://globalpetexpo.org/,DM,Masters Best Friend,348,North/South Building,,,,,,,,,,
Global Pet Expo,03/23/2022,2022,https://globalpetexpo.org/,DM,Marshall Pet,2429,North/South Building,,,,,,,,,,
Global Pet Expo,03/23/2022,2022,https://globalpetexpo.org/,DM,Mars Petcare U.S.,2631,North/South Building,,,,,,,,,,
Global Pet Expo,03/23/2022,2022,https://globalpetexpo.org/,DM,CoolerDog,755,North/South Building,,,,,,,,,,
Global Pet Expo,03/23/2022,2022,https://globalpetexpo.org/,DM,Manna Pro,2601,North/South Building,,,,,,,,,,
Global Pet Expo,03/23/2022,2022,https://globalpetexpo.org/,DM,Dog-O's,1968,North/South Building,,,,,,,,,,
Global Pet Expo,03/23/2022,2022,https://globalpetexpo.org/,DM,Mon Ami and Pet & Pop,5923,North/South Building,,,,,,,,,,
Global Pet Expo,03/23/2022,2022,https://globalpetexpo.org/,DM,Mammoth Pet Products,4028,North/South Building,,,,,,,,,,
Global Pet Expo,03/23/2022,2022,https://globalpetexpo.org/,DM,Magnet and Steel Ltd.,2646,North/South Building,,,,,,,,,,
Global Pet Expo,03/23/2022,2022,https://globalpetexpo.org/,DM,Magnet and Steel Ltd.,2646,North/South Building,,,,,,,,,,
Global Pet Expo,03/23/2022,2022,https://globalpetexpo.org/,DM,Manna Pro,2601,North/South Building,,,,,,,,,,
Global Pet Expo,03/23/2022,2022,https://globalpetexpo.org/,DM,Loving Pets,5421,North/South Building,,,,,,,,,,
Global Pet Expo,03/23/2022,2022,https://globalpetexpo.org/,DM,Loving Pets,5421,North/South Building,,,,,,,,,,
Global Pet Expo,03/23/2022,2022,https://globalpetexpo.org/,DM,Lucky Dog,4205,North/South Building,,,,,,,,,,
Global Pet Expo,03/23/2022,2022,https://globalpetexpo.org/,DM,"Lulupet Group.Co.,Ltd",1470,North/South Building,,,,,,,,,,
Global Pet Expo,03/23/2022,2022,https://globalpetexpo.org/,DM,Luna Blue,6005,North/South Building,,,,,,,,,,
Global Pet Expo,03/23/2022,2022,https://globalpetexpo.org/,DM,Maccabi Art,5636,North/South Building,,,,,,,,,,
Global Pet Expo,03/23/2022,2022,https://globalpetexpo.org/,DM,Lixit Corporation,2406,North/South Building,,,,,,,,,,
Global Pet Expo,03/23/2022,2022,https://globalpetexpo.org/,DM,M Pet Group,1863,North/South Building,,,,,,,,,,
Global Pet Expo,03/23/2022,2022,https://globalpetexpo.org/,DM,Logical Brands,1254,North/South Building,,,,,,,,,,
Global Pet Expo,03/23/2022,2022,https://globalpetexpo.org/,DM,Lotus Pet Foods,632,North/South Building,,,,,,,,,,
Global Pet Expo,03/23/2022,2022,https://globalpetexpo.org/,DM,Lixit Corporation,2406,North/South Building,,,,,,,,,,
Global Pet Expo,03/23/2022,2022,https://globalpetexpo.org/,DM,LIQ USA,4647,North/South Building,,,,,,,,,,
Global Pet Expo,03/23/2022,2022,https://globalpetexpo.org/,DM,Liquid-Vet by COOL PET Holistics,936,North/South Building,,,,,,,,,,
Global Pet Expo,03/23/2022,2022,https://globalpetexpo.org/,DM,LIQ USA,4647,North/South Building,,,,,,,,,,
Global Pet Expo,03/23/2022,2022,https://globalpetexpo.org/,DM,Livelong Pet Nutrition,744,North/South Building,,,,,,,,,,
Global Pet Expo,03/23/2022,2022,https://globalpetexpo.org/,DM,LIX,1268,North/South Building,,,,,,,,,,
Global Pet Expo,03/23/2022,2022,https://globalpetexpo.org/,DM,Boréal Pet Food,3840,North/South Building,,,,,,,,,,
Global Pet Expo,03/23/2022,2022,https://globalpetexpo.org/,DM,Catalyst,637,North/South Building,,,,,,,,,,
Global Pet Expo,03/23/2022,2022,https://globalpetexpo.org/,DM,Livelong Pet Nutrition,744,North/South Building,,,,,,,,,,
Global Pet Expo,03/23/2022,2022,https://globalpetexpo.org/,DM,FORTICEPT,838,North/South Building,,,,,,,,,,
Global Pet Expo,03/23/2022,2022,https://globalpetexpo.org/,DM,LickiMat,3058,North/South Building,,,,,,,,,,
Global Pet Expo,03/23/2022,2022,https://globalpetexpo.org/,DM,Lennox Intl,2023,North/South Building,,,,,,,,,,
Global Pet Expo,03/23/2022,2022,https://globalpetexpo.org/,DM,Lick Lick Pad,2405,North/South Building,,,,,,,,,,
Global Pet Expo,03/23/2022,2022,https://globalpetexpo.org/,DM,Lennox Intl,2023,North/South Building,,,,,,,,,,
Global Pet Expo,03/23/2022,2022,https://globalpetexpo.org/,DM,LeeMarc Industries LLC DBA Susan Lanci Designs,5917,North/South Building,,,,,,,,,,
Global Pet Expo,03/23/2022,2022,https://globalpetexpo.org/,DM,Learning Resources,6038,North/South Building,,,,,,,,,,
Global Pet Expo,03/23/2022,2022,https://globalpetexpo.org/,DM,Lafeber-EmerAid,4901,North/South Building,,,,,,,,,,
Global Pet Expo,03/23/2022,2022,https://globalpetexpo.org/,DM,Lazy Leash & Bushy Box,6021,North/South Building,,,,,,,,,,
Global Pet Expo,03/23/2022,2022,https://globalpetexpo.org/,DM,Omnipet,1403,North/South Building,,,,,,,,,,
Global Pet Expo,03/23/2022,2022,https://globalpetexpo.org/,DM,Lazy Leash & Bushy Box,6021,North/South Building,,,,,,,,,,
Global Pet Expo,03/23/2022,2022,https://globalpetexpo.org/,DM,Spunky Pup,5436,North/South Building,,,,,,,,,,
Global Pet Expo,03/23/2022,2022,https://globalpetexpo.org/,DM,Kurgo,4209,North/South Building,,,,,,,,,,
Global Pet Expo,03/23/2022,2022,https://globalpetexpo.org/,DM,Kurgo,4209,North/South Building,,,,,,,,,,
Global Pet Expo,03/23/2022,2022,https://globalpetexpo.org/,DM,Kwality Group Africa,1171,North/South Building,,,,,,,,,,
Global Pet Expo,03/23/2022,2022,https://globalpetexpo.org/,DM,Lafeber-EmerAid,4901,North/South Building,,,,,,,,,,
Global Pet Expo,03/23/2022,2022,https://globalpetexpo.org/,DM,Kradle,3068,North/South Building,,,,,,,,,,
Global Pet Expo,03/23/2022,2022,https://globalpetexpo.org/,DM,KTR GROUP,868,North/South Building,,,,,,,,,,
Global Pet Expo,03/23/2022,2022,https://globalpetexpo.org/,DM,Kwality Group Africa,1171,North/South Building,,,,,,,,,,
Global Pet Expo,03/23/2022,2022,https://globalpetexpo.org/,DM,Kradle,3068,North/South Building,,,,,,,,,,
Global Pet Expo,03/23/2022,2022,https://globalpetexpo.org/,DM,KND Labs,2961,North/South Building,,,,,,,,,,
Global Pet Expo,03/23/2022,2022,https://globalpetexpo.org/,DM,KOCHO,1613,North/South Building,,,,,,,,,,
Global Pet Expo,03/23/2022,2022,https://globalpetexpo.org/,DM,Koller Products LLC,2401,North/South Building,,,,,,,,,,
Global Pet Expo,03/23/2022,2022,https://globalpetexpo.org/,DM,Optimeal,3258,North/South Building,,,,,,,,,,
Global Pet Expo,03/23/2022,2022,https://globalpetexpo.org/,DM,KONG Company,2444,North/South Building,,,,,,,,,,
Global Pet Expo,03/23/2022,2022,https://globalpetexpo.org/,DM,Koller Products LLC,2401,North/South Building,,,,,,,,,,
Global Pet Expo,03/23/2022,2022,https://globalpetexpo.org/,DM,Kitzmans Pet Care,2171,North/South Building,,,,,,,,,,
Global Pet Expo,03/23/2022,2022,https://globalpetexpo.org/,DM,Kitzmans Pet Care,2171,North/South Building,,,,,,,,,,
Global Pet Expo,03/23/2022,2022,https://globalpetexpo.org/,DM,GoodFriend,3368,North/South Building,,,,,,,,,,
Global Pet Expo,03/23/2022,2022,https://globalpetexpo.org/,DM,King Kanine,1152,North/South Building,,,,,,,,,,
Global Pet Expo,03/23/2022,2022,https://globalpetexpo.org/,DM,King Country Pet Food New Zealand,846,North/South Building,,,,,,,,,,
Global Pet Expo,03/23/2022,2022,https://globalpetexpo.org/,DM,White Dog Club USA,2968,North/South Building,,,,,,,,,,
Global Pet Expo,03/23/2022,2022,https://globalpetexpo.org/,DM,King Kanine,1152,North/South Building,,,,,,,,,,
Global Pet Expo,03/23/2022,2022,https://globalpetexpo.org/,DM,"Kent Pet Group, Inc.",3419,North/South Building,,,,,,,,,,
Global Pet Expo,03/23/2022,2022,https://globalpetexpo.org/,DM,Kikikat,5841,North/South Building,,,,,,,,,,
Global Pet Expo,03/23/2022,2022,https://globalpetexpo.org/,DM,King Country Pet Food New Zealand,846,North/South Building,,,,,,,,,,
Global Pet Expo,03/23/2022,2022,https://globalpetexpo.org/,DM,K9000 Dog Wash USA,1502,North/South Building,,,,,,,,,,
Global Pet Expo,03/23/2022,2022,https://globalpetexpo.org/,DM,Kangaroo Dogs,1671,North/South Building,,,,,,,,,,
Global Pet Expo,03/23/2022,2022,https://globalpetexpo.org/,DM,"Kennelmaster Foods, Inc.",848,North/South Building,,,,,,,,,,
Global Pet Expo,03/23/2022,2022,https://globalpetexpo.org/,DM,Colorado Pet Treats,200,North/South Building,,,,,,,,,,
Global Pet Expo,03/23/2022,2022,https://globalpetexpo.org/,DM,Purity Pet,2873,North/South Building,,,,,,,,,,
Global Pet Expo,03/23/2022,2022,https://globalpetexpo.org/,DM,K9 Dentist,5140,North/South Building,,,,,,,,,,
Global Pet Expo,03/23/2022,2022,https://globalpetexpo.org/,DM,K9 Granola Factory,950,North/South Building,,,,,,,,,,
Global Pet Expo,03/23/2022,2022,https://globalpetexpo.org/,DM,K9 Sport Sack,4447,North/South Building,,,,,,,,,,
Global Pet Expo,03/23/2022,2022,https://globalpetexpo.org/,DM,Heather's Heroes,2770,North/South Building,,,,,,,,,,
Global Pet Expo,03/23/2022,2022,https://globalpetexpo.org/,DM,K9 Dentist,5140,North/South Building,,,,,,,,,,
Global Pet Expo,03/23/2022,2022,https://globalpetexpo.org/,DM,K9 Natural & Feline Natural,629,North/South Building,,,,,,,,,,
Global Pet Expo,03/23/2022,2022,https://globalpetexpo.org/,DM,Jones Naturals,1014,North/South Building,,,,,,,,,,
Global Pet Expo,03/23/2022,2022,https://globalpetexpo.org/,DM,K9 Sport Sack,4447,North/South Building,,,,,,,,,,
Global Pet Expo,03/23/2022,2022,https://globalpetexpo.org/,DM,Yak9 Dog Chews,648,North/South Building,,,,,,,,,,
Global Pet Expo,03/23/2022,2022,https://globalpetexpo.org/,DM,Julius-K9,5629,North/South Building,,,,,,,,,,
Global Pet Expo,03/23/2022,2022,https://globalpetexpo.org/,DM,Julius-K9,5629,North/South Building,,,,,,,,,,
Global Pet Expo,03/23/2022,2022,https://globalpetexpo.org/,DM,Pet Obsession,4913,North/South Building,,,,,,,,,,
Global Pet Expo,03/23/2022,2022,https://globalpetexpo.org/,DM,Curry on a Stik',940,North/South Building,,,,,,,,,,
Global Pet Expo,03/23/2022,2022,https://globalpetexpo.org/,DM,Jolly Pets & Kitty Kasa,4005,North/South Building,,,,,,,,,,
Global Pet Expo,03/23/2022,2022,https://globalpetexpo.org/,DM,Jones Naturals,1014,North/South Building,,,,,,,,,,
Global Pet Expo,03/23/2022,2022,https://globalpetexpo.org/,DM,Jojo Modern Pets,3039,North/South Building,,,,,,,,,,
Global Pet Expo,03/23/2022,2022,https://globalpetexpo.org/,DM,Jolly Pets & Kitty Kasa,4005,North/South Building,,,,,,,,,,
Global Pet Expo,03/23/2022,2022,https://globalpetexpo.org/,DM,Jiminy's,941,North/South Building,,,,,,,,,,
Global Pet Expo,03/23/2022,2022,https://globalpetexpo.org/,DM,Lucky Dog,4205,North/South Building,,,,,,,,,,
Global Pet Expo,03/23/2022,2022,https://globalpetexpo.org/,DM,"Jiangsu Zhongheng Pet Articles Co., Ltd.",5440,North/South Building,,,,,,,,,,
Global Pet Expo,03/23/2022,2022,https://globalpetexpo.org/,DM,"JILIN TEST BIO-ELECTRON CO., LTD.",4939,North/South Building,,,,,,,,,,
Global Pet Expo,03/23/2022,2022,https://globalpetexpo.org/,DM,"Jiangxi Huaheng Pet Food Co., Ltd.",2561,North/South Building,,,,,,,,,,
Global Pet Expo,03/23/2022,2022,https://globalpetexpo.org/,DM,J and C Pet Supplies,4247,North/South Building,,,,,,,,,,
Global Pet Expo,03/23/2022,2022,https://globalpetexpo.org/,DM,Jax & Cali,5814,North/South Building,,,,,,,,,,
Global Pet Expo,03/23/2022,2022,https://globalpetexpo.org/,DM,Jazwares,3072,North/South Building,,,,,,,,,,
Global Pet Expo,03/23/2022,2022,https://globalpetexpo.org/,DM,JAC Pet Nutrition,1011,North/South Building,,,,,,,,,,
Global Pet Expo,03/23/2022,2022,https://globalpetexpo.org/,DM,JAC Pet Nutrition,1011,North/South Building,,,,,,,,,,
Global Pet Expo,03/23/2022,2022,https://globalpetexpo.org/,DM,Jamiq International,2963,North/South Building,,,,,,,,,,
Global Pet Expo,03/23/2022,2022,https://globalpetexpo.org/,DM,AMERICAN DREAM,6019,North/South Building,,,,,,,,,,
Global Pet Expo,03/23/2022,2022,https://globalpetexpo.org/,DM,Irish Dog Foods,403,North/South Building,,,,,,,,,,
Global Pet Expo,03/23/2022,2022,https://globalpetexpo.org/,DM,Messy Mutts,1200,North/South Building,,,,,,,,,,
Global Pet Expo,03/23/2022,2022,https://globalpetexpo.org/,DM,Invoxia,3468,North/South Building,,,,,,,,,,
Global Pet Expo,03/23/2022,2022,https://globalpetexpo.org/,DM,Interzoo,1304,North/South Building,,,,,,,,,,
Global Pet Expo,03/23/2022,2022,https://globalpetexpo.org/,DM,COLTOYS,1046,North/South Building,,,,,,,,,,
Global Pet Expo,03/23/2022,2022,https://globalpetexpo.org/,DM,Irish Dog Foods,403,North/South Building,,,,,,,,,,
Global Pet Expo,03/23/2022,2022,https://globalpetexpo.org/,DM,Woof Wear Collars,6017,North/South Building,,,,,,,,,,
Global Pet Expo,03/23/2022,2022,https://globalpetexpo.org/,DM,INTERSAND AMERICA,4944,North/South Building,,,,,,,,,,
Global Pet Expo,03/23/2022,2022,https://globalpetexpo.org/,DM,INTERSAND AMERICA,4944,North/South Building,,,,,,,,,,
Global Pet Expo,03/23/2022,2022,https://globalpetexpo.org/,DM,SiliDog - The Silent Pet Tag,2841,North/South Building,,,,,,,,,,
Global Pet Expo,03/23/2022,2022,https://globalpetexpo.org/,DM,INDIPETS,2654,North/South Building,,,,,,,,,,
Global Pet Expo,03/23/2022,2022,https://globalpetexpo.org/,DM,LickiMat,3058,North/South Building,,,,,,,,,,
Global Pet Expo,03/23/2022,2022,https://globalpetexpo.org/,DM,Instinct Pet Food,1100,North/South Building,,,,,,,,,,
Global Pet Expo,03/23/2022,2022,https://globalpetexpo.org/,DM,Standard Fiber,3464,North/South Building,,,,,,,,,,
Global Pet Expo,03/23/2022,2022,https://globalpetexpo.org/,DM,"Inaba Foods (USA), Inc.",1426,North/South Building,,,,,,,,,,
Global Pet Expo,03/23/2022,2022,https://globalpetexpo.org/,DM,Instinct Pet Food,1100,North/South Building,,,,,,,,,,
Global Pet Expo,03/23/2022,2022,https://globalpetexpo.org/,DM,Injoya,2038,North/South Building,,,,,,,,,,
Global Pet Expo,03/23/2022,2022,https://globalpetexpo.org/,DM,InClover Pet Supplements,900,North/South Building,,,,,,,,,,
Global Pet Expo,03/23/2022,2022,https://globalpetexpo.org/,DM,All Walks Pet,3270,North/South Building,,,,,,,,,,
Global Pet Expo,03/23/2022,2022,https://globalpetexpo.org/,DM,InClover Pet Supplements,900,North/South Building,,,,,,,,,,
Global Pet Expo,03/23/2022,2022,https://globalpetexpo.org/,DM,IndiePet,2862,North/South Building,,,,,,,,,,
Global Pet Expo,03/23/2022,2022,https://globalpetexpo.org/,DM,IHPP PET SUPPLIES,1140,North/South Building,,,,,,,,,,
Global Pet Expo,03/23/2022,2022,https://globalpetexpo.org/,DM,"iM CO., LTD.",2161,North/South Building,,,,,,,,,,
Global Pet Expo,03/23/2022,2022,https://globalpetexpo.org/,DM,"iM CO., LTD.",2161,North/South Building,,,,,,,,,,
Global Pet Expo,03/23/2022,2022,https://globalpetexpo.org/,DM,"Imagilin Technology, LLC",1113,North/South Building,,,,,,,,,,
Global Pet Expo,03/23/2022,2022,https://globalpetexpo.org/,DM,iMarc Pet Tag Engraving Systems,5312,North/South Building,,,,,,,,,,
Global Pet Expo,03/23/2022,2022,https://globalpetexpo.org/,DM,iClean Dog Wash,6029,North/South Building,,,,,,,,,,
Global Pet Expo,03/23/2022,2022,https://globalpetexpo.org/,DM,Imagine This Company,1960,North/South Building,,,,,,,,,,
Global Pet Expo,03/23/2022,2022,https://globalpetexpo.org/,DM,Icelandic+,1006,North/South Building,,,,,,,,,,
Global Pet Expo,03/23/2022,2022,https://globalpetexpo.org/,DM,iClean Dog Wash,6029,North/South Building,,,,,,,,,,
Global Pet Expo,03/23/2022,2022,https://globalpetexpo.org/,DM,Icelandic+,1006,North/South Building,,,,,,,,,,
Global Pet Expo,03/23/2022,2022,https://globalpetexpo.org/,DM,IAL Manufacturing,6041,North/South Building,,,,,,,,,,
Global Pet Expo,03/23/2022,2022,https://globalpetexpo.org/,DM,Hyperflite,1211,North/South Building,,,,,,,,,,
Global Pet Expo,03/23/2022,2022,https://globalpetexpo.org/,DM,Hyperflite,1211,North/South Building,,,,,,,,,,
Global Pet Expo,03/23/2022,2022,https://globalpetexpo.org/,DM,Hugo & Hudson of London,1454,North/South Building,,,,,,,,,,
Global Pet Expo,03/23/2022,2022,https://globalpetexpo.org/,DM,Human Animal Bond Research Institute (HABRI),3509,North/South Building,,,,,,,,,,
Global Pet Expo,03/23/2022,2022,https://globalpetexpo.org/,DM,HuggleHounds,1440,North/South Building,,,,,,,,,,
Global Pet Expo,03/23/2022,2022,https://globalpetexpo.org/,DM,Huxley & Kent LLC,2647,North/South Building,,,,,,,,,,
Global Pet Expo,03/23/2022,2022,https://globalpetexpo.org/,DM,Hugsmart Products Inc,2541,North/South Building,,,,,,,,,,
Global Pet Expo,03/23/2022,2022,https://globalpetexpo.org/,DM,Hugo & Hudson of London,1454,North/South Building,,,,,,,,,,
Global Pet Expo,03/23/2022,2022,https://globalpetexpo.org/,DM,Hotel Doggy,473,North/South Building,,,,,,,,,,
Global Pet Expo,03/23/2022,2022,https://globalpetexpo.org/,DM,HOUNDSCOOP LLC,6035,North/South Building,,,,,,,,,,
Global Pet Expo,03/23/2022,2022,https://globalpetexpo.org/,DM,Hotel Doggy,473,North/South Building,,,,,,,,,,
Global Pet Expo,03/23/2022,2022,https://globalpetexpo.org/,DM,"ht-pet, LLC",2115,North/South Building,,,,,,,,,,
Global Pet Expo,03/23/2022,2022,https://globalpetexpo.org/,DM,Honestly Beef,2072,North/South Building,,,,,,,,,,
Global Pet Expo,03/23/2022,2022,https://globalpetexpo.org/,DM,Best Furry Friends,2848,North/South Building,,,,,,,,,,
Global Pet Expo,03/23/2022,2022,https://globalpetexpo.org/,DM,HONEST5 Manufacturer of Food/Treats for dogs,1771,North/South Building,,,,,,,,,,
Global Pet Expo,03/23/2022,2022,https://globalpetexpo.org/,DM,Luna Blue,6005,North/South Building,,,,,,,,,,
Global Pet Expo,03/23/2022,2022,https://globalpetexpo.org/,DM,HONEST5 Manufacturer of Food/Treats for dogs,1771,North/South Building,,,,,,,,,,
Global Pet Expo,03/23/2022,2022,https://globalpetexpo.org/,DM,HomeoPet LLC,2962,North/South Building,,,,,,,,,,
Global Pet Expo,03/23/2022,2022,https://globalpetexpo.org/,DM,The Honest Kitchen,414,North/South Building,,,,,,,,,,
Global Pet Expo,03/23/2022,2022,https://globalpetexpo.org/,DM,Honest Paws,1854,North/South Building,,,,,,,,,,
Global Pet Expo,03/23/2022,2022,https://globalpetexpo.org/,DM,Home Range-Open Range Pet Treats,3261,North/South Building,,,,,,,,,,
Global Pet Expo,03/23/2022,2022,https://globalpetexpo.org/,DM,Farmland Traditions by Hillside Farms,1258,North/South Building,,,,,,,,,,
Global Pet Expo,03/23/2022,2022,https://globalpetexpo.org/,DM,Springer,811,North/South Building,,,,,,,,,,
Global Pet Expo,03/23/2022,2022,https://globalpetexpo.org/,DM,"Hikari Sales USA, Inc.",4836,North/South Building,,,,,,,,,,
Global Pet Expo,03/23/2022,2022,https://globalpetexpo.org/,DM,Hill's Pet Nutrition,2450,North/South Building,,,,,,,,,,
Global Pet Expo,03/23/2022,2022,https://globalpetexpo.org/,DM,"Home Comfort, Inc.",2163,North/South Building,,,,,,,,,,
Global Pet Expo,03/23/2022,2022,https://globalpetexpo.org/,DM,Higdon Outdoors/MOmarsh,5921,North/South Building,,,,,,,,,,
Global Pet Expo,03/23/2022,2022,https://globalpetexpo.org/,DM,HempVet Pet Health Remedies,344,North/South Building,,,,,,,,,,
Global Pet Expo,03/23/2022,2022,https://globalpetexpo.org/,DM,Hill's Pet Nutrition,2450,North/South Building,,,,,,,,,,
Global Pet Expo,03/23/2022,2022,https://globalpetexpo.org/,DM,Herm Sprenger,2844,North/South Building,,,,,,,,,,
Global Pet Expo,03/23/2022,2022,https://globalpetexpo.org/,DM,Herm Sprenger,2844,North/South Building,,,,,,,,,,
Global Pet Expo,03/23/2022,2022,https://globalpetexpo.org/,DM,H&C Animal Health,2054,North/South Building,,,,,,,,,,
Global Pet Expo,03/23/2022,2022,https://globalpetexpo.org/,DM,HolistaPet,4405,North/South Building,,,,,,,,,,
Global Pet Expo,03/23/2022,2022,https://globalpetexpo.org/,DM,"Healthy Tracks for Pets / Trividia Health, Inc.",1471,North/South Building,,,,,,,,,,
Global Pet Expo,03/23/2022,2022,https://globalpetexpo.org/,DM,Higdon Outdoors/MOmarsh,5921,North/South Building,,,,,,,,,,
Global Pet Expo,03/23/2022,2022,https://globalpetexpo.org/,DM,Health Extension Pet Care,4605,North/South Building,,,,,,,,,,
Global Pet Expo,03/23/2022,2022,https://globalpetexpo.org/,DM,"Home Comfort, Inc.",2163,North/South Building,,,,,,,,,,
Global Pet Expo,03/23/2022,2022,https://globalpetexpo.org/,DM,Haute Diggity Dog,5903,North/South Building,,,,,,,,,,
Global Pet Expo,03/23/2022,2022,https://globalpetexpo.org/,DM,Heather's Heroes,2770,North/South Building,,,,,,,,,,
Global Pet Expo,03/23/2022,2022,https://globalpetexpo.org/,DM,Hemp Well,1044,North/South Building,,,,,,,,,,
Global Pet Expo,03/23/2022,2022,https://globalpetexpo.org/,DM,Healthy Pet LP,5632,North/South Building,,,,,,,,,,
Global Pet Expo,03/23/2022,2022,https://globalpetexpo.org/,DM,Tether Tug,1311,North/South Building,,,,,,,,,,
Global Pet Expo,03/23/2022,2022,https://globalpetexpo.org/,DM,Hartz Mountain Corporation (The),4019,North/South Building,,,,,,,,,,
Global Pet Expo,03/23/2022,2022,https://globalpetexpo.org/,DM,Haute Diggity Dog,5903,North/South Building,,,,,,,,,,
Global Pet Expo,03/23/2022,2022,https://globalpetexpo.org/,DM,Hamacher Resource Group,5146,North/South Building,,,,,,,,,,
Global Pet Expo,03/23/2022,2022,https://globalpetexpo.org/,DM,Halo,3629,North/South Building,,,,,,,,,,
Global Pet Expo,03/23/2022,2022,https://globalpetexpo.org/,DM,"Happy Howie's, Inc.",2064,North/South Building,,,,,,,,,,
Global Pet Expo,03/23/2022,2022,https://globalpetexpo.org/,DM,Happy Hen Treats,5919,North/South Building,,,,,,,,,,
Global Pet Expo,03/23/2022,2022,https://globalpetexpo.org/,DM,Habco Manufacturing,2473,North/South Building,,,,,,,,,,
Global Pet Expo,03/23/2022,2022,https://globalpetexpo.org/,DM,Habco Manufacturing,2473,North/South Building,,,,,,,,,,
Global Pet Expo,03/23/2022,2022,https://globalpetexpo.org/,DM,Halo,3629,North/South Building,,,,,,,,,,
Global Pet Expo,03/23/2022,2022,https://globalpetexpo.org/,DM,H&H North America,409,North/South Building,,,,,,,,,,
Global Pet Expo,03/23/2022,2022,https://globalpetexpo.org/,DM,Group Depre Petfood- Holland Diervoeders,1068,North/South Building,,,,,,,,,,
Global Pet Expo,03/23/2022,2022,https://globalpetexpo.org/,DM,Human Animal Bond Research Institute (HABRI),3509,North/South Building,,,,,,,,,,
Global Pet Expo,03/23/2022,2022,https://globalpetexpo.org/,DM,Groomer's Goop Division of Critzas Ind. Inc.,4904,North/South Building,,,,,,,,,,
Global Pet Expo,03/23/2022,2022,https://globalpetexpo.org/,DM,Hagen Group,2419,North/South Building,,,,,,,,,,
Global Pet Expo,03/23/2022,2022,https://globalpetexpo.org/,DM,Group Depre Petfood- Holland Diervoeders,1068,North/South Building,,,,,,,,,,
Global Pet Expo,03/23/2022,2022,https://globalpetexpo.org/,DM,Groomer's Goop Division of Critzas Ind. Inc.,4904,North/South Building,,,,,,,,,,
Global Pet Expo,03/23/2022,2022,https://globalpetexpo.org/,DM,Griffin Care,2938,North/South Building,,,,,,,,,,
Global Pet Expo,03/23/2022,2022,https://globalpetexpo.org/,DM,H&C Animal Health,2054,North/South Building,,,,,,,,,,
Global Pet Expo,03/23/2022,2022,https://globalpetexpo.org/,DM,NOBL Foods and Dog Almighty Elixirs,658,North/South Building,,,,,,,,,,
Global Pet Expo,03/23/2022,2022,https://globalpetexpo.org/,DM,Green Gruff USA,746,North/South Building,,,,,,,,,,
Global Pet Expo,03/23/2022,2022,https://globalpetexpo.org/,DM,Griffin Care,2938,North/South Building,,,,,,,,,,
Global Pet Expo,03/23/2022,2022,https://globalpetexpo.org/,DM,Green coat,247,North/South Building,,,,,,,,,,
Global Pet Expo,03/23/2022,2022,https://globalpetexpo.org/,DM,Green Coast Pet,750,North/South Building,,,,,,,,,,
Global Pet Expo,03/23/2022,2022,https://globalpetexpo.org/,DM,Grandma Mae's Country Naturals/RawTernative,1400,North/South Building,,,,,,,,,,
Global Pet Expo,03/23/2022,2022,https://globalpetexpo.org/,DM,GOTTA GO GRASS,1870,North/South Building,,,,,,,,,,
Global Pet Expo,03/23/2022,2022,https://globalpetexpo.org/,DM,Gott Pet Products,217,North/South Building,,,,,,,,,,
Global Pet Expo,03/23/2022,2022,https://globalpetexpo.org/,DM,Grandma Mae's Country Naturals/RawTernative,1400,North/South Building,,,,,,,,,,
Global Pet Expo,03/23/2022,2022,https://globalpetexpo.org/,DM,Grandma Lucy's,546,North/South Building,,,,,,,,,,
Global Pet Expo,03/23/2022,2022,https://globalpetexpo.org/,DM,Grannick's Bitter Apple,2403,North/South Building,,,,,,,,,,
Global Pet Expo,03/23/2022,2022,https://globalpetexpo.org/,DM,GRANDPET MEXICO,5347,North/South Building,,,,,,,,,,
Global Pet Expo,03/23/2022,2022,https://globalpetexpo.org/,DM,GoodFriend,3368,North/South Building,,,,,,,,,,
Global Pet Expo,03/23/2022,2022,https://globalpetexpo.org/,DM,Good L Corp.,2111,North/South Building,,,,,,,,,,
Global Pet Expo,03/23/2022,2022,https://globalpetexpo.org/,DM,Amici Pet,6008,North/South Building,,,,,,,,,,
Global Pet Expo,03/23/2022,2022,https://globalpetexpo.org/,DM,Grannick's Bitter Apple,2403,North/South Building,,,,,,,,,,
Global Pet Expo,03/23/2022,2022,https://globalpetexpo.org/,DM,Gonesh Home Fragrances,6002,North/South Building,,,,,,,,,,
Global Pet Expo,03/23/2022,2022,https://globalpetexpo.org/,DM,GOODSTYLE,537,North/South Building,,,,,,,,,,
Global Pet Expo,03/23/2022,2022,https://globalpetexpo.org/,DM,Goo-eez,2740,North/South Building,,,,,,,,,,
Global Pet Expo,03/23/2022,2022,https://globalpetexpo.org/,DM,Gordes Zeolit Madencilik San. ve Tic. A.S.,1673,North/South Building,,,,,,,,,,
Global Pet Expo,03/23/2022,2022,https://globalpetexpo.org/,DM,"Glo-Marr Products, Inc.",1050,North/South Building,,,,,,,,,,
Global Pet Expo,03/23/2022,2022,https://globalpetexpo.org/,DM,GOODSTYLE,537,North/South Building,,,,,,,,,,
Global Pet Expo,03/23/2022,2022,https://globalpetexpo.org/,DM,TriNova,2170,North/South Building,,,,,,,,,,
Global Pet Expo,03/23/2022,2022,https://globalpetexpo.org/,DM,Curicyn,2563,North/South Building,,,,,,,,,,
Global Pet Expo,03/23/2022,2022,https://globalpetexpo.org/,DM,Canine Naturals,1106,North/South Building,,,,,,,,,,
Global Pet Expo,03/23/2022,2022,https://globalpetexpo.org/,DM,Dr Marty,109,North/South Building,,,,,,,,,,
Global Pet Expo,03/23/2022,2022,https://globalpetexpo.org/,DM,GoGo Pet Products,638,North/South Building,,,,,,,,,,
Global Pet Expo,03/23/2022,2022,https://globalpetexpo.org/,DM,GF Pet,1061,North/South Building,,,,,,,,,,
Global Pet Expo,03/23/2022,2022,https://globalpetexpo.org/,DM,Gentle Giants Products Inc,1450,North/South Building,,,,,,,,,,
Global Pet Expo,03/23/2022,2022,https://globalpetexpo.org/,DM,Genius Litter,1468,North/South Building,,,,,,,,,,
Global Pet Expo,03/23/2022,2022,https://globalpetexpo.org/,DM,Gaines Family Farmstead,754,North/South Building,,,,,,,,,,
Global Pet Expo,03/23/2022,2022,https://globalpetexpo.org/,DM,Gambol Pet Group,438,North/South Building,,,,,,,,,,
Global Pet Expo,03/23/2022,2022,https://globalpetexpo.org/,DM,Geib Buttercut,1070,North/South Building,,,,,,,,,,
Global Pet Expo,03/23/2022,2022,https://globalpetexpo.org/,DM,Gambol Pet Group,438,North/South Building,,,,,,,,,,
Global Pet Expo,03/23/2022,2022,https://globalpetexpo.org/,DM,G Mason Group,1262,North/South Building,,,,,,,,,,
Global Pet Expo,03/23/2022,2022,https://globalpetexpo.org/,DM,Geib Buttercut,1070,North/South Building,,,,,,,,,,
Global Pet Expo,03/23/2022,2022,https://globalpetexpo.org/,DM,"Gaia Enterprises, Inc.",1073,North/South Building,,,,,,,,,,
Global Pet Expo,03/23/2022,2022,https://globalpetexpo.org/,DM,G Mason Group,1262,North/South Building,,,,,,,,,,
Global Pet Expo,03/23/2022,2022,https://globalpetexpo.org/,DM,Gonesh Home Fragrances,6002,North/South Building,,,,,,,,,,
Global Pet Expo,03/23/2022,2022,https://globalpetexpo.org/,DM,"Gaia Enterprises, Inc.",1073,North/South Building,,,,,,,,,,
Global Pet Expo,03/23/2022,2022,https://globalpetexpo.org/,DM,General Distributing & Sales Company,5819,North/South Building,,,,,,,,,,
Global Pet Expo,03/23/2022,2022,https://globalpetexpo.org/,DM,FunDog Bandanas,6004,North/South Building,,,,,,,,,,
Global Pet Expo,03/23/2022,2022,https://globalpetexpo.org/,DM,Fromm Family Foods,3209,North/South Building,,,,,,,,,,
Global Pet Expo,03/23/2022,2022,https://globalpetexpo.org/,DM,Full Moon/Spot Farms,5404,North/South Building,,,,,,,,,,
Global Pet Expo,03/23/2022,2022,https://globalpetexpo.org/,DM,PetShop by Fringe Studio,2850,North/South Building,,,,,,,,,,
Global Pet Expo,03/23/2022,2022,https://globalpetexpo.org/,DM,Franpos Inc,2504,North/South Building,,,,,,,,,,
Global Pet Expo,03/23/2022,2022,https://globalpetexpo.org/,DM,Freely Pet,4844,North/South Building,,,,,,,,,,
Global Pet Expo,03/23/2022,2022,https://globalpetexpo.org/,DM,Fromm Family Foods,3209,North/South Building,,,,,,,,,,
Global Pet Expo,03/23/2022,2022,https://globalpetexpo.org/,DM,Forever Stainless Steel,802,North/South Building,,,,,,,,,,
Global Pet Expo,03/23/2022,2022,https://globalpetexpo.org/,DM,FOOZYS FUN SOCKS,6009,North/South Building,,,,,,,,,,
Global Pet Expo,03/23/2022,2022,https://globalpetexpo.org/,DM,Frankly Pet LLC,5926,North/South Building,,,,,,,,,,
Global Pet Expo,03/23/2022,2022,https://globalpetexpo.org/,DM,Snap Lock Chicken Coops and Dog Houses,1306,North/South Building,,,,,,,,,,
Global Pet Expo,03/23/2022,2022,https://globalpetexpo.org/,DM,FLINGERZ,1703,North/South Building,,,,,,,,,,
Global Pet Expo,03/23/2022,2022,https://globalpetexpo.org/,DM,Fluff & Tuff,1209,North/South Building,,,,,,,,,,
Global Pet Expo,03/23/2022,2022,https://globalpetexpo.org/,DM,FORTICEPT,838,North/South Building,,,,,,,,,,
Global Pet Expo,03/23/2022,2022,https://globalpetexpo.org/,DM,Natural Farm Pet,206,North/South Building,,,,,,,,,,
Global Pet Expo,03/23/2022,2022,https://globalpetexpo.org/,DM,Fluker Farms,2036,North/South Building,,,,,,,,,,
Global Pet Expo,03/23/2022,2022,https://globalpetexpo.org/,DM,Franpos Inc,2504,North/South Building,,,,,,,,,,
Global Pet Expo,03/23/2022,2022,https://globalpetexpo.org/,DM,Ernie Els Pet Products,2073,North/South Building,,,,,,,,,,
Global Pet Expo,03/23/2022,2022,https://globalpetexpo.org/,DM,Jax & Cali,5814,North/South Building,,,,,,,,,,
Global Pet Expo,03/23/2022,2022,https://globalpetexpo.org/,DM,Fluff & Tuff,1209,North/South Building,,,,,,,,,,
Global Pet Expo,03/23/2022,2022,https://globalpetexpo.org/,DM,Pet Naturals®️; VetriScience®️ Laboratories,855,North/South Building,,,,,,,,,,
Global Pet Expo,03/23/2022,2022,https://globalpetexpo.org/,DM,Fluker Farms,2036,North/South Building,,,,,,,,,,
Global Pet Expo,03/23/2022,2022,https://globalpetexpo.org/,DM,Finish Line Pets/Vet Worthy,3050,North/South Building,,,,,,,,,,
Global Pet Expo,03/23/2022,2022,https://globalpetexpo.org/,DM,FLINGERZ,1703,North/South Building,,,,,,,,,,
Global Pet Expo,03/23/2022,2022,https://globalpetexpo.org/,DM,FirstMate Pet Foods,603,North/South Building,,,,,,,,,,
Global Pet Expo,03/23/2022,2022,https://globalpetexpo.org/,DM,Fidobiotics,536,North/South Building,,,,,,,,,,
Global Pet Expo,03/23/2022,2022,https://globalpetexpo.org/,DM,Fieldcrest Farms,4823,North/South Building,,,,,,,,,,
Global Pet Expo,03/23/2022,2022,https://globalpetexpo.org/,DM,Fido Inc.,1115,North/South Building,,,,,,,,,,
Global Pet Expo,03/23/2022,2022,https://globalpetexpo.org/,DM,Fido Inc.,1115,North/South Building,,,,,,,,,,
Global Pet Expo,03/23/2022,2022,https://globalpetexpo.org/,DM,"FIDA - BEST-RUN TECHNOLOGY CO., Ltd",6034,North/South Building,,,,,,,,,,
Global Pet Expo,03/23/2022,2022,https://globalpetexpo.org/,DM,Fetch For Pets,1461,North/South Building,,,,,,,,,,
Global Pet Expo,03/23/2022,2022,https://globalpetexpo.org/,DM,Feroz - Urban Pet Fashion,6006,North/South Building,,,,,,,,,,
Global Pet Expo,03/23/2022,2022,https://globalpetexpo.org/,DM,Farmland Traditions by Hillside Farms,1258,North/South Building,,,,,,,,,,
Global Pet Expo,03/23/2022,2022,https://globalpetexpo.org/,DM,"FiberCore, LLC",1515,North/South Building,,,,,,,,,,
Global Pet Expo,03/23/2022,2022,https://globalpetexpo.org/,DM,"Farm Innovators, Inc.",4905,North/South Building,,,,,,,,,,
Global Pet Expo,03/23/2022,2022,https://globalpetexpo.org/,DM,Farmina Pet Nutrition,454,North/South Building,,,,,,,,,,
Global Pet Expo,03/23/2022,2022,https://globalpetexpo.org/,DM,Farm Fresh Pet Foods,954,North/South Building,,,,,,,,,,
Global Pet Expo,03/23/2022,2022,https://globalpetexpo.org/,DM,"fab dog, Inc.",1812,North/South Building,,,,,,,,,,
Global Pet Expo,03/23/2022,2022,https://globalpetexpo.org/,DM,"fab dog, Inc.",1812,North/South Building,,,,,,,,,,
Global Pet Expo,03/23/2022,2022,https://globalpetexpo.org/,DM,The F.L. Emmert Company,6010,North/South Building,,,,,,,,,,
Global Pet Expo,03/23/2022,2022,https://globalpetexpo.org/,DM,Farmina Pet Nutrition,454,North/South Building,,,,,,,,,,
Global Pet Expo,03/23/2022,2022,https://globalpetexpo.org/,DM,EzyDog,3136,North/South Building,,,,,,,,,,
Global Pet Expo,03/23/2022,2022,https://globalpetexpo.org/,DM,"Exclusively Pet, Inc.",1415,North/South Building,,,,,,,,,,
Global Pet Expo,03/23/2022,2022,https://globalpetexpo.org/,DM,Evanger's Dog & Cat Food,1148,North/South Building,,,,,,,,,,
Global Pet Expo,03/23/2022,2022,https://globalpetexpo.org/,DM,Evanger's Dog & Cat Food,1148,North/South Building,,,,,,,,,,
Global Pet Expo,03/23/2022,2022,https://globalpetexpo.org/,DM,European Home Designs (Bow-Wow Pet),2854,North/South Building,,,,,,,,,,
Global Pet Expo,03/23/2022,2022,https://globalpetexpo.org/,DM,ESTES,4136,North/South Building,,,,,,,,,,
Global Pet Expo,03/23/2022,2022,https://globalpetexpo.org/,DM,"Ethical Products, Inc.",4619,North/South Building,,,,,,,,,,
Global Pet Expo,03/23/2022,2022,https://globalpetexpo.org/,DM,eTailPet,439,North/South Building,,,,,,,,,,
Global Pet Expo,03/23/2022,2022,https://globalpetexpo.org/,DM,eShipping,1413,North/South Building,,,,,,,,,,
Global Pet Expo,03/23/2022,2022,https://globalpetexpo.org/,DM,Ernie Els Pet Products,2073,North/South Building,,,,,,,,,,
Global Pet Expo,03/23/2022,2022,https://globalpetexpo.org/,DM,Enviro Protection Industries,1963,North/South Building,,,,,,,,,,
Global Pet Expo,03/23/2022,2022,https://globalpetexpo.org/,DM,Elanco Animal Health,5626,North/South Building,,,,,,,,,,
Global Pet Expo,03/23/2022,2022,https://globalpetexpo.org/,DM,ellePet by ElleVet Sciences,2673,North/South Building,,,,,,,,,,
Global Pet Expo,03/23/2022,2022,https://globalpetexpo.org/,DM,Emerald Pet,905,North/South Building,,,,,,,,,,
Global Pet Expo,03/23/2022,2022,https://globalpetexpo.org/,DM,Enchanted Home Pet,5412,North/South Building,,,,,,,,,,
Global Pet Expo,03/23/2022,2022,https://globalpetexpo.org/,DM,Enjoy It LLC,5941,North/South Building,,,,,,,,,,
Global Pet Expo,03/23/2022,2022,https://globalpetexpo.org/,DM,ellePet by ElleVet Sciences,2673,North/South Building,,,,,,,,,,
Global Pet Expo,03/23/2022,2022,https://globalpetexpo.org/,DM,Obi Pet Supplies,1962,North/South Building,,,,,,,,,,
Global Pet Expo,03/23/2022,2022,https://globalpetexpo.org/,DM,Emerald Pet,905,North/South Building,,,,,,,,,,
Global Pet Expo,03/23/2022,2022,https://globalpetexpo.org/,DM,Earth Rated,2041,North/South Building,,,,,,,,,,
Global Pet Expo,03/23/2022,2022,https://globalpetexpo.org/,DM,Naturally Fresh Cat Litter,5615,North/South Building,,,,,,,,,,
Global Pet Expo,03/23/2022,2022,https://globalpetexpo.org/,DM,"E-Collar Technologies, Inc.",2840,North/South Building,,,,,,,,,,
Global Pet Expo,03/23/2022,2022,https://globalpetexpo.org/,DM,earthbath,3609,North/South Building,,,,,,,,,,
Global Pet Expo,03/23/2022,2022,https://globalpetexpo.org/,DM,Elanco Animal Health,5626,North/South Building,,,,,,,,,,
Global Pet Expo,03/23/2022,2022,https://globalpetexpo.org/,DM,E&S Pets,5906,North/South Building,,,,,,,,,,
Global Pet Expo,03/23/2022,2022,https://globalpetexpo.org/,DM,E&S Pets,5906,North/South Building,,,,,,,,,,
Global Pet Expo,03/23/2022,2022,https://globalpetexpo.org/,DM,Earth Animal,426,North/South Building,,,,,,,,,,
Global Pet Expo,03/23/2022,2022,https://globalpetexpo.org/,DM,E3 K9 Performance,2013,North/South Building,,,,,,,,,,
Global Pet Expo,03/23/2022,2022,https://globalpetexpo.org/,DM,E3 K9 Performance,2013,North/South Building,,,,,,,,,,
Global Pet Expo,03/23/2022,2022,https://globalpetexpo.org/,DM,Durkha Dog Chew,850,North/South Building,,,,,,,,,,
Global Pet Expo,03/23/2022,2022,https://globalpetexpo.org/,DM,Durapets,2864,North/South Building,,,,,,,,,,
Global Pet Expo,03/23/2022,2022,https://globalpetexpo.org/,DM,Durapets,2864,North/South Building,,,,,,,,,,
Global Pet Expo,03/23/2022,2022,https://globalpetexpo.org/,DM,Duke-N-Boots,1472,North/South Building,,,,,,,,,,
Global Pet Expo,03/23/2022,2022,https://globalpetexpo.org/,DM,Drymate,2636,North/South Building,,,,,,,,,,
Global Pet Expo,03/23/2022,2022,https://globalpetexpo.org/,DM,Yeowww! Catnip,2644,North/South Building,,,,,,,,,,
Global Pet Expo,03/23/2022,2022,https://globalpetexpo.org/,DM,DrTim's Aquatics,4936,North/South Building,,,,,,,,,,
Global Pet Expo,03/23/2022,2022,https://globalpetexpo.org/,DM,Dr. Pol,5836,North/South Building,,,,,,,,,,
Global Pet Expo,03/23/2022,2022,https://globalpetexpo.org/,DM,DrTim's Aquatics,4936,North/South Building,,,,,,,,,,
Global Pet Expo,03/23/2022,2022,https://globalpetexpo.org/,DM,DOOG,2638,North/South Building,,,,,,,,,,
Global Pet Expo,03/23/2022,2022,https://globalpetexpo.org/,DM,DOOG,2638,North/South Building,,,,,,,,,,
Global Pet Expo,03/23/2022,2022,https://globalpetexpo.org/,DM,Dr. Elsey's Precious Cat,2501,North/South Building,,,,,,,,,,
Global Pet Expo,03/23/2022,2022,https://globalpetexpo.org/,DM,Dr Marty,109,North/South Building,,,,,,,,,,
Global Pet Expo,03/23/2022,2022,https://globalpetexpo.org/,DM,Dog-O's,1968,North/South Building,,,,,,,,,,
Global Pet Expo,03/23/2022,2022,https://globalpetexpo.org/,DM,Dogline,5409,North/South Building,,,,,,,,,,
Global Pet Expo,03/23/2022,2022,https://globalpetexpo.org/,DM,Dogtra,2562,North/South Building,,,,,,,,,,
Global Pet Expo,03/23/2022,2022,https://globalpetexpo.org/,DM,Dogtra,2562,North/South Building,,,,,,,,,,
Global Pet Expo,03/23/2022,2022,https://globalpetexpo.org/,DM,Kikikat,5841,North/South Building,,,,,,,,,,
Global Pet Expo,03/23/2022,2022,https://globalpetexpo.org/,DM,DoggyRade,1172,North/South Building,,,,,,,,,,
Global Pet Expo,03/23/2022,2022,https://globalpetexpo.org/,DM,Dogline,5409,North/South Building,,,,,,,,,,
Global Pet Expo,03/23/2022,2022,https://globalpetexpo.org/,DM,"Dongguan Zhierde New Rubber Co., Ltd",2846,North/South Building,,,,,,,,,,
Global Pet Expo,03/23/2022,2022,https://globalpetexpo.org/,DM,Dog is Good,5212,North/South Building,,,,,,,,,,
Global Pet Expo,03/23/2022,2022,https://globalpetexpo.org/,DM,Dog Treat Naturals,346,North/South Building,,,,,,,,,,
Global Pet Expo,03/23/2022,2022,https://globalpetexpo.org/,DM,Goo-eez,2740,North/South Building,,,,,,,,,,
Global Pet Expo,03/23/2022,2022,https://globalpetexpo.org/,DM,DOG H2O   CAT H2O,1715,North/South Building,,,,,,,,,,
Global Pet Expo,03/23/2022,2022,https://globalpetexpo.org/,DM,"Doctor's, Canine, Equine, and Pet Hemp Solutions",1670,North/South Building,,,,,,,,,,
Global Pet Expo,03/23/2022,2022,https://globalpetexpo.org/,DM,Dharma Dog Karma Cat,1858,North/South Building,,,,,,,,,,
Global Pet Expo,03/23/2022,2022,https://globalpetexpo.org/,DM,Dog Gone Smart,3061,North/South Building,,,,,,,,,,
Global Pet Expo,03/23/2022,2022,https://globalpetexpo.org/,DM,Diggs,2970,North/South Building,,,,,,,,,,
Global Pet Expo,03/23/2022,2022,https://globalpetexpo.org/,DM,Dharma Dog Karma Cat,1858,North/South Building,,,,,,,,,,
Global Pet Expo,03/23/2022,2022,https://globalpetexpo.org/,DM,DARFORD | CanAm Pet Treats Inc.,803,North/South Building,,,,,,,,,,
Global Pet Expo,03/23/2022,2022,https://globalpetexpo.org/,DM,Dave's Pet Food,4846,North/South Building,,,,,,,,,,
Global Pet Expo,03/23/2022,2022,https://globalpetexpo.org/,DM,De' Vora,2172,North/South Building,,,,,,,,,,
Global Pet Expo,03/23/2022,2022,https://globalpetexpo.org/,DM,Dave's Pet Food,4846,North/South Building,,,,,,,,,,
Global Pet Expo,03/23/2022,2022,https://globalpetexpo.org/,DM,D&D Commodities Ltd.,2044,North/South Building,,,,,,,,,,
Global Pet Expo,03/23/2022,2022,https://globalpetexpo.org/,DM,Dezi & Roo,1047,North/South Building,,,,,,,,,,
Global Pet Expo,03/23/2022,2022,https://globalpetexpo.org/,DM,D&D Commodities Ltd.,2044,North/South Building,,,,,,,,,,
Global Pet Expo,03/23/2022,2022,https://globalpetexpo.org/,DM,D Oh Gee & EquineX,1373,North/South Building,,,,,,,,,,
Global Pet Expo,03/23/2022,2022,https://globalpetexpo.org/,DM,D.T. SYSTEMS INC,2162,North/South Building,,,,,,,,,,
Global Pet Expo,03/23/2022,2022,https://globalpetexpo.org/,DM,Custom Veterinary Services,2739,North/South Building,,,,,,,,,,
Global Pet Expo,03/23/2022,2022,https://globalpetexpo.org/,DM,D.T. SYSTEMS INC,2162,North/South Building,,,,,,,,,,
Global Pet Expo,03/23/2022,2022,https://globalpetexpo.org/,DM,Curry on a Stik',940,North/South Building,,,,,,,,,,
Global Pet Expo,03/23/2022,2022,https://globalpetexpo.org/,DM,SITKA FARMS,2040,North/South Building,,,,,,,,,,
Global Pet Expo,03/23/2022,2022,https://globalpetexpo.org/,DM,Curtis Wagner Plastics Corp.,2505,North/South Building,,,,,,,,,,
Global Pet Expo,03/23/2022,2022,https://globalpetexpo.org/,DM,Custom Veterinary Services,2739,North/South Building,,,,,,,,,,
Global Pet Expo,03/23/2022,2022,https://globalpetexpo.org/,DM,curli AG,2858,North/South Building,,,,,,,,,,
Global Pet Expo,03/23/2022,2022,https://globalpetexpo.org/,DM,Curicyn,2563,North/South Building,,,,,,,,,,
Global Pet Expo,03/23/2022,2022,https://globalpetexpo.org/,DM,Raw Dog Chews,911,North/South Building,,,,,,,,,,
Global Pet Expo,03/23/2022,2022,https://globalpetexpo.org/,DM,ZenPet,2463,North/South Building,,,,,,,,,,
Global Pet Expo,03/23/2022,2022,https://globalpetexpo.org/,DM,Crazy K Farm Pet and Poultry Products,1615,North/South Building,,,,,,,,,,
Global Pet Expo,03/23/2022,2022,https://globalpetexpo.org/,DM,Crumps' Naturals,432,North/South Building,,,,,,,,,,
Global Pet Expo,03/23/2022,2022,https://globalpetexpo.org/,DM,Coucour Himalayan Recipe Cheese Bone,937,North/South Building,,,,,,,,,,
Global Pet Expo,03/23/2022,2022,https://globalpetexpo.org/,DM,Crazy K Farm Pet and Poultry Products,1615,North/South Building,,,,,,,,,,
Global Pet Expo,03/23/2022,2022,https://globalpetexpo.org/,DM,"Crown Poly, Inc.",4803,North/South Building,,,,,,,,,,
Global Pet Expo,03/23/2022,2022,https://globalpetexpo.org/,DM,CoolerDog,755,North/South Building,,,,,,,,,,
Global Pet Expo,03/23/2022,2022,https://globalpetexpo.org/,DM,Coucour Himalayan Recipe Cheese Bone,937,North/South Building,,,,,,,,,,
Global Pet Expo,03/23/2022,2022,https://globalpetexpo.org/,DM,Coromega,5246,North/South Building,,,,,,,,,,
Global Pet Expo,03/23/2022,2022,https://globalpetexpo.org/,DM,Yuup! Cosmetics for pets,5826,North/South Building,,,,,,,,,,
Global Pet Expo,03/23/2022,2022,https://globalpetexpo.org/,DM,Cosmos Corporation (TropiClean® Pet Products – Naturél Promise Pet Products – Urine Off® Stain & Odor Solutions),2609,North/South Building,,,,,,,,,,
Global Pet Expo,03/23/2022,2022,https://globalpetexpo.org/,DM,"Comp-Ware Systems, Inc.",4912,North/South Building,,,,,,,,,,
Global Pet Expo,03/23/2022,2022,https://globalpetexpo.org/,DM,CONAIRPROPET,1844,North/South Building,,,,,,,,,,
Global Pet Expo,03/23/2022,2022,https://globalpetexpo.org/,DM,Liquid-Vet by COOL PET Holistics,936,North/South Building,,,,,,,,,,
Global Pet Expo,03/23/2022,2022,https://globalpetexpo.org/,DM,CONAIRPROPET,1844,North/South Building,,,,,,,,,,
Global Pet Expo,03/23/2022,2022,https://globalpetexpo.org/,DM,Dr. Pol,5836,North/South Building,,,,,,,,,,
Global Pet Expo,03/23/2022,2022,https://globalpetexpo.org/,DM,Commpazz International,5821,North/South Building,,,,,,,,,,
Global Pet Expo,03/23/2022,2022,https://globalpetexpo.org/,DM,Connolly's RED MILLS,1473,North/South Building,,,,,,,,,,
Global Pet Expo,03/23/2022,2022,https://globalpetexpo.org/,DM,COMFORTABLE PET INC.,864,North/South Building,,,,,,,,,,
Global Pet Expo,03/23/2022,2022,https://globalpetexpo.org/,DM,Commpazz International,5821,North/South Building,,,,,,,,,,
Global Pet Expo,03/23/2022,2022,https://globalpetexpo.org/,DM,COMFORTABLE PET INC.,864,North/South Building,,,,,,,,,,
Global Pet Expo,03/23/2022,2022,https://globalpetexpo.org/,DM,COLTOYS,1046,North/South Building,,,,,,,,,,
Global Pet Expo,03/23/2022,2022,https://globalpetexpo.org/,DM,Colorado Pet Treats,200,North/South Building,,,,,,,,,,
Global Pet Expo,03/23/2022,2022,https://globalpetexpo.org/,DM,COLLAR,2605,North/South Building,,,,,,,,,,
Global Pet Expo,03/23/2022,2022,https://globalpetexpo.org/,DM,CocoTherapy,748,North/South Building,,,,,,,,,,
Global Pet Expo,03/23/2022,2022,https://globalpetexpo.org/,DM,Coastal Pet Products,3813,North/South Building,,,,,,,,,,
Global Pet Expo,03/23/2022,2022,https://globalpetexpo.org/,DM,CheckUp kit,1072,North/South Building,,,,,,,,,,
Global Pet Expo,03/23/2022,2022,https://globalpetexpo.org/,DM,Class Art Productions Inc & BUDDY BELTS,3840,North/South Building,,,,,,,,,,
Global Pet Expo,03/23/2022,2022,https://globalpetexpo.org/,DM,Claudia's Canine Bakery,2458,North/South Building,,,,,,,,,,
Global Pet Expo,03/23/2022,2022,https://globalpetexpo.org/,DM,Kangaroo Dogs,1671,North/South Building,,,,,,,,,,
Global Pet Expo,03/23/2022,2022,https://globalpetexpo.org/,DM,China International Pet Show (CIPS 2022),6039,North/South Building,,,,,,,,,,
Global Pet Expo,03/23/2022,2022,https://globalpetexpo.org/,DM,ESTES,4136,North/South Building,,,,,,,,,,
Global Pet Expo,03/23/2022,2022,https://globalpetexpo.org/,DM,Closer Pets,2439,North/South Building,,,,,,,,,,
Global Pet Expo,03/23/2022,2022,https://globalpetexpo.org/,DM,Christies Global,5933,North/South Building,,,,,,,,,,
Global Pet Expo,03/23/2022,2022,https://globalpetexpo.org/,DM,Choice Pet Products,1640,North/South Building,,,,,,,,,,
Global Pet Expo,03/23/2022,2022,https://globalpetexpo.org/,DM,Coast Tropicals,4138,North/South Building,,,,,,,,,,
Global Pet Expo,03/23/2022,2022,https://globalpetexpo.org/,DM,"Chloe & Max, LLC",5909,North/South Building,,,,,,,,,,
Global Pet Expo,03/23/2022,2022,https://globalpetexpo.org/,DM,"Chloe & Max, LLC",5909,North/South Building,,,,,,,,,,
Global Pet Expo,03/23/2022,2022,https://globalpetexpo.org/,DM,Chilly Dog LLC,5815,North/South Building,,,,,,,,,,
Global Pet Expo,03/23/2022,2022,https://globalpetexpo.org/,DM,China International Pet Show (CIPS 2022),6039,North/South Building,,,,,,,,,,
Global Pet Expo,03/23/2022,2022,https://globalpetexpo.org/,DM,China International Pet Show (CIPS 2022),6040,North/South Building,,,,,,,,,,
Global Pet Expo,03/23/2022,2022,https://globalpetexpo.org/,DM,China International Pet Show (CIPS 2022),6040,North/South Building,,,,,,,,,,
Global Pet Expo,03/23/2022,2022,https://globalpetexpo.org/,DM,Chilly Dog LLC,5815,North/South Building,,,,,,,,,,
Global Pet Expo,03/23/2022,2022,https://globalpetexpo.org/,DM,Austin and Kat,806,North/South Building,,,,,,,,,,
Global Pet Expo,03/23/2022,2022,https://globalpetexpo.org/,DM,Chicken Soup for the Soul Pet Food,1626,North/South Building,,,,,,,,,,
Global Pet Expo,03/23/2022,2022,https://globalpetexpo.org/,DM,ChickenGuard,5831,North/South Building,,,,,,,,,,
Global Pet Expo,03/23/2022,2022,https://globalpetexpo.org/,DM,Chicken Soup for the Soul Pet Food,1626,North/South Building,,,,,,,,,,
Global Pet Expo,03/23/2022,2022,https://globalpetexpo.org/,DM,Champion Petfoods,1244,North/South Building,,,,,,,,,,
Global Pet Expo,03/23/2022,2022,https://globalpetexpo.org/,DM,Championlife USA Inc.,3140,North/South Building,,,,,,,,,,
Global Pet Expo,03/23/2022,2022,https://globalpetexpo.org/,DM,BAYDOG,1144,North/South Building,,,,,,,,,,
Global Pet Expo,03/23/2022,2022,https://globalpetexpo.org/,DM,Gott Pet Products,217,North/South Building,,,,,,,,,,
Global Pet Expo,03/23/2022,2022,https://globalpetexpo.org/,DM,Championlife USA Inc.,3140,North/South Building,,,,,,,,,,
Global Pet Expo,03/23/2022,2022,https://globalpetexpo.org/,DM,Duke-N-Boots,1472,North/South Building,,,,,,,,,,
Global Pet Expo,03/23/2022,2022,https://globalpetexpo.org/,DM,Central Garden & Pet,3019,North/South Building,,,,,,,,,,
Global Pet Expo,03/23/2022,2022,https://globalpetexpo.org/,DM,Champion Petfoods,1244,North/South Building,,,,,,,,,,
Global Pet Expo,03/23/2022,2022,https://globalpetexpo.org/,DM,CheckUp kit,1072,North/South Building,,,,,,,,,,
Global Pet Expo,03/23/2022,2022,https://globalpetexpo.org/,DM,Cedarcide,2512,North/South Building,,,,,,,,,,
Global Pet Expo,03/23/2022,2022,https://globalpetexpo.org/,DM,Central Pet Distribution,3414,North/South Building,,,,,,,,,,
Global Pet Expo,03/23/2022,2022,https://globalpetexpo.org/,DM,CBD American Shaman,1372,North/South Building,,,,,,,,,,
Global Pet Expo,03/23/2022,2022,https://globalpetexpo.org/,DM,Celerant Technology Corp.,5813,North/South Building,,,,,,,,,,
Global Pet Expo,03/23/2022,2022,https://globalpetexpo.org/,DM,D Oh Gee & EquineX,1373,North/South Building,,,,,,,,,,
Global Pet Expo,03/23/2022,2022,https://globalpetexpo.org/,DM,Central Pet Distribution,3414,North/South Building,,,,,,,,,,
Global Pet Expo,03/23/2022,2022,https://globalpetexpo.org/,DM,Catalyst,637,North/South Building,,,,,,,,,,
Global Pet Expo,03/23/2022,2022,https://globalpetexpo.org/,DM,Catit,2614,North/South Building,,,,,,,,,,
Global Pet Expo,03/23/2022,2022,https://globalpetexpo.org/,DM,CatanDog's Global,1572,North/South Building,,,,,,,,,,
Global Pet Expo,03/23/2022,2022,https://globalpetexpo.org/,DM,Caru,634,North/South Building,,,,,,,,,,
Global Pet Expo,03/23/2022,2022,https://globalpetexpo.org/,DM,Carpenter Co.,3825,North/South Building,,,,,,,,,,
Global Pet Expo,03/23/2022,2022,https://globalpetexpo.org/,DM,"One Source International, LLC",668,North/South Building,,,,,,,,,,
Global Pet Expo,03/23/2022,2022,https://globalpetexpo.org/,DM,Caru,634,North/South Building,,,,,,,,,,
Global Pet Expo,03/23/2022,2022,https://globalpetexpo.org/,DM,Carna4 Hand Crafted Pet Food,1055,North/South Building,,,,,,,,,,
Global Pet Expo,03/23/2022,2022,https://globalpetexpo.org/,DM,"Carolina Pet Company, LLC",2939,North/South Building,,,,,,,,,,
Global Pet Expo,03/23/2022,2022,https://globalpetexpo.org/,DM,CANOPHERA,2670,North/South Building,,,,,,,,,,
Global Pet Expo,03/23/2022,2022,https://globalpetexpo.org/,DM,Carna4 Hand Crafted Pet Food,1055,North/South Building,,,,,,,,,,
Global Pet Expo,03/23/2022,2022,https://globalpetexpo.org/,DM,Carpenter Co.,3825,North/South Building,,,,,,,,,,
Global Pet Expo,03/23/2022,2022,https://globalpetexpo.org/,DM,Canine Caviar Alkaline Holistic Pet Food,458,North/South Building,,,,,,,,,,
Global Pet Expo,03/23/2022,2022,https://globalpetexpo.org/,DM,Canine Naturals,1106,North/South Building,,,,,,,,,,
Global Pet Expo,03/23/2022,2022,https://globalpetexpo.org/,DM,Canine Caviar Alkaline Holistic Pet Food,458,North/South Building,,,,,,,,,,
Global Pet Expo,03/23/2022,2022,https://globalpetexpo.org/,DM,CANINES CHOICE INC,1823,North/South Building,,,,,,,,,,
Global Pet Expo,03/23/2022,2022,https://globalpetexpo.org/,DM,CannaLove,250,North/South Building,,,,,,,,,,
Global Pet Expo,03/23/2022,2022,https://globalpetexpo.org/,DM,CANINES CHOICE INC,1823,North/South Building,,,,,,,,,,
Global Pet Expo,03/23/2022,2022,https://globalpetexpo.org/,DM,Canadian Jerky Company Ltd.,673,North/South Building,,,,,,,,,,
Global Pet Expo,03/23/2022,2022,https://globalpetexpo.org/,DM,Canidae,2825,North/South Building,,,,,,,,,,
Global Pet Expo,03/23/2022,2022,https://globalpetexpo.org/,DM,DARFORD | CanAm Pet Treats Inc.,803,North/South Building,,,,,,,,,,
Global Pet Expo,03/23/2022,2022,https://globalpetexpo.org/,DM,Canidae,2825,North/South Building,,,,,,,,,,
Global Pet Expo,03/23/2022,2022,https://globalpetexpo.org/,DM,Canada Pooch,1300,North/South Building,,,,,,,,,,
Global Pet Expo,03/23/2022,2022,https://globalpetexpo.org/,DM,Calmr Dog Toys,1170,North/South Building,,,,,,,,,,
Global Pet Expo,03/23/2022,2022,https://globalpetexpo.org/,DM,Canadian Jerky Company Ltd.,673,North/South Building,,,,,,,,,,
Global Pet Expo,03/23/2022,2022,https://globalpetexpo.org/,DM,Caledon Farms,534,North/South Building,,,,,,,,,,
Global Pet Expo,03/23/2022,2022,https://globalpetexpo.org/,DM,Canada Pooch,1300,North/South Building,,,,,,,,,,
Global Pet Expo,03/23/2022,2022,https://globalpetexpo.org/,DM,Butcher's Bones,2404,North/South Building,,,,,,,,,,
Global Pet Expo,03/23/2022,2022,https://globalpetexpo.org/,DM,Butcher's Block Pet Treats LLC,1658,North/South Building,,,,,,,,,,
Global Pet Expo,03/23/2022,2022,https://globalpetexpo.org/,DM,Butcher's Block Pet Treats LLC,1658,North/South Building,,,,,,,,,,
Global Pet Expo,03/23/2022,2022,https://globalpetexpo.org/,DM,CAITEC INC,1815,North/South Building,,,,,,,,,,
Global Pet Expo,03/23/2022,2022,https://globalpetexpo.org/,DM,Buddeez,2509,North/South Building,,,,,,,,,,
Global Pet Expo,03/23/2022,2022,https://globalpetexpo.org/,DM,CAITEC INC,1815,North/South Building,,,,,,,,,,
Global Pet Expo,03/23/2022,2022,https://globalpetexpo.org/,DM,Buddeez,2509,North/South Building,,,,,,,,,,
Global Pet Expo,03/23/2022,2022,https://globalpetexpo.org/,DM,Buddyrider,1370,North/South Building,,,,,,,,,,
Global Pet Expo,03/23/2022,2022,https://globalpetexpo.org/,DM,Buddyrider,1370,North/South Building,,,,,,,,,,
Global Pet Expo,03/23/2022,2022,https://globalpetexpo.org/,DM,BrightPet Nutrition Group,2626,North/South Building,,,,,,,,,,
Global Pet Expo,03/23/2022,2022,https://globalpetexpo.org/,DM,Brilliant Salmon Oil,641,North/South Building,,,,,,,,,,
Global Pet Expo,03/23/2022,2022,https://globalpetexpo.org/,DM,Brilliant Salmon Oil,641,North/South Building,,,,,,,,,,
Global Pet Expo,03/23/2022,2022,https://globalpetexpo.org/,DM,Bubblelick,3473,North/South Building,,,,,,,,,,
Global Pet Expo,03/23/2022,2022,https://globalpetexpo.org/,DM,Brutus Broth,938,North/South Building,,,,,,,,,,
Global Pet Expo,03/23/2022,2022,https://globalpetexpo.org/,DM,Bubblelick,3473,North/South Building,,,,,,,,,,
Global Pet Expo,03/23/2022,2022,https://globalpetexpo.org/,DM,Boxiecat LLC,852,North/South Building,,,,,,,,,,
Global Pet Expo,03/23/2022,2022,https://globalpetexpo.org/,DM,BOYD ENTERPRISES,5036,North/South Building,,,,,,,,,,
Global Pet Expo,03/23/2022,2022,https://globalpetexpo.org/,DM,BRBPets Ltd.,2168,North/South Building,,,,,,,,,,
Global Pet Expo,03/23/2022,2022,https://globalpetexpo.org/,DM,Bravo Pet Foods,800,North/South Building,,,,,,,,,,
Global Pet Expo,03/23/2022,2022,https://globalpetexpo.org/,DM,"BOSS DOG BRAND & BOSS CAT BRAND (BOSS NATION BRANDS, INC.)",1000,North/South Building,,,,,,,,,,
Global Pet Expo,03/23/2022,2022,https://globalpetexpo.org/,DM,Boss Pet Products,468,North/South Building,,,,,,,,,,
Global Pet Expo,03/23/2022,2022,https://globalpetexpo.org/,DM,KOCHO,1613,North/South Building,,,,,,,,,,
Global Pet Expo,03/23/2022,2022,https://globalpetexpo.org/,DM,Mosaic Pet Food,839,North/South Building,,,,,,,,,,
Global Pet Expo,03/23/2022,2022,https://globalpetexpo.org/,DM,Bowsers Pet Products,5209,North/South Building,,,,,,,,,,
Global Pet Expo,03/23/2022,2022,https://globalpetexpo.org/,DM,Bosco and Roxys,646,North/South Building,,,,,,,,,,
Global Pet Expo,03/23/2022,2022,https://globalpetexpo.org/,DM,"BOSS DOG BRAND & BOSS CAT BRAND (BOSS NATION BRANDS, INC.)",1000,North/South Building,,,,,,,,,,
Global Pet Expo,03/23/2022,2022,https://globalpetexpo.org/,DM,Boréal Pet Food,3840,North/South Building,,,,,,,,,,
Global Pet Expo,03/23/2022,2022,https://globalpetexpo.org/,DM,Bone Dry Pet,3471,North/South Building,,,,,,,,,,
Global Pet Expo,03/23/2022,2022,https://globalpetexpo.org/,DM,Bosco and Roxys,646,North/South Building,,,,,,,,,,
Global Pet Expo,03/23/2022,2022,https://globalpetexpo.org/,DM,Blue-9 Pet Products,2658,North/South Building,,,,,,,,,,
Global Pet Expo,03/23/2022,2022,https://globalpetexpo.org/,DM,Bocce’s Bakery,234,North/South Building,,,,,,,,,,
Global Pet Expo,03/23/2022,2022,https://globalpetexpo.org/,DM,Bocce’s Bakery,234,North/South Building,,,,,,,,,,
Global Pet Expo,03/23/2022,2022,https://globalpetexpo.org/,DM,Bone Dry Pet,3471,North/South Building,,,,,,,,,,
Global Pet Expo,03/23/2022,2022,https://globalpetexpo.org/,DM,Blue Ribbon Pet Products Inc,2411,North/South Building,,,,,,,,,,
Global Pet Expo,03/23/2022,2022,https://globalpetexpo.org/,DM,Blue Mountain Hay,1173,North/South Building,,,,,,,,,,
Global Pet Expo,03/23/2022,2022,https://globalpetexpo.org/,DM,Blue Ribbon Pet Products Inc,2411,North/South Building,,,,,,,,,,
Global Pet Expo,03/23/2022,2022,https://globalpetexpo.org/,DM,BIXBI Pet,4401,North/South Building,,,,,,,,,,
Global Pet Expo,03/23/2022,2022,https://globalpetexpo.org/,DM,Blue Buffalo Company,1219,North/South Building,,,,,,,,,,
Global Pet Expo,03/23/2022,2022,https://globalpetexpo.org/,DM,Bio-Groom,1706,North/South Building,,,,,,,,,,
Global Pet Expo,03/23/2022,2022,https://globalpetexpo.org/,DM,Bird Pro Bird Fod,1768,North/South Building,,,,,,,,,,
Global Pet Expo,03/23/2022,2022,https://globalpetexpo.org/,DM,Bird Pro Bird Fod,1768,North/South Building,,,,,,,,,,
Global Pet Expo,03/23/2022,2022,https://globalpetexpo.org/,DM,Bio Biscuit Inc,1141,North/South Building,,,,,,,,,,
Global Pet Expo,03/23/2022,2022,https://globalpetexpo.org/,DM,Bio-Groom,1706,North/South Building,,,,,,,,,,
Global Pet Expo,03/23/2022,2022,https://globalpetexpo.org/,DM,Bio Biscuit Inc,1141,North/South Building,,,,,,,,,,
Global Pet Expo,03/23/2022,2022,https://globalpetexpo.org/,DM,Bil-Jac,2426,North/South Building,,,,,,,,,,
Global Pet Expo,03/23/2022,2022,https://globalpetexpo.org/,DM,Bil-Jac,2426,North/South Building,,,,,,,,,,
Global Pet Expo,03/23/2022,2022,https://globalpetexpo.org/,DM,Paw Pops,1772,North/South Building,,,,,,,,,,
Global Pet Expo,03/23/2022,2022,https://globalpetexpo.org/,DM,"FIDA - BEST-RUN TECHNOLOGY CO., Ltd",6034,North/South Building,,,,,,,,,,
Global Pet Expo,03/23/2022,2022,https://globalpetexpo.org/,DM,GOTTA GO GRASS,1870,North/South Building,,,,,,,,,,
Global Pet Expo,03/23/2022,2022,https://globalpetexpo.org/,DM,Best Furry Friends,2848,North/South Building,,,,,,,,,,
Global Pet Expo,03/23/2022,2022,https://globalpetexpo.org/,DM,BESTIA,5609,North/South Building,,,,,,,,,,
Global Pet Expo,03/23/2022,2022,https://globalpetexpo.org/,DM,BESTIA,5609,North/South Building,,,,,,,,,,
Global Pet Expo,03/23/2022,2022,https://globalpetexpo.org/,DM,Best Buds Brew,1973,North/South Building,,,,,,,,,,
Global Pet Expo,03/23/2022,2022,https://globalpetexpo.org/,DM,Best Buds Brew,1973,North/South Building,,,,,,,,,,
Global Pet Expo,03/23/2022,2022,https://globalpetexpo.org/,DM,Nature's Own Pet Chews by Best Buy Bones,734,North/South Building,,,,,,,,,,
Global Pet Expo,03/23/2022,2022,https://globalpetexpo.org/,DM,Best Breed Pet Foods / Regal Pet Foods,1048,North/South Building,,,,,,,,,,
Global Pet Expo,03/23/2022,2022,https://globalpetexpo.org/,DM,Benny Bully's Pet Treats USA,244,North/South Building,,,,,,,,,,
Global Pet Expo,03/23/2022,2022,https://globalpetexpo.org/,DM,Bench & Field Pet Foods,934,North/South Building,,,,,,,,,,
Global Pet Expo,03/23/2022,2022,https://globalpetexpo.org/,DM,Bench & Field Pet Foods,934,North/South Building,,,,,,,,,,
Global Pet Expo,03/23/2022,2022,https://globalpetexpo.org/,DM,Benebone,3461,North/South Building,,,,,,,,,,
Global Pet Expo,03/23/2022,2022,https://globalpetexpo.org/,DM,Bell Rock Growers,1036,North/South Building,,,,,,,,,,
Global Pet Expo,03/23/2022,2022,https://globalpetexpo.org/,DM,Benebone,3461,North/South Building,,,,,,,,,,
Global Pet Expo,03/23/2022,2022,https://globalpetexpo.org/,DM,Benny Bully's Pet Treats USA,244,North/South Building,,,,,,,,,,
Global Pet Expo,03/23/2022,2022,https://globalpetexpo.org/,DM,Bay Island Sportswear Inc.,1568,North/South Building,,,,,,,,,,
Global Pet Expo,03/23/2022,2022,https://globalpetexpo.org/,DM,Best Breed Pet Foods / Regal Pet Foods,1048,North/South Building,,,,,,,,,,
Global Pet Expo,03/23/2022,2022,https://globalpetexpo.org/,DM,BAYDOG,1144,North/South Building,,,,,,,,,,
Global Pet Expo,03/23/2022,2022,https://globalpetexpo.org/,DM,Beauty By Benjamin,1770,North/South Building,,,,,,,,,,
Global Pet Expo,03/23/2022,2022,https://globalpetexpo.org/,DM,BEEFEATERS,5603,North/South Building,,,,,,,,,,
Global Pet Expo,03/23/2022,2022,https://globalpetexpo.org/,DM,Beg & Barker,437,North/South Building,,,,,,,,,,
Global Pet Expo,03/23/2022,2022,https://globalpetexpo.org/,DM,Bass Brush Company,737,North/South Building,,,,,,,,,,
Global Pet Expo,03/23/2022,2022,https://globalpetexpo.org/,DM,Barkworthies/Paw Love,209,North/South Building,,,,,,,,,,
Global Pet Expo,03/23/2022,2022,https://globalpetexpo.org/,DM,Bass Brush Company,737,North/South Building,,,,,,,,,,
Global Pet Expo,03/23/2022,2022,https://globalpetexpo.org/,DM,Barker's Bowtique,3264,North/South Building,,,,,,,,,,
Global Pet Expo,03/23/2022,2022,https://globalpetexpo.org/,DM,Batz Corporation,5309,North/South Building,,,,,,,,,,
Global Pet Expo,03/23/2022,2022,https://globalpetexpo.org/,DM,Scandinavian Pet,3139,North/South Building,,,,,,,,,,
Global Pet Expo,03/23/2022,2022,https://globalpetexpo.org/,DM,Ava's Pet Palace,6020,North/South Building,,,,,,,,,,
Global Pet Expo,03/23/2022,2022,https://globalpetexpo.org/,DM,Trisha Yearwood Pet Collection,538,North/South Building,,,,,,,,,,
Global Pet Expo,03/23/2022,2022,https://globalpetexpo.org/,DM,Baolede,1570,North/South Building,,,,,,,,,,
Global Pet Expo,03/23/2022,2022,https://globalpetexpo.org/,DM,Aventura Pups Inc,5912,North/South Building,,,,,,,,,,
Global Pet Expo,03/23/2022,2022,https://globalpetexpo.org/,DM,"Aurora Pet Products, LLC",5934,North/South Building,,,,,,,,,,
Global Pet Expo,03/23/2022,2022,https://globalpetexpo.org/,DM,Artvark Pet Products,639,North/South Building,,,,,,,,,,
Global Pet Expo,03/23/2022,2022,https://globalpetexpo.org/,DM,Astro Loyalty,709,North/South Building,,,,,,,,,,
Global Pet Expo,03/23/2022,2022,https://globalpetexpo.org/,DM,Austin and Kat,806,North/South Building,,,,,,,,,,
Global Pet Expo,03/23/2022,2022,https://globalpetexpo.org/,DM,"Aurora Pet Products, LLC",5934,North/South Building,,,,,,,,,,
Global Pet Expo,03/23/2022,2022,https://globalpetexpo.org/,DM,Arlee Pet Products,861,North/South Building,,,,,,,,,,
Global Pet Expo,03/23/2022,2022,https://globalpetexpo.org/,DM,Armstrong's Cricket Farm,5136,North/South Building,,,,,,,,,,
Global Pet Expo,03/23/2022,2022,https://globalpetexpo.org/,DM,Artvark Pet Products,639,North/South Building,,,,,,,,,,
Global Pet Expo,03/23/2022,2022,https://globalpetexpo.org/,DM,Full Moon/Spot Farms,5404,North/South Building,,,,,,,,,,
Global Pet Expo,03/23/2022,2022,https://globalpetexpo.org/,DM,Ark Naturals,832,North/South Building,,,,,,,,,,
Global Pet Expo,03/23/2022,2022,https://globalpetexpo.org/,DM,American Wood Fibers,752,North/South Building,,,,,,,,,,
Global Pet Expo,03/23/2022,2022,https://globalpetexpo.org/,DM,Aquatop,4140,North/South Building,,,,,,,,,,
Global Pet Expo,03/23/2022,2022,https://globalpetexpo.org/,DM,Aquatop,4140,North/South Building,,,,,,,,,,
Global Pet Expo,03/23/2022,2022,https://globalpetexpo.org/,DM,Ark Naturals,832,North/South Building,,,,,,,,,,
Global Pet Expo,03/23/2022,2022,https://globalpetexpo.org/,DM,Arkus Daily,5346,North/South Building,,,,,,,,,,
Global Pet Expo,03/23/2022,2022,https://globalpetexpo.org/,DM,American Wood Fibers,752,North/South Building,,,,,,,,,,
Global Pet Expo,03/23/2022,2022,https://globalpetexpo.org/,DM,AMERICAN DREAM,6019,North/South Building,,,,,,,,,,
Global Pet Expo,03/23/2022,2022,https://globalpetexpo.org/,DM,American Natural Premium Pet Food,844,North/South Building,,,,,,,,,,
Global Pet Expo,03/23/2022,2022,https://globalpetexpo.org/,DM,AL's PAL's Natural Dog Treats,1272,North/South Building,,,,,,,,,,
Global Pet Expo,03/23/2022,2022,https://globalpetexpo.org/,DM,American Natural Premium Pet Food,844,North/South Building,,,,,,,,,,
Global Pet Expo,03/23/2022,2022,https://globalpetexpo.org/,DM,Wee Away Company,2506,North/South Building,,,,,,,,,,
Global Pet Expo,03/23/2022,2022,https://globalpetexpo.org/,DM,HuggleHounds,1440,North/South Building,,,,,,,,,,
Global Pet Expo,03/23/2022,2022,https://globalpetexpo.org/,DM,Alphia,1458,North/South Building,,,,,,,,,,
Global Pet Expo,03/23/2022,2022,https://globalpetexpo.org/,DM,Genius Litter,1468,North/South Building,,,,,,,,,,
Global Pet Expo,03/23/2022,2022,https://globalpetexpo.org/,DM,ALFA-PET INC.,2012,North/South Building,,,,,,,,,,
Global Pet Expo,03/23/2022,2022,https://globalpetexpo.org/,DM,ALFA-PET INC.,2012,North/South Building,,,,,,,,,,
Global Pet Expo,03/23/2022,2022,https://globalpetexpo.org/,DM,All Walks Pet,3270,North/South Building,,,,,,,,,,
Global Pet Expo,03/23/2022,2022,https://globalpetexpo.org/,DM,AGRI TEL GRAIN LTD.,4040,North/South Building,,,,,,,,,,
Global Pet Expo,03/23/2022,2022,https://globalpetexpo.org/,DM,AGRI TEL GRAIN LTD.,4040,North/South Building,,,,,,,,,,
Global Pet Expo,03/23/2022,2022,https://globalpetexpo.org/,DM,5Strands Affordable Testing,5623,North/South Building,,,,,,,,,,
Global Pet Expo,03/23/2022,2022,https://globalpetexpo.org/,DM,All Four Paws,2113,North/South Building,,,,,,,,,,
Global Pet Expo,03/23/2022,2022,https://globalpetexpo.org/,DM,Acorn Pet Products,1860,North/South Building,,,,,,,,,,
Global Pet Expo,03/23/2022,2022,https://globalpetexpo.org/,DM,Purina Pet Care Innovation Prize,2511,North/South Building,,,,,,,,,,
Global Pet Expo,03/23/2022,2022,https://globalpetexpo.org/,DM,ADNART/ASOBU,6027,North/South Building,,,,,,,,,,
Global Pet Expo,03/23/2022,2022,https://globalpetexpo.org/,DM,Advance Pet Products,1136,North/South Building,,,,,,,,,,
Global Pet Expo,03/23/2022,2022,https://globalpetexpo.org/,DM,ADNART/ASOBU,6027,North/South Building,,,,,,,,,,
Global Pet Expo,03/23/2022,2022,https://globalpetexpo.org/,DM,DOG H2O   CAT H2O,1715,North/South Building,,,,,,,,,,
Global Pet Expo,03/23/2022,2022,https://globalpetexpo.org/,DM,Acorn Pet Products,1860,North/South Building,,,,,,,,,,
Global Pet Expo,03/23/2022,2022,https://globalpetexpo.org/,DM,A Pup Above,258,North/South Building,,,,,,,,,,
Global Pet Expo,03/23/2022,2022,https://globalpetexpo.org/,DM,"AB7 America, Inc.",1506,North/South Building,,,,,,,,,,
Global Pet Expo,03/23/2022,2022,https://globalpetexpo.org/,DM,"A&E Cage Company, LLC",3436,North/South Building,,,,,,,,,,
Global Pet Expo,03/23/2022,2022,https://globalpetexpo.org/,DM,"A&E Cage Company, LLC",3436,North/South Building,,,,,,,,,,
Global Pet Expo,03/23/2022,2022,https://globalpetexpo.org/,DM,5Strands Affordable Testing,5623,North/South Building,,,,,,,,,,
Global Pet Expo,03/23/2022,2022,https://globalpetexpo.org/,DM,A Pet With Paws,5914,North/South Building,,,,,,,,,,
Global Pet Expo,03/23/2022,2022,https://globalpetexpo.org/,DM,RelaxoPet - Europet Inc.,1809,North/South Building,,,,,,,,,,
Global Pet Expo,03/23/2022,2022,https://globalpetexpo.org/,DM,MOZ,6036,North/South Building,,,,,,,,,,
Global Pet Expo,03/23/2022,2022,https://globalpetexpo.org/,DM,4pets,5817,North/South Building,,,,,,,,,,
Global Pet Expo,03/23/2022,2022,https://globalpetexpo.org/,DM,2 Hounds Design,4809,North/South Building,,,,,,,,,,
