ShowName,ShowDate,ShowYear,ShowWebsite,SubmittedBy,ExhibitorName,BoothNumber,HallLocation,Website,Email,Phone,Fax,Address,Country,Categories,Manufacturers,Brands,Description
National Hardware Show 2021,10/21/2021,2021,https://www.nationalhardwareshow.com/,DM,21st Century Inc,W4066,,,,,,,en-US,,,,
National Hardware Show 2021,10/21/2021,2021,https://www.nationalhardwareshow.com/,DM,A & I Products,W3513,,,,,,,en-US,,,,
National Hardware Show 2021,10/21/2021,2021,https://www.nationalhardwareshow.com/,DM,A&E Balm Company,W1250,,,,,,,en-US,,,,
National Hardware Show 2021,10/21/2021,2021,https://www.nationalhardwareshow.com/,DM,A-ipower Corp,W2037,,,,,,,en-US,,,,
National Hardware Show 2021,10/21/2021,2021,https://www.nationalhardwareshow.com/,DM,A.A.C. Forearm Forklift Inc,W2028,,https://www.StrapsRUs.com,ml@strapsrus.com,6269622990,,,en-US,,,,
National Hardware Show 2021,10/21/2021,2021,https://www.nationalhardwareshow.com/,DM,Abble Inc,W3409,,,,,,,en-US,Air Quality/Regulation/Filtration,,,
National Hardware Show 2021,10/21/2021,2021,https://www.nationalhardwareshow.com/,DM,ABC Tools Mfg Corp,W828,,,,,,,en-US,,,,
National Hardware Show 2021,10/21/2021,2021,https://www.nationalhardwareshow.com/,DM,Able Treasure Enterprise Ltd,8048,,,,,,,en-US,,,,
National Hardware Show 2021,10/21/2021,2021,https://www.nationalhardwareshow.com/,DM,AC Group USA Inc.,W1030,,http://www.acgroupusa.com,info@acgroupusa.com,1-6304610031,,,en-US,"Tools - Pitch Forks, Shovels, Rakes, Post Hole Diggers | Automotive Accessories | Chain & Chain Accessories | DIY Products | Door Accessories & Hardware | Hand Tools & Accessories | Material Handling | Rope, Cordage, Twine, Tie-downs",,Lifstar,"AC group own 6 factories and manufacture link chains, accessories, hoists, forging products, wire ropes, marine products and ropes. We focus on good quality products and we have rich experience for DIY markets, retail markets and industrial markets. We have suppied directly to hardware stores like Lowe's, The Home Depot over 10 years with high quality and good customer service."
National Hardware Show 2021,10/21/2021,2021,https://www.nationalhardwareshow.com/,DM,Accusharp Int'l/Fortune Products Inc,W1267,,,,,,,en-US,,,AccuSharp,
National Hardware Show 2021,10/21/2021,2021,https://www.nationalhardwareshow.com/,DM,Aervoe Industries Pacific,W917,,,,,,,en-US,,,,
National Hardware Show 2021,10/21/2021,2021,https://www.nationalhardwareshow.com/,DM,AFA Polytek North America,W4237,,http://www.afadispensing.com,pmessacar@afadispensing.com,7087526680,,,en-US,"Air Purification | Bathroom & Shower Accessories | Cleaning Products, Supplies, Chemicals | Floor & Carpet Care | Home Healthcare, Personal Care | Kitchen Appliances, Accessories & Gadgets | Laundry Aids | Pet Products | Skincare Products",,Flairosol,"Flairosol® delivers a better-than-aerosol spray quality that sets brands apart. It’s a next generation trigger-based dispensing technology that eschews conventional propellant gases and pressurized containers. The product is also completely isolated, which means a superior overall product experience is achieved.

Delivering a remarkable spray quality, Flairosol® is engineered with multi-patented technologies. Its very fine mist combined with continuous spray functionality covers large areas quickly, evenly and in all directions from first to last drop.

Superior ergonomics and 360° dispensing"
National Hardware Show 2021,10/21/2021,2021,https://www.nationalhardwareshow.com/,DM,Agri-Fab Inc,OUTDR5722,,,,,,,en-US,,,,
National Hardware Show 2021,10/21/2021,2021,https://www.nationalhardwareshow.com/,DM,Ahlborn Equipment Inc,W3634,,http://www.ahlbornequipment.com,james@ahlbornequipment.com,1-800-472-7600,,,en-US,"Lawn & Garden Products | Safety Products | Outdoor Power Equipment, Replacement Parts | Protective Clothing (disposable) | Safety Glasses",,Forester,Ahlborn Equipment has been providing chainsaw and lawn and garden accessories as well as Personal Protective Equipment to our customer base for more than 45 years has given us the experience and expertise to understand the needs of our customers. We are continually adding new product lines to meet your needs. We thank you for the opportunity to work with you and your company.
National Hardware Show 2021,10/21/2021,2021,https://www.nationalhardwareshow.com/,DM,Ajustco,W1837,,,,,,,en-US,,,,
National Hardware Show 2021,10/21/2021,2021,https://www.nationalhardwareshow.com/,DM,Alco Mfg Co,W1701,,,,,,,en-US,,,,
National Hardware Show 2021,10/21/2021,2021,https://www.nationalhardwareshow.com/,DM,Alfred International,W4231,,,,,,,en-US,,,,
National Hardware Show 2021,10/21/2021,2021,https://www.nationalhardwareshow.com/,DM,Algoma Net,W3501,,,,,,,en-US,,,,
National Hardware Show 2021,10/21/2021,2021,https://www.nationalhardwareshow.com/,DM,Allen Group Int'l Inc.,W3968,,,,,,,en-US,,,,
National Hardware Show 2021,10/21/2021,2021,https://www.nationalhardwareshow.com/,DM,Alliance-Rubber Company,W4254,,,,,,,en-US,,,,
National Hardware Show 2021,10/21/2021,2021,https://www.nationalhardwareshow.com/,DM,Allway Tools Inc,W814,,,,,,,en-US,,,,
National Hardware Show 2021,10/21/2021,2021,https://www.nationalhardwareshow.com/,DM,Alpha Hose LLC - Flik It,W2419B,,https://alphahose.com,peter@alphahose.com,7543014567,,,en-US,"Hoses, Sprinklers, Irrigation Equipment, Watering Cans, Wands",,Flik-It Spig-It,"Alpha Hose designs and manufactures innovative products for the retail hardware market.  We specialize in garden hose on/off technology.  Our products are easy to use, lightweight, and cost efficient.  Products include a lawn sprinkler on/off extender hose which keeps the user dry when changing sprinkler locations and the Flik-It Spig-It which allows the user to turn the hose water on and off with a flick of the thumb eliminating the need to return to the spigot."
National Hardware Show 2021,10/21/2021,2021,https://www.nationalhardwareshow.com/,DM,Alton Industries,W1537,,,,,,,en-US,,,,
National Hardware Show 2021,10/21/2021,2021,https://www.nationalhardwareshow.com/,DM,Amazing Industries (The Gloves Company),W1556,,,,,,,en-US,,,,
National Hardware Show 2021,10/21/2021,2021,https://www.nationalhardwareshow.com/,DM,AmeriGas Propane Exchange,OUTDR5623,,,,,,,en-US,,,,
National Hardware Show 2021,10/21/2021,2021,https://www.nationalhardwareshow.com/,DM,Ames Research Laboratories Inc,W823,,https://amesresearch.com/,sales@amesresearch.com,888-345-0809,,,en-US,"Coatings (Roof, Basement, Concrete, Garage Floor)",,Ames,"Ames manufactures rubberized waterproof coatings and roof coatings. Typical applications include basement and foundation waterproofing, roof restoration and leak prevention, and wood deck refurbishment. Our products are made in the USA, low odor, low VOC, water clean-up and manufactured to meet strict ISO-9000 quality standards."
National Hardware Show 2021,10/21/2021,2021,https://www.nationalhardwareshow.com/,DM,Ammex,W970,,,,,,,en-US,,,,
National Hardware Show 2021,10/21/2021,2021,https://www.nationalhardwareshow.com/,DM,"Ammo Can Man, LLC",W1310,,,,,,,en-US,,,,
National Hardware Show 2021,10/21/2021,2021,https://www.nationalhardwareshow.com/,DM,Anderson Metals Corp. Inc,W532,,,,,,,en-US,,,,
National Hardware Show 2021,10/21/2021,2021,https://www.nationalhardwareshow.com/,DM,"Angel Group (Hong Kong) Co., Ltd.",W4148,,,,,,,en-US,,,,
National Hardware Show 2021,10/21/2021,2021,https://www.nationalhardwareshow.com/,DM,Angel-GUARD Products,W1714,,,,,,,en-US,,,,
National Hardware Show 2021,10/21/2021,2021,https://www.nationalhardwareshow.com/,DM,AP&G Co Inc,W2951,,,,,,,en-US,,,,
National Hardware Show 2021,10/21/2021,2021,https://www.nationalhardwareshow.com/,DM,Apache Consumer Products,W1000,,,,,,,en-US,,,,
National Hardware Show 2021,10/21/2021,2021,https://www.nationalhardwareshow.com/,DM,"Apollo Tools, Ltd.",W1745,,https://www.apollotools.com,ariane@apollotools.com,781-738-7397,,,en-US,Lawn & Garden Products | Cordless/Battery Operated Power Tools | DIY Products | Hand Tools & Accessories | Tool Boxes/Storage,,Apollo Tools,"Our hand tools are constructed of 45C carbon steel, or chrome vanadium steel, and are heat-treated and chrome-plated where appropriate. Our tool cases and fabric are made of extra heavy-duty materials. Our products are tested against industry standards for hardness, torque, finish and usability and should last a lifetime under normal home use. All our tools must reflect our standards so that they can be backed up with our lifetime warranty for hand tools and 1-year warranty on power tools."
National Hardware Show 2021,10/21/2021,2021,https://www.nationalhardwareshow.com/,DM,App-Lighting Optoelectronics Co. Inc - US Liason Office,W3873,,,,,,,en-US,,,,
National Hardware Show 2021,10/21/2021,2021,https://www.nationalhardwareshow.com/,DM,Aqua Lily Pad,OUTDR5731,,,,,,,en-US,,,,
National Hardware Show 2021,10/21/2021,2021,https://www.nationalhardwareshow.com/,DM,AR North America Inc,W1244,,,,,,,en-US,,,,
National Hardware Show 2021,10/21/2021,2021,https://www.nationalhardwareshow.com/,DM,AR Shelving,W1953,,,,,,,en-US,,,,
National Hardware Show 2021,10/21/2021,2021,https://www.nationalhardwareshow.com/,DM,Arcadia Publishing,W4337,,,,,,,en-US,,,,
National Hardware Show 2021,10/21/2021,2021,https://www.nationalhardwareshow.com/,DM,Aricia India International Pvt. Ltd.,W1060,,,,,,,en-US,,,,
National Hardware Show 2021,10/21/2021,2021,https://www.nationalhardwareshow.com/,DM,Aristo Technology Corporation Ltd.,W752,,,,,,,en-US,,,,
National Hardware Show 2021,10/21/2021,2021,https://www.nationalhardwareshow.com/,DM,Worldwide Home Products,W1501,,,,,,,en-US,,,,
National Hardware Show 2021,10/21/2021,2021,https://www.nationalhardwareshow.com/,DM,Armstrong Milling,W3971,,,,,,,en-US,,,,
National Hardware Show 2021,10/21/2021,2021,https://www.nationalhardwareshow.com/,DM,Arrowhead Brass Products,W445,,,,,,,en-US,,,,
National Hardware Show 2021,10/21/2021,2021,https://www.nationalhardwareshow.com/,DM,Arthur Jones LLC,W2415A,,,,,,,en-US,,,,
National Hardware Show 2021,10/21/2021,2021,https://www.nationalhardwareshow.com/,DM,Artika for Living Inc,W345,,,,,,,en-US,,,,
National Hardware Show 2021,10/21/2021,2021,https://www.nationalhardwareshow.com/,DM,Aspen Appliance Inc.,W4452,,https://www.aspenapplianceinc.com/,contact@aspenapplianceinc.com,18773653464,,,en-US,Smart Home/Home Automation,,ASPEN,Experience user-friendly indoor living with the Aspen® brand. Aspen’s vision is to offer you more variety of innovative home appliances with advanced+ technology.
National Hardware Show 2021,10/21/2021,2021,https://www.nationalhardwareshow.com/,DM,Atlantic Innovations,W2215C,,,,,,,en-US,DIY Products | Hand Tools & Accessories | Home Hardware | DIY Products | Point of Sale/Impulse Items | Wall Coverings,,,
National Hardware Show 2021,10/21/2021,2021,https://www.nationalhardwareshow.com/,DM,AUC/AWCL Industries Corp.,W3922,,https://aucusa.com,mitch@aucusa.com,7268009213,,,en-US,Lawn & Garden Products,,,"Based in Taiwan, we are specializing in ODM/OEM and engaging trading business in US  for more than 30+ years with close binding relationship with manufacturers in Asian countries. We have sales representative office in NV and warehouse in GA, USA. Our product lines include home decorations, outdoor living products, gardening tools, seasonal flags/decors and some homewares. We always try to look for the best value and right products for our clients. Our mission is to to build up a trustworthy and mutual-benefit relationship with our business partners."
National Hardware Show 2021,10/21/2021,2021,https://www.nationalhardwareshow.com/,DM,"Aurelia Gloves/Supermax Healthcare, Inc.",W1452,,http://aureliagloves.com/,info@aureliagloves.com,630-898-8886,,,en-US,,,,
National Hardware Show 2021,10/21/2021,2021,https://www.nationalhardwareshow.com/,DM,Automatic Trap Company,W3951,,https://www.automatictrap.com,jeff.jacobs@automatictrap.com,7079314551,,,en-US,,,Goodnature,"Automatic Trap Inc. was started in 2016 by entrepreneur and Founder, Blair Calder. We’re the exclusive distributor Goodnature® A24 in Canada and the United States. The A24 was created by conservationists in New Zealand to protect local bird populations from invasive mammals.

The Goodnature® A24 Rat and Mouse Trap was designed using innovative and advanced manufacturing processes, while focusing on humane killing methods. The A24 is certified humane, toxin-free, kills rodents instantly, and automatically resets for up to 24 kills."
National Hardware Show 2021,10/21/2021,2021,https://www.nationalhardwareshow.com/,DM,Baglay Sports Company,W1106,,,,,,,en-US,,,,
National Hardware Show 2021,10/21/2021,2021,https://www.nationalhardwareshow.com/,DM,Baker Products Ltd.,W3632,,,,,,,en-US,,,,
National Hardware Show 2021,10/21/2021,2021,https://www.nationalhardwareshow.com/,DM,XPLUS OUTDOOR,W4144,,,,,,,en-US,,,,
National Hardware Show 2021,10/21/2021,2021,https://www.nationalhardwareshow.com/,DM,Barbour International Inc/Bayou Classic,W4122,,https://www.thebayou.com,erin.busin@bi2.com,800-736-8028,,,en-US,,,,
National Hardware Show 2021,10/21/2021,2021,https://www.nationalhardwareshow.com/,DM,Barenbrug USA,W3345,,,,,,,en-US,,,,
National Hardware Show 2021,10/21/2021,2021,https://www.nationalhardwareshow.com/,DM,Barnel International Inc,W3622,,,,,,,en-US,,,,
National Hardware Show 2021,10/21/2021,2021,https://www.nationalhardwareshow.com/,DM,Batten Industries Dba Nellies-All Natural.,W4316,,https://www.nelliesclean.com,Hannah@nelliesclean.com,1-888-984-7471,,,en-US,,,Nellie's Clean Inc.,
National Hardware Show 2021,10/21/2021,2021,https://www.nationalhardwareshow.com/,DM,Battery Technology,W1432,,http://www.batterytech.com,sales@gobti.com,(626) 336-6878,,,en-US,,,,"Battery Technology Inc. (BTI) is a global manufacturer and supplier of laptop batteries, ac adapters, UPS batteries, projector lamps, chrome book/notebook replacement parts and more. Please visit batterytech.com and our booth W1432 for more info!"
National Hardware Show 2021,10/21/2021,2021,https://www.nationalhardwareshow.com/,DM,Bawa Industries Private Limited,W1652,,,,,,,en-US,,,,
National Hardware Show 2021,10/21/2021,2021,https://www.nationalhardwareshow.com/,DM,BCS International,W2050,,,,,,,en-US,,,,
National Hardware Show 2021,10/21/2021,2021,https://www.nationalhardwareshow.com/,DM,Beacon Power Inc (NSL GROUP),W3623,,,,,,,en-US,,,,
National Hardware Show 2021,10/21/2021,2021,https://www.nationalhardwareshow.com/,DM,Beagle Tools,W3434,,https://www.beagletools.com,kurt.feick@snet.net,2035152391,,,en-US,Builder Tools & Instruments | Masonry Products/Concrete/Cement | Carts/Dollies/Material Handling | Builder Tools & Instruments | Hand Tools & Accessories | Material Handling | Garden Tools & Supplies | Landscaping Supplies & Equipment,,Beagle Tools,"Beagle Tools is the offspring of Jeep Wheelbarrows. With a solid portfolio of patented products, Beagle Tools stands behind its products with a 5 year guarantee. As the wheelbarrow of choice for professional contractors and landscapers, the superior balance, durability and ergonomics are guaranteed to win over any serious contractor. A new 7 cu ft poly can be converted to a dual wheel model with a second tire purchase and our free axle. It assembles with 5 bolts in under 4 minutes. The new tilt back line of hand trucks are designed for appliances, beverage handling and general use."
National Hardware Show 2021,10/21/2021,2021,https://www.nationalhardwareshow.com/,DM,Bear Knuckles LLC,W2029,,https://buybearknuckles.com/,support@bearknuckles.biz,(844) 423-2756,,,en-US,Apparel | Lawn & Garden Products | Point of Sale/Impulse Items | Apparel | Hand Tools & Accessories | Apparel & Outdoor Workwear | Gloves | Point of Sale/Impulse Items | Apparel | Licensed Products,,Bear Knuckles Gloves,"Most leather gloves are built for an extended, flat hand. Bear Knuckles gloves use our patented Double Wedge™ design which is built for the natural curve of the fingers. This puts less strain on the stitching/seams, which in turns provides longer durability and more comfort. Excess leather is removed so it does not bunch in your palm, providing a superior grip. We've created a fiercely loyal customer base who remark that our gloves feel ""broken in"" right off the shelf, and with our patented design there's no one like us!"
National Hardware Show 2021,10/21/2021,2021,https://www.nationalhardwareshow.com/,DM,Bear Mountain BBQ Woods,OUTDR5723,,,,,,,en-US,,,,
National Hardware Show 2021,10/21/2021,2021,https://www.nationalhardwareshow.com/,DM,"Beijing Good International Exhibition Co., Ltd.","12650, 8150, 7047, 8447, W3461",,,,,,,en-US,,,,
National Hardware Show 2021,10/21/2021,2021,https://www.nationalhardwareshow.com/,DM,"Beijing Talent - Expo. Co., LTD","10556, 10450, 10667, 2, 8750, 3217, W3534, W4279, W215",,,,,,,en-US,,,,
National Hardware Show 2021,10/21/2021,2021,https://www.nationalhardwareshow.com/,DM,Bengal Products Inc.,W3950,,,,,,,en-US,,,,
National Hardware Show 2021,10/21/2021,2021,https://www.nationalhardwareshow.com/,DM,Bercom International LLC,W949,,https://www.handyproducts.co/,jgiven@handyproducts.co,8774641170,,,en-US,,,HANDY,
National Hardware Show 2021,10/21/2021,2021,https://www.nationalhardwareshow.com/,DM,Best Gife Co. Ltd.,W1078,,,,,,,en-US,,,,
National Hardware Show 2021,10/21/2021,2021,https://www.nationalhardwareshow.com/,DM,Big Gator Tools,W1232,,https://www.biggatortools.com,sales@bgtools.com,816-619-3936,,,en-US,"Power Equipment & Accessories - Power Washers, Trimmers, Portable Heaters, Log Splitters | Tools - Pitch Forks, Shovels, Rakes, Post Hole Diggers | As Seen On TV | DIY Products | Hand Tools & Accessories | Power Tools & Accessories",,V-DrillGuide®,
National Hardware Show 2021,10/21/2021,2021,https://www.nationalhardwareshow.com/,DM,Big Mouth Parcel,W2205B,,https://bigmouthparcel.com/,info@bigmouthparcel.com,,,,en-US,,,,"Big Mouth Parcel® meets the needs of the final step of last mile delivery with an affordable suite of secure parcel/product storage units. Big Mouth Parcel’s® Utility Patented “dual drop” design will accommodate larger package sizes (such as banker’s boxes, a golf club, case of wine), while maintaining a modest 2’ X 4’ footprint.   

Stop by and let's discuss co-branding opportunities to address the ~160M delivery points in the US."
National Hardware Show 2021,10/21/2021,2021,https://www.nationalhardwareshow.com/,DM,BigHorn Stabilizer,W2514A,,,,,,,en-US,,,,
National Hardware Show 2021,10/21/2021,2021,https://www.nationalhardwareshow.com/,DM,BILT Incorporated,W3945,,,,,,,en-US,,,,
National Hardware Show 2021,10/21/2021,2021,https://www.nationalhardwareshow.com/,DM,Bird Pro/Central Farm & Garden,W3805,,,,,,,en-US,,,,
National Hardware Show 2021,10/21/2021,2021,https://www.nationalhardwareshow.com/,DM,BIRD-B-GONE,W3831,,,,,,,en-US,,,Bird-B-Gone,"Bird B Gone LLC is the world’s largest manufacturer of professional grade bird deterrents. Since 1992, our products have helped solve pest bird problems in commercial, industrial, recreational,
government and residential settings across the globe. Our superior products, excellent customer support and cutting-edge innovation have secured our position as the number one
manufacturer and supplier of bird control products."
National Hardware Show 2021,10/21/2021,2021,https://www.nationalhardwareshow.com/,DM,Black Mamba,W2009,,,,,,,en-US,,,,
National Hardware Show 2021,10/21/2021,2021,https://www.nationalhardwareshow.com/,DM,Blackburn Mfg Company,W1205,,,,,,,en-US,,,,
National Hardware Show 2021,10/21/2021,2021,https://www.nationalhardwareshow.com/,DM,Blount International-Oregon Brand,W3715,,,,,,,en-US,,,,
National Hardware Show 2021,10/21/2021,2021,https://www.nationalhardwareshow.com/,DM,Blue Collar Design LLC,W2514D,,,,,,,en-US,,,,
National Hardware Show 2021,10/21/2021,2021,https://www.nationalhardwareshow.com/,DM,Blue Orange Pottery/Creative Decor Sourcing,W3361,,,,,,,en-US,,,,
National Hardware Show 2021,10/21/2021,2021,https://www.nationalhardwareshow.com/,DM,Blue Rhino,OE5,,,,,,,en-US,,,,
National Hardware Show 2021,10/21/2021,2021,https://www.nationalhardwareshow.com/,DM,"Bluewell Gloves Co.,Ltd",W1468,,,,,,,en-US,,,,
National Hardware Show 2021,10/21/2021,2021,https://www.nationalhardwareshow.com/,DM,Boker USA,W1932,,,,,,,en-US,,,,
National Hardware Show 2021,10/21/2021,2021,https://www.nationalhardwareshow.com/,DM,"Boston Distribution, Inc.",W412,,,,,,,en-US,,,,
National Hardware Show 2021,10/21/2021,2021,https://www.nationalhardwareshow.com/,DM,"Boundless Breakthroughs, LLC",W2315B,,,,,,,en-US,,,,
National Hardware Show 2021,10/21/2021,2021,https://www.nationalhardwareshow.com/,DM,"Bowman Dispensers, LLC",W1008,,https://bowmandispensers.com/,carlo@bowmandispensers.com,800-962-4660,,,en-US,Emergency Preparedness & Disaster Relief | Safety Products | Storage & Organization | Tool Boxes/Storage | Disposable Masks | Face Protection | Gloves (disposable) | N95 Mask | Protective Clothing (disposable) | Safety Glasses,,,"Bowman Dispensers® is your ""One Stop Shop"" for PPE storage. Bowman's 400 innovative dispenses are designed to store, organize, contain & distribute PPE which helps reduce waste, improve efficiency, drive safety, and protect staff, visitors, and customers from workplace risks. Proudly made in the USA, Bowman Dispensers are utilized all over the world and marketed in healthcare, food service, safety industrial, janitorial - sanitation, schools, government, and other industries."
National Hardware Show 2021,10/21/2021,2021,https://www.nationalhardwareshow.com/,DM,Brainstorm Products LLC,W3533,,,,,,,en-US,,,,
National Hardware Show 2021,10/21/2021,2021,https://www.nationalhardwareshow.com/,DM,Briggs & Stratton LLC,W2345,,https://www.briggsandstratton.com/na/en_us/home.html,,,,,en-US,"DIY Products | Electrical Tools & Accessories | Power Accessories | Lawn & Garden Products | Power Equipment & Accessories - Power Washers, Trimmers, Portable Heaters, Log Splitters | DIY Products | Landscaping Supplies & Equipment | Outdoor Power Equipment, Replacement Parts | Snow Removal Products | Generators/Portable Power",,Briggs & Stratton,"Briggs & Stratton, LLC, headquartered in Milwaukee, Wisconsin, is focused on providing power to get work done and make people's lives better. Briggs & Stratton is the world’s largest producer of gasoline engines for outdoor power equipment, and is a leading designer, manufacturer and marketer of commercial lithium-ion batteries, power generation, pressure washer, lawn and garden, turf care and job site products. Briggs & Stratton products are designed, manufactured, marketed and serviced in over 100 countries on six continents."
National Hardware Show 2021,10/21/2021,2021,https://www.nationalhardwareshow.com/,DM,Bright Bird Electronics Ltd.,W628,,,,,,,en-US,,,,
National Hardware Show 2021,10/21/2021,2021,https://www.nationalhardwareshow.com/,DM,Bronya Climate Shield,W729,,,,,,,en-US,,,,
National Hardware Show 2021,10/21/2021,2021,https://www.nationalhardwareshow.com/,DM,"Brush Tote, LLC.",W2518A,,,,,,,en-US,,,,
National Hardware Show 2021,10/21/2021,2021,https://www.nationalhardwareshow.com/,DM,Brushtech Inc,OUTDR5314,,,,,,,en-US,,,,
National Hardware Show 2021,10/21/2021,2021,https://www.nationalhardwareshow.com/,DM,Bucket Tools,W857,,,,,,,en-US,,,,
National Hardware Show 2021,10/21/2021,2021,https://www.nationalhardwareshow.com/,DM,Buddeez Inc,W3606,,,,,,,en-US,,,,
National Hardware Show 2021,10/21/2021,2021,https://www.nationalhardwareshow.com/,DM,Buffalo Corp.,W1511,,,,,,,en-US,,,,
National Hardware Show 2021,10/21/2021,2021,https://www.nationalhardwareshow.com/,DM,BUG ELIMINATION AND PREVENTION CO (BEAPCO),W3367,,,,,,,en-US,,,,
National Hardware Show 2021,10/21/2021,2021,https://www.nationalhardwareshow.com/,DM,BULA,W1429,,,,,,,en-US,,,,
National Hardware Show 2021,10/21/2021,2021,https://www.nationalhardwareshow.com/,DM,Bunnik Creations,W4039,,https://www.bunnikcreations.com,Johannes.Smit@bunnikcreations.com,7323202348,,,en-US,"Giftware | Home Decorative Items | Point of Sale/Impulse Items | Container Gardens | Eco-friendly | Garden Decor | Indoor Gardening/Hydroponics | Outdoor Art & Decor | Planters, Flower Pots & Containers | Disposable Masks",,,"Bunnik Creations is your partner in added value,  garden pots, planters and home décor.  From our headquarters in the Netherlands we do business with customers and suppliers all over the world.  We combine selections, convenience and value you expect from us with local warehouse distribution center located in Kearny, NJ.  Our USA warehouse distribution facility offers thousands of on-trend products available for immediate shipment.  Our commitment has built a company that manufactures ceramics, glassware and imports home décor accents, while consistently providing great customer service."
National Hardware Show 2021,10/21/2021,2021,https://www.nationalhardwareshow.com/,DM,Burcam Pumps Inc,W516,,,,,,,en-US,,,,
National Hardware Show 2021,10/21/2021,2021,https://www.nationalhardwareshow.com/,DM,Burpee Garden Products/Burpee Home Gardens,W3701,,https://www.burpee.com/,smoore@burpee.com,1 (800) 444-SEED (7333),,,en-US,"Eco-Friendly | Feed & Seed Products & Supplies | Lawn & Garden Products | Fertilizer | Organic Garden Products | Seed, Bulbs, Plant Starters",,Burpee,"Burpee offers a broad range of novel and traditional vegetables, herbs, fruits, flowers, perennials, and quality gardening supplies. We know from experience that each gardener has individual goals and tastes, and no two gardens are alike."
National Hardware Show 2021,10/21/2021,2021,https://www.nationalhardwareshow.com/,DM,Buy Supply,W1910,,,,,,,en-US,"Builder Tools & Instruments | Emergency Preparedness & Disaster Relief | Hand Tools & Accessories | Material Handling | Power Tools & Accessories | Safety Products | Storage & Organization | Cleaning Products, Supplies, Chemicals | Tool Boxes & Storage",,Rubbermaid,"Buy Supply is your go-to-partner for any B2B supplies your business needs.  Whether you’re a mom and pop shop or a corporate giant, we can get you the supplies you need faster, cheaper, and more reliably.

Buy Supply connects you with all of the supplies that your business needs. We bring decades of operating experience and 1,500+ supplier relationships to provide access to over 6 million products across 20 major categories— all in one place.  

We’re big enough to handle your largest supply requirements, small enough to get you what you need your way. We're as flexible as it gets!"
National Hardware Show 2021,10/21/2021,2021,https://www.nationalhardwareshow.com/,DM,C & B Products,W1710,,,,,,,en-US,,,,
National Hardware Show 2021,10/21/2021,2021,https://www.nationalhardwareshow.com/,DM,C.M.C. USA Corp,W1427,,,,,,,en-US,,,,
National Hardware Show 2021,10/21/2021,2021,https://www.nationalhardwareshow.com/,DM,Caco America LLC,W845,,,,,,,en-US,Safety Products | Workwear/Workgloves | Gloves | Disposable Masks | Face Protection | Gloves (disposable) | Protective Clothing (disposable) | Protective Goggles | Respirators | Safety Glasses,,GE Personal Protective Equipment,
National Hardware Show 2021,10/21/2021,2021,https://www.nationalhardwareshow.com/,DM,Caframo Ltd,W4256,,,,,,,en-US,,,,
National Hardware Show 2021,10/21/2021,2021,https://www.nationalhardwareshow.com/,DM,Calico Brands Inc,W3535,,http://www.calicobrands.com,kheim@calicobrands.com,9099305000,,,en-US,Lighters/Fire Starters | Lighters/Fire Starters,,Scripto,"Calico Brands, Inc. is a leading supplier of multi-purpose and pocket lighters in the U.S. selling under the Scripto® and King® brand names. We are also the #1 supplier of private label programs in the U.S. Scripto® is one of the most trusted and popular brands of lighters and has been a household name for over 90 years. Our product innovations continue to set new category standards of excellence. Our lighters can be found in food, drug, mass merchandise, hardware and convenience stores throughout the U.S."
National Hardware Show 2021,10/21/2021,2021,https://www.nationalhardwareshow.com/,DM,California Air Tools,W1728,,https://www.californiaairtools.com/,info@californiaairtools.com,8664094581,,,en-US,Air Compressors,,California Air Tools,"Our vision at California Air Tools is about creating the kind of products that provide useful features and outstanding performance.
We strive to provide the Highest Quality Products and the Highest Level of Customer Service to Every Customer Every Time!.
With each new product, we stretch the boundaries of possibilities to satisfy ""you"" the customer.
We are ""Changing the Way the World Works""."
National Hardware Show 2021,10/21/2021,2021,https://www.nationalhardwareshow.com/,DM,Camp Chef,OUTDR5529,,,,,,,en-US,,,,
National Hardware Show 2021,10/21/2021,2021,https://www.nationalhardwareshow.com/,DM,Campirano Charcoal Inc.,W4057,,,,,,,en-US,BBQ Tools & Accessories,,Campirano,"Campirano Charcoal Inc, family owned and operated since 1983, is dedicated to the manufacture and distribution of high quality Charcoal. In order to constantly meet our consumers’ expectations, We offer products packaged under the highest standards of quality and cleanliness.
In the production of Charcoal, we use carefully selected woods from regions in Mexico for our Process. You can be reassured that we have all the permits for our work — from production to storage to distribution.
In our factory located in Monterrey, Nuevo Leon, we use the highest technologies and a demanding production p"
National Hardware Show 2021,10/21/2021,2021,https://www.nationalhardwareshow.com/,DM,Canadian Spa Company,W4033,,https://www.canadianspa.com/,sales@canadianspacompany.com,(877) 909-7727,,,en-US,"Arbors, Gazebos & Trellises | Pools & Spas, Chemicals & Accessories",,Canadian Spa Company,"Worldwide Hot Tub Supplier & Hot Tub Manufacturer, Providing Hot Tubs, Swim Spas, Outdoor Furniture and Saunas to Major Retailers near you. Contact us through the Canadian Spa Company office in your country for pre-sales questions and after-sales support and help, including warranty, servicing and product information. The Canadian Spa Company is a global brand, we manufacture our Hot Tubs and other products in North America, Asia and Europe and distribute around the world.

One of the larger companies in the world market place; the Canadian Spa Company has been recognised as an industry leader"
National Hardware Show 2021,10/21/2021,2021,https://www.nationalhardwareshow.com/,DM,Car Keys Express,W1400,,,,,,,en-US,,,,
National Hardware Show 2021,10/21/2021,2021,https://www.nationalhardwareshow.com/,DM,CARBO USA LLC,W1951,,,,,,,en-US,,,,
National Hardware Show 2021,10/21/2021,2021,https://www.nationalhardwareshow.com/,DM,Carson Home Accents,W4031,,https://www.carsonhomeaccents.com,bjackman@carsonindustries.com,800.888.1918,,,en-US,Decorative Lighting & Accessories | Giftware | Home Decorative Items | Hydration | Indoor Rugs/Mats | Garden Decor | Hydration | Outdoor Art & Decor | Outdoor Rugs & Mats | Toys & Gifts,,Carson Home Accents,"we are still committed to the same philosophy that we were founded on over 40 years ago. The passion we have for our customers is in our minds every step of the way — through product development, design, production, and shipping. That's the philosophy we bring to the table every day. Our in-house designers — along with the industry's leading licensed artists — create and draw inspiration from across the globe to give you unique collections. We collaborate with our global business partners to offer you these products at an incomparable value. We believe the details make the difference!"
National Hardware Show 2021,10/21/2021,2021,https://www.nationalhardwareshow.com/,DM,Cascade Holdings,W1609,,,,,,,en-US,,,,
National Hardware Show 2021,10/21/2021,2021,https://www.nationalhardwareshow.com/,DM,"CasualWay USA, LLC",W3626,,,,,,,en-US,"Arbors, Gazebos & Trellises | Beach Products | Camping & Picnic Supplies | Outdoor Patio & Lawn Furniture Accessories | Umbrellas/Awnings/Shelters/Sheds",,CasualWay USA,"Our objective is to continually provide the most innovative designs for leisure and outdoor life products. We offer our dealers and business partners with the best products and solutions on the market combined with great cost effectiveness, high quality, and remarkable functionality."
National Hardware Show 2021,10/21/2021,2021,https://www.nationalhardwareshow.com/,DM,Caterpillar Inc,W2244,,,,,,,en-US,,,,
National Hardware Show 2021,10/21/2021,2021,https://www.nationalhardwareshow.com/,DM,CedarCraft,W3806,,,,,,,en-US,,,,
National Hardware Show 2021,10/21/2021,2021,https://www.nationalhardwareshow.com/,DM,Celerant Technologies,"2529, W1450",,,,,,,en-US,,,,
National Hardware Show 2021,10/21/2021,2021,https://www.nationalhardwareshow.com/,DM,Central Garden & Pet/Pennington/Howard Johnson's Enterprises,W3507,,,,,,,en-US,,,,
National Hardware Show 2021,10/21/2021,2021,https://www.nationalhardwareshow.com/,DM,Centrex Plastic LLC./American Plastics,W1145,,,,,,,en-US,,,,
National Hardware Show 2021,10/21/2021,2021,https://www.nationalhardwareshow.com/,DM,Century Brass,W531,,,,,,,en-US,,,,
National Hardware Show 2021,10/21/2021,2021,https://www.nationalhardwareshow.com/,DM,Century Drill & Tool Corp,W1117,,,,,,,en-US,,,,
National Hardware Show 2021,10/21/2021,2021,https://www.nationalhardwareshow.com/,DM,Cerro Flow Products LLC,W514,,,,,,,en-US,,,,
National Hardware Show 2021,10/21/2021,2021,https://www.nationalhardwareshow.com/,DM,Certwood Limited,W1434,,,,,,,en-US,,,,
National Hardware Show 2021,10/21/2021,2021,https://www.nationalhardwareshow.com/,DM,Chaby International,W3159,,,,,,,en-US,,,,
National Hardware Show 2021,10/21/2021,2021,https://www.nationalhardwareshow.com/,DM,Champion Power Equipment,W2544,,,,,,,en-US,,,,
National Hardware Show 2021,10/21/2021,2021,https://www.nationalhardwareshow.com/,DM,"Changzhou Jinli Optical Instrument Co., Ltd.",W1573,,,,,,,en-US,,,,
National Hardware Show 2021,10/21/2021,2021,https://www.nationalhardwareshow.com/,DM,"Changzhou Taiyu Rubber and Plastic Co, Ltd",W749,,,,,,,en-US,,,,
National Hardware Show 2021,10/21/2021,2021,https://www.nationalhardwareshow.com/,DM,Changzhou Wujin Great Wall Tool,W1529,,,,,,,en-US,,,,
National Hardware Show 2021,10/21/2021,2021,https://www.nationalhardwareshow.com/,DM,"Changzhou Yaming Wood Industry Co., Ltd.",W4278,,,,,,,en-US,,,,
National Hardware Show 2021,10/21/2021,2021,https://www.nationalhardwareshow.com/,DM,Characters Unlimited Inc,W3966,,,,,,,en-US,,,,
National Hardware Show 2021,10/21/2021,2021,https://www.nationalhardwareshow.com/,DM,"Chen Household Hardware Supply Co., Ltd.",W335,,,,,,,en-US,,,,
National Hardware Show 2021,10/21/2021,2021,https://www.nationalhardwareshow.com/,DM,"China Hont Electrical Co.,Ltd",W1275,,,,,,,en-US,,,,
National Hardware Show 2021,10/21/2021,2021,https://www.nationalhardwareshow.com/,DM,China Jiangsu Int'l Econ-Tech Cooperation Corp.,W211,,,,,,,en-US,,,,
National Hardware Show 2021,10/21/2021,2021,https://www.nationalhardwareshow.com/,DM,Chiptoolz,W2515D,,,,,,,en-US,,,,
National Hardware Show 2021,10/21/2021,2021,https://www.nationalhardwareshow.com/,DM,"CIEC Overseas Exhibition Co, Ltd.","5, W327, W759, W3175",,,,,,,en-US,,,,
National Hardware Show 2021,10/21/2021,2021,https://www.nationalhardwareshow.com/,DM,"Cixi Huayu Upholstery Co., Ltd.",W210,,,,,,,en-US,,,,
National Hardware Show 2021,10/21/2021,2021,https://www.nationalhardwareshow.com/,DM,"Cixi Tianshuo Industry Trade Co., Ltd.",W216,,,,,,,en-US,,,,
National Hardware Show 2021,10/21/2021,2021,https://www.nationalhardwareshow.com/,DM,Clam Outdoors,W3145,,,,,,,en-US,,,,
National Hardware Show 2021,10/21/2021,2021,https://www.nationalhardwareshow.com/,DM,Classic Home & Garden,"12163, W3317",,,,,,,en-US,,,,
National Hardware Show 2021,10/21/2021,2021,https://www.nationalhardwareshow.com/,DM,Cleva North America,W2045,,,,,,,en-US,,,,
National Hardware Show 2021,10/21/2021,2021,https://www.nationalhardwareshow.com/,DM,Clockwise Tools Inc,W2010,,,,,,,en-US,,,,
National Hardware Show 2021,10/21/2021,2021,https://www.nationalhardwareshow.com/,DM,Cold Steel Inc,W1727,,,,,,,en-US,,,,
National Hardware Show 2021,10/21/2021,2021,https://www.nationalhardwareshow.com/,DM,Complete Signs,W1532,,,,,,,en-US,,,,
National Hardware Show 2021,10/21/2021,2021,https://www.nationalhardwareshow.com/,DM,Compressed Air Systems Inc,W1733,,,,,,,en-US,,,,
National Hardware Show 2021,10/21/2021,2021,https://www.nationalhardwareshow.com/,DM,Conant/Weems & Plath,W3432,,,,,,,en-US,,,,
National Hardware Show 2021,10/21/2021,2021,https://www.nationalhardwareshow.com/,DM,Concord/ SM Products,W1245,,https://www.spyderproducts.com,info@spyderproducts.com,888-471-2239,,,en-US,Abrasives | Hand Tools & Accessories,,Spyder,"Spyder manufacturers high performance tools and accessories - using quality materials and
innovative designs, our power tool accessories stand up to the punishment that is dished out every day – working as long and hard as the pros who depend on them."
National Hardware Show 2021,10/21/2021,2021,https://www.nationalhardwareshow.com/,DM,Connectubes,OUTDR5327,,,,,,,en-US,,,,
National Hardware Show 2021,10/21/2021,2021,https://www.nationalhardwareshow.com/,DM,Control Solutions Inc.,W3855,,,,,,,en-US,,,,
National Hardware Show 2021,10/21/2021,2021,https://www.nationalhardwareshow.com/,DM,Cordova Consumer Products division of International Sourcing Co. Inc.,W1815,,,,,,,en-US,,,,
National Hardware Show 2021,10/21/2021,2021,https://www.nationalhardwareshow.com/,DM,Cosco Home & Office Products,W2523,,,,,,,en-US,,,,
National Hardware Show 2021,10/21/2021,2021,https://www.nationalhardwareshow.com/,DM,CoverSeal,W4059,,,,,,,en-US,,,,
National Hardware Show 2021,10/21/2021,2021,https://www.nationalhardwareshow.com/,DM,Cree lighting,W508,,,,,,,en-US,,,,
National Hardware Show 2021,10/21/2021,2021,https://www.nationalhardwareshow.com/,DM,Croc Tools,W3954,,https://bbqcroc.com,info@bbqcroc.com,833 CROC MAN (276-2626),,,en-US,"Kitchen Appliances, Accessories & Gadgets | BBQ Tools & Accessories | Camping & Picnic Supplies | Grills/Barbecues/Smokers | Tailgate/Camping | BBQ Tools & Accessories | Coolers | Grills/Barbecues/Smokers",,BBQ Croc,"Croc Tools Inc produces innovative, high quality barbecue accessories and portable grills under the BBQ Croc brand. Our goals are to simplify the grilling experience for outdoor enthusiasts and grilling aficionados so they can concentrate on the important things in life, time with friends and loved ones."
National Hardware Show 2021,10/21/2021,2021,https://www.nationalhardwareshow.com/,DM,Crocs Lighter Inc.,W3753,,,,,,,en-US,,,,
National Hardware Show 2021,10/21/2021,2021,https://www.nationalhardwareshow.com/,DM,Crov.com,W3870,,,,,,,en-US,,,,
National Hardware Show 2021,10/21/2021,2021,https://www.nationalhardwareshow.com/,DM,Crowflight Tools,W2201A,,,,,,,en-US,,,,
National Hardware Show 2021,10/21/2021,2021,https://www.nationalhardwareshow.com/,DM,CSA Group,W4467,,,,,,,en-US,,,,
National Hardware Show 2021,10/21/2021,2021,https://www.nationalhardwareshow.com/,DM,CSPS Industries,W3856,,,,,,,en-US,,,,
National Hardware Show 2021,10/21/2021,2021,https://www.nationalhardwareshow.com/,DM,Curtis Wagner Plastics Corp,W3933,,https://cwplastics.com/,Sales@cwplastics.com,8003321663,,,en-US,"Eco-Friendly | Lawn & Garden Products | Pet Products | Pet Products | Planters, Flower Pots & Containers",,Ace Hardware,"Curtis Wagner Plastics was founded in 1992 in Houston, Texas. A leading manufacturer and wholesale marketer of plastic products proudly made in the USA, Curtis Wagner Plastics delivers in house design and production of every product we sell. Each of the items manufactured by our company meets exacting standards for quality and durability, making Curtis Wagner Plastics a solid choice for companies looking for eco-friendly products that are MADE IN THE USA."
National Hardware Show 2021,10/21/2021,2021,https://www.nationalhardwareshow.com/,DM,Custom Leathercraft Manufacturing Co Inc,W1822,,,,,,,en-US,,,,
National Hardware Show 2021,10/21/2021,2021,https://www.nationalhardwareshow.com/,DM,"Custom-Pak, Inc.",W3731,,https://www.custom-pak.com/,sales@custom-pak.com,563-242-1801,,,en-US,Mailboxes | Tool Boxes & Storage,,,Custom-Pak operates six modern blow molding manufacturing plants in North America. Over 200 state-of-the-art blow molding production lines provide extrusion blow molding with a broad range of capabilities. Machine sizes range from 1 to 30 lb shot sizes. Interchangeable machine components allow us to configure the machine to best fit your product size & quantity.
National Hardware Show 2021,10/21/2021,2021,https://www.nationalhardwareshow.com/,DM,"CVS Borescope Tech (Ningbo) Co., Ltd.",W4334,,,,,,,en-US,,,,
National Hardware Show 2021,10/21/2021,2021,https://www.nationalhardwareshow.com/,DM,Cyber Tech Lighting,W408,,,,,,,en-US,,,,
National Hardware Show 2021,10/21/2021,2021,https://www.nationalhardwareshow.com/,DM,D & D Commodities Ltd 3D Pet Products,W3854,,,,,,,en-US,,,,
National Hardware Show 2021,10/21/2021,2021,https://www.nationalhardwareshow.com/,DM,D.F. Omer Ltd,W3970,,,,,,,en-US,,,,
National Hardware Show 2021,10/21/2021,2021,https://www.nationalhardwareshow.com/,DM,"Daiichi Vinyl Co., Ltd.",W3371,,,,,,,en-US,,,,
National Hardware Show 2021,10/21/2021,2021,https://www.nationalhardwareshow.com/,DM,DANESE SRL,W1330,,,,,,,en-US,,,,
National Hardware Show 2021,10/21/2021,2021,https://www.nationalhardwareshow.com/,DM,Danner Manufacturing Inc,W3531,,,,,,,en-US,,,,
National Hardware Show 2021,10/21/2021,2021,https://www.nationalhardwareshow.com/,DM,DAP Products Inc,W901,,,,,,,en-US,,,,
National Hardware Show 2021,10/21/2021,2021,https://www.nationalhardwareshow.com/,DM,Darnell-Rose,W1234,,https://www.darnellrose.com,drfax@casters.com,6269121688,,,en-US,"Furniture Casters, Accessories & Hardware | Material Handling | Safety Products",,StageMaster,"For over 100 years Darnell-Rose has been the innovator in engineering and manufacturing
of high quality casters, wheels, rubber bumpers, industrial truck couplers, and conveyor systems.
Our full-line of products are used worldwide by customers spanning the aviation, medical,
electronics, food processing, automotive, and general material handling industries.
Our products withstand constant use and abuse, because they are hand crafted in the USA
using only high quality raw materials and components. These robust products are tested to assure long life and ergonomic performance,"
National Hardware Show 2021,10/21/2021,2021,https://www.nationalhardwareshow.com/,DM,Decko Products,W1533,,,,,,,en-US,,,,
National Hardware Show 2021,10/21/2021,2021,https://www.nationalhardwareshow.com/,DM,DecoArt,W948,,,,,,,en-US,,,,
National Hardware Show 2021,10/21/2021,2021,https://www.nationalhardwareshow.com/,DM,Deflecto Corp,W560,,,,,,,en-US,,,,
National Hardware Show 2021,10/21/2021,2021,https://www.nationalhardwareshow.com/,DM,DeGroot Inc.,W3936,,,,,,,en-US,,,,
National Hardware Show 2021,10/21/2021,2021,https://www.nationalhardwareshow.com/,DM,Delta,W4349,,,,,,,en-US,,,,
National Hardware Show 2021,10/21/2021,2021,https://www.nationalhardwareshow.com/,DM,Delta Industries,W4314,,,,,,,en-US,,,,
National Hardware Show 2021,10/21/2021,2021,https://www.nationalhardwareshow.com/,DM,Deltess Corp. c/o Ostrich Products,W3837,,https://www.ostrichchair.com,info@deltess.com,609-564-0413,,,en-US,Beach Products | Holiday/Seasonal Accessories | Outdoor Patio & Lawn Furniture Accessories | Tailgate/Camping | Umbrellas/Awnings/Shelters/Sheds,,Ostrich,"Ostrich Products has been reinventing the beach chair since 2004.  Comfort and innovation is our number one priority when it comes to our designs. We are the exclusive manufacturer and distributior of the patented Ostrich brand of face-down beach chairs, chaise lounges, patio furniture pieces and more..."
National Hardware Show 2021,10/21/2021,2021,https://www.nationalhardwareshow.com/,DM,Design International Group,W3819,,,,,,,en-US,,,,
National Hardware Show 2021,10/21/2021,2021,https://www.nationalhardwareshow.com/,DM,Design Toscano,W3422,,,,,,,en-US,,,,
National Hardware Show 2021,10/21/2021,2021,https://www.nationalhardwareshow.com/,DM,DeWitt Company,W3938,,,,,,,en-US,,,,
National Hardware Show 2021,10/21/2021,2021,https://www.nationalhardwareshow.com/,DM,DG Innovations,W2515F,,,,,,,en-US,,,,
National Hardware Show 2021,10/21/2021,2021,https://www.nationalhardwareshow.com/,DM,Dial Manufacturing,W4227,,,,,,,en-US,,,,
National Hardware Show 2021,10/21/2021,2021,https://www.nationalhardwareshow.com/,DM,Disston,W1919,,,,,,,en-US,,,,
National Hardware Show 2021,10/21/2021,2021,https://www.nationalhardwareshow.com/,DM,DiversiTech Corp.,W3153,,,,,,,en-US,,,,
National Hardware Show 2021,10/21/2021,2021,https://www.nationalhardwareshow.com/,DM,Do it Best Corp,W1911,,,,,,,en-US,,,,
National Hardware Show 2021,10/21/2021,2021,https://www.nationalhardwareshow.com/,DM,"Dongguan Jianjia Industrial Co., Ltd.",W3154,,,,,,,en-US,,,,
National Hardware Show 2021,10/21/2021,2021,https://www.nationalhardwareshow.com/,DM,Dorcy International Inc,W2101,,,,,,,en-US,,,,
National Hardware Show 2021,10/21/2021,2021,https://www.nationalhardwareshow.com/,DM,Dr Shrink Inc,W2035,,https://www.dr-shrink.com,drshrink@dr-shrink.com,800-968-5147,,,en-US,,,,
National Hardware Show 2021,10/21/2021,2021,https://www.nationalhardwareshow.com/,DM,"Dr. Earth, Inc.",W2935,,,,,,,en-US,,,,
National Hardware Show 2021,10/21/2021,2021,https://www.nationalhardwareshow.com/,DM,Drain Defender LLC,W2301C,,,,,,,en-US,,,,
National Hardware Show 2021,10/21/2021,2021,https://www.nationalhardwareshow.com/,DM,Drain Strain,W536,,,,,,,en-US,,,,
National Hardware Show 2021,10/21/2021,2021,https://www.nationalhardwareshow.com/,DM,DrainFunnel,W2205D,,,,,,,en-US,,,,
National Hardware Show 2021,10/21/2021,2021,https://www.nationalhardwareshow.com/,DM,Drill Dock,W2311B,,,,,,,en-US,,,,
National Hardware Show 2021,10/21/2021,2021,https://www.nationalhardwareshow.com/,DM,Drip EZ,OUTDR5328,,,,,,,en-US,,,,
National Hardware Show 2021,10/21/2021,2021,https://www.nationalhardwareshow.com/,DM,DSM & T Co Inc,W3745,,HTTPS://WWW.SUNPACKPRODUCTS.COM,frank@dsmt.com,7073641038,,,en-US,,,SUNPAD,"SUNPACK Products is a division of DSM&T Company Inc. DSM&T was founded in 1982 and has manufactured our patented, custom-designed seedling heat mat products for our partners in the Garden industry for nearly two decades. The SUNPACK Product division launched in 2019 to provide UL-listed heat mat products directly to the Garden industry along with a full complement of garden products. We manufacture products such as growing containers, micro-green trays, seed starting kits, T5 & LED grow lights, and many other garden accessories used in hobby and commercial markets."
National Hardware Show 2021,10/21/2021,2021,https://www.nationalhardwareshow.com/,DM,Dumond Chemicals Inc,W745,,,,,,,en-US,,,,
National Hardware Show 2021,10/21/2021,2021,https://www.nationalhardwareshow.com/,DM,Duracell,W2126,,,,,,,en-US,,,,
National Hardware Show 2021,10/21/2021,2021,https://www.nationalhardwareshow.com/,DM,Duracell (Procell),W1850,,,,,,,en-US,,,,
National Hardware Show 2021,10/21/2021,2021,https://www.nationalhardwareshow.com/,DM,Duro Corp.,W3553,,,,,,,en-US,,,,
National Hardware Show 2021,10/21/2021,2021,https://www.nationalhardwareshow.com/,DM,Duro Industries,3833,,,,,,,en-US,,,,
National Hardware Show 2021,10/21/2021,2021,https://www.nationalhardwareshow.com/,DM,DuroMax Power Equipment,W1737,,,,,,,en-US,,,,
National Hardware Show 2021,10/21/2021,2021,https://www.nationalhardwareshow.com/,DM,DZ Innovations Inc,W835,,,,,,,en-US,,,,
National Hardware Show 2021,10/21/2021,2021,https://www.nationalhardwareshow.com/,DM,E-Z Taping System,W833,,http://www.e-ztape.com,info@e-ztape.com,920-632-6745,,,en-US,Wallboard | Ceiling Products | DIY Products | Drywall Tools & Accessories | Patch & Repair | Sealants/Caulks/Putty,,E-Z Tape,"E-Z Tape has been in business for over 20 years.  Flame Fighter drywall tape is the only drywall tape that is approved for 1 and 2 hour firewalls without the use of mud.  It has listing for floor/ceilings, walls, and roof/ceiling assemblies.  E-Z Tape Flame Fighter drywall tape is now approved for glass mat sheathing (DensGlass).  E-Z Tape Flame Fighter drywall tape will save you on labor costs and time on your next project."
National Hardware Show 2021,10/21/2021,2021,https://www.nationalhardwareshow.com/,DM,E-Z Weld Group,W533,,,,,,,en-US,,,,
National Hardware Show 2021,10/21/2021,2021,https://www.nationalhardwareshow.com/,DM,Eagle Tool Company,W1906,,,,,,,en-US,,,,
National Hardware Show 2021,10/21/2021,2021,https://www.nationalhardwareshow.com/,DM,Eagles Nest Outfitters Inc.,OUTDR5312,,,,,,,en-US,,,,
National Hardware Show 2021,10/21/2021,2021,https://www.nationalhardwareshow.com/,DM,Earth Edge,W3908,,,,,,,en-US,,,,
National Hardware Show 2021,10/21/2021,2021,https://www.nationalhardwareshow.com/,DM,EarthStone Fabrics,W4026,,,,,,,en-US,,,,
National Hardware Show 2021,10/21/2021,2021,https://www.nationalhardwareshow.com/,DM,Earthtronics Inc,W339,,https://www.earthtronics.com/,contact@earthtronics.com,(231) 332-1188,,,en-US,Eco-friendly | Energy Efficient | Light Bulbs/LED Light Bulbs/Night Lights | Light Fixtures | Smart Home/Home Automation,,EarthTronics,"Dedicated to creating a positive impact for the environment, businesses and consumers, EarthTronics, Inc. is an LED energy efficient solutions company based in Norton Shores, Michigan. EarthTronics offers high-performance EarthBulb LED light bulbs, T8 and T5 linear LEDs, and LED fixtures that are designed for commercial buildings, hotels, restaurants, retail stores and residential homes. All EarthTronics LED products provide energy savings with a solid return on investment for energy retrofits, renovation projects and new construction. More information can be found at www.earthtronics.com."
National Hardware Show 2021,10/21/2021,2021,https://www.nationalhardwareshow.com/,DM,ECCB Outdoor,W3347,,,,,,,en-US,,,,
National Hardware Show 2021,10/21/2021,2021,https://www.nationalhardwareshow.com/,DM,Eco-Flo Products LLC,W401,,,,,,,en-US,,,,
National Hardware Show 2021,10/21/2021,2021,https://www.nationalhardwareshow.com/,DM,"Elementi Industrial (Xiamen) Co., Ltd.",W3357,,,,,,,en-US,,,,
National Hardware Show 2021,10/21/2021,2021,https://www.nationalhardwareshow.com/,DM,"ELF Easy, LLC",W2608F,,https://elfeasy.com/,mark@moonlightconcepts.com,3025192015,,,en-US,DIY Products | Lawn & Garden Products | DIY Products | Home Decorative Items | Garden Decor | Holiday/Seasonal Accessories,,ELF | Easy Light Feeder,"ELF Easy, LLC and Moonlight Concepts company is modest team of creators and designers located just outside of Indianapolis, Indiana. We have an entrepreneurial spirit coupled with a desire to bring useful products to market.  We couldn’t be more excited to share the ELF | Easy Light Feeder with as many people as possible.  Our mission is to deliver a quality, durable products that customers will be thrilled to use and tell their friends about.  Our product is fully manufactured in the Unite States using local companies and suppliers."
National Hardware Show 2021,10/21/2021,2021,https://www.nationalhardwareshow.com/,DM,Encore Coatings dba Miraclemist Cleaner,W755,,,,,,,en-US,,,,
National Hardware Show 2021,10/21/2021,2021,https://www.nationalhardwareshow.com/,DM,Energen,W4176,,,,,,,en-US,,,,
National Hardware Show 2021,10/21/2021,2021,https://www.nationalhardwareshow.com/,DM,EnergyWise Solutions,W4248,,https://www.heatstorm.com,sales@heatstorm.com,4357526611,,,en-US,,,,
National Hardware Show 2021,10/21/2021,2021,https://www.nationalhardwareshow.com/,DM,Enkay Products Corp,W2005,,,,,,,en-US,,,,
National Hardware Show 2021,10/21/2021,2021,https://www.nationalhardwareshow.com/,DM,Anhui Hantang,W3411,,,,,,,en-US,,,,
National Hardware Show 2021,10/21/2021,2021,https://www.nationalhardwareshow.com/,DM,Ess Pee Industrial Corporation,7659,,,,,,,en-US,,,,
National Hardware Show 2021,10/21/2021,2021,https://www.nationalhardwareshow.com/,DM,Esschert Design USA,W3523,,,,,,,en-US,,,,
National Hardware Show 2021,10/21/2021,2021,https://www.nationalhardwareshow.com/,DM,Euroequipe srl Uninominale,W3440,,,,,,,en-US,,,,
National Hardware Show 2021,10/21/2021,2021,https://www.nationalhardwareshow.com/,DM,Evergreen Enterprises,W3101,,,,,,,en-US,,,,
National Hardware Show 2021,10/21/2021,2021,https://www.nationalhardwareshow.com/,DM,Exaco Trading Corp,W2945,,,,,,,en-US,,,,
National Hardware Show 2021,10/21/2021,2021,https://www.nationalhardwareshow.com/,DM,ExtremeMist,W3863,,https://www.extrememist.com/,info@extrememist.com,6023689625,,,en-US,,,,
National Hardware Show 2021,10/21/2021,2021,https://www.nationalhardwareshow.com/,DM,EZ Pole Flagpoles/TD Fabricating,W3967,,,,,,,en-US,,,,
National Hardware Show 2021,10/21/2021,2021,https://www.nationalhardwareshow.com/,DM,EZ-Flo Eastman,W517,,,,,,,en-US,,,,
National Hardware Show 2021,10/21/2021,2021,https://www.nationalhardwareshow.com/,DM,Famatel USA,W644,,,,,,,en-US,,,,
National Hardware Show 2021,10/21/2021,2021,https://www.nationalhardwareshow.com/,DM,Fanski Group Inc.,W323,,,,,,,en-US,,,,
National Hardware Show 2021,10/21/2021,2021,https://www.nationalhardwareshow.com/,DM,Faro Intl Inc,W1035,,,,,,,en-US,,,,
National Hardware Show 2021,10/21/2021,2021,https://www.nationalhardwareshow.com/,DM,Fence Armor,W3978,,,,,,,en-US,,,,
National Hardware Show 2021,10/21/2021,2021,https://www.nationalhardwareshow.com/,DM,FenceScreen,W3423,,,,,,,en-US,,,,
National Hardware Show 2021,10/21/2021,2021,https://www.nationalhardwareshow.com/,DM,Fiber Energy Products,OUTDR5629,,,,,,,en-US,,,,
National Hardware Show 2021,10/21/2021,2021,https://www.nationalhardwareshow.com/,DM,FibreDust LLC / Enroot Products LLC,W4023,,,,,,,en-US,,,,
National Hardware Show 2021,10/21/2021,2021,https://www.nationalhardwareshow.com/,DM,Fimco Industries,W3801,,,,,,,en-US,,,,
National Hardware Show 2021,10/21/2021,2021,https://www.nationalhardwareshow.com/,DM,Fine Products (India),W649,,,,,,,en-US,,,,
National Hardware Show 2021,10/21/2021,2021,https://www.nationalhardwareshow.com/,DM,FIREFLY BUYS,W1326,,https://www.fireflybuys.com,MSierzant@fireflybuys.com,678-723-1051,,,en-US,Internet Services/Websites,,We represent over 100 brands.,"Firefly is all about our people. As a small (but mighty!) team of 35 associates, our relationships and the personal attention we give them is paramount. We are dedicated to getting to know you, your products and your brand so that we can enable you to truly shine online. Think of us as the online marketplace division of your business—we do it all for you. Retailers at heart, our combined experience and expertise, alongside a 15 year e-commence history makes us perfectly positioned to help you take your Amazon business to the next level."
National Hardware Show 2021,10/21/2021,2021,https://www.nationalhardwareshow.com/,DM,First Texas Products,W4128,,,,,,,en-US,,,,
National Hardware Show 2021,10/21/2021,2021,https://www.nationalhardwareshow.com/,DM,Fisher Printing,W1207,,,,,,,en-US,,,,
National Hardware Show 2021,10/21/2021,2021,https://www.nationalhardwareshow.com/,DM,Fiskars Brands,W3045,,,,,,,en-US,,,,
National Hardware Show 2021,10/21/2021,2021,https://www.nationalhardwareshow.com/,DM,Flagpole Farm,W4063,,,,,,,en-US,,,,
National Hardware Show 2021,10/21/2021,2021,https://www.nationalhardwareshow.com/,DM,Flame Engineering Inc,W4130,,,,,,,en-US,,,,
National Hardware Show 2021,10/21/2021,2021,https://www.nationalhardwareshow.com/,DM,Flame King,W3508,,,,,,,en-US,,,,
National Hardware Show 2021,10/21/2021,2021,https://www.nationalhardwareshow.com/,DM,Warren Marketing Group,W3722,,,,,,,en-US,,,,"Manufacture Smart controls for Fireplaces.
Smart Electric Fireplaces
WIFI
Bluetooth
Smart Pellet Grills
Smart Gas Grills
Smart Take Scales"
National Hardware Show 2021,10/21/2021,2021,https://www.nationalhardwareshow.com/,DM,Flex-Safe USA,W1112,,,,,,,en-US,,,,
National Hardware Show 2021,10/21/2021,2021,https://www.nationalhardwareshow.com/,DM,Fleximatic,W634,,,,,,,en-US,,,,
National Hardware Show 2021,10/21/2021,2021,https://www.nationalhardwareshow.com/,DM,FlexiSnake Inc.,W509,,,,,,,en-US,,,,
National Hardware Show 2021,10/21/2021,2021,https://www.nationalhardwareshow.com/,DM,FlowerHouse,W3923,,,,,,,en-US,,,,
National Hardware Show 2021,10/21/2021,2021,https://www.nationalhardwareshow.com/,DM,"Flying High Int'l Industrial Supply Co., Ltd.",W3917,,,,,,,en-US,,,,
National Hardware Show 2021,10/21/2021,2021,https://www.nationalhardwareshow.com/,DM,FNA Group,W2437,,,,,,,en-US,,,,
National Hardware Show 2021,10/21/2021,2021,https://www.nationalhardwareshow.com/,DM,Fog-Safe,W4335,,,,,,,en-US,,,,
National Hardware Show 2021,10/21/2021,2021,https://www.nationalhardwareshow.com/,DM,Footy Bins,W2301A,,,,,,,en-US,,,,
National Hardware Show 2021,10/21/2021,2021,https://www.nationalhardwareshow.com/,DM,Foremost Tarp,W714,,,,,,,en-US,,,,
National Hardware Show 2021,10/21/2021,2021,https://www.nationalhardwareshow.com/,DM,Forest City Models & Patterns,W4060,,,,,,,en-US,,,,
National Hardware Show 2021,10/21/2021,2021,https://www.nationalhardwareshow.com/,DM,Forever-ODM Inc.,W2305C,,,,,,,en-US,"Outdoor Power Equipment, Replacement Parts",,GENSHED,The loud noisy of a running generator is annoy and lot of people DIYs an enclosure trying to reduce the running noise but the enclosure causes overheating and carbon  monoxide concentration and thus is not safe.  Our patent pending generator shed provide an economic solution for noise reduction and all weather protection without the side effect of overheating and carbon  monoxide concentration.
National Hardware Show 2021,10/21/2021,2021,https://www.nationalhardwareshow.com/,DM,Formex Manufacturing Inc.,W3876,,,,,,,en-US,,,,
National Hardware Show 2021,10/21/2021,2021,https://www.nationalhardwareshow.com/,DM,"Forney Industries, Inc",W1001,,,,,,,en-US,,,,
National Hardware Show 2021,10/21/2021,2021,https://www.nationalhardwareshow.com/,DM,Forno Venetzia Corporation,W3530,,,,,,,en-US,,,,
National Hardware Show 2021,10/21/2021,2021,https://www.nationalhardwareshow.com/,DM,Fortress Eyewear,W3252,,,,,,,en-US,,,,
National Hardware Show 2021,10/21/2021,2021,https://www.nationalhardwareshow.com/,DM,Forum Outdoor Living,W4070,,,,,,,en-US,,,,
National Hardware Show 2021,10/21/2021,2021,https://www.nationalhardwareshow.com/,DM,Franklin Sensors Inc,W1629,,,,,,,en-US,,,,
National Hardware Show 2021,10/21/2021,2021,https://www.nationalhardwareshow.com/,DM,Franmar Chemical,W839,,https://www.franmar.com,custserv@franmar.com,309-828-2900,,,en-US,,,Blue Bear by Franmar,"For 35 years, Franmar has been synonymous with green innovation. As a family-owned business in Bloomington, Ill., we believe people should be able to do cleaning & restoration projects without risking their health or harming the environment. Our BLUE BEAR line features nearly two dozen products, including paint strippers, mastic removers & surface cleaners, that rely on the power of soybeans - not harsh chemicals. Soy-based solvents are a superior alternative because they easily penetrate coatings, adhesives & more, without noxious odors or side effects. Let us show you what BLUE BEAR can do!"
National Hardware Show 2021,10/21/2021,2021,https://www.nationalhardwareshow.com/,DM,Freeze Tolerant Ball Valve,W2510C,,http://www.freezeproofvalve.com,ron@freezeproofvalve.com,303-562-6080,,,en-US,Plumbing Tools and Accessories,,Freeze Tolerant,"Freeze Tolerant Ball valve company specializes in freeze protection  for any piping systems that are in danger of freezing, We have a patented product that incorporates a freeze plug in a ball valve that greatly minimizes damage caused from ball valves cracking. Now instead of replacing a cracked valve, you can change out a freeze plug in 5 minutes. No down time for repairs. You can change a freeze plug with water flowing through the valve! Check out videos at www.FreezeProofValve.com"
National Hardware Show 2021,10/21/2021,2021,https://www.nationalhardwareshow.com/,DM,Fruit Fly BarPro,W4132,,,,,,,en-US,,,,
National Hardware Show 2021,10/21/2021,2021,https://www.nationalhardwareshow.com/,DM,Fuji Cyber Relax,W4568,,,,,,,en-US,,,,
National Hardware Show 2021,10/21/2021,2021,https://www.nationalhardwareshow.com/,DM,"Full Circle Brands, LLC",W4252,,,,,,,en-US,,,,
National Hardware Show 2021,10/21/2021,2021,https://www.nationalhardwareshow.com/,DM,Fun Factory Candy & Novelty Co.,W1530,,,,,,,en-US,,,,
National Hardware Show 2021,10/21/2021,2021,https://www.nationalhardwareshow.com/,DM,G.O. Green Enterprises dba MowRo by Redback,W3949,,https://www.mowro.com,support@mowro.com,435-868-4262,,,en-US,"Lawn & Garden Products | Power Equipment & Accessories - Power Washers, Trimmers, Portable Heaters, Log Splitters | Tools - Pitch Forks, Shovels, Rakes, Post Hole Diggers | As Seen On TV | Cordless/Battery Operated Power Tools | Eco-Friendly | Power Tools & Accessories | Smart Home/Home Automation | Garden Tools & Supplies | Smart Home/Home Automation",,MowRo,MowRo focuses on the development of innovative lawn and garden products. Our autonomous robot lawn mowers and lithium ion cordless tools help save you time while making a positive impact on the environment. Keeping your garden and lawn pristine has never been easier thanks to MowRo!
National Hardware Show 2021,10/21/2021,2021,https://www.nationalhardwareshow.com/,DM,Gaia Enterprises Inc,W3379,,,,,,,en-US,,,,
National Hardware Show 2021,10/21/2021,2021,https://www.nationalhardwareshow.com/,DM,"GAMCo, LLC",W2415B,,,,,,,en-US,,,,
National Hardware Show 2021,10/21/2021,2021,https://www.nationalhardwareshow.com/,DM,Garage Royalty Products Inc.,W4253,,,,,,,en-US,,,,
National Hardware Show 2021,10/21/2021,2021,https://www.nationalhardwareshow.com/,DM,Gardca,W3974,,,,,,,en-US,,,,
National Hardware Show 2021,10/21/2021,2021,https://www.nationalhardwareshow.com/,DM,Garden State Bulb Company,W3851,,,,,,,en-US,,,,
National Hardware Show 2021,10/21/2021,2021,https://www.nationalhardwareshow.com/,DM,Gazebo Penguin,W3901,,,,,,,en-US,,,,
National Hardware Show 2021,10/21/2021,2021,https://www.nationalhardwareshow.com/,DM,GCI Outdoor,W3301,,,,,,,en-US,,,,
National Hardware Show 2021,10/21/2021,2021,https://www.nationalhardwareshow.com/,DM,GCK Products - GadgetKlip,W636,,https://www.gadgetklip.com,gckproducts@gmail.com,6168661282,,,en-US,"DIY Products | Garage/Outdoor Storage | Home Hardware | Storage & Organization | Kitchen Appliances, Accessories & Gadgets | Garden Tools & Supplies | Holiday/Seasonal Accessories | Tailgate/Camping | Garage/Outdoor Storage | Home Organization/Storage/Racks",,GadgetKlip,"GCK Products, LLC manufactures and distributes GadgetKlip. GadgetKlip is a space-saving, chaos corralling marvel designed to hug, not pinch all those unruly cables, cords, wires, plants we need organized. The stainless steel wings, industrial strength plastic makes GadgetKlip perfect for indoor and outdoor uses. GadgetKlip is designed with a patented unique inner curve to bundle items safely and securely whether it is at home, in the office, the plant, job site, garage, hobbies, garden, on the boat, RV, Airplane wherever you are you need items organized GadgetKlip is a perfect fit."
National Hardware Show 2021,10/21/2021,2021,https://www.nationalhardwareshow.com/,DM,Generac Power Systems,W1601,,,,,,,en-US,,,,
National Hardware Show 2021,10/21/2021,2021,https://www.nationalhardwareshow.com/,DM,"General Cutlery Enterprises Co., Ltd.",W1368,,,,,,,en-US,,,,
National Hardware Show 2021,10/21/2021,2021,https://www.nationalhardwareshow.com/,DM,General Finishes,W667,,,,,,,en-US,,,,
National Hardware Show 2021,10/21/2021,2021,https://www.nationalhardwareshow.com/,DM,General International-EMAX,W2333,,,,,,,en-US,,,DK2,
National Hardware Show 2021,10/21/2021,2021,https://www.nationalhardwareshow.com/,DM,General Pipe Cleaners,W319,,https://drainbrain.com,info@drainbrain.com,1-800-245-6200,,,en-US,Drain Cleaners/Clog Cleaning/Plungers,,General Pipe Cleaners,"General Pipe Cleaners manufactures a full line of drain cleaning tools designed for the hardware/DIY market, including drain augers, top snakes, toilet augers, flat sewer rods, and inexpensive power drain cleaners for the home handyman. General snakes and components are made of high-quality steel, making them the most durable in the industry.  All are presented in attractive full-color packaging and instructions in English, Spanish, and French.  Proudly made in the USA for more than 90 years."
National Hardware Show 2021,10/21/2021,2021,https://www.nationalhardwareshow.com/,DM,GenStone Products,W1908,,https://genstone.com,retailers@genstone.com,1-866-380-9292,,,en-US,"Energy Efficient | Lumber/Wood Products | Masonry Products/Concrete/Cement | Millwork, Mouldings | Siding/Vapor Barriers | As Seen On TV | DIY Products | Grills/Barbecues/BBQs | Building Materials | DIY Products",,GenStone,"GenStone faux stone and brick is cast from real stone and tumbled brick to ensure authentic shapes, textures and depth. GenStone is created with a proprietary blend of advanced materials that are produced in the USA and result in a durable wood-like panel that is easy to cut, install with screws and is virtually maintenance free.

Incredibly natural-looking and beautiful, yet lightweight, versatile,
super-durable, and affordably priced, GenStone can be installed by anyone both outside and inside, providing year round sales."
National Hardware Show 2021,10/21/2021,2021,https://www.nationalhardwareshow.com/,DM,"Genux Electrical Co., Ltd.",W3479,,,,,,,en-US,,,,
National Hardware Show 2021,10/21/2021,2021,https://www.nationalhardwareshow.com/,DM,Gerstner & Sons Inc,W1018,,https://www.Gerstner-International.com ,gerstner@gerstnerusa.com,937-228-1662,,,en-US,DIY Products | Hand Tools & Accessories | Knives/Cutlery | Power Tools & Accessories | Tool Boxes/Storage | Tool Boxes & Storage,,Gerstner USA,
National Hardware Show 2021,10/21/2021,2021,https://www.nationalhardwareshow.com/,DM,Gino Development Inc,W1811,,https://www.truepowertools.com/,sales@ginodevelopment.com,(805) 579-9292,,,en-US,,,,
National Hardware Show 2021,10/21/2021,2021,https://www.nationalhardwareshow.com/,DM,Gleason Corp,W3501,,,,,,,en-US,,,,
National Hardware Show 2021,10/21/2021,2021,https://www.nationalhardwareshow.com/,DM,Globalwater Solutions USA,W544,,https://gwsusa.com/,Support@gwsusa.com,941-226-0390,,,en-US,Home Hardware | Water Conditioners/Filtration/Conservation Devices | Plumbing Tools and Accessories | Pumps & Accessories | Water Conditioners/Filtration/Conservation Devices,,,
National Hardware Show 2021,10/21/2021,2021,https://www.nationalhardwareshow.com/,DM,Gloves International/Auclair Sports,W1130,,,,,,,en-US,,,,
National Hardware Show 2021,10/21/2021,2021,https://www.nationalhardwareshow.com/,DM,Good Ideas Inc,W3823,,https://www.goodideasinc.com/,keaton@goodideasinc.com,814-774-2831,,,en-US,"Lawn & Garden Products | Composters | Edging | Hoses, Sprinklers, Irrigation Equipment, Watering Cans, Wands | Pet Products | Planters, Flower Pots & Containers | Raised Garden Beds | Storage & Organization | Bowls and Watering Products | Containment -Crates, Coops, Carriers & Pens",,Good Ideas,"With innovative, sustainable, and multi-functional rotationally molded plastic products, we have your needs in mind.  Our diverse product selection includes rain barrels that double as beautiful planters, composters to turn yard and kitchen waste into usable organic material, and our top-of-line Dakota 283 dog kennels and pet products.  We bring our 18+ years of experience in molding rain barrels, composters, and military crates to provide everyday products that add sustainable and beautiful features to your yard as well as protect your beloved pet!"
National Hardware Show 2021,10/21/2021,2021,https://www.nationalhardwareshow.com/,DM,Good L Corp Big Basket Co,W2026,,http://www.bigbasketco.com,joe@bigbasketco.com,615793-7779,,,en-US,,,,
National Hardware Show 2021,10/21/2021,2021,https://www.nationalhardwareshow.com/,DM,Goodsmann Group,W3857,,,,,,,en-US,,,,
National Hardware Show 2021,10/21/2021,2021,https://www.nationalhardwareshow.com/,DM,GRAB-ALL COMPANY,W2604A,,http://www.paddlegrabber.com,hector@grab-all.com,408-515-5410,,,en-US,,,PADDLE GRABBER,Grab-All Company - Developer and manufacturer of the Paddle Grabber. A new innovative long-handle garden tool that gathers and picks-up large bundles of debris in-one-motion.
National Hardware Show 2021,10/21/2021,2021,https://www.nationalhardwareshow.com/,DM,Grabber Inc,W4110,,,,,,,en-US,,,,
National Hardware Show 2021,10/21/2021,2021,https://www.nationalhardwareshow.com/,DM,Grampa's Gardenware Co,W4147,,,,,,,en-US,,,,
National Hardware Show 2021,10/21/2021,2021,https://www.nationalhardwareshow.com/,DM,"Grand International Exhibition Co., Ltd.","2615, W4453, W4552, W4448, W409",,,,,,,en-US,,,,
National Hardware Show 2021,10/21/2021,2021,https://www.nationalhardwareshow.com/,DM,Grandview MWP,W4277,,,,,,,en-US,,,,
National Hardware Show 2021,10/21/2021,2021,https://www.nationalhardwareshow.com/,DM,Great Scrape,W4072,,,,,,,en-US,,,,
National Hardware Show 2021,10/21/2021,2021,https://www.nationalhardwareshow.com/,DM,Green Bay Packaging- In Store Innovation,W1201,,,,,,,en-US,,,,
National Hardware Show 2021,10/21/2021,2021,https://www.nationalhardwareshow.com/,DM,Greenlawn Garden Products Co.,W4017,,,,,,,en-US,,,,
National Hardware Show 2021,10/21/2021,2021,https://www.nationalhardwareshow.com/,DM,GreenTech Environmental,W4459,,,,,,,en-US,,,,
National Hardware Show 2021,10/21/2021,2021,https://www.nationalhardwareshow.com/,DM,Grill Greats Div. du-Co Ceramics Company,W4049,,,,,,,en-US,,,,
National Hardware Show 2021,10/21/2021,2021,https://www.nationalhardwareshow.com/,DM,Grill Pardner,OUTDR5333,,,,,,,en-US,,,,
National Hardware Show 2021,10/21/2021,2021,https://www.nationalhardwareshow.com/,DM,"Grillville - Magellan Home Goods, Ltd.",W3569,,,,,,,en-US,,,,
National Hardware Show 2021,10/21/2021,2021,https://www.nationalhardwareshow.com/,DM,Grip Tight Tools,W1905,,,,,,,en-US,,,,
National Hardware Show 2021,10/21/2021,2021,https://www.nationalhardwareshow.com/,DM,Groupe BBH Inc.,W1939,,,,,,,en-US,,,,
National Hardware Show 2021,10/21/2021,2021,https://www.nationalhardwareshow.com/,DM,Grover4000,W2511A,,,bgroves@tbs-scientific.com,810-355-6462,,,en-US,Electrical Tools & Accessories | Light Fixtures | Point of Sale/Impulse Items | Ceiling Products | Decorative Lighting & Accessories | Point of Sale/Impulse Items,,Grover4000,We created a tool that solves a 100+ year old problem. High Chandeliers with glass shades and candelabra bulbs required the use of 12 foot A frame ladder every time a bulb burned out. Now those bulbs can be removed and replaced in 30 seconds. It works with any standard 3/4 inch threaded pole and 10 million homeowners in the US alone can benefit from this solution.
National Hardware Show 2021,10/21/2021,2021,https://www.nationalhardwareshow.com/,DM,Growers Supply Company,W3668,,,,,,,en-US,,,,
National Hardware Show 2021,10/21/2021,2021,https://www.nationalhardwareshow.com/,DM,GSM Outdoors/Safety,W1713,,,,,,,en-US,,,,
National Hardware Show 2021,10/21/2021,2021,https://www.nationalhardwareshow.com/,DM,"GuangDong XinWei Aluminum Products Co., LTD.",W639,,http://telestepsladders.com,shawn@regalideas.com,801-850-1413,,,en-US,Electrical Tools & Accessories | Ladders/Stepstools,,Telesteps,"Telesteps telescoping ladders have long been used by military, law enforcement, government agencies, contractors, roofers, framers, solar installers, inspectors, security and installation, farmers, RV owners, building maintenance, home owners, pest control, and more. NOW, with the addition of the 1600EKP Kevlar Non-Conductive telescoping ladder, we have added electricians, public utilities, telecommunications, and anyone working around electricity! We invite you to come to our booth to see Telesteps ladders:  the world's only fully automatic telescoping ladder."
National Hardware Show 2021,10/21/2021,2021,https://www.nationalhardwareshow.com/,DM,"Guangxi YiXing Sisal Industry Co.,Ltd.",,,,,,,,en-US,,,,
National Hardware Show 2021,10/21/2021,2021,https://www.nationalhardwareshow.com/,DM,GULATI BROTHERS,W1829,,,,,,,en-US,,,,
National Hardware Show 2021,10/21/2021,2021,https://www.nationalhardwareshow.com/,DM,Hailo USA,W760,,,,,,,en-US,,,,
National Hardware Show 2021,10/21/2021,2021,https://www.nationalhardwareshow.com/,DM,Halo Products Group LLC,W2959,,,,,,,en-US,,,,
National Hardware Show 2021,10/21/2021,2021,https://www.nationalhardwareshow.com/,DM,Halsted Corp.,W1734,,,,,,,en-US,,,,
National Hardware Show 2021,10/21/2021,2021,https://www.nationalhardwareshow.com/,DM,Hangman Products Inc,W1923,,,,,,,en-US,,,,
National Hardware Show 2021,10/21/2021,2021,https://www.nationalhardwareshow.com/,DM,Hangzhou Fuyang Zhenda Appliance Co. Ltd.,W4175,,,,,,,en-US,,,,
National Hardware Show 2021,10/21/2021,2021,https://www.nationalhardwareshow.com/,DM,"Hangzhou Greatstar Industrial Co., Ltd.","W2004, W2535",,,,,,,en-US,,,,
National Hardware Show 2021,10/21/2021,2021,https://www.nationalhardwareshow.com/,DM,Harmony Tie Boss LLC,W1735,,,,,,,en-US,,,,
National Hardware Show 2021,10/21/2021,2021,https://www.nationalhardwareshow.com/,DM,Harper Trucks Inc,W1445,,,,,,,en-US,,,,
National Hardware Show 2021,10/21/2021,2021,https://www.nationalhardwareshow.com/,DM,"HARRY D KOENIG & CO., INC.",W4326,,,,,,,en-US,,,,
National Hardware Show 2021,10/21/2021,2021,https://www.nationalhardwareshow.com/,DM,Harvest Right LLC,W3478,,,,,,,en-US,,,,
National Hardware Show 2021,10/21/2021,2021,https://www.nationalhardwareshow.com/,DM,Hawk Importers Inc,"7436, W1123",,,,,,,en-US,,,,
National Hardware Show 2021,10/21/2021,2021,https://www.nationalhardwareshow.com/,DM,HD Hudson Mfg Company,W2923,,,,,,,en-US,,,,
National Hardware Show 2021,10/21/2021,2021,https://www.nationalhardwareshow.com/,DM,Heating & Cooling Products,W438,,,,,,,en-US,,,,
National Hardware Show 2021,10/21/2021,2021,https://www.nationalhardwareshow.com/,DM,Hebei Saiguan Technology Co. Ltd.,8749,,,,,,,en-US,,,,
National Hardware Show 2021,10/21/2021,2021,https://www.nationalhardwareshow.com/,DM,"Henan Greenship Garden Supplies Co., Ltd.",W312,,,,,,,en-US,,,,
National Hardware Show 2021,10/21/2021,2021,https://www.nationalhardwareshow.com/,DM,"Henan Yinfeng Plastic Co.,Ltd.",W971,,,,,,,en-US,,,,
National Hardware Show 2021,10/21/2021,2021,https://www.nationalhardwareshow.com/,DM,Hexagrip,W2415C,,,,,,,en-US,,,,
National Hardware Show 2021,10/21/2021,2021,https://www.nationalhardwareshow.com/,DM,Xinlong USA,W1554,,,,,,,en-US,,,,
National Hardware Show 2021,10/21/2021,2021,https://www.nationalhardwareshow.com/,DM,HI-JACK  LLC,W2419A,,,,,,,en-US,,,,
National Hardware Show 2021,10/21/2021,2021,https://www.nationalhardwareshow.com/,DM,High Caliper Growing - Smart Pots,W3456,,https://smartpots.com/,info@smartpots.com,405-842-7700,,,en-US,Lawn & Garden Products,,Smart Pots and High Caliper Growing,"Smart Pots® are the world’s original fabric container manufactured by High Caliper Growing, the inventors of root-pruning technology. Root pruning increases yields by improving water and nutrient absorption. Our award-winning products have been preferred by professional growers for more than 30 years. Made in the U.S.A., every Smart Pot is BPA-free and lead-free. We’ve sold more than 28 million worldwide."
National Hardware Show 2021,10/21/2021,2021,https://www.nationalhardwareshow.com/,DM,Hirawat Electricals private limited,W2036,,,,,,,en-US,,,,
National Hardware Show 2021,10/21/2021,2021,https://www.nationalhardwareshow.com/,DM,His Paints,W957,,,,,,,en-US,,,,
National Hardware Show 2021,10/21/2021,2021,https://www.nationalhardwareshow.com/,DM,"Hogan Company, Inc.",W1453,,https://www.hoganco.com/,info@hoganco.com,800-214-6426,,,en-US,Masonry Products/Concrete/Cement | Hand Tools & Accessories,,Hogan Stakes,"Hogan Company is a third generation family owned manufacturer of Steel Stakes (Flat / Round / Square), Hand Trowels (Blue & Carbon Steel / Round & Square / Wood & Comfort Grip), Light Weight Wood Forms (Straight Face & Back / Radius Face & Back), Screed Hooks (Round / Flat / Square / Wire), Stringline Accessories, Smooth Dowels, OSHA Rebar Caps, and much more!"
National Hardware Show 2021,10/21/2021,2021,https://www.nationalhardwareshow.com/,DM,Holdenart Inc.,W2215A,,,,,,,en-US,,,,
National Hardware Show 2021,10/21/2021,2021,https://www.nationalhardwareshow.com/,DM,Holly Investment Inc,W1933,,,,,,,en-US,,,,
National Hardware Show 2021,10/21/2021,2021,https://www.nationalhardwareshow.com/,DM,Home Bazaar Inc,W4134,,https://homebazaarinc.com,INFO@HOMEBAZAARINC.COM,516-827-7771,,,en-US,,,HOME BAZAAR,"WITH OVER 20+ YRS OF EXPERTISE IN CREATING A LINE OF SPECTACULAR BIRDHOUSES & FEEDERS. IN OUR WORKSHOP, WE HAVE COMBINED OUR LOVE OF BIRDS AND NATURE ALONG WITH TECHNICAL & DESIGN ABILITIES. WE USE THE FINEST MATERIALS AND USE PAINSTAKING DETAILS TO ALL OUR PRODUCTS. WE HOPE YOU ENJOY SELLING THEM AS MUCH AS WE DO PRODUCING AND SHIPPING THEM."
National Hardware Show 2021,10/21/2021,2021,https://www.nationalhardwareshow.com/,DM,Homgar International,W4074,,,,,,,en-US,,,,
National Hardware Show 2021,10/21/2021,2021,https://www.nationalhardwareshow.com/,DM,Houghton Mifflin Company,W3834,,,,,,,en-US,,,,
National Hardware Show 2021,10/21/2021,2021,https://www.nationalhardwareshow.com/,DM,Houston International Trading,W3339,,,,,,,en-US,,,,
National Hardware Show 2021,10/21/2021,2021,https://www.nationalhardwareshow.com/,DM,Howard Products Inc,W929,,,,,,,en-US,,,,
National Hardware Show 2021,10/21/2021,2021,https://www.nationalhardwareshow.com/,DM,Hultafors Tools,W1723,,https://www.hultafors.us,info@hultaforsgroup.us,262-242-1161,,,en-US,Builder Tools & Instruments | Builder Tools & Instruments | Hand Tools & Accessories | Knives/Cutlery | Writing/Marking Tools,,Hultafors Tools,"Hultafors is a leading tool brand from Sweden, offering reliable hand tools designed for discerning craftsmen around the world. For over 130 years we have been developing innovative tools to rely on, in every situation. We offer a wide selection of reliable hand tools for cutting, striking, measuring and marking, as well as pry and wrecking bars. With direct input from a network of professional end users, we engineer a range of tools that deliver the best possible function, reliability and precision. Tools you can rely on in all situations, every day. Visit us at www.hultafors.us."
National Hardware Show 2021,10/21/2021,2021,https://www.nationalhardwareshow.com/,DM,"Hung Ta Garden Enterprise Co., Ltd.",W4068,,,,,,,en-US,,,,
National Hardware Show 2021,10/21/2021,2021,https://www.nationalhardwareshow.com/,DM,"Hunker Up, LLC",W2311E,,,,,,,en-US,,,,
National Hardware Show 2021,10/21/2021,2021,https://www.nationalhardwareshow.com/,DM,"Huzhou Cheerland Brush Co., Ltd.",W853,,,,,,,en-US,,,,
National Hardware Show 2021,10/21/2021,2021,https://www.nationalhardwareshow.com/,DM,"Huzhou Dhatr New Packing Material Co., Ltd.",W651,,,,,,,en-US,,,,
National Hardware Show 2021,10/21/2021,2021,https://www.nationalhardwareshow.com/,DM,HydroMousse,W3975,,,,,,,en-US,,,,
National Hardware Show 2021,10/21/2021,2021,https://www.nationalhardwareshow.com/,DM,Hystik/Industrias Tuk,W861,,,,,,,en-US,,,,
National Hardware Show 2021,10/21/2021,2021,https://www.nationalhardwareshow.com/,DM,I3W4U Inc,W1930,,,,,,,en-US,,,,
National Hardware Show 2021,10/21/2021,2021,https://www.nationalhardwareshow.com/,DM,"ICOOL Ningbo Co., Ltd.",W512,,,,,,,en-US,,,,
National Hardware Show 2021,10/21/2021,2021,https://www.nationalhardwareshow.com/,DM,IDC Plumbing & Heating Technology Ltd,W529,,,,,,,en-US,,,,
National Hardware Show 2021,10/21/2021,2021,https://www.nationalhardwareshow.com/,DM,Ike's Farm Home & Garden LLC,W3935,,,,,,,en-US,,,,
National Hardware Show 2021,10/21/2021,2021,https://www.nationalhardwareshow.com/,DM,Imacasa/Condor,W4009,,,,,,,en-US,,,Imacasa,"Imacasa specializes in forging and stamping for the Lawn & Garden and Farm & Ranch industries.  We manufacture tools including but not limited to Shovels, Rakes, Hoes, Striking and Cutting Tools as well as Wheelbarrows and Hand Trucks.  Our Condor division offers a unique line of fine Machetes, Knives, Axes and Survival Tools for Outdoor Enthusiasts.  Being in Central America our shipping times are very competitive going to East, Gulf or West Coasts."
National Hardware Show 2021,10/21/2021,2021,https://www.nationalhardwareshow.com/,DM,IMC Outdoor Living,W3705,,,,,,,en-US,,,,
National Hardware Show 2021,10/21/2021,2021,https://www.nationalhardwareshow.com/,DM,Imperial Mailbox Systems,W3763,,,,,,,en-US,,,,
National Hardware Show 2021,10/21/2021,2021,https://www.nationalhardwareshow.com/,DM,Imperial Manufacturing Group,W458,,https://imperialgroup.ca,,1-800-361-3956,,,en-US,"HVAC | Pipes, Fittings & Accessories",,Imperial,"Founded in 1979, our story is a remarkable combination of grass-roots entrepreneurialism and home-grown pride. Today Imperial operates 10 diversified divisions from facilities located in Canada and the United States. Imperial Manufacturing designs, manufactures, assembles, and distributes over 7000 metal and plastic heating, air conditioning, ventilation, and building products for use in homes and commercial buildings."
National Hardware Show 2021,10/21/2021,2021,https://www.nationalhardwareshow.com/,DM,Imports Decor,W3955,,https://www.importsdecor.com,info@importsdecor.com,9088745050,,,en-US,Outdoor Rugs & Mats,,Imports Decor,"Imports Decor is a woman-owned small business that has been ensuring high quality products with excellent customer satisfaction for the last Fifteen plus years. We provide a full variety of coir, rubber, jute, rubber back coir, rubber inlaid coir, PVC, spiral, and synthetic doormats which are available in a variety of styles and sizes."
National Hardware Show 2021,10/21/2021,2021,https://www.nationalhardwareshow.com/,DM,ImpressArt,W2001,,,,,,,en-US,,,,
National Hardware Show 2021,10/21/2021,2021,https://www.nationalhardwareshow.com/,DM,In Deep Irrigation,W2510A,,,,,,,en-US,,,,
National Hardware Show 2021,10/21/2021,2021,https://www.nationalhardwareshow.com/,DM,"Incheon Survey Instrument Co., Ltd.",,,https://www.koiss.co.kr,je.kim@koiss.co.kr,+82325843815,,,en-US,,,KOISS,"We, Incheon Survey Instrument Co., Ltd, is a manufacturer and trader located in South Korea. Since 2002, we have been specialized in surveying and measuring instrument such as total stations, GPS, laser levels and digital tape measures. With patented technologies and unique design, we move forward for new standard of measuring and surveying."
National Hardware Show 2021,10/21/2021,2021,https://www.nationalhardwareshow.com/,DM,Indeck Ladysmith LLC,OUTDR5434,,,,,,,en-US,,,,
National Hardware Show 2021,10/21/2021,2021,https://www.nationalhardwareshow.com/,DM,Induction Innovations,W1115,,,,,,,en-US,,,,
National Hardware Show 2021,10/21/2021,2021,https://www.nationalhardwareshow.com/,DM,"Industrias Tayg, S.L.U",W1260,,,,,,,en-US,,,,
National Hardware Show 2021,10/21/2021,2021,https://www.nationalhardwareshow.com/,DM,Infinity Massage Chairs,W4268,,,,,,,en-US,,,,
National Hardware Show 2021,10/21/2021,2021,https://www.nationalhardwareshow.com/,DM,"INPACK GLOBAL CO., LTD",W4271,,,,,,,en-US,,,,
National Hardware Show 2021,10/21/2021,2021,https://www.nationalhardwareshow.com/,DM,Inspired Product Development Group,W2311F,,https://www.inspiredpdg.com,shari@inspiredpdg.com,5126570164,,,en-US,Storage & Organization | Home Organization/Storage/Racks,,Cabinet Caddy SNAP!,"INSP!RED Product Development Group (PDG) was founded in 2017 by inventor daughter-father duo, Shari Hammond and Ron Hunt. The company’s mission is to create functional, yet stylish, products that make life easier. These products include Go Hang It!, an all-in-one system that makes picture hanging easy, and Cabinet Caddy and Cabinet Caddy Snap!, perfect for organizing and storing spices, prescriptions, cosmetics, hardware, crafts and more."
National Hardware Show 2021,10/21/2021,2021,https://www.nationalhardwareshow.com/,DM,Instant Brands Holdings Inc.,W2032,,,,,,,en-US,,,,
National Hardware Show 2021,10/21/2021,2021,https://www.nationalhardwareshow.com/,DM,InstaTrim Products,W834,,,,,,,en-US,,,,
National Hardware Show 2021,10/21/2021,2021,https://www.nationalhardwareshow.com/,DM,Insulation Snakes,W630,,,,,,,en-US,,,,
National Hardware Show 2021,10/21/2021,2021,https://www.nationalhardwareshow.com/,DM,Integrated Gas Technologies,W4051,,,,,,,en-US,,,,
National Hardware Show 2021,10/21/2021,2021,https://www.nationalhardwareshow.com/,DM,"InterLine Cash Systems, Inc., dba CashMateUSA",W2515A,,,,,,,en-US,,,,
National Hardware Show 2021,10/21/2021,2021,https://www.nationalhardwareshow.com/,DM,Intermax Tools,W2106,,http://www.crossmasterusa.com,grobinson@crossmaster.com,786-533-8410,,,en-US,Builder Tools & Instruments | Electrical Tools & Accessories | Hand Tools & Accessories | Painting Tools & Accessories | Plumbing Tools and Accessories,,CROSSMASTER,"Intermax Tools sources manufacturing; imports; and distributes a complete line of industrial grade hand tools known as CROSSMASTER.  CROSSMASTER is designed for hardware stores; independent distributor; retail chain; specialty supplier; and almost any retail operator. Our distribution network includes both national and several overseas markets.  Our corporate office and main distribution warehouse are strategically located in Miami, FL to take advantage of two world-class cargo ports, PortMiami and Port Everglades."
National Hardware Show 2021,10/21/2021,2021,https://www.nationalhardwareshow.com/,DM,International Leisure Products,OUTDR5338,,,,,,,en-US,,,,
National Hardware Show 2021,10/21/2021,2021,https://www.nationalhardwareshow.com/,DM,Intromark Inc,W608,,,,,,,en-US,,,,
National Hardware Show 2021,10/21/2021,2021,https://www.nationalhardwareshow.com/,DM,Inventor Lady,W1323,,,,,,,en-US,,,,
National Hardware Show 2021,10/21/2021,2021,https://www.nationalhardwareshow.com/,DM,Inwell Inc,W1637,,,,,,,en-US,,,,
National Hardware Show 2021,10/21/2021,2021,https://www.nationalhardwareshow.com/,DM,Iron Garden Products LLC,W4177,,,,,,,en-US,,,,
National Hardware Show 2021,10/21/2021,2021,https://www.nationalhardwareshow.com/,DM,IRRIGLAD GARDEN TOOLS LTD,W3377,,,,,,,en-US,,,,
National Hardware Show 2021,10/21/2021,2021,https://www.nationalhardwareshow.com/,DM,Irtronix,W415,,,,,,,en-US,,,Euri Lighting / UVNIA,
National Hardware Show 2021,10/21/2021,2021,https://www.nationalhardwareshow.com/,DM,J M Industrial Trading Co. Ltd.,W1278,,,,,,,en-US,,,,
National Hardware Show 2021,10/21/2021,2021,https://www.nationalhardwareshow.com/,DM,J-9 Products of Western Colorado LLC.,W2600C,,,jtreav@bresnan.net,970-361-2932,,,en-US,"Lawn & Garden Products | DIY Products | Hoses, Sprinklers, Irrigation Equipment, Watering Cans, Wands",,J-9 Products,"My company has just this one product, It is a DIY pop up sprinkler repair kit, which is patent pending. This product will be in the Inventor's Spotlight.  
J-9 Products long term goal is to continually develop quality WOW Factor DIY  items that solve the simple problem."
National Hardware Show 2021,10/21/2021,2021,https://www.nationalhardwareshow.com/,DM,J-B Weld Company,W909,,,,,,,en-US,,,,
National Hardware Show 2021,10/21/2021,2021,https://www.nationalhardwareshow.com/,DM,Jacobs & Thompson Inc,W1237,,,,,,,en-US,,,,
National Hardware Show 2021,10/21/2021,2021,https://www.nationalhardwareshow.com/,DM,Jamestown Plastics Inc.,W1835,,http://jamestownplastics.com/,sales@jamestownplastics.com,716-792-4144,,,en-US,"Pest Control | Material Handling | Storage & Organization | Insect, Pest & Rodent Control | Packaging | Eco-friendly | Garage/Outdoor Storage | Face Protection | Medical Face Shields/Intubation Shields | Plexi-shields for Check-Out/Retail",,Clamtainer,"Jamestown Plastics has extensive capabilities using a variety of light- and heavy-gauge materials and processes to serve any industry. Whether you need packaging, displays, or handling trays, all projects begin by gaining a complete understanding of requirements, allowing us to identify customer-focused improvements that can be made. All Design, Tooling, and Manufacturing is performed in-house, providing rapid turn-around times on new program development. We also create all types of packaging for your products and produce retail-ready products including Clamtainer®, Ammo Buddy®, and DoomBox®."
National Hardware Show 2021,10/21/2021,2021,https://www.nationalhardwareshow.com/,DM,JAPI S/A Industria E. Comercio,W2929,,,,,,,en-US,,,,
National Hardware Show 2021,10/21/2021,2021,https://www.nationalhardwareshow.com/,DM,Jealous Devil,"W3166, OUTDR5609",,,,,,,en-US,,,,
National Hardware Show 2021,10/21/2021,2021,https://www.nationalhardwareshow.com/,DM,Jepson Power GmbH,W1436,,,,,,,en-US,,,,
National Hardware Show 2021,10/21/2021,2021,https://www.nationalhardwareshow.com/,DM,JGR Copa LLC,W3439,,,,,,,en-US,,,,
National Hardware Show 2021,10/21/2021,2021,https://www.nationalhardwareshow.com/,DM,"Jiande iGreen Electric Appliance Co., Ltd",W3476,,,,,,,en-US,,,,
National Hardware Show 2021,10/21/2021,2021,https://www.nationalhardwareshow.com/,DM,Jiande Sansen Electrical Appliance Co Limited,W467,,,,,,,en-US,,,,
National Hardware Show 2021,10/21/2021,2021,https://www.nationalhardwareshow.com/,DM,"Jiande Yonghua Electrical Co., Ltd.",W427,,,,,,,en-US,,,,
National Hardware Show 2021,10/21/2021,2021,https://www.nationalhardwareshow.com/,DM,"Jiangmen Wohao Import&Export Co., Ltd.",W3055,,,,,,,en-US,,,,
National Hardware Show 2021,10/21/2021,2021,https://www.nationalhardwareshow.com/,DM,Jiangsu Ecady Machinery Industry Group Co. Ltd.,W1109,,,,,,,en-US,,,,
National Hardware Show 2021,10/21/2021,2021,https://www.nationalhardwareshow.com/,DM,Jiangsu Tongrun Tool Cabinet,W1067,,,,,,,en-US,,,,
National Hardware Show 2021,10/21/2021,2021,https://www.nationalhardwareshow.com/,DM,Jobar International Inc,W4244,,,,,,,en-US,,,,
National Hardware Show 2021,10/21/2021,2021,https://www.nationalhardwareshow.com/,DM,John Gibson Enterprises,W3953,,,,,,,en-US,,,,
National Hardware Show 2021,10/21/2021,2021,https://www.nationalhardwareshow.com/,DM,Johnson Level & Tool Mfg Co,W1717,,http://www.johnsonlevel.com,service@johnsonlevel.com,(888) 953-8357,,,en-US,Builder Tools & Instruments | Builder Tools & Instruments | Hand Tools & Accessories,,Johnson Level,"Johnson Level & Tool is a leader in levels, lasers, and layout tools providing the most advanced features and technology at unmatched price points. With more than 70 years of developing innovative solutions to help professional tradesmen do their work more accurately, quickly and reliably, Johnson brand products are most trusted by professionals worldwide. Johnson offers a full spectrum of levels, lasers, and layout tools including construction grade lasers, laser distance measurers and industrial grade machine mountable lasers and levels. Level Up with Johnson Level!"
National Hardware Show 2021,10/21/2021,2021,https://www.nationalhardwareshow.com/,DM,Jordan Mfg Co Inc,W2723,,,,,,,en-US,,,,
National Hardware Show 2021,10/21/2021,2021,https://www.nationalhardwareshow.com/,DM,Joseph Enterprises,W4339,,,,,,,en-US,,,,
National Hardware Show 2021,10/21/2021,2021,https://www.nationalhardwareshow.com/,DM,Juka Innovations Corporation,W1022,,,,,,,en-US,,,,
National Hardware Show 2021,10/21/2021,2021,https://www.nationalhardwareshow.com/,DM,Junsky Appliances Limited,W660,,,,,,,en-US,,,,
National Hardware Show 2021,10/21/2021,2021,https://www.nationalhardwareshow.com/,DM,Kanin India Ltd.,W1172,,,,,,,en-US,,,,
National Hardware Show 2021,10/21/2021,2021,https://www.nationalhardwareshow.com/,DM,KB-Drill,W2211F,,,,,,,en-US,,,,
National Hardware Show 2021,10/21/2021,2021,https://www.nationalhardwareshow.com/,DM,Kellogg Garden Products,W3929,,,,,,,en-US,,,,
National Hardware Show 2021,10/21/2021,2021,https://www.nationalhardwareshow.com/,DM,Key-Bak,W1023,,http://www.keybak.com,sales@keybak.com,909-923-7800,,,en-US,"Hand Tools & Accessories | Locksets, Keys & Accessories | Safety Products",,KEY-BAK,"We are an employee-owned company that manufactures and distributes high quality security products worldwide. We are most famous for the Original KEY-BAK® Retractable Keychain, designed and built in the USA with globally sourced materials. Although it is often copied, it has never been matched in quality, durability or function. Over 70 years later, our namesake retractable key chain has evolved into a variety of styles and configurations designed to secure keys and tools in any application. If you're looking for a reliable key retractor to secure your keys trust a KEY-BAK."
National Hardware Show 2021,10/21/2021,2021,https://www.nationalhardwareshow.com/,DM,Kidde Fire and Safety,W4352,,,,,,,en-US,,,,
National Hardware Show 2021,10/21/2021,2021,https://www.nationalhardwareshow.com/,DM,KindleSafe Gripper,W2604D,,,,,,,en-US,,,,
National Hardware Show 2021,10/21/2021,2021,https://www.nationalhardwareshow.com/,DM,King Tools & Equipment,W2053,,,,,,,en-US,,,,
National Hardware Show 2021,10/21/2021,2021,https://www.nationalhardwareshow.com/,DM,KINGSUN TOOLS CO,W1006,,,,,,,en-US,,,,
National Hardware Show 2021,10/21/2021,2021,https://www.nationalhardwareshow.com/,DM,"Kingway Pipe Co., Ltd.",W434,,,,,,,en-US,,,,
National Hardware Show 2021,10/21/2021,2021,https://www.nationalhardwareshow.com/,DM,Kittrich Corp,W3757,,,,,,,en-US,,,,
National Hardware Show 2021,10/21/2021,2021,https://www.nationalhardwareshow.com/,DM,Kiwi Vision,W2205A,,,,,,,en-US,,,,
National Hardware Show 2021,10/21/2021,2021,https://www.nationalhardwareshow.com/,DM,"KJ Chain Co., Ltd.",7758,,,,,,,en-US,,,,
National Hardware Show 2021,10/21/2021,2021,https://www.nationalhardwareshow.com/,DM,"KJ Ketterling Enterprises, LLC",W4054,,,,,,,en-US,,,,
National Hardware Show 2021,10/21/2021,2021,https://www.nationalhardwareshow.com/,DM,"KL&C CORP., LTD",W4159,,,,,,,en-US,,,,
National Hardware Show 2021,10/21/2021,2021,https://www.nationalhardwareshow.com/,DM,"Klair Living, Inc. / Garage TECH",W1428,,,,,,,en-US,,,,
National Hardware Show 2021,10/21/2021,2021,https://www.nationalhardwareshow.com/,DM,Klassen Bronze Unlimited,W1036,,,,,,,en-US,,,,
National Hardware Show 2021,10/21/2021,2021,https://www.nationalhardwareshow.com/,DM,Kness Mfg Co Inc,W3775,,http://www.kness.com/,JESSE@KNESS.COM,641-777-3600,,,en-US,"Insect, Pest & Rodent Control",,Kness,"Built on a legacy of providing high-quality pest control solutions, Kness Pest Defense has manufactured innovative products for more than 95 years. Strategically located in the Midwest, our team of experienced industry professionals believes in supplying innovative, reliable and easy-to-use pest control products of the highest quality. We’re committed to equipping our customers with the strongest pest defense solutions possible. We welcome you to the world of Kness Pest Defense. Your best defense."
National Hardware Show 2021,10/21/2021,2021,https://www.nationalhardwareshow.com/,DM,Knotty Wood BBQ,OUTDR5734,,https://knottywoodbbq.com,smokeit@knottywoodbbq.com,1-833-622-7227,,,en-US,,,,
National Hardware Show 2021,10/21/2021,2021,https://www.nationalhardwareshow.com/,DM,Koblenz® / Thorne Electric,W2659,,,,,,,en-US,,,,
National Hardware Show 2021,10/21/2021,2021,https://www.nationalhardwareshow.com/,DM,Kohler Company,W632,,,,,,,en-US,,,,
National Hardware Show 2021,10/21/2021,2021,https://www.nationalhardwareshow.com/,DM,Kole Imports,W4226,,,,,,,en-US,,,,
National Hardware Show 2021,10/21/2021,2021,https://www.nationalhardwareshow.com/,DM,Koolatron,W3939,,,,,,,en-US,,,,
National Hardware Show 2021,10/21/2021,2021,https://www.nationalhardwareshow.com/,DM,Kraftdale LLC,W1937,,,,,,,en-US,,,,
National Hardware Show 2021,10/21/2021,2021,https://www.nationalhardwareshow.com/,DM,Krunchbox,W1206,,,,,,,en-US,,,,
National Hardware Show 2021,10/21/2021,2021,https://www.nationalhardwareshow.com/,DM,"KS Safety, Inc",W1826,,,,,,,en-US,,,,
National Hardware Show 2021,10/21/2021,2021,https://www.nationalhardwareshow.com/,DM,Kubala sp. z.o.o.,W849,,,,,,,en-US,,,,
National Hardware Show 2021,10/21/2021,2021,https://www.nationalhardwareshow.com/,DM,KURESA SA,W659,,,,,,,en-US,,,,
National Hardware Show 2021,10/21/2021,2021,https://www.nationalhardwareshow.com/,DM,"L&S International Industrial Co., Limited",W3930,,,,,,,en-US,,,,
National Hardware Show 2021,10/21/2021,2021,https://www.nationalhardwareshow.com/,DM,La Crosse Technology Ltd,W4239,,https://www.lacrossetechnology.com/,sue@lacrossetechnology.com,608-785-7924,,,en-US,,,,
National Hardware Show 2021,10/21/2021,2021,https://www.nationalhardwareshow.com/,DM,LADDERAIL,W2211A,,https://www.ladderail.com/,ladderailsafety@gmail.com,4038702654,,,en-US,Aluminum Products | Hand Tools & Accessories | Safety Products | Storage & Organization | Tool Boxes/Storage | DIY Products | Home & Health Safety | Safety Products | Ladders/Stepstools | Tool Boxes & Storage,,3M VHB,"LADDERAIL is a start up looking for licensing and wholesale opportunities.  A revolutionary product designed to universally fit on nearly all aluminum or fiberglass A-frame step ladders.  LADDERAIL is strong, compact, easy to install and weighs only 2.5 lbs.  Extend to mid position to use as a brace or fully extend for use as a handrail while the convenient tool tray keeps everything within reach."
National Hardware Show 2021,10/21/2021,2021,https://www.nationalhardwareshow.com/,DM,Ladderweight,W2608A,,,,,,,en-US,,,,
National Hardware Show 2021,10/21/2021,2021,https://www.nationalhardwareshow.com/,DM,Lambert Peat Moss Inc,W3838,,,,,,,en-US,,,,
National Hardware Show 2021,10/21/2021,2021,https://www.nationalhardwareshow.com/,DM,Lansky Sharpeners,W1354,,,,,,,en-US,,,,
National Hardware Show 2021,10/21/2021,2021,https://www.nationalhardwareshow.com/,DM,"Lanxi Duntuo Brush Factory Co., Ltd.",W832,,,,,,,en-US,,,,
National Hardware Show 2021,10/21/2021,2021,https://www.nationalhardwareshow.com/,DM,Lasko Products LLC,W4245,,,,,,,en-US,,,,
National Hardware Show 2021,10/21/2021,2021,https://www.nationalhardwareshow.com/,DM,Last Shield LTD,W3170,,,,,,,en-US,,,,
National Hardware Show 2021,10/21/2021,2021,https://www.nationalhardwareshow.com/,DM,Laundranet,W2515E,,https://laundranet.com,info@laundranet.com,(628) 259 2162,,,en-US,"Eco-Friendly | Home Hardware | Bathroom & Shower Accessories | Cleaning Products, Supplies, Chemicals | Laundry Aids",,Laundranet,"Laundranet is the patented solution for delicate and hand washable clothes drying rack needs. Our retractable wall mounted drying rack is compact, perfect for apartment or other small spaces. It needs no storage space and can easily fit above the washer/dryer, over the bathtub, or between two facing walls. All components are made from high-quality materials. The strong durable mesh netting allows better airflow, resulting in faster and cleaner air drying. The 24″ wide x 72″ long size allows multiple hand washed clothing items to dry flat at the same time."
National Hardware Show 2021,10/21/2021,2021,https://www.nationalhardwareshow.com/,DM,LavaGrip,W4428,,,,,,,en-US,,,,
National Hardware Show 2021,10/21/2021,2021,https://www.nationalhardwareshow.com/,DM,Ledlenser,W1333,,,,,,,en-US,,,,
National Hardware Show 2021,10/21/2021,2021,https://www.nationalhardwareshow.com/,DM,LEM Products,W4045,,,,,,,en-US,,,,
National Hardware Show 2021,10/21/2021,2021,https://www.nationalhardwareshow.com/,DM,Les Produits inova-tech,W2415D,,,,,,,en-US,,,,
National Hardware Show 2021,10/21/2021,2021,https://www.nationalhardwareshow.com/,DM,Levi Robinson Welding Helmets,W2505C,,,,,,,en-US,,,,
National Hardware Show 2021,10/21/2021,2021,https://www.nationalhardwareshow.com/,DM,Levrack,W1108,,,,,,,en-US,,,,
National Hardware Show 2021,10/21/2021,2021,https://www.nationalhardwareshow.com/,DM,"Lianyungang Orientcraft Abrasives Co.,Ltd",W631,,,,,,,en-US,,,,
National Hardware Show 2021,10/21/2021,2021,https://www.nationalhardwareshow.com/,DM,Lifan Power USA,W1200,,,,,,,en-US,,,,
National Hardware Show 2021,10/21/2021,2021,https://www.nationalhardwareshow.com/,DM,LIFESMART,W4570,,,,,,,en-US,,,,
National Hardware Show 2021,10/21/2021,2021,https://www.nationalhardwareshow.com/,DM,Lifetime Products,W3645,,,,,,,en-US,,,,
National Hardware Show 2021,10/21/2021,2021,https://www.nationalhardwareshow.com/,DM,Light Year Research Labs,W2518B,,,,,,,en-US,,,,
National Hardware Show 2021,10/21/2021,2021,https://www.nationalhardwareshow.com/,DM,Lightning Nuggets Inc,W3512,,,,,,,en-US,,,,
National Hardware Show 2021,10/21/2021,2021,https://www.nationalhardwareshow.com/,DM,Lindstrom Fastener Group,W1430,,,,,,,en-US,,,,
National Hardware Show 2021,10/21/2021,2021,https://www.nationalhardwareshow.com/,DM,Linhai Shanying Lighting Co. LTD.,W322,,,,,,,en-US,,,,
National Hardware Show 2021,10/21/2021,2021,https://www.nationalhardwareshow.com/,DM,Linzer/American Brush,W801,,,,,,,en-US,,,,
National Hardware Show 2021,10/21/2021,2021,https://www.nationalhardwareshow.com/,DM,Lion Energy,W2260,,,,,,,en-US,,,Lion Energy,"Lion Energy provides safe, silent, renewable power that can be used around the house, at work, on an adventure or during emergencies – from hand held power banks to solar generators to whole home energy storage systems. Our products are high-quality, durable, long-lasting sources of lithium energy storage with Smart Technology built in."
National Hardware Show 2021,10/21/2021,2021,https://www.nationalhardwareshow.com/,DM,"Lions N/P Co., Limited",W1476,,,,,,,en-US,,,,
National Hardware Show 2021,10/21/2021,2021,https://www.nationalhardwareshow.com/,DM,Lippert Components,W2530,,,,,,,en-US,,,,
National Hardware Show 2021,10/21/2021,2021,https://www.nationalhardwareshow.com/,DM,LiteBand,W2030,,,,,,,en-US,,,,
National Hardware Show 2021,10/21/2021,2021,https://www.nationalhardwareshow.com/,DM,Little Kamper LP,W3751,,,,,,,en-US,,,,
National Hardware Show 2021,10/21/2021,2021,https://www.nationalhardwareshow.com/,DM,Live Edge Timber Co,W1007,,https://www.liveedgetimber.com,stephanie@liveedgetimber.com,819-281-8423,,,en-US,"Lumber/Wood Products | Millwork, Mouldings | Building Materials | Furniture Casters, Accessories & Hardware | Home Decorative Items | Paint & Primers | Outdoor Furniture/Seating",,,"Live Edge Timber Co. is  a manufacturer of DIY components. Our products are made in Canada. We design and manufacture wooden furniture components, steel furniture legs, casting epoxy, wood oils, shelving, brackets, and staircase components. We also manufacture custom items for retailers."
National Hardware Show 2021,10/21/2021,2021,https://www.nationalhardwareshow.com/,DM,Longkou Newstar Tools Co. Ltd,W1273,,,,,,,en-US,,,,
National Hardware Show 2021,10/21/2021,2021,https://www.nationalhardwareshow.com/,DM,Looft Industries,OUTDR5635,,,,,,,en-US,,,,
National Hardware Show 2021,10/21/2021,2021,https://www.nationalhardwareshow.com/,DM,Lotus 101 Ltd.,W4112,,,,,,,en-US,,,,
National Hardware Show 2021,10/21/2021,2021,https://www.nationalhardwareshow.com/,DM,Lucid Audio / Etymotic,W1928,,,,,,,en-US,,,,
National Hardware Show 2021,10/21/2021,2021,https://www.nationalhardwareshow.com/,DM,"LUTIAN MACHINERY CO.,LTD",W1061,,,,,,,en-US,,,,
National Hardware Show 2021,10/21/2021,2021,https://www.nationalhardwareshow.com/,DM,Luxor,W3852,,https://www.LuxorWorkspaces.com,sales@luxorworkspaces.com,800-323-4656,,,en-US,,,Luxor,"Luxor is a market leader in providing products to store and transport tools, supplies, and equipment for work-intensive environments. Our products include Made in USA plastic utility carts, multipurpose mechanics carts, mobile storage systems, charging solutions, and more. Understanding manufacturing best practices and providing exceptional customer service has been critical to Luxor's success for over 70 years. Learn more at www.LuxorWorkspaces.com."
National Hardware Show 2021,10/21/2021,2021,https://www.nationalhardwareshow.com/,DM,M-D Building Products,W2423,,,,,,,en-US,,,,
National Hardware Show 2021,10/21/2021,2021,https://www.nationalhardwareshow.com/,DM,Mac Sports,W3035,,,,,,,en-US,,,,
National Hardware Show 2021,10/21/2021,2021,https://www.nationalhardwareshow.com/,DM,Maclean's Outdoor Living Inc.,OUTDR5318,,,,,,,en-US,,,,
National Hardware Show 2021,10/21/2021,2021,https://www.nationalhardwareshow.com/,DM,Macro Plastics,W3777,,,,,,,en-US,,,,
National Hardware Show 2021,10/21/2021,2021,https://www.nationalhardwareshow.com/,DM,MAG Instrument Inc,W2222,,,,,,,en-US,,,,
National Hardware Show 2021,10/21/2021,2021,https://www.nationalhardwareshow.com/,DM,Magic Plastics,W510,,,,,,,en-US,,,,
National Hardware Show 2021,10/21/2021,2021,https://www.nationalhardwareshow.com/,DM,Magma Products,OUTDR5410,,,,,,,en-US,,,,
National Hardware Show 2021,10/21/2021,2021,https://www.nationalhardwareshow.com/,DM,Magnetic Mechanisms,W1322,,,,,,,en-US,Eco-friendly | Garage/Outdoor Storage | Home Organization/Storage/Racks,,GATOR MAGNETICS,"GATOR magnetic hooks use a patented technology that make them exponentially stronger than normal magnets or glue strip hooks. Your garage, workshop, laundry room, pantry & office all have many steel surfaces that can be used as storage areas for heavier items. Or install the industry’s easiest, most flexible and most affordable wall system.

Over 4X the strength of normal magnets or glue strip hooks. 
Magically disengages with the lift-off mechanism.
Works inside or outside, easy to move to a new  location & has a wide array of configurations. Will not damage surfaces or harm electronics."
National Hardware Show 2021,10/21/2021,2021,https://www.nationalhardwareshow.com/,DM,Mail Boss,W1044,,,,,,,en-US,,,,
National Hardware Show 2021,10/21/2021,2021,https://www.nationalhardwareshow.com/,DM,Major Steelz,W2305A,,,,,,,en-US,,,,
National Hardware Show 2021,10/21/2021,2021,https://www.nationalhardwareshow.com/,DM,Malco Products,W2130,,,,,,,en-US,,,,
National Hardware Show 2021,10/21/2021,2021,https://www.nationalhardwareshow.com/,DM,Marshall Home and Garden,W3729,,,,,,,en-US,,,,
National Hardware Show 2021,10/21/2021,2021,https://www.nationalhardwareshow.com/,DM,Martin Wheel Division of ADI,W4058,,,,,,,en-US,,,,
National Hardware Show 2021,10/21/2021,2021,https://www.nationalhardwareshow.com/,DM,Mascot Metal Manufacturers,W1356,,,,,,,en-US,,,,
National Hardware Show 2021,10/21/2021,2021,https://www.nationalhardwareshow.com/,DM,Master Door Jig,W2511C,,,,,,,en-US,,,,
National Hardware Show 2021,10/21/2021,2021,https://www.nationalhardwareshow.com/,DM,Mastertech Group LLC,W1161,,,,,,,en-US,,,,
National Hardware Show 2021,10/21/2021,2021,https://www.nationalhardwareshow.com/,DM,Maverick Industries Inc,OUTDR5311,,,,,,,en-US,"Grills/Barbecues/BBQs | Kitchen Appliances, Accessories & Gadgets | BBQ Tools & Accessories | Grills/Barbecues/Smokers | BBQ Tools & Accessories | Grills/Barbecues/Smokers",,Maverick Thermometers,"Founded in 1981, Maverick Industries, Inc. established itself as an important innovator in consumer products. The company evolved to include a variety of digital cooking thermometers, including fork thermometers, roasting thermometers for the oven and grill, candy and oil thermometers, and many other specialty units. Maverick now offers a full line of digital cooking thermometers with a model for virtually every purpose.
Maverick’s commitment to quality, innovative technology and partnering with other premier brands has made the company a great choice for their partners and for you."
National Hardware Show 2021,10/21/2021,2021,https://www.nationalhardwareshow.com/,DM,Mayhew Tools,W1623,,,,,,,en-US,,,,
National Hardware Show 2021,10/21/2021,2021,https://www.nationalhardwareshow.com/,DM,Mayne Outdoor Products,W3633,,https://gomayne.com/,sales@gomayne.com,866-363-8834,,,en-US,"Container Gardens | Eco-friendly | Garden Decor | Outdoor Patio & Lawn Furniture Accessories | Planters, Flower Pots & Containers | Raised Garden Beds | Storage & Organization | Garage/Outdoor Storage",,Mayne Inc.,"At Mayne Inc, we continuously strive for excellence in everything we do. We design and produce a large line of planters and window boxes with high-quality material sourced from the United States and Canada, and our American-made products are backed by a 15-year residential warranty. Our high-grade polyethylene outdoor planters are weather-proof and can be enjoyed all year long with very little winter preparation. In addition to this, the UV inhibitors within the resin allow for a long-lasting, fade-free performance. Our mission at Mayne is to create outdoor spaces that are truly captivating."
National Hardware Show 2021,10/21/2021,2021,https://www.nationalhardwareshow.com/,DM,McCordick Glove & Safety Inc,W2100,,,,,,,en-US,,,,
National Hardware Show 2021,10/21/2021,2021,https://www.nationalhardwareshow.com/,DM,Meco Corp,W3333,,,,,,,en-US,,,,
National Hardware Show 2021,10/21/2021,2021,https://www.nationalhardwareshow.com/,DM,Medi Air Purifier,W2201B,,,,,,,en-US,,,,
National Hardware Show 2021,10/21/2021,2021,https://www.nationalhardwareshow.com/,DM,mella,W2604B,,,,,,,en-US,,,,
National Hardware Show 2021,10/21/2021,2021,https://www.nationalhardwareshow.com/,DM,"Member Insurance Agency, Inc.",W1208,,,,,,,en-US,,,,
National Hardware Show 2021,10/21/2021,2021,https://www.nationalhardwareshow.com/,DM,"Mercantile Logistics & International Trade, Inc.",W2128,,,,,,,en-US,,,,
National Hardware Show 2021,10/21/2021,2021,https://www.nationalhardwareshow.com/,DM,Mercator Medical (Thailand) Ltd.,W1009,,,,,,,en-US,,,,
National Hardware Show 2021,10/21/2021,2021,https://www.nationalhardwareshow.com/,DM,Merkury Innovations,W4345,,,,,,,en-US,,,,
National Hardware Show 2021,10/21/2021,2021,https://www.nationalhardwareshow.com/,DM,Merry Products Corp,W3258,,,,,,,en-US,,,,
National Hardware Show 2021,10/21/2021,2021,https://www.nationalhardwareshow.com/,DM,Metal Fusion Inc King Kooker,W3466,,,,,,,en-US,,,,
National Hardware Show 2021,10/21/2021,2021,https://www.nationalhardwareshow.com/,DM,Metal Tech & Xtend+Climb,W623,,,,,,,en-US,,,,
National Hardware Show 2021,10/21/2021,2021,https://www.nationalhardwareshow.com/,DM,"Midland Metal Framing and Fastener, LLC",W2008,,,,,,,en-US,,,,
National Hardware Show 2021,10/21/2021,2021,https://www.nationalhardwareshow.com/,DM,Midwest Air Technologies Inc,W2645,,,,,,,en-US,,,,
National Hardware Show 2021,10/21/2021,2021,https://www.nationalhardwareshow.com/,DM,Midwest Fastener Corp,W2323,,,,,,,en-US,,,,
National Hardware Show 2021,10/21/2021,2021,https://www.nationalhardwareshow.com/,DM,Mighty 8 Tools & Hardware Inc,,,,,,,,en-US,,,,
National Hardware Show 2021,10/21/2021,2021,https://www.nationalhardwareshow.com/,DM,Mighty 8 Tools & Hardware Inc.,,,,,,,,en-US,,,,
National Hardware Show 2021,10/21/2021,2021,https://www.nationalhardwareshow.com/,DM,2GIG,W1437,,https://www.mightymule.com/,michelle.gordon@nortekcontrol.com,7607074700,,,en-US,,,Mighty Mule,"Mighty Mule introduces a new line of smart gate openers – the first smart DIY automatic swing gate openers in the industry. These gate openers bring unrivaled convenience with smart features that enable control from anywhere using your smart phone app. Our smart gate openers the latest innovative features but still include Mighty Mule’s legacy of DIY simplicity and rugged, reliable performance."
National Hardware Show 2021,10/21/2021,2021,https://www.nationalhardwareshow.com/,DM,Milazzo Industries,W3529,,,,,,,en-US,,,,
National Hardware Show 2021,10/21/2021,2021,https://www.nationalhardwareshow.com/,DM,Miracle Brands LLC,W967,,,,,,,en-US,,,,
National Hardware Show 2021,10/21/2021,2021,https://www.nationalhardwareshow.com/,DM,Misco Home & Garden,W3915,,,,,,,en-US,,,,
National Hardware Show 2021,10/21/2021,2021,https://www.nationalhardwareshow.com/,DM,Mississippi Development Authority,W1561,,,,,,,en-US,,,,
National Hardware Show 2021,10/21/2021,2021,https://www.nationalhardwareshow.com/,DM,MITEK BUILDER PRODUCTS,7450,,,,,,,en-US,,,,
National Hardware Show 2021,10/21/2021,2021,https://www.nationalhardwareshow.com/,DM,MK Lighter,W2939,,,,,,,en-US,,,,
National Hardware Show 2021,10/21/2021,2021,https://www.nationalhardwareshow.com/,DM,Mobil Plastic S.p.A.,W1210,,,,,,,en-US,,,,
National Hardware Show 2021,10/21/2021,2021,https://www.nationalhardwareshow.com/,DM,Mont Alpi,OUTDR5523,,,,,,,en-US,,,,
National Hardware Show 2021,10/21/2021,2021,https://www.nationalhardwareshow.com/,DM,Morgan Imports LLC,W2501A,,,,,,,en-US,,,,
National Hardware Show 2021,10/21/2021,2021,https://www.nationalhardwareshow.com/,DM,"Motsenbocker's Lift Off, a Division of Stoner, Inc.",W945,,,,,,,en-US,,,,
National Hardware Show 2021,10/21/2021,2021,https://www.nationalhardwareshow.com/,DM,Mountain View Seeds,W3900,,,,,,,en-US,,,,
National Hardware Show 2021,10/21/2021,2021,https://www.nationalhardwareshow.com/,DM,Mr Chain of MR Products Inc,W1105,,,,,,,en-US,,,,
National Hardware Show 2021,10/21/2021,2021,https://www.nationalhardwareshow.com/,DM,MR COOL,W4435,,,,,,,en-US,,,,
National Hardware Show 2021,10/21/2021,2021,https://www.nationalhardwareshow.com/,DM,Mr. Bar-B-Q Products LLC,W3113,,,,,,,en-US,,,,
National Hardware Show 2021,10/21/2021,2021,https://www.nationalhardwareshow.com/,DM,MTD Products Inc,W3607,,,,,,,en-US,,,,
National Hardware Show 2021,10/21/2021,2021,https://www.nationalhardwareshow.com/,DM,ZOOK Strap,W2211E,,,,,,,en-US,,,,
National Hardware Show 2021,10/21/2021,2021,https://www.nationalhardwareshow.com/,DM,"Nanjing JinXin International Trade Co., Ltd.",W4032,,,,,,,en-US,,,,
National Hardware Show 2021,10/21/2021,2021,https://www.nationalhardwareshow.com/,DM,"Nanjing Kekang Outdoor Products Co., Ltd","W3027, W3677",,,,,,,en-US,,,,
National Hardware Show 2021,10/21/2021,2021,https://www.nationalhardwareshow.com/,DM,National Tree Company,W3417,,,,,,,en-US,,,,
National Hardware Show 2021,10/21/2021,2021,https://www.nationalhardwareshow.com/,DM,Nature Anywhere,W2514B,,,,,,,en-US,,,,
National Hardware Show 2021,10/21/2021,2021,https://www.nationalhardwareshow.com/,DM,Nemo Power Tools,W1549,,,,,,,en-US,,,,
National Hardware Show 2021,10/21/2021,2021,https://www.nationalhardwareshow.com/,DM,NESIN LLC,W2608C,,,,,,,en-US,,,,
National Hardware Show 2021,10/21/2021,2021,https://www.nationalhardwareshow.com/,DM,Never-Loose Strap,W2305B,,,,,,,en-US,,,,
National Hardware Show 2021,10/21/2021,2021,https://www.nationalhardwareshow.com/,DM,New England Arbors,W3629,,https://wearevita.com/,sales@wearevita.com,8002829346,,,en-US,"Garden Decor | Indoor Gardening/Hydroponics | Planters, Flower Pots & Containers | Raised Garden Beds | Umbrellas/Awnings/Shelters/Sheds",,,"From pergolas and planters to garden beds and arbors, Vita has something for everyone, no matter the space.

Your home is our passion."
National Hardware Show 2021,10/21/2021,2021,https://www.nationalhardwareshow.com/,DM,NexxChem LLC,W829,,,,,,,en-US,,,,
National Hardware Show 2021,10/21/2021,2021,https://www.nationalhardwareshow.com/,DM,Nine Stars Group USA Inc.,W4101,,,,,,,en-US,,,,
National Hardware Show 2021,10/21/2021,2021,https://www.nationalhardwareshow.com/,DM,"NINGBO BAI-JIA ELECTRIC APPLIANCE CO., LTD",W4434,,,,,,,en-US,,,,
National Hardware Show 2021,10/21/2021,2021,https://www.nationalhardwareshow.com/,DM,"Ningbo Bainian Electrical Appliance Co., Ltd.",W331,,,,,,,en-US,,,,
National Hardware Show 2021,10/21/2021,2021,https://www.nationalhardwareshow.com/,DM,"Ningbo Changle Hose Clamp Co., Ltd.",W411,,,,,,,en-US,,,,
National Hardware Show 2021,10/21/2021,2021,https://www.nationalhardwareshow.com/,DM,"Ningbo Diya Domestic Electric Appliance Co.,Ltd.",W4371,,,,,,,en-US,,,,
National Hardware Show 2021,10/21/2021,2021,https://www.nationalhardwareshow.com/,DM,"Ningbo Dory Outdoors Co., Ltd.",W308,,,,,,,en-US,,,,
National Hardware Show 2021,10/21/2021,2021,https://www.nationalhardwareshow.com/,DM,Ningbo Huige Outdoor Products Co. Ltd.,12641,,,,,,,en-US,,,,
National Hardware Show 2021,10/21/2021,2021,https://www.nationalhardwareshow.com/,DM,Ningbo ILAN Fabrics Co. Ltd,W4127,,,,,,,en-US,,,,
National Hardware Show 2021,10/21/2021,2021,https://www.nationalhardwareshow.com/,DM,Ningbo JS Brothers Tool,W1654,,,,,,,en-US,,,,
National Hardware Show 2021,10/21/2021,2021,https://www.nationalhardwareshow.com/,DM,"Ningbo Loyal Lighting Technology Co., Ltd",W3549,,,,,,,en-US,,,,
National Hardware Show 2021,10/21/2021,2021,https://www.nationalhardwareshow.com/,DM,"Ningbo Meida Plastic Products Co., Ltd.",,,,,,,,en-US,,,,
National Hardware Show 2021,10/21/2021,2021,https://www.nationalhardwareshow.com/,DM,Ningbo S-chande Import & Export Co. Ltd.,W1670,,,,,,,en-US,,,,
National Hardware Show 2021,10/21/2021,2021,https://www.nationalhardwareshow.com/,DM,Ningbo Sunmate Home and Casual Promotion Co. Ltd.,W3059,,,,,,,en-US,,,,
National Hardware Show 2021,10/21/2021,2021,https://www.nationalhardwareshow.com/,DM,"Ningbo Taller Electrical Appliance Co., Lt.d",W4469,,,,,,,en-US,,,,
National Hardware Show 2021,10/21/2021,2021,https://www.nationalhardwareshow.com/,DM,Ningbo Texoon Brassworks,W426,,,,,,,en-US,,,,
National Hardware Show 2021,10/21/2021,2021,https://www.nationalhardwareshow.com/,DM,Ningbo Tiantai Hose Factory,W535,,,,,,,en-US,,,,
National Hardware Show 2021,10/21/2021,2021,https://www.nationalhardwareshow.com/,DM,"NINGBO WANAN CO., LTD",W223,,,,,,,en-US,,,,
National Hardware Show 2021,10/21/2021,2021,https://www.nationalhardwareshow.com/,DM,"NINGBO YILIN AGUATECH CO., LTD.",12867,,,,,,,en-US,,,,
National Hardware Show 2021,10/21/2021,2021,https://www.nationalhardwareshow.com/,DM,"Ningbo Younger Trading Co., Ltd.",W1574,,,,,,,en-US,,,,
National Hardware Show 2021,10/21/2021,2021,https://www.nationalhardwareshow.com/,DM,"Ninghai Neworiental Plastics Industry Co., Ltd.",W1272,,,,,,,en-US,,,,
National Hardware Show 2021,10/21/2021,2021,https://www.nationalhardwareshow.com/,DM,Nissan Commercial,W4111,,,,,,,en-US,,,,
National Hardware Show 2021,10/21/2021,2021,https://www.nationalhardwareshow.com/,DM,Nite Ize Inc./RCP Enterprises Inc.,"6446, W1845",,,,,,,en-US,,,,
National Hardware Show 2021,10/21/2021,2021,https://www.nationalhardwareshow.com/,DM,No Spill Inc.,W1100,,,,,,,en-US,,,,
National Hardware Show 2021,10/21/2021,2021,https://www.nationalhardwareshow.com/,DM,NOBLELIFT North America,W1859,,,,,,,en-US,,,,
National Hardware Show 2021,10/21/2021,2021,https://www.nationalhardwareshow.com/,DM,NOMPI Glove Company,W2409C,,,,,,,en-US,,,,
National Hardware Show 2021,10/21/2021,2021,https://www.nationalhardwareshow.com/,DM,North Channel Supply,W1832,,,,,,,en-US,,,,
National Hardware Show 2021,10/21/2021,2021,https://www.nationalhardwareshow.com/,DM,North States Industries,W3749,,,,,,,en-US,,,,
National Hardware Show 2021,10/21/2021,2021,https://www.nationalhardwareshow.com/,DM,North West Rubber Ltd.,W4330,,,,,,,en-US,,,,
National Hardware Show 2021,10/21/2021,2021,https://www.nationalhardwareshow.com/,DM,Nour Trading House Inc,W718,,,,,,,en-US,,,,
National Hardware Show 2021,10/21/2021,2021,https://www.nationalhardwareshow.com/,DM,"Nuanxin Industrial (HK) Co., Limited",10113,,,,,,,en-US,,,,
National Hardware Show 2021,10/21/2021,2021,https://www.nationalhardwareshow.com/,DM,Nunn Products,W2608E,,,,,,,en-US,,,,
National Hardware Show 2021,10/21/2021,2021,https://www.nationalhardwareshow.com/,DM,NUVO Iron,W1952,,,,,,,en-US,,,,
National Hardware Show 2021,10/21/2021,2021,https://www.nationalhardwareshow.com/,DM,NuvoH2o,W513,,,,,,,en-US,,,,
National Hardware Show 2021,10/21/2021,2021,https://www.nationalhardwareshow.com/,DM,"NUWATT, Inc.",W407,,,,,,,en-US,,,,
National Hardware Show 2021,10/21/2021,2021,https://www.nationalhardwareshow.com/,DM,O.M.E. Gear,W2419D,,,,,,,en-US,,,,
National Hardware Show 2021,10/21/2021,2021,https://www.nationalhardwareshow.com/,DM,OCI Americas Inc.,W841,,,,,,,en-US,,,,
National Hardware Show 2021,10/21/2021,2021,https://www.nationalhardwareshow.com/,DM,Ohio Design LLC,W2505D,,https://www.ohiodesignsllc.com,jack1280@gmail.com,9373042290,,,en-US,Outlets/Switches/Wallplates/Dimmers,,,Our company's main focus is to re-engineer construction products to fit today's standards.
National Hardware Show 2021,10/21/2021,2021,https://www.nationalhardwareshow.com/,DM,Old Masters,W744,,,,,,,en-US,,,,
National Hardware Show 2021,10/21/2021,2021,https://www.nationalhardwareshow.com/,DM,Old Smokey Products Company,W3927,,,,,,,en-US,,,,
National Hardware Show 2021,10/21/2021,2021,https://www.nationalhardwareshow.com/,DM,Olympia Tools International Inc,W1414,,,,,,,en-US,,,,
National Hardware Show 2021,10/21/2021,2021,https://www.nationalhardwareshow.com/,DM,"ONLI Enterprise Co., Ltd.",W3848,,,,,,,en-US,,,,
National Hardware Show 2021,10/21/2021,2021,https://www.nationalhardwareshow.com/,DM,Ontel Products Corp,W4267,,,,,,,en-US,,,,
National Hardware Show 2021,10/21/2021,2021,https://www.nationalhardwareshow.com/,DM,Open Says Me (Black Bass Industries LLC),W2600A,,,,,,,en-US,,,,
National Hardware Show 2021,10/21/2021,2021,https://www.nationalhardwareshow.com/,DM,Organic Control/Organic Laboratories,W4152,,,,,,,en-US,,,,
National Hardware Show 2021,10/21/2021,2021,https://www.nationalhardwareshow.com/,DM,Orgill Inc,W1812,,,,,,,en-US,,,,
National Hardware Show 2021,10/21/2021,2021,https://www.nationalhardwareshow.com/,DM,Origin Point Brands LLC/Hebei Minmetals,W3353,,,,,,,en-US,,,,
National Hardware Show 2021,10/21/2021,2021,https://www.nationalhardwareshow.com/,DM,Outdoor Edge Cutlery Corp,W2134,,,,,,,en-US,,,,
National Hardware Show 2021,10/21/2021,2021,https://www.nationalhardwareshow.com/,DM,"OUTDOOR MARKETING GROUP, LLC",OUTDR5729,,,,,,,en-US,,,,
National Hardware Show 2021,10/21/2021,2021,https://www.nationalhardwareshow.com/,DM,Outpak Washout,W955,,https://www.outpak.com,sales@outpak.com,208-376-6967,,,en-US,Eco-friendly | Masonry Products/Concrete/Cement | Building Materials | DIY Products | Eco-Friendly | Masonry Products/Concrete/Cement | Safety Products | DIY Products | Eco-friendly | Painting Tools & Accessories,,Outpak Washout,"Outpak Washout provides a portable washout containment solution for concrete sediment, paint, drywall mud, stucco and mortar. We also provide Outpak Slurry Solution to solidify your slurry waste from concrete, mortar and paint into a landfill ready and EPA compliant material. Spill Kits, Tarps and Plan Bags round out products to help save you time and money on your project site!"
National Hardware Show 2021,10/21/2021,2021,https://www.nationalhardwareshow.com/,DM,"Over EZ Chicken Coops, LLC",W4161,,,,,,,en-US,,,,
National Hardware Show 2021,10/21/2021,2021,https://www.nationalhardwareshow.com/,DM,"OYM Best & Honest Co., Ltd.",W526,,,,,,,en-US,,,,
National Hardware Show 2021,10/21/2021,2021,https://www.nationalhardwareshow.com/,DM,P Trap Pal,W2201D,,,,,,,en-US,"Pipes, Fittings & Accessories",,P Trap Pal,P Trap Pal manufacturers and sells a check valve that is installed below any sink immediately above the p-trap.  It prevents insects and sewer odors from entering a home through the sink drain from a dry p-trap.  Come by and talk to us about this patented technology that is brand new to the plumbing industry.
National Hardware Show 2021,10/21/2021,2021,https://www.nationalhardwareshow.com/,DM,PAAKline,W2518D,,https://www.paakline.com,info@paakline.com,406-459-4289,,,en-US,"Brushes, Rollers, & Paint Applicators | DIY Products | Painting Tools & Accessories | Point of Sale/Impulse Items",,We represent PAAKline,PAAKline develops and manufactures painting tools for both the professional painter and the DIY'er. Being in the paint industry for 30 years has given us the advantage to know which tools need improving on and which tools need to be introduced. We strive to minimize the carbon footprint in the painting industry by making it enticing to save paint and reuse sleeves.
National Hardware Show 2021,10/21/2021,2021,https://www.nationalhardwareshow.com/,DM,Pace Industries,W1619,,,,,,,en-US,,,,
National Hardware Show 2021,10/21/2021,2021,https://www.nationalhardwareshow.com/,DM,Pachyderm Industries - The Branch Saw,W2518C,,,,,,,en-US,,,,
National Hardware Show 2021,10/21/2021,2021,https://www.nationalhardwareshow.com/,DM,Pamrick Enterprises LLC - CLEAN N ROLL,W733,,https://www.cleannroll.net,cleannroll@gmail.com,805-709-6718,,,en-US,"Brushes, Rollers, & Paint Applicators | DIY Products | Eco-friendly | Painting Tools & Accessories",,CLEAN N ROLL,"Invented by a painter for anyone who paints. Reuse paint roller covers multiple times, saving you time and money."
National Hardware Show 2021,10/21/2021,2021,https://www.nationalhardwareshow.com/,DM,Pannext Fittings Corp.,W318,,http://www.pannext.com/,jli@pannext.com,713-785-8866 e.114,,,en-US,"Pipes, Fittings & Accessories",,Pannext FanDa,"malleable iron fitting, lead, and No Lead bronze fitting made in Thailand"
National Hardware Show 2021,10/21/2021,2021,https://www.nationalhardwareshow.com/,DM,"Paperboard Packaging Solutions, Inc.",W1335,,,,,,,en-US,,,,
National Hardware Show 2021,10/21/2021,2021,https://www.nationalhardwareshow.com/,DM,Park Avenue Wholesale,W1134,,https://buffalooutdoorsclothing.com/,sales@buffalooutdoorsclothing.com,716-464-2201,,,en-US,Apparel | Safety Products | Workwear/Workgloves | Apparel & Outdoor Workwear | Retail Products & Services | Face Protection | Protective Clothing (disposable) | Protective Goggles | Safety Glasses,,Buffalo Outdoors®,"At Buffalo Outdoors®, our mission is to provide quality workwear at an affordable price. Period. We know our customers work hard, so it’s up to us to supply them with clothing that works just as hard as they do to keep them comfortable no matter what season or elements they encounter."
National Hardware Show 2021,10/21/2021,2021,https://www.nationalhardwareshow.com/,DM,Patio Comfort Elements,OUTDR5305,,,,,,,en-US,,,,
National Hardware Show 2021,10/21/2021,2021,https://www.nationalhardwareshow.com/,DM,Pearl Valley Organix,W4155,,,,,,,en-US,,,,
National Hardware Show 2021,10/21/2021,2021,https://www.nationalhardwareshow.com/,DM,Pennsylvania Lumbermens Mutual Insurance Company,W1466,,,,,,,en-US,,,,
National Hardware Show 2021,10/21/2021,2021,https://www.nationalhardwareshow.com/,DM,Peter Grimm Limited,W1451,,,,,,,en-US,,,,
National Hardware Show 2021,10/21/2021,2021,https://www.nationalhardwareshow.com/,DM,PIC Corp,W3323,,,,,,,en-US,,,,
National Hardware Show 2021,10/21/2021,2021,https://www.nationalhardwareshow.com/,DM,Pipe Dream LLC,W2201C,,,,,,,en-US,,,,
National Hardware Show 2021,10/21/2021,2021,https://www.nationalhardwareshow.com/,DM,Pit Boss / Louisiana Grills,"W2731, OUTDR5705",,,,,,,en-US,,,,
National Hardware Show 2021,10/21/2021,2021,https://www.nationalhardwareshow.com/,DM,PIXIE HARDWARE,W2511D,,,,,,,en-US,,,,
National Hardware Show 2021,10/21/2021,2021,https://www.nationalhardwareshow.com/,DM,PLÁSTICOS MQ SAS,W4160,,https://plasticosmq.com.co/,comercioexterior@plasticosmq.com.co,57-3223052045,,,en-US,Outdoor Patio & Lawn Furniture Accessories | Closet Organizers | Garage/Outdoor Storage,,MQ,"Plásticos MQ S.A.S is a Colombian plastic manufacturer & marketer company. MQ is recognized all over Colombia as one of the best in the plastic houseware industry. MQ is already getting recognition in the Americas too. It is exporting to 14 countries already. MQ is focused on making durable and functional houseware furniture. MQ is continually enhancing its high quality, productivity and efficiency standards to provide customers satisfaction and comfort ""our best seller"". MQ products are manufactured using technologically innovative equipment and high quality raw material."
National Hardware Show 2021,10/21/2021,2021,https://www.nationalhardwareshow.com/,DM,Plastmeccanica S.p.A.,W3559,,,,,,,en-US,,,,
National Hardware Show 2021,10/21/2021,2021,https://www.nationalhardwareshow.com/,DM,PMP Technologies Limited,W1852,,,,,,,en-US,,,,
National Hardware Show 2021,10/21/2021,2021,https://www.nationalhardwareshow.com/,DM,Portineer,W2315C,,,,,,,en-US,,,,
National Hardware Show 2021,10/21/2021,2021,https://www.nationalhardwareshow.com/,DM,Pottery Land LLC,W3845,,,,,,,en-US,,,,
National Hardware Show 2021,10/21/2021,2021,https://www.nationalhardwareshow.com/,DM,Power Aisle Inc. dba Tech Team Products,W1180,,,,,,,en-US,,,,
National Hardware Show 2021,10/21/2021,2021,https://www.nationalhardwareshow.com/,DM,Powerkaite Electrical Applicance,W4560,,,,,,,en-US,,,,
National Hardware Show 2021,10/21/2021,2021,https://www.nationalhardwareshow.com/,DM,"PPG Industries, Inc",W723,,,,,,,en-US,,,,
National Hardware Show 2021,10/21/2021,2021,https://www.nationalhardwareshow.com/,DM,Atlas Preservation,W938,,,,,,,en-US,,,,
National Hardware Show 2021,10/21/2021,2021,https://www.nationalhardwareshow.com/,DM,Precision Products,W3501,,,,,,,en-US,,,,
National Hardware Show 2021,10/21/2021,2021,https://www.nationalhardwareshow.com/,DM,Predictive Nutrient Solutions,W4157,,,,,,,en-US,,,,
National Hardware Show 2021,10/21/2021,2021,https://www.nationalhardwareshow.com/,DM,Preval,W754,,,,,,,en-US,,,,
National Hardware Show 2021,10/21/2021,2021,https://www.nationalhardwareshow.com/,DM,Pride Garden Products,W3438,,https://www.pridegardenproducts.com/,info@thepridegroup.com,484-540-8059,,,en-US,"Lawn & Garden Products | Planters, Flower Pots & Containers | Eco-friendly",,,"The AquaSav Smart Coco Liner is designed to help you grow better, because it’s engineered to be smarter than ordinary liners. The plastic goes about one-third of the way up the liner creating a water tray built right into the coco fiber liner. Excess water flows over the edge of the water tray, allowing just the right amount of water to remain in the liner and giving the soil and roots time to absorb all the moisture. Because two-thirds of the liner is open, there is still natural air circulation around the plant’s root system, promoting healthy growth."
National Hardware Show 2021,10/21/2021,2021,https://www.nationalhardwareshow.com/,DM,Pro Image Painting LLC,W2501B,,,,,,,en-US,,,,
National Hardware Show 2021,10/21/2021,2021,https://www.nationalhardwareshow.com/,DM,Pro Tools LLC,W2211B,,https://thestaplepro.com,abetterwaytostaple@gmail.com,(989)423-3313,,,en-US,"Fasteners, Nails, Nuts, Bolts, Rivets, Screws | DIY Products | Electrical Tools & Accessories | Point of Sale/Impulse Items | Wiring/Cable & Accessories | DIY Products | Fasteners, Nails, Nuts, Bolts, Rivets, Screws | Hand Tools & Accessories | Wire",,StaplePro,"We take the pain out of electrical stapling! Electrical staples are usually a sharp, tangled mess leading to pain and frustration.  The StaplePro solves this with our revolutionary StaplePro Dispenser & Staple Sleeves.  The StaplePro Dispenser clips onto your tool belt or hip. The Sleeves/Cartridges of 40-staples each are inserted into the StaplePro Dispenser. This conceals all the sharp points and keeps the staples in an organized fashion. The only part of the staple that is revealed is the crown of the staple in the ejector slot. When a staple is removed, the next staple takes it's place."
National Hardware Show 2021,10/21/2021,2021,https://www.nationalhardwareshow.com/,DM,"ProBuddy Products, LLC",W2211D,,,,,,,en-US,,,,
National Hardware Show 2021,10/21/2021,2021,https://www.nationalhardwareshow.com/,DM,Productos Pennsylvania,W756,,,,,,,en-US,,,,
National Hardware Show 2021,10/21/2021,2021,https://www.nationalhardwareshow.com/,DM,"Products By BMC, LLC makers of Pretty Boy",W2311A,,,,,,,en-US,,,,
National Hardware Show 2021,10/21/2021,2021,https://www.nationalhardwareshow.com/,DM,Promier Products,W1545,,https://litezallb2b.com/,kris@litezall.com,815-223-3393,,,en-US,Emergency Preparedness & Disaster Relief | Flashlights/Batteries | Light Bulbs/LED Light Bulbs/Night Lights | Point of Sale/Impulse Items | Solar Products | Outdoor Lighting | Tailgate/Camping,,LitezAll,We're the fastest growing flashlight and portable LED manufacturer in the US - bringing innovation and affordability together. Visit NHS Connects or our B2b site for updated catalog.
National Hardware Show 2021,10/21/2021,2021,https://www.nationalhardwareshow.com/,DM,Proud Grill Company Ltd,OUTDR5316,,,,,,,en-US,,,,
National Hardware Show 2021,10/21/2021,2021,https://www.nationalhardwareshow.com/,DM,Proway Industries Co. Ltd. of S.I.P.,W1377,,,,,,,en-US,,,,
National Hardware Show 2021,10/21/2021,2021,https://www.nationalhardwareshow.com/,DM,Pueblo Home & Garden,W3452,,,,,,,en-US,,,,
National Hardware Show 2021,10/21/2021,2021,https://www.nationalhardwareshow.com/,DM,Pulse Shower Spas,W4235,,,,,,,en-US,,,,
National Hardware Show 2021,10/21/2021,2021,https://www.nationalhardwareshow.com/,DM,Pyramex Safety Products,W1308,,,,,,,en-US,,,,
National Hardware Show 2021,10/21/2021,2021,https://www.nationalhardwareshow.com/,DM,QA Worldwide Inc,W506,,http://www.QAWorldwide.com,info@QAWorldwide.com,727-528-1000,,,en-US,"Point of Sale/Impulse Items | Electrical Tools & Accessories | Wiring/Cable & Accessories | Power Equipment & Accessories - Power Washers, Trimmers, Portable Heaters, Log Splitters | Garage/Outdoor Storage | Power Tools & Accessories | Storage & Organization | Home Organization/Storage/Racks | Kitchen Appliances, Accessories & Gadgets",,Cable Clamp PRO,"QA Worldwide Inc. designs, manufactures, and markets items for a variety of markets, including hardware, electronics, medical, household, marine, automotive, gardening, and general recreation.

Specifically, we aim to enrich and simplify the lives of customers, suppliers, distributors, and employees by providing the very best products and services that offer superior quality at affordable prices."
National Hardware Show 2021,10/21/2021,2021,https://www.nationalhardwareshow.com/,DM,"Qingdao Crown Plants Import and Export Co., LTD",W3826,,,,,,,en-US,,,,
National Hardware Show 2021,10/21/2021,2021,https://www.nationalhardwareshow.com/,DM,Qingdao Hirech Trading Co. Ltd.,W855,,,,,,,en-US,,,,
National Hardware Show 2021,10/21/2021,2021,https://www.nationalhardwareshow.com/,DM,Mech Marvels,W1645,,,,,,,en-US,,,,
National Hardware Show 2021,10/21/2021,2021,https://www.nationalhardwareshow.com/,DM,Wind River Chimes,W4149,,https://www.windriverchimes.com,service@windriverchimes.com,800-345-2530,,,en-US,Garden Decor,,Corinthian Bells,
National Hardware Show 2021,10/21/2021,2021,https://www.nationalhardwareshow.com/,DM,Qstoves Inc.,OUTDR5532,,,,,,,en-US,,,,
National Hardware Show 2021,10/21/2021,2021,https://www.nationalhardwareshow.com/,DM,Quality Pure Air,W4440,,,,,,,en-US,,,,
National Hardware Show 2021,10/21/2021,2021,https://www.nationalhardwareshow.com/,DM,Quantum Storage Systems,6617,,,,,,,en-US,,,,
National Hardware Show 2021,10/21/2021,2021,https://www.nationalhardwareshow.com/,DM,Quanzhou Shuntong Crafts Co. Ltd.,W226,,,,,,,en-US,,,,
National Hardware Show 2021,10/21/2021,2021,https://www.nationalhardwareshow.com/,DM,Quzhou T-Nine Tools Co Ltd,W4666,,,,,,,en-US,,,,
National Hardware Show 2021,10/21/2021,2021,https://www.nationalhardwareshow.com/,DM,R.P. Overseas,W1754,,,,,,,en-US,,,,
National Hardware Show 2021,10/21/2021,2021,https://www.nationalhardwareshow.com/,DM,Radians Inc.,W1045,,https://www.radians.com,amy.mize@radians.com,9012710585,,,en-US,Point of Sale/Impulse Items | DIY Products | Safety Products | Workwear/Workgloves | Apparel & Outdoor Workwear | Gloves | Licensed Products | Face Protection | Protective Goggles | Safety Glasses,,Radians®,"Radians manufactures a wide range of safety products for retail sale in hardware, lawn and garden, automotive, and sporting goods stores. By partnering with distributors and chain stores throughout the U.S., consumers can enjoy easier access to Radians' innovative selection of Personal Protective Equipment (PPE). The necessity, high quality, and durability of Radians' safety products will enhance the reputation of retail outlets and their e-commerce sites, ensuring repeat business. Radians is a top-tier leader in the safety industry with an ISO 9001:2008 quality assurance registration."
National Hardware Show 2021,10/21/2021,2021,https://www.nationalhardwareshow.com/,DM,Ragan and Massey Inc,W3800,,,,,,,en-US,,,,
National Hardware Show 2021,10/21/2021,2021,https://www.nationalhardwareshow.com/,DM,Ram Quality Products Ltd.,W1748,,,,,,,en-US,,,,
National Hardware Show 2021,10/21/2021,2021,https://www.nationalhardwareshow.com/,DM,Ranger Ready Repellents,W3781,,,,,,,en-US,,,,
National Hardware Show 2021,10/21/2021,2021,https://www.nationalhardwareshow.com/,DM,RAPIDFIX INC - LHB INDUSTRIES,W734,,http://www.lhbindustries.com,sdebeaux@lhbindustries.com,3147430440,,,en-US,Apparel | Apparel | Adhesives/Glues/Tapes | Patch & Repair,,RapidFix,
National Hardware Show 2021,10/21/2021,2021,https://www.nationalhardwareshow.com/,DM,RapidPro Manufacturing,W653,,,,,,,en-US,,,,
National Hardware Show 2021,10/21/2021,2021,https://www.nationalhardwareshow.com/,DM,RDL Marketing Inc,W913,,,,,,,en-US,,,,
National Hardware Show 2021,10/21/2021,2021,https://www.nationalhardwareshow.com/,DM,Ready Covers LLC,W4228,,,,,,,en-US,,,,
National Hardware Show 2021,10/21/2021,2021,https://www.nationalhardwareshow.com/,DM,Ready Seal Inc,W753,,,,,,,en-US,,,,
National Hardware Show 2021,10/21/2021,2021,https://www.nationalhardwareshow.com/,DM,Real Flame Inc.,OUTDR5304,,,,,,,en-US,,,,
National Hardware Show 2021,10/21/2021,2021,https://www.nationalhardwareshow.com/,DM,"Real Soda Midwest, Inc",OUTDR5330,,https://realsodamidwest.com,at.realsoda@gmail.com,8476878647,,,en-US,Point of Sale/Impulse Items | Tailgate/Camping,,Sprecher,"We specialize in old fashioned, popular, well-known brands and flavors of glass bottled soda made with real cane sugar to tickle the nostalgic fancy of your customers! Accompanying delicious sweet, savory and candied varieties of Amish, hand mixed popcorn. This is accomplished in big copper kettles, the proper way!  We also have Von Hansons' Snacks-6 varieties of flavored, delicious pretzels in resealable deli tubs. We offer outstanding margins; unheard of in consumables and carry over 1,000 different brands/flavors of soda and 100+ flavors of popcorn. Every order is custom made!"
National Hardware Show 2021,10/21/2021,2021,https://www.nationalhardwareshow.com/,DM,Recolor Paint,W750,,,,,,,en-US,,,,
National Hardware Show 2021,10/21/2021,2021,https://www.nationalhardwareshow.com/,DM,Red Devil Inc,W700,,https://www.reddevil.com/,ajones@reddevil.com,918-513-3531,,,en-US,Building Materials | DIY Products | Hand Tools & Accessories | Eco-friendly | Energy Efficient | Painting Tools & Accessories | Patch & Repair | Sealants/Caulks/Putty | Hand Sanitizer (liquid gel & spray) | KN95 Masks (Chinese equivalent to the N95 mask),,,"Red Devil®, Inc. is a privately owned, family business with state-of-the-art manufacturing facilities in Pryor, Oklahoma. We’re the only manufacturer to offer such a broad and diversified line of hand tools and chemical products for professional and home maintenance and improvement - more than 400 different products in all. In addition to producing caulks, sealants and tools under our own brand name, we also manufacture private label products for some of the nation’s largest hardware and home center chains."
National Hardware Show 2021,10/21/2021,2021,https://www.nationalhardwareshow.com/,DM,Red Horse USA,W1012,,,,,,,en-US,,,,
National Hardware Show 2021,10/21/2021,2021,https://www.nationalhardwareshow.com/,DM,Reekon Tools,W2215B,,https://reekon.tools,contact@reekon.tools,,,,en-US,Builder Tools & Instruments | Cordless/Battery Operated Power Tools | Hand Tools & Accessories | Power Tools & Accessories,,REEKON Tools,"REEKON Tools is leading the next wave of power and measurement tool innovation by integrating modern advances in technologies, materials and processes with traditional fabrication tools in order to deliver order of magnitude improvements to professionals in regards to speed, functionality, safety, and/or workflows."
National Hardware Show 2021,10/21/2021,2021,https://www.nationalhardwareshow.com/,DM,Refinished Bath Solutions,W4234,,http://refinishedbathsolutions.com/,,,,,en-US,Builder Tools & Instruments | Bathroom & Shower Accessories | DIY Products,,,"Refinished Bath Solutions is a bathtub refinishing retail/wholesale suppler. We have several mass selling products available on our website and Amazon as proof of sales concept. We are looking to pick up a whole or distribution partner to grow our product brand. Our Flagship product is Ekopel 2K Bathtub Refinishing Kit. This is a no odor, long lasting bathtub refinishing resin. With our easy to follow demo videos customers of all backgrounds can apply Ekopel 2K. We are in the final stages of construction of our USA production plant. We will be made in the USA by the end of Summer 2021"
National Hardware Show 2021,10/21/2021,2021,https://www.nationalhardwareshow.com/,DM,Reliance Controls Corp,W1901,,,,,,,en-US,,,,
National Hardware Show 2021,10/21/2021,2021,https://www.nationalhardwareshow.com/,DM,Renee's Garden Seeds,W4151,,,,,,,en-US,,,,
National Hardware Show 2021,10/21/2021,2021,https://www.nationalhardwareshow.com/,DM,RETYZ,W2301D,,,,,,,en-US,,,,
National Hardware Show 2021,10/21/2021,2021,https://www.nationalhardwareshow.com/,DM,Rhino Cart,W2501C,,,,,,,en-US,,,,
National Hardware Show 2021,10/21/2021,2021,https://www.nationalhardwareshow.com/,DM,Rhino Seed & Turf Supply,W4145,,http://www.rhinoseed.com,sales@rhinoseed.com,800-482-3130,,,en-US,"Fertilizers | Lawn & Garden Products | Chemicals (weed killer, fruit tree sprays, etc.) | Deer/Wildlife Control | Fertilizer | Landscaping Supplies & Equipment | Seed, Bulbs, Plant Starters",,,"Rhino Seed has been family-owned and operated since 1930. We invented Lawn Patch in the 1980’s and approximately 15 years ago, we became a manufacturer of erosion control products. We have pioneered a line of EZ Straw® products – EZ Straw® Erosion Blanket, EZ Straw® Mulch w/ Tack, EZ Straw® Lawn Repair Mix, EZ Straw® Wildflowers, and EZ Straw® Just Straw and our two newest products, EZ Straw® Deer Forage, and EZ Straw® Decorative Bale.  Our products are leading solutions in the industry, and they are also earth-friendly all-natural products."
National Hardware Show 2021,10/21/2021,2021,https://www.nationalhardwareshow.com/,DM,Right On Bracket,W1128,,,,,,,en-US,,,,
National Hardware Show 2021,10/21/2021,2021,https://www.nationalhardwareshow.com/,DM,Ring and Rod,W2510D,,,,,,,en-US,,,,
National Hardware Show 2021,10/21/2021,2021,https://www.nationalhardwareshow.com/,DM,Rite In The Rain,W1339,,,,,,,en-US,,,,
National Hardware Show 2021,10/21/2021,2021,https://www.nationalhardwareshow.com/,DM,Rizhao J&J Manufacturing Co. Ltd,W3671,,,,,,,en-US,,,,
National Hardware Show 2021,10/21/2021,2021,https://www.nationalhardwareshow.com/,DM,Rizhao Valen Industrial Co,W979,,,,,,,en-US,,,,
National Hardware Show 2021,10/21/2021,2021,https://www.nationalhardwareshow.com/,DM,RMX Industries,W928,,,,,,,en-US,,,,
National Hardware Show 2021,10/21/2021,2021,https://www.nationalhardwareshow.com/,DM,Rocky Mountain Twist,W1345,,,,,,,en-US,,,,
National Hardware Show 2021,10/21/2021,2021,https://www.nationalhardwareshow.com/,DM,Rollerbagger Product & Services LLC,W2514C,,https://www.rollerbagger.com,sales@rollerbagger.com,908-280-4428,,,en-US,,,Roller Dave The RollerBagger,"RollerBagger Products & Services, LLC is a new innovative startup paint applicator tool company. Our company develops and markets paint tools for the painter who desires quality and affordability.  Currently, The RollerBagger is available at Lowes.com and Walmart.com.  We look forward to meeting great retailers to offer The RollerBagger in their retail stores."
National Hardware Show 2021,10/21/2021,2021,https://www.nationalhardwareshow.com/,DM,RotoShovel,W3874,,,,,,,en-US,,,,
National Hardware Show 2021,10/21/2021,2021,https://www.nationalhardwareshow.com/,DM,RTS Companies,W3737,,,,,,,en-US,,,,
National Hardware Show 2021,10/21/2021,2021,https://www.nationalhardwareshow.com/,DM,Rubber-Cal,W4123,,,,,,,en-US,,,,
National Hardware Show 2021,10/21/2021,2021,https://www.nationalhardwareshow.com/,DM,Rudolph Foods Co.,OUTDR5725,,,,,,,en-US,,,,
National Hardware Show 2021,10/21/2021,2021,https://www.nationalhardwareshow.com/,DM,Rustic Arrow,W3844,,,,,,,en-US,,,,
National Hardware Show 2021,10/21/2021,2021,https://www.nationalhardwareshow.com/,DM,RZ Mask,W933,,,,,,,en-US,,,,
National Hardware Show 2021,10/21/2021,2021,https://www.nationalhardwareshow.com/,DM,S.I.T. Inc.,W3539,,,,,,,en-US,,,,
National Hardware Show 2021,10/21/2021,2021,https://www.nationalhardwareshow.com/,DM,SA Consumer Products - Sports Afield,W1222,,,,,,,en-US,,,,
National Hardware Show 2021,10/21/2021,2021,https://www.nationalhardwareshow.com/,DM,Safetyweb Product Sales LLC,W2311C,,,,,,,en-US,,,,
National Hardware Show 2021,10/21/2021,2021,https://www.nationalhardwareshow.com/,DM,SafeWorld International,W954,,,,,,,en-US,,,,
National Hardware Show 2021,10/21/2021,2021,https://www.nationalhardwareshow.com/,DM,Sainty LA,W1716,,,,,,,en-US,,,,
National Hardware Show 2021,10/21/2021,2021,https://www.nationalhardwareshow.com/,DM,Samson Outdoor,OUTDR5423,,,,,,,en-US,,,,
National Hardware Show 2021,10/21/2021,2021,https://www.nationalhardwareshow.com/,DM,"Sanz Hermanos Valencia, slu",W3728,,,,,,,en-US,,,,
National Hardware Show 2021,10/21/2021,2021,https://www.nationalhardwareshow.com/,DM,SAS Safety Corp,W923,,,,,,,en-US,,,,
National Hardware Show 2021,10/21/2021,2021,https://www.nationalhardwareshow.com/,DM,Scan Source Intl LLC,W1752,,,,,,,en-US,,,,
National Hardware Show 2021,10/21/2021,2021,https://www.nationalhardwareshow.com/,DM,"Schneider Laboratories Global, Inc.",W1337,,,,,,,en-US,,,,
National Hardware Show 2021,10/21/2021,2021,https://www.nationalhardwareshow.com/,DM,Scientific Models Inc./Micro-Mark,W1633,,,,,,,en-US,,,,
National Hardware Show 2021,10/21/2021,2021,https://www.nationalhardwareshow.com/,DM,Scosche Industries,W4257,,https://www.scosche.com/,,,,,en-US,,,,"The past year has shown how much we rely on our devices. Scosche offers innovative solutions that keep them charged and secure, like: fast wireless charging mounts, modular charging systems, MagSafe® compatible and cup-holder phone mounts, small but mighty Power Delivery Chargers, and our latest portable health and safety devices. Scosche MagicMount™ is rated (by NPD Group, Inc.) #1 Mount Brand in the U.S. & Canada, Jan. 2017 to Dec. 2020."
National Hardware Show 2021,10/21/2021,2021,https://www.nationalhardwareshow.com/,DM,"Scrub Daddy, Inc.",W4258,,,,,,,en-US,,,,
National Hardware Show 2021,10/21/2021,2021,https://www.nationalhardwareshow.com/,DM,Seal-Once,W748,,,,,,,en-US,,,,
National Hardware Show 2021,10/21/2021,2021,https://www.nationalhardwareshow.com/,DM,Security Equipment Corp,W4567,,,,,,,en-US,,,,
National Hardware Show 2021,10/21/2021,2021,https://www.nationalhardwareshow.com/,DM,Seirus Innovation,W1854,,,,,,,en-US,,,,
National Hardware Show 2021,10/21/2021,2021,https://www.nationalhardwareshow.com/,DM,Selectone Paints Inc / Formula A,W848,,,,,,,en-US,,,,
National Hardware Show 2021,10/21/2021,2021,https://www.nationalhardwareshow.com/,DM,Sencentric,W545,,,,,,,en-US,,,,
National Hardware Show 2021,10/21/2021,2021,https://www.nationalhardwareshow.com/,DM,Seymour of Sycamore Inc,W735,,,,,,,en-US,,,,
National Hardware Show 2021,10/21/2021,2021,https://www.nationalhardwareshow.com/,DM,SFA Companies,W1423,,,,,,,en-US,,,,
National Hardware Show 2021,10/21/2021,2021,https://www.nationalhardwareshow.com/,DM,Shadow Works Group,W1731,,,,,,,en-US,,,,
National Hardware Show 2021,10/21/2021,2021,https://www.nationalhardwareshow.com/,DM,Shandong Jinguan Net Co,"12863, 6857",,,,,,,en-US,,,,
National Hardware Show 2021,10/21/2021,2021,https://www.nationalhardwareshow.com/,DM,"Shanghai Easy-Use Tools Enterprise Co.,Ltd",W1649,,,,,,,en-US,,,,
National Hardware Show 2021,10/21/2021,2021,https://www.nationalhardwareshow.com/,DM,"SHANGHAI HAUTINE IMP. & EXP. CO., LTD",W635,,,,,,,en-US,,,,
National Hardware Show 2021,10/21/2021,2021,https://www.nationalhardwareshow.com/,DM,"Shanghai Linsky Co., Ltd.",W4432,,,,,,,en-US,,,,
National Hardware Show 2021,10/21/2021,2021,https://www.nationalhardwareshow.com/,DM,Shanghai Metals & Minerals,W1257,,,,,,,en-US,,,,
National Hardware Show 2021,10/21/2021,2021,https://www.nationalhardwareshow.com/,DM,Shanghai Olive Industries,W406,,,,,,,en-US,,,,
National Hardware Show 2021,10/21/2021,2021,https://www.nationalhardwareshow.com/,DM,"SHANGHAI QIANJUN TOOLS CO.,LTD.",W1467,,,,,,,en-US,,,,
National Hardware Show 2021,10/21/2021,2021,https://www.nationalhardwareshow.com/,DM,"Shanghai Worth Garden Products Co., Ltd",W3830,,,,,,,en-US,,,,
National Hardware Show 2021,10/21/2021,2021,https://www.nationalhardwareshow.com/,DM,Shanghai Yueda Nails Industrial,W1269,,,,,,,en-US,,,,
National Hardware Show 2021,10/21/2021,2021,https://www.nationalhardwareshow.com/,DM,"Shark Industries, LLC",W2305D,,,,,,,en-US,,,,
National Hardware Show 2021,10/21/2021,2021,https://www.nationalhardwareshow.com/,DM,Sharpal Inc.,W1934,,,,,,,en-US,,,,
National Hardware Show 2021,10/21/2021,2021,https://www.nationalhardwareshow.com/,DM,SHAVIV USA,W1935,,,,,,,en-US,,,,
National Hardware Show 2021,10/21/2021,2021,https://www.nationalhardwareshow.com/,DM,"Shenzhen DEWE Technology Co., Limited",W101,,,,,,,en-US,,,,
National Hardware Show 2021,10/21/2021,2021,https://www.nationalhardwareshow.com/,DM,"Shenzhen Sunwell Industrial Co., Ltd.",W3659,,,,,,,en-US,,,,
National Hardware Show 2021,10/21/2021,2021,https://www.nationalhardwareshow.com/,DM,"Shenzhen Wision Furniture Industrial Co., Ltd.",W3455,,,,,,,en-US,,,,
National Hardware Show 2021,10/21/2021,2021,https://www.nationalhardwareshow.com/,DM,Shepherd Hardware Products Inc,W2013,,,,,,,en-US,,,,
National Hardware Show 2021,10/21/2021,2021,https://www.nationalhardwareshow.com/,DM,Shinerich Industrial Ltd.,W3655,,,,,,,en-US,,,,
National Hardware Show 2021,10/21/2021,2021,https://www.nationalhardwareshow.com/,DM,Shipper's Advocate Inc.,W1331,,https://shippersadvocate.com,sales@shippersadvocate.com,484-948-1980,,,en-US,Freight/Shipping/Logistics,,,"Parcel and freight, domestic and international, Shipper’s Advocate's team of former industry “insiders” uses its expertise to: 1) Get refunds and credits applied to your carrier accounts, immediately reducing your shipping costs; 2) Optimize your carrier pricing to generate significant transportation savings that improve your bottom line. We developed the rules and models the carriers use to maximize their profits on your shipping. Now we turn the tables on the carriers and put this knowledge to work maximizing savings for you."
National Hardware Show 2021,10/21/2021,2021,https://www.nationalhardwareshow.com/,DM,Shoreview Advisors,W837,,,,,,,en-US,,,,
National Hardware Show 2021,10/21/2021,2021,https://www.nationalhardwareshow.com/,DM,Shoulder Dolly/Nielsen Products,W1223,,https://shoulderdolly.com/,sasha@nielsenproductsllc.com,+1303.243.2086,,,en-US,Builder Tools & Instruments | DIY Products | Hand Tools & Accessories | Material Handling | Storage & Organization | Appliances | As Seen On TV | Garage/Outdoor Storage | Garden Tools & Supplies | Tool Boxes & Storage,,Shoulder Dolly,"Nielsen Products, LLC. designs, develops, and distributes unique and diversified hardware product lines. Our mission is to provide innovative solutions to make certain working tasks easier.   We strive to meet the needs of both the consumer and business markets by providing products that are high quality and offered at a reasonable price.  We value customer service and always endeavor to deliver excellence and attentiveness to both our business partners and end-users."
National Hardware Show 2021,10/21/2021,2021,https://www.nationalhardwareshow.com/,DM,SHOWA Group,W1013,,,,,,,en-US,,,,
National Hardware Show 2021,10/21/2021,2021,https://www.nationalhardwareshow.com/,DM,Shurtech Brands LLC,W807,,https://www.shurtapetech.com,,440.937.7000,,,en-US,,,DUCK® BRAND,
National Hardware Show 2021,10/21/2021,2021,https://www.nationalhardwareshow.com/,DM,Sign Studio,W2608B,,,,,,,en-US,,,,
National Hardware Show 2021,10/21/2021,2021,https://www.nationalhardwareshow.com/,DM,Sika Corp,W934,,,gildea.james@us.sika.com,,,,en-US,,,,"Sika Corporation is a global leader with over 100 years of experience in building materials and restoration technologies. Sika’s high performance, seamless floor and wall systems are  trusted and relied upon by designers and facility managers for their outstanding performance, durability, easy maintenance and aesthetic enhancement across the pharmaceutical industry in a wide range of applications."
National Hardware Show 2021,10/21/2021,2021,https://www.nationalhardwareshow.com/,DM,Simplay3,W3723,,,,,,,en-US,,,,
National Hardware Show 2021,10/21/2021,2021,https://www.nationalhardwareshow.com/,DM,Simple Product Designs,W2419C,,https://quickcardry.com/,support@quickcardry.com,5168515660,,,en-US,,,Quick Car Dry®,"A New Way To Dry Your Car 75% Faster Without Creating Water Spots

The Quick Car Dry Kit is brand new to the market and is unlike every other kind of car washing equipment currently available.

In fact, this is the first invention that allows you to dry the top of all vehicles - such as an SUV - Without the danger of standing on a ladder, step stool, or bucket. It consists of an adjustable multi-purpose pole with multiple attachments, including the Quick Car Dry microfiber cloth–that allows you to dry the top of your car, including your hood and trunk, in about 30 seconds."
National Hardware Show 2021,10/21/2021,2021,https://www.nationalhardwareshow.com/,DM,Simpson Strong-Tie,W1823,,,,,,,en-US,,,,
National Hardware Show 2021,10/21/2021,2021,https://www.nationalhardwareshow.com/,DM,Sinolight International Holdings Corporation,"6, 3019, 8657, 6959, W4357",,,,,,,en-US,,,,
National Hardware Show 2021,10/21/2021,2021,https://www.nationalhardwareshow.com/,DM,"Skell, Inc. - Bug-A-Salt",W4061,,,,,,,en-US,,,,
National Hardware Show 2021,10/21/2021,2021,https://www.nationalhardwareshow.com/,DM,Skidger,W2604C,,,,,,,en-US,,,,
National Hardware Show 2021,10/21/2021,2021,https://www.nationalhardwareshow.com/,DM,SKM Industries Inc,W937,,https://www.skmproducts.com,sales@skmproducts.com,570.383.3062,,,en-US,,,,"Small innovative minority/woman owned manufacturing company, established in 1980 in Olyphant, PA. We are one of the country's premier manufacturers of quality marking products, all USA made. Our mission is to create the best marking, screen, office & janitorial cleaning products that are both manufactured responsibly and environmentally friendly. We can mobilize the right people, skills & technologies to provide high performance consumer & industrial products."
National Hardware Show 2021,10/21/2021,2021,https://www.nationalhardwareshow.com/,DM,"Skyline Brands, Inc",W4355,,,,,,,en-US,,,,
National Hardware Show 2021,10/21/2021,2021,https://www.nationalhardwareshow.com/,DM,Skyline USA Inc/ Guard Dog Security,W1101,,,,,,,en-US,,,,
National Hardware Show 2021,10/21/2021,2021,https://www.nationalhardwareshow.com/,DM,Smith's Consumer Products Inc.,W2031,,,,,,,en-US,,,,
National Hardware Show 2021,10/21/2021,2021,https://www.nationalhardwareshow.com/,DM,Smokehouse Products,OUTDR5522,,,,,,,en-US,,,,
National Hardware Show 2021,10/21/2021,2021,https://www.nationalhardwareshow.com/,DM,Solehre Brothers Industries,W1029,,,,,,,en-US,,,,
National Hardware Show 2021,10/21/2021,2021,https://www.nationalhardwareshow.com/,DM,Solo Inc,W3545,,,,,,,en-US,,,,
National Hardware Show 2021,10/21/2021,2021,https://www.nationalhardwareshow.com/,DM,Songbird Essentials,W3028,,http://www.songbirdessentials.com,sales@songbirdessentials.com,800.269.4450,,,en-US,Bird Feeders & Food | Outdoor Art & Decor | Statuaries/Birdbaths | Thermometers/Weather Instruments,,Songbird Essentials,"Songbird Essentials wild bird care products create memories. Our unique, functional and sometimes whimsical items attract birds and, with proper use, keep them coming back. We cover the gamut - feeders, houses, accessories, bird baths with specialty items for hummingbirds, orioles, bluebirds,  cardinals, and, yes, even squirrels. We complement our birding selection with top-selling decorative chimes, watering cans, thermometers and rain gauges. Everything can ship together, making it easy for the retailer."
National Hardware Show 2021,10/21/2021,2021,https://www.nationalhardwareshow.com/,DM,Southwestern Creations,W3977,,,,,,,en-US,,,,
National Hardware Show 2021,10/21/2021,2021,https://www.nationalhardwareshow.com/,DM,Spark Innovation,W859,,,,,,,en-US,,,,
National Hardware Show 2021,10/21/2021,2021,https://www.nationalhardwareshow.com/,DM,Spartan Mosquito/Durvet Inc.,W3527,,,,,,,en-US,,,,
National Hardware Show 2021,10/21/2021,2021,https://www.nationalhardwareshow.com/,DM,Spectrum Brands - Home & Garden,W3023,,,,,,,en-US,,,,
National Hardware Show 2021,10/21/2021,2021,https://www.nationalhardwareshow.com/,DM,"Spectrum Custom Molds & Manufacturing, Inc.",W4456,,,,,,,en-US,,,,
National Hardware Show 2021,10/21/2021,2021,https://www.nationalhardwareshow.com/,DM,Spider Holster,W1216,,,,,,,en-US,,,,
National Hardware Show 2021,10/21/2021,2021,https://www.nationalhardwareshow.com/,DM,Spoontiques Inc,W3961,,,,,,,en-US,,,,
National Hardware Show 2021,10/21/2021,2021,https://www.nationalhardwareshow.com/,DM,Sprayer Saver,W2205C,,,,,,,en-US,,,,
National Hardware Show 2021,10/21/2021,2021,https://www.nationalhardwareshow.com/,DM,"Stable the Table, LLC",W2600D,,https://www.StableTheTable.com,gheege@StableTheTable.com,470-398-0748,,,en-US,,,Stable the Table,"Stable the Table, LLC manufactures and distributes Stable The Table, a brand new consumer product that easily fixes wobbly tables.  In a recent consumer market research survey, over 60% of households said they currently had a wobbly table, and nearly half of those folks do not have a solution.  Additionally when presented with Stable The Table, 66% said they were interested in the product and 9 out of 10 found it to be fairly priced or a great value.  Check us out!"
National Hardware Show 2021,10/21/2021,2021,https://www.nationalhardwareshow.com/,DM,STAM METALURGICA LTDA,W1256,,https://www.stam.com.br,joelzas@stam.com.br,+55 22 25251017,,,en-US,,,STAM,"We produce door locks and padlocks , our main raw material is Zinc Alloy"
National Hardware Show 2021,10/21/2021,2021,https://www.nationalhardwareshow.com/,DM,Stand Out Display Company,2424,,,,,,,en-US,,,,
National Hardware Show 2021,10/21/2021,2021,https://www.nationalhardwareshow.com/,DM,"Standard Paints Inc, Wood Defender",W956,,,,,,,en-US,,,,
National Hardware Show 2021,10/21/2021,2021,https://www.nationalhardwareshow.com/,DM,Standlee Premium Western Forage,W3959,,,,,,,en-US,,,,
National Hardware Show 2021,10/21/2021,2021,https://www.nationalhardwareshow.com/,DM,Stanley Black and Decker,"7226, W2017",,,,,,,en-US,,,,
National Hardware Show 2021,10/21/2021,2021,https://www.nationalhardwareshow.com/,DM,Star Brite,W3827,,http://www.starbrite.com,StarbriteGeneral@starbrite.com,800-327-8583,,,en-US,,,,
National Hardware Show 2021,10/21/2021,2021,https://www.nationalhardwareshow.com/,DM,Starmatrix Group Inc.,"W3771, W873",,,,,,,en-US,,,,
National Hardware Show 2021,10/21/2021,2021,https://www.nationalhardwareshow.com/,DM,StealthMounts Limited,W2211C,,,,,,,en-US,,,,
National Hardware Show 2021,10/21/2021,2021,https://www.nationalhardwareshow.com/,DM,Stinger Brush Co,W2515C,,https://stingerbrush.com,info@stingerbrush.com,888-49-STING,,,en-US,,,,
National Hardware Show 2021,10/21/2021,2021,https://www.nationalhardwareshow.com/,DM,Striker Concepts,W2027,,,,,,,en-US,Flashlights/Batteries | Light Bulbs/LED Light Bulbs/Night Lights | Lawn & Garden Products | Automotive Accessories | Builder Tools & Instruments | Camping & Picnic Supplies | Gloves | Home Organization/Storage/Racks,,STKR Concepts,
National Hardware Show 2021,10/21/2021,2021,https://www.nationalhardwareshow.com/,DM,Stryve Foods,W1534,,,,,,,en-US,,,,
National Hardware Show 2021,10/21/2021,2021,https://www.nationalhardwareshow.com/,DM,SUMEC Hardware & Tools Ltd.,W3137,,,,,,,en-US,,,,
National Hardware Show 2021,10/21/2021,2021,https://www.nationalhardwareshow.com/,DM,Summit Chemical,W3727,,,,,,,en-US,,,,
National Hardware Show 2021,10/21/2021,2021,https://www.nationalhardwareshow.com/,DM,SUN-IL INCORPORATION,W4275,,,,,,,en-US,,,,
National Hardware Show 2021,10/21/2021,2021,https://www.nationalhardwareshow.com/,DM,Sunway Industries Inc.,W1456,,,,,,,en-US,,,,
National Hardware Show 2021,10/21/2021,2021,https://www.nationalhardwareshow.com/,DM,Sunway LTD Guangdong/Sunway Industrial Limited Zhaoqing,W3956,,,,,,,en-US,,,,
National Hardware Show 2021,10/21/2021,2021,https://www.nationalhardwareshow.com/,DM,Super Champion Machinery & Electrical Equipment Co. Ltd.,W1479,,,,,,,en-US,,,,
National Hardware Show 2021,10/21/2021,2021,https://www.nationalhardwareshow.com/,DM,Super EZ Work Tool Inc.,W3979,,,,,,,en-US,,,,
National Hardware Show 2021,10/21/2021,2021,https://www.nationalhardwareshow.com/,DM,Super Glue Corp,W706,,,,,,,en-US,,,,
National Hardware Show 2021,10/21/2021,2021,https://www.nationalhardwareshow.com/,DM,Super Remover,W757,,,,,,,en-US,,,,
National Hardware Show 2021,10/21/2021,2021,https://www.nationalhardwareshow.com/,DM,Super-Fit Inc.,W1454,,,,,,,en-US,,,,
National Hardware Show 2021,10/21/2021,2021,https://www.nationalhardwareshow.com/,DM,SBD Pumps,W435,,,,,,,en-US,,,Superior Pump,
National Hardware Show 2021,10/21/2021,2021,https://www.nationalhardwareshow.com/,DM,Superior Pump Company,W439,,,,,,,en-US,,,,
National Hardware Show 2021,10/21/2021,2021,https://www.nationalhardwareshow.com/,DM,Superl Technology Limited,W4479,,,,,,,en-US,,,,
National Hardware Show 2021,10/21/2021,2021,https://www.nationalhardwareshow.com/,DM,Sure Can USA,W1550,,,,,,,en-US,,,,
National Hardware Show 2021,10/21/2021,2021,https://www.nationalhardwareshow.com/,DM,Surebonder/FPC Corp,W1122,,,,,,,en-US,,,,
National Hardware Show 2021,10/21/2021,2021,https://www.nationalhardwareshow.com/,DM,Surefire LLC,W1931,,,,,,,en-US,,,,
National Hardware Show 2021,10/21/2021,2021,https://www.nationalhardwareshow.com/,DM,Surelock Security,W2109,,,,,,,en-US,,,,
National Hardware Show 2021,10/21/2021,2021,https://www.nationalhardwareshow.com/,DM,Surface Shields/Ram Board,W1560,,,,,,,en-US,,,,
National Hardware Show 2021,10/21/2021,2021,https://www.nationalhardwareshow.com/,DM,"Suzhou Dongrun Ladder Co., Ltd.",W852,,,,,,,en-US,,,,
National Hardware Show 2021,10/21/2021,2021,https://www.nationalhardwareshow.com/,DM,"Suzhou ELE Mfg Co., Ltd.",W648,,,,,,,en-US,,,,
National Hardware Show 2021,10/21/2021,2021,https://www.nationalhardwareshow.com/,DM,"Suzhou Liangming Power Tools Co., LTD.",W1353,,,,,,,en-US,,,,
National Hardware Show 2021,10/21/2021,2021,https://www.nationalhardwareshow.com/,DM,Suzhou Xindadi Hardware Co. LCD,W1523,,,,,,,en-US,,,,
National Hardware Show 2021,10/21/2021,2021,https://www.nationalhardwareshow.com/,DM,Suzie's Pet Treats,W3809,,,,,,,en-US,,,,
National Hardware Show 2021,10/21/2021,2021,https://www.nationalhardwareshow.com/,DM,Sweet Heat Reflectors,"OUTDR5432, W2614C",,,,,,,en-US,,,,
National Hardware Show 2021,10/21/2021,2021,https://www.nationalhardwareshow.com/,DM,"Swift Response, LLC - Flex Seal Family of Products",W739,,,,,,,en-US,,,,
National Hardware Show 2021,10/21/2021,2021,https://www.nationalhardwareshow.com/,DM,"Swift Straw III, LLC",W4030,,,,,,,en-US,,,,
National Hardware Show 2021,10/21/2021,2021,https://www.nationalhardwareshow.com/,DM,Tabletizer,W2515B,,,,,,,en-US,,,,
National Hardware Show 2021,10/21/2021,2021,https://www.nationalhardwareshow.com/,DM,"Tahsiang Industry Co., Ltd.",W1072,,,,,,,en-US,,,,
National Hardware Show 2021,10/21/2021,2021,https://www.nationalhardwareshow.com/,DM,TAIAN BEST CORPORATION LTD,W1149,,,,,,,en-US,,,,
National Hardware Show 2021,10/21/2021,2021,https://www.nationalhardwareshow.com/,DM,Taizhou Baoli Leisure Products Co. Ltd.,10533,,,,,,,en-US,,,,
National Hardware Show 2021,10/21/2021,2021,https://www.nationalhardwareshow.com/,DM,"TAIZHOU CHUANGXIN INDUSTRIAL TRADING CO.,LTD.",W4131,,,,,,,en-US,,,,
National Hardware Show 2021,10/21/2021,2021,https://www.nationalhardwareshow.com/,DM,"Taizhou Kaifeng Plastic & Steel Co., Ltd.",W3579,,,,,,,en-US,,,,
National Hardware Show 2021,10/21/2021,2021,https://www.nationalhardwareshow.com/,DM,"Taizhou Luxi Tools Co.,Ltd.",W1357,,,,,,,en-US,,,,
National Hardware Show 2021,10/21/2021,2021,https://www.nationalhardwareshow.com/,DM,"Taizhou Shengerda Plastic Co., Ltd.",W4356,,,,,,,en-US,,,,
National Hardware Show 2021,10/21/2021,2021,https://www.nationalhardwareshow.com/,DM,"Taizhou Zhengli Electric Motor Co., Ltd.",W1575,,,,,,,en-US,,,,
National Hardware Show 2021,10/21/2021,2021,https://www.nationalhardwareshow.com/,DM,Tarter Farm and Ranch,W3860,,,,,,,en-US,,,,
National Hardware Show 2021,10/21/2021,2021,https://www.nationalhardwareshow.com/,DM,"Techko Kobot, Inc.",W4048,,https://techkogroup.com/,info@techkogroup.com,949-380-7300,,,en-US,Garden Decor | Holiday/Seasonal Accessories | Outdoor Lighting,,Techko,"Techko Kobot established in 1982 from consumer telephone, to producing a DIY Security product under the brand Techko. Later expand into Paper Shredder, Office Equipment, Robotic Vacuum (Kobot) and in 2020 with new product line in Solar Lighting. Our products are in many national retailers with impeccable track records. We believe that going green is the sustainable future and has the potential to expand and improve in features. Techko stands behind creating high quality products at affordable prices that everyday consumers can enjoy."
National Hardware Show 2021,10/21/2021,2021,https://www.nationalhardwareshow.com/,DM,Technical Consumer Products Inc,W539,,https://www.tcpi.com/,customerservice@tcpi.com,8003241496,,,en-US,Eco-friendly | Energy Efficient | Point of Sale/Impulse Items,,TCP LED Lamps and Fixtures,"For over 20 years, TCP has been designing, developing and delivering energy-efficient lighting into the market.  Thanks to our cutting-edge technology and manufacturing expertise, we have shipped billions of high quality lighting products.  With TCP, you can count on a lighting product that is designed to meet the needs of the market - that transforms your surroundings and envelopes you in warmth - lighting that generates beauty with every flip of the switch."
National Hardware Show 2021,10/21/2021,2021,https://www.nationalhardwareshow.com/,DM,Technoflex,W1039,,,,,,,en-US,,,,
National Hardware Show 2021,10/21/2021,2021,https://www.nationalhardwareshow.com/,DM,TECHNOFORM INDUSTRIES LTÉE,W2655,,,,,,,en-US,,,,
National Hardware Show 2021,10/21/2021,2021,https://www.nationalhardwareshow.com/,DM,Tekton,W2115,,,,,,,en-US,,,,
National Hardware Show 2021,10/21/2021,2021,https://www.nationalhardwareshow.com/,DM,Telebrands Corp,W4367,,,,,,,en-US,,,,
National Hardware Show 2021,10/21/2021,2021,https://www.nationalhardwareshow.com/,DM,Tenax,W3926,,http://www.tenaxus.com,info@tenax.com,410-522-7000,,,en-US,,,Tenax Corporation,"Tenax Corporation is a U.S.  manufacturer of plastic fence, nets, and grids.  Our products are used for a variety of applications and markets including DIY, Lawn & Garden, Construction, Farm & Ranch and more.  Product offerings include trellis net, safety fence, predator control netting, erosion control fence, ground protection, and others.  All products are made using select raw materials resulting in high quality  nets offering reliable performance and durability."
National Hardware Show 2021,10/21/2021,2021,https://www.nationalhardwareshow.com/,DM,Territory,W3811,,,,,,,en-US,,,,
National Hardware Show 2021,10/21/2021,2021,https://www.nationalhardwareshow.com/,DM,The Brassman India,W1709,,,,,,,en-US,,,,
National Hardware Show 2021,10/21/2021,2021,https://www.nationalhardwareshow.com/,DM,The Croydex Company Ltd,W301,,,,,,,en-US,,,,
National Hardware Show 2021,10/21/2021,2021,https://www.nationalhardwareshow.com/,DM,"The Equipment Lock Company, LLC",W2006,,,,,,,en-US,,,,
National Hardware Show 2021,10/21/2021,2021,https://www.nationalhardwareshow.com/,DM,The Fountainhead Group,11029,,,,,,,en-US,,,,
National Hardware Show 2021,10/21/2021,2021,https://www.nationalhardwareshow.com/,DM,"The Good Earth Organics, Inc.",W3628,,,,,,,en-US,,,,
National Hardware Show 2021,10/21/2021,2021,https://www.nationalhardwareshow.com/,DM,The HC Companies,W4104,,,,,,,en-US,,,,
National Hardware Show 2021,10/21/2021,2021,https://www.nationalhardwareshow.com/,DM,The Kissner Group,W3932,,,,,,,en-US,,,,
National Hardware Show 2021,10/21/2021,2021,https://www.nationalhardwareshow.com/,DM,"The Monkey Hook, LLC (K-Co Products, LLC",W1236,,,,,,,en-US,,,,
National Hardware Show 2021,10/21/2021,2021,https://www.nationalhardwareshow.com/,DM,The Paint Organizer,W926,,,,,,,en-US,,,,
National Hardware Show 2021,10/21/2021,2021,https://www.nationalhardwareshow.com/,DM,The Pecan Nation,W1528,,,,,,,en-US,,,,
National Hardware Show 2021,10/21/2021,2021,https://www.nationalhardwareshow.com/,DM,"Bihlerflex, LLC",W1807,,https://www.theperfectbungee.com,sales@bihlerflex.com,9083299136,,,en-US,,,The Perfect Bungee,
National Hardware Show 2021,10/21/2021,2021,https://www.nationalhardwareshow.com/,DM,Thermwell Products Co Inc,W2234,,,,,,,en-US,,,,
National Hardware Show 2021,10/21/2021,2021,https://www.nationalhardwareshow.com/,DM,ThorWorks Industries,W645,,,,,,,en-US,,,,
National Hardware Show 2021,10/21/2021,2021,https://www.nationalhardwareshow.com/,DM,Tianjin Best Harvest Intl. Trade Co. Ltd.,W4035,,,,,,,en-US,,,,
National Hardware Show 2021,10/21/2021,2021,https://www.nationalhardwareshow.com/,DM,Tico Tech Inc.,W1455,,,,,,,en-US,,,,
National Hardware Show 2021,10/21/2021,2021,https://www.nationalhardwareshow.com/,DM,Tidy Hook,W2409D,,,,,,,en-US,,,,
National Hardware Show 2021,10/21/2021,2021,https://www.nationalhardwareshow.com/,DM,Toford Plastic Mfg. Corp,W1004,,,,,,,en-US,,,,
National Hardware Show 2021,10/21/2021,2021,https://www.nationalhardwareshow.com/,DM,Tomorrows Tools,W827,,,,,,,en-US,,,,
National Hardware Show 2021,10/21/2021,2021,https://www.nationalhardwareshow.com/,DM,Top Patent,W1526,,,,,,,en-US,,,,
National Hardware Show 2021,10/21/2021,2021,https://www.nationalhardwareshow.com/,DM,Tough Skin International Inc,W767,,https://toughskinproducts.com,info@toughskinproducts.com,1-888-444-5191,,,en-US,"Coatings (Roof, Basement, Concrete, Garage Floor) | Eco-friendly | Patch & Repair | Sealants/Caulks/Putty",,,"Our products are TOUGH! TOUGH SKIN SUPER CLEAR, SUPER COOL, SUPER COAT waterproof coatings as well as our MAX MUSCLE Mess Remover cleaner, have an excellent following by waterproofing and roofing professionals, building owners and managers as well as home owners. Our waterproofing products are RUBBER BASED which are superior to inferior water based waterproofers. Our Industrial strength cleaner removes asphalt stains and engine grime with ease. All are non-flammable, eco-friendly and VOC Free!"
National Hardware Show 2021,10/21/2021,2021,https://www.nationalhardwareshow.com/,DM,ToySmith,W3822,,,,,,,en-US,,,,
National Hardware Show 2021,10/21/2021,2021,https://www.nationalhardwareshow.com/,DM,Traeger Wood Fired Grills,OUTDR5507,,,,,,,en-US,,,,
National Hardware Show 2021,10/21/2021,2021,https://www.nationalhardwareshow.com/,DM,Traxion LLC,W2301B,,,,,,,en-US,,,,
National Hardware Show 2021,10/21/2021,2021,https://www.nationalhardwareshow.com/,DM,Tree Hugger Sprinklers LLC,W2409A,,https://www.treehuggersprinkers.com,bob@treehuggersprinklers.com,2819604421,,,en-US,,,,Tree Hugger Sprinklers are the ultimate watering devise for your newly planted or established trees and shrubs. Our unique deign allows for 360 degree watering in one easy application. With our adjustable valve you can direct the water to your tree or shrubs targeted saturation zones. they come in three sizes will accommodate up to a 15 inch diameter tree trunk.
National Hardware Show 2021,10/21/2021,2021,https://www.nationalhardwareshow.com/,DM,Tree Nest,W4124,,,,,,,en-US,,,,
National Hardware Show 2021,10/21/2021,2021,https://www.nationalhardwareshow.com/,DM,Trimaco Inc.,W939,,,,,,,en-US,,,,
National Hardware Show 2021,10/21/2021,2021,https://www.nationalhardwareshow.com/,DM,"Tru Fuel/Calumet Branded Products, LLC",W4005,,,,,,,en-US,,,,
National Hardware Show 2021,10/21/2021,2021,https://www.nationalhardwareshow.com/,DM,True Value Corp,W2112,,https://www.truevaluecompany.com,stephen.burns@truevalue.com,,,,en-US,,,,
National Hardware Show 2021,10/21/2021,2021,https://www.nationalhardwareshow.com/,DM,Tub-O-Towels,W905,,,,,,,en-US,,,Tub O' Towels,
National Hardware Show 2021,10/21/2021,2021,https://www.nationalhardwareshow.com/,DM,Tufx-Fort Manufacturing Inc.,W1927,,,,,,,en-US,,,,
National Hardware Show 2021,10/21/2021,2021,https://www.nationalhardwareshow.com/,DM,Yardbird Outside,W3813,,,,,,,en-US,,,,
National Hardware Show 2021,10/21/2021,2021,https://www.nationalhardwareshow.com/,DM,Turbo Blue Torch Lighters,W1433,,,,,,,en-US,,,,
National Hardware Show 2021,10/21/2021,2021,https://www.nationalhardwareshow.com/,DM,TW Products,W1230,,,,,,,en-US,,,,
National Hardware Show 2021,10/21/2021,2021,https://www.nationalhardwareshow.com/,DM,Twist and Seal,W423,,,,,,,en-US,,,,
National Hardware Show 2021,10/21/2021,2021,https://www.nationalhardwareshow.com/,DM,TwistedVise LLC,W2511B,,,,,,,en-US,,,,
National Hardware Show 2021,10/21/2021,2021,https://www.nationalhardwareshow.com/,DM,U-Haul International,W1211,,,,,,,en-US,,,,
National Hardware Show 2021,10/21/2021,2021,https://www.nationalhardwareshow.com/,DM,U.S. Display Group,W4273,,https://www.usdisplaygroup.com/,info@usdisplaygroup.com,(931) 455-9585,,,en-US,,,,"U.S. Display Group is a leading independent designer and manufacturer of custom point-of-purchase displays and packaging. We offer design, manufacturing, assembly, and fulfillment all under one roof, in two locations! Our recent expansion to the West Coast allows us to more efficiently serve our customers through an expanded geographic footprint."
National Hardware Show 2021,10/21/2021,2021,https://www.nationalhardwareshow.com/,DM,UKB Electronics Pvt Ltd.,W436,,,,,,,en-US,,,,
National Hardware Show 2021,10/21/2021,2021,https://www.nationalhardwareshow.com/,DM,Ukiah Co.,OUTDR5615,,,,,,,en-US,,,,
National Hardware Show 2021,10/21/2021,2021,https://www.nationalhardwareshow.com/,DM,Uncommon USA Inc,W3431,,https://www.uncommonflagpoles.com,sales@uncommonusa.com,8004195880,,,en-US,,,,"Uncommon USA is the manufacturer of the original telescoping flagpoles offering a variety of flags, banners, light kits including solar and flagpole accessories."
National Hardware Show 2021,10/21/2021,2021,https://www.nationalhardwareshow.com/,DM,United General Supply Co,W3644,,,,,,,en-US,,,,
National Hardware Show 2021,10/21/2021,2021,https://www.nationalhardwareshow.com/,DM,United Gilsonite Laboratories,W817,,,,,,,en-US,,,,
National Hardware Show 2021,10/21/2021,2021,https://www.nationalhardwareshow.com/,DM,"United Power Equipment Co., Ltd.",W1073,,,,,,,en-US,,,,
National Hardware Show 2021,10/21/2021,2021,https://www.nationalhardwareshow.com/,DM,Universal Clips,W534,,,,,,,en-US,,,,
National Hardware Show 2021,10/21/2021,2021,https://www.nationalhardwareshow.com/,DM,Universal Security Instruments,W4223,,,,,,,en-US,,,,
National Hardware Show 2021,10/21/2021,2021,https://www.nationalhardwareshow.com/,DM,US Blade Mfg Co,W1038,,,,,,,en-US,,,,
National Hardware Show 2021,10/21/2021,2021,https://www.nationalhardwareshow.com/,DM,US Merchants,W1301,,,,,,,en-US,,,Greenmade,"Leading USA manufacturer of best in class Greenmade products including the #1 selling 27 Gallon Professional Grade Tote.  Our products are made from the highest grade material, hand finished, and our storage totes are backed by the National Safety Foundation certificate of approval for food grade use."
National Hardware Show 2021,10/21/2021,2021,https://www.nationalhardwareshow.com/,DM,US Polymers Inc/DURAMAX,W3401,,,,,,,en-US,,,,
National Hardware Show 2021,10/21/2021,2021,https://www.nationalhardwareshow.com/,DM,US Postal Service,W1801,,https://www.usps.com/,salesoutreach@usps.gov,202.268.2000,,,en-US,,,,"We connect the nation.The U.S. Postal Service is the only delivery service that reaches every address in the nation: 160 million residences, businesses and Post Office Boxes. The Postal Service receives no tax dollars for operating expenses and relies on the sale of postage, products and services to fund its operations. With more than 34,000 retail locations and one of the most frequently visited websites in the federal government, usps.com, the Postal Service has annual operating revenue of more than $71 billion and delivers 48 percent of the world’s mail."
National Hardware Show 2021,10/21/2021,2021,https://www.nationalhardwareshow.com/,DM,Utica Cutlery,W1657,,,,,,,en-US,,,,
National Hardware Show 2021,10/21/2021,2021,https://www.nationalhardwareshow.com/,DM,Valley Industries,W4034,,https://www.valleyind.com/,amontan@valleyind.com,1-800-864-1649,,,en-US,"Chemicals (weed control, fruit tree sprays, etc.) | Fertilizers | Lawn & Garden Products | Pest Control | Sprayers/Spreaders | Fertilizer | Garden Tools & Supplies | Hoses, Sprinklers, Irrigation Equipment, Watering Cans, Wands | Spreaders/Sprayers",,Master Manufacturing and Everflo,"Originally started as a pressure gauge and accessory distributor, Valley Industries has grown and evolved in its role as a leader in the agricultural, industrial and retail markets. Today, Valley Industries manufactures and distributes thousands of products, across several categories and brands, that continue to set the bar in performance and quality."
National Hardware Show 2021,10/21/2021,2021,https://www.nationalhardwareshow.com/,DM,Valley Industries Corp,W2360,,,,,,,en-US,,,,
National Hardware Show 2021,10/21/2021,2021,https://www.nationalhardwareshow.com/,DM,Valsi Power Equipment Inc,W4022,,,,,,,en-US,,,,
National Hardware Show 2021,10/21/2021,2021,https://www.nationalhardwareshow.com/,DM,Van Zyverden Inc,W3866,,,,,,,en-US,,,,
National Hardware Show 2021,10/21/2021,2021,https://www.nationalhardwareshow.com/,DM,TriFold LLC,W1830,,,,,,,en-US,Carts/Dollies/Material Handling | Material Handling | Storage/Transportation Solution,,UpCart,
National Hardware Show 2021,10/21/2021,2021,https://www.nationalhardwareshow.com/,DM,Ventamatic Ltd,W4261,,,,,,,en-US,,,,
National Hardware Show 2021,10/21/2021,2021,https://www.nationalhardwareshow.com/,DM,Ventiques,W2315D,,https://ventiques.com/,ventiques@gmail.com,320-292-7582,,,en-US,"Aluminium Products | Builder Tools & Instruments | Flooring & Floor Coverings | Builder Tools & Instruments | Building Materials | DIY Products | Gutters, Downspouts, Vents | Bathroom & Shower Accessories | Heaters/Fans & Accessories | Home Decorative Items",,Ventiques,"Ventique Metal Vents are here to offer a solution for flooring installers and homeowners alike-vents that are as unique as your floors. Over the years, we found that ordinary raised drop-in floor vents do not add anything to a home’s look, feel or value.  So, we set out to create a custom product that is functional and stylish, but also easy to install for skilled craftsman and DIY homeowners.  Ventique metal vents are compatible with nearly any type of flooring, and their flush mount for a seamless finish.  Our unique design with its flush mount frame and grill inserts set them apart."
National Hardware Show 2021,10/21/2021,2021,https://www.nationalhardwareshow.com/,DM,Verus Innovations,"W2614B, W2614A",,,,,,,en-US,,,,
National Hardware Show 2021,10/21/2021,2021,https://www.nationalhardwareshow.com/,DM,Vishal Tools & Forgings Pvt. Ltd.,W1669,,,,,,,en-US,,,,
National Hardware Show 2021,10/21/2021,2021,https://www.nationalhardwareshow.com/,DM,Vision Engraving & Routing Systems,W1732,,,,,,,en-US,,,,
National Hardware Show 2021,10/21/2021,2021,https://www.nationalhardwareshow.com/,DM,Vision Grills,W3639,,,,,,,en-US,,,,
National Hardware Show 2021,10/21/2021,2021,https://www.nationalhardwareshow.com/,DM,Vizilok,W1132,,,,,,,en-US,,,,
National Hardware Show 2021,10/21/2021,2021,https://www.nationalhardwareshow.com/,DM,Volm Companies,W3767,,,,,,,en-US,Fencing/Gate Hardware | Lawn & Garden Products,,EZ Products®,"Volm Companies, Inc. of Antigo, Wisconsin, specializes in bringing total solutions to its customers. Within the Lawn & Garden market, Volm manufactures a full line of knitted mesh fabrics under the EZ Products® brand. These products are used for property line and garden fencing, privacy, shade, concealment and other residential applications. Its mesh fabrics are proudly made in the U.S.A. and come with a high level of quality and a team of committed customer service."
National Hardware Show 2021,10/21/2021,2021,https://www.nationalhardwareshow.com/,DM,Wall Firma/Damtite Waterproofing,W915,,,,,,,en-US,,,,
National Hardware Show 2021,10/21/2021,2021,https://www.nationalhardwareshow.com/,DM,Wallboard Tool Co Inc,W961,,,,,,,en-US,,,,
National Hardware Show 2021,10/21/2021,2021,https://www.nationalhardwareshow.com/,DM,Warehouse Rack,W1213,,,,,,,en-US,,,,
National Hardware Show 2021,10/21/2021,2021,https://www.nationalhardwareshow.com/,DM,Warp Brothers,W2023,,,,,,,en-US,,,,
National Hardware Show 2021,10/21/2021,2021,https://www.nationalhardwareshow.com/,DM,Waste Management,W935,,,,,,,en-US,,,,
National Hardware Show 2021,10/21/2021,2021,https://www.nationalhardwareshow.com/,DM,Water Right,W4136,,,,,,,en-US,,,,
National Hardware Show 2021,10/21/2021,2021,https://www.nationalhardwareshow.com/,DM,Water Sports LLC,W3833,,,,,,,en-US,,,,
National Hardware Show 2021,10/21/2021,2021,https://www.nationalhardwareshow.com/,DM,Web Integrated Network LLC,W1712,,https://gowithwin.com/,info@gowithwin.com,855.946.4739,,,en-US,,,,"WIN, Web Integrated Network is a cloud-based transportation management system that integrates with your existing ERP or legacy system.  You can view your carrier rates, book your shipments and track your orders – in the office or remote.  WIN provides one place to manage all your shipping needs."
National Hardware Show 2021,10/21/2021,2021,https://www.nationalhardwareshow.com/,DM,Weber-Stephen Products Llc,W2757,,,,,,,en-US,,,,
National Hardware Show 2021,10/21/2021,2021,https://www.nationalhardwareshow.com/,DM,WEI Angle Surface Bracket,W2510B,,https://www.anglesurfacebracket.com,anglesurfacebracket@gmail.com,603-496-5228,,,en-US,Closet Organizers,,Angle Surface Bracket,The Angle Surface Bracket is a one-of-a-kind solution to transform your sloped ceilings or slanted walls into functional storage. Our newly patented and easily-installed bracket gives you the ability to attach two rods--front and back--for hanging clothing and adding an overhead shelf for extra storage and includes 25 push-button adjustments to fit most angles.
National Hardware Show 2021,10/21/2021,2021,https://www.nationalhardwareshow.com/,DM,"Weifang Qianwei Import and Export co.,Ltd",2818,,,,,,,en-US,,,,
National Hardware Show 2021,10/21/2021,2021,https://www.nationalhardwareshow.com/,DM,Weiman Products LLC,W4354,,,,,,,en-US,,,,
National Hardware Show 2021,10/21/2021,2021,https://www.nationalhardwareshow.com/,DM,Wells Lamont Corp,W1139,,,,,,,en-US,,,,
National Hardware Show 2021,10/21/2021,2021,https://www.nationalhardwareshow.com/,DM,"Wellsco International Group Co., Ltd.",W1015,,,,,,,en-US,,,,
National Hardware Show 2021,10/21/2021,2021,https://www.nationalhardwareshow.com/,DM,Westfield Outdoor Inc,W2745,,,,,,,en-US,,,,
National Hardware Show 2021,10/21/2021,2021,https://www.nationalhardwareshow.com/,DM,Westinghouse Outdoor Power Equipment,"W2228, OUTDR5405",,,,,,,en-US,,,,
National Hardware Show 2021,10/21/2021,2021,https://www.nationalhardwareshow.com/,DM,Wet & Forget,W867,,,,,,,en-US,,,,
National Hardware Show 2021,10/21/2021,2021,https://www.nationalhardwareshow.com/,DM,Wildlife World Ltd,W4166,,,,,,,en-US,,,,
National Hardware Show 2021,10/21/2021,2021,https://www.nationalhardwareshow.com/,DM,Willert Home Products,W3517,,https://willert.com,whp@willert.com,314-772-2822,,,en-US,"Cleaning Products, Supplies, Chemicals | Humidifiers/Dehumidifiers | Deer/Wildlife Control | Insect, Pest & Rodent Control",,Enoz,
National Hardware Show 2021,10/21/2021,2021,https://www.nationalhardwareshow.com/,DM,Wilmar Corp,W1945,,,,,,,en-US,,,,
National Hardware Show 2021,10/21/2021,2021,https://www.nationalhardwareshow.com/,DM,"Winslow & Ross, Inc.",W3313,,,,,,,en-US,,,,
National Hardware Show 2021,10/21/2021,2021,https://www.nationalhardwareshow.com/,DM,Wolverine Straps LLC,W2505A,,http://www.wolverinestraps.com,david.cox@wolverinestraps.com,(424) 281-4845,,,en-US,"Fasteners, Nails, Nuts, Bolts, Rivets, Screws | Electrical Distribution Equipment | Building Materials | Pipes, Fittings & Accessories",,Wolverine Straps,"Wolverine Straps are looking for the right partnership to go to market.  Wolverine Straps can be applied on pipes with or without using screws or nails. A retention hole is included on the strap. Wolverine Straps have sharp spikes at both ends of the strap that can be hammered into the wood/surface. The greatest part is that anyone can use/secure the straps on any pipe by just using a hammer. This strap is used every time there is a pipe that is installed whether it is a plumbing pipe which is Copper, PVC, ABS, Pex and/or Gas pipe. It is also used in the electrical industry with conduit pipes."
National Hardware Show 2021,10/21/2021,2021,https://www.nationalhardwareshow.com/,DM,Wood Products International Inc.,W3709,,https://www.betterwoodproducts.com/,sales@betterwoodproducts.com,912-231-0909,,,en-US,BBQ Tools & Accessories | Grills/Barbecues/Smokers | Lighters/Fire Starters | Tailgate/Camping | BBQ Tools & Accessories | Grills/Barbecues/Smokers | Lighters/Fire Starters,,Better Wood Products,"When it comes to our loved ones, safety, health and happiness are of the utmost concern.  Our products contain just a single, natural ingredient that you can pronounce: wood. We believe simple is better and what matters to our customers, matters to us. This is why our products are all natural, with no additives or chemicals of any kind whatsoever. When you use our products, you can trust that you are not exposing your food and guests to anything other than pure organic wood, just as nature made it. We know that all natural is the healthiest option for your family, and for ours."
National Hardware Show 2021,10/21/2021,2021,https://www.nationalhardwareshow.com/,DM,Woodstock Chimes,W3810,,,,,,,en-US,,,,
National Hardware Show 2021,10/21/2021,2021,https://www.nationalhardwareshow.com/,DM,World Source Partners,W3904,,,,,,,en-US,,,,
National Hardware Show 2021,10/21/2021,2021,https://www.nationalhardwareshow.com/,DM,Worldwide Distributors,W3759,,,,,,,en-US,,,,
National Hardware Show 2021,10/21/2021,2021,https://www.nationalhardwareshow.com/,DM,"Wrap-It (JJAAMM, LLC)",W1219,,,,,,,en-US,,,,
National Hardware Show 2021,10/21/2021,2021,https://www.nationalhardwareshow.com/,DM,"Wuhan Welhel Photoelectric Co., Ltd.",W1672,,,,,,,en-US,,,,
National Hardware Show 2021,10/21/2021,2021,https://www.nationalhardwareshow.com/,DM,Wuyi Double Horse Teaching Equipment Co. Ltd.,W4139,,,,,,,en-US,,,,
National Hardware Show 2021,10/21/2021,2021,https://www.nationalhardwareshow.com/,DM,"Wuyi Hongsen Leisure Products Co., Ltd.",11271,,,,,,,en-US,,,,
National Hardware Show 2021,10/21/2021,2021,https://www.nationalhardwareshow.com/,DM,WYLD GEAR,OUTDR5323,,,,,,,en-US,,,,
National Hardware Show 2021,10/21/2021,2021,https://www.nationalhardwareshow.com/,DM,X-Power Corporation Limited,W432,,,,,,,en-US,,,,
National Hardware Show 2021,10/21/2021,2021,https://www.nationalhardwareshow.com/,DM,"Xiamen Hwasu Plastic Co., Ltd.",W4076,,,,,,,en-US,,,,
National Hardware Show 2021,10/21/2021,2021,https://www.nationalhardwareshow.com/,DM,"Xiamen Ocean Rock Imp. & Exp. Co., Ltd.",W3973,,,,,,,en-US,,,,
National Hardware Show 2021,10/21/2021,2021,https://www.nationalhardwareshow.com/,DM,"Xierun Garden USA, Inc.",W3573,,,,,,,en-US,,,,
National Hardware Show 2021,10/21/2021,2021,https://www.nationalhardwareshow.com/,DM,Xtreme Cables,W523,,,,,,,en-US,,,,
National Hardware Show 2021,10/21/2021,2021,https://www.nationalhardwareshow.com/,DM,Xynyth Mfg Corp,W3957,,,,,,,en-US,,,,
National Hardware Show 2021,10/21/2021,2021,https://www.nationalhardwareshow.com/,DM,"YANGDONG GENERAL CUTLERY ENTERPRISES CO.,LTD",,,,,,,,en-US,,,,
National Hardware Show 2021,10/21/2021,2021,https://www.nationalhardwareshow.com/,DM,"Yangjiang Grand Harvest Industrial Co., Ltd.",W1248,,,,,,,en-US,,,,
National Hardware Show 2021,10/21/2021,2021,https://www.nationalhardwareshow.com/,DM,"YANGZHOU XINJIANGZHENG TOOLS CO., LTD.",W1053,,,,,,,en-US,,,,
National Hardware Show 2021,10/21/2021,2021,https://www.nationalhardwareshow.com/,DM,Yardlock,W1628,,,,,,,en-US,,,,
National Hardware Show 2021,10/21/2021,2021,https://www.nationalhardwareshow.com/,DM,"YAT USA, INC.",W3123,,,,,,,en-US,,,,
National Hardware Show 2021,10/21/2021,2021,https://www.nationalhardwareshow.com/,DM,"Yixing MCD Oven Co., Ltd.",W4169,,,,,,,en-US,,,,
National Hardware Show 2021,10/21/2021,2021,https://www.nationalhardwareshow.com/,DM,"Yongkang Jinding Mechanical Tools Co.,Ltd",W1376,,,,,,,en-US,,,,
National Hardware Show 2021,10/21/2021,2021,https://www.nationalhardwareshow.com/,DM,Yuan Mei Corp,W3472,,,,,,,en-US,,,,
National Hardware Show 2021,10/21/2021,2021,https://www.nationalhardwareshow.com/,DM,Yuhuan Jianglin Plumbing Hose & Parts Inc.,W307,,,,,,,en-US,,,,
National Hardware Show 2021,10/21/2021,2021,https://www.nationalhardwareshow.com/,DM,"Yuhuan Liqun Valve Co.,Ltd.",W454,,,,,,,en-US,,,,
National Hardware Show 2021,10/21/2021,2021,https://www.nationalhardwareshow.com/,DM,"Yuhuan Minghan Sanitary Ware Co., Ltd.",W452,,,,,,,en-US,,,,
National Hardware Show 2021,10/21/2021,2021,https://www.nationalhardwareshow.com/,DM,"Yuhuan Vara Copper Products Co., Ltd",W433,,,,,,,en-US,,,,
National Hardware Show 2021,10/21/2021,2021,https://www.nationalhardwareshow.com/,DM,"Yuhuan Yahe HVAC Co., Ltd.",W431,,,,,,,en-US,,,,
National Hardware Show 2021,10/21/2021,2021,https://www.nationalhardwareshow.com/,DM,"Yuyao Forever Star Sprayer Co., ltd.",W4053,,,,,,,en-US,,,,
National Hardware Show 2021,10/21/2021,2021,https://www.nationalhardwareshow.com/,DM,Yuyao Gaozhan Garden Tools Co. Ltd.,W4150,,,,,,,en-US,,,,
National Hardware Show 2021,10/21/2021,2021,https://www.nationalhardwareshow.com/,DM,"YuYao Seasons Touring Products Co., LTD",12373,,,,,,,en-US,,,,
National Hardware Show 2021,10/21/2021,2021,https://www.nationalhardwareshow.com/,DM,Z GRILLS INC.,W3133,,,,,,,en-US,,,,
National Hardware Show 2021,10/21/2021,2021,https://www.nationalhardwareshow.com/,DM,Z-OX® Freedom To Organize™,W2311D,,,,,,,en-US,,,,
National Hardware Show 2021,10/21/2021,2021,https://www.nationalhardwareshow.com/,DM,Zerowater,W561,,,,,,,en-US,,,,
National Hardware Show 2021,10/21/2021,2021,https://www.nationalhardwareshow.com/,DM,Zhangjiagang City Xinhui Import & Export Co. Ltd,W1870,,,,,,,en-US,,,,
National Hardware Show 2021,10/21/2021,2021,https://www.nationalhardwareshow.com/,DM,"Zhejiang Anlu Cleaning Machinery Co., Ltd.",W4445,,,,,,,en-US,,,,
National Hardware Show 2021,10/21/2021,2021,https://www.nationalhardwareshow.com/,DM,Zhejiang Broad International Convention & Exhibition Co. Ltd.,"8, 10769, 11975, W3167, W3171, W235",,,,,,,en-US,,,,
National Hardware Show 2021,10/21/2021,2021,https://www.nationalhardwareshow.com/,DM,"Zhejiang Dongrun Industrial Co., Ltd.",W110,,,,,,,en-US,,,,
National Hardware Show 2021,10/21/2021,2021,https://www.nationalhardwareshow.com/,DM,"Zhejiang Dongya Facility Co., Ltd.",W1470,,,,,,,en-US,,,,
National Hardware Show 2021,10/21/2021,2021,https://www.nationalhardwareshow.com/,DM,"Zhejiang Hengjie Copper Industry Co., Ltd.",W461,,,,,,,en-US,,,,
National Hardware Show 2021,10/21/2021,2021,https://www.nationalhardwareshow.com/,DM,Zhejiang Hongguocun Leisure Goods Co Ltd,W3473,,,,,,,en-US,,,,
National Hardware Show 2021,10/21/2021,2021,https://www.nationalhardwareshow.com/,DM,Zhejiang Hongyou Air Compressor Mfg Co Ltd,W1135,,,,,,,en-US,,,,
National Hardware Show 2021,10/21/2021,2021,https://www.nationalhardwareshow.com/,DM,Zhejiang Monro Machinery & Electronic Co. Ltd.,W430,,,,,,,en-US,,,,
National Hardware Show 2021,10/21/2021,2021,https://www.nationalhardwareshow.com/,DM,"ZHEJIANG QINDA TRAVELLING PRODUCTS CO., LTD.",W201,,,,,,,en-US,,,,
National Hardware Show 2021,10/21/2021,2021,https://www.nationalhardwareshow.com/,DM,Zhejiang Tianti Rubber and Plastic Technology Co LTD,11663,,,,,,,en-US,,,,
National Hardware Show 2021,10/21/2021,2021,https://www.nationalhardwareshow.com/,DM,"ZheJiang Twinsel Electronic Technology Co., LTD",W4579,,,,,,,en-US,,,,
National Hardware Show 2021,10/21/2021,2021,https://www.nationalhardwareshow.com/,DM,"Zhejiang Yueda Textile Technology Co., Ltd.",12069,,,,,,,en-US,,,,
National Hardware Show 2021,10/21/2021,2021,https://www.nationalhardwareshow.com/,DM,"ZHEJIANG ZHENAN ELECTRICAL APPLIANCES CO., LTD",8747,,,,,,,en-US,,,,
National Hardware Show 2021,10/21/2021,2021,https://www.nationalhardwareshow.com/,DM,"Zhejiang Zhendong Leisure Products Co., Ltd.",12759,,,,,,,en-US,,,,
National Hardware Show 2021,10/21/2021,2021,https://www.nationalhardwareshow.com/,DM,"Zhenjiang Bau House Painting Tools Co., ltd",W975,,,,,,,en-US,,,,
National Hardware Show 2021,10/21/2021,2021,https://www.nationalhardwareshow.com/,DM,ZHONGSHAN GLEE ELECTRICALS MFG,W4052,,,,,,,en-US,,,,
National Hardware Show 2021,10/21/2021,2021,https://www.nationalhardwareshow.com/,DM,"Zhongshan Powtek Appliances Mfg., Ltd.",W4561,,,,,,,en-US,,,,
National Hardware Show 2021,10/21/2021,2021,https://www.nationalhardwareshow.com/,DM,Zhongshan Spark Metal Industry Co,W1176,,,,,,,en-US,,,,
National Hardware Show 2021,10/21/2021,2021,https://www.nationalhardwareshow.com/,DM,ZHONGSHAN WANLI HARDWARE AND PLASTIC PRODUCTS CO LTD.,W1571,,,,,,,en-US,,,,
National Hardware Show 2021,10/21/2021,2021,https://www.nationalhardwareshow.com/,DM,"Zhongyin (Ningbo) Battery Co, Ltd.",W449,,,,,,,en-US,,,,
National Hardware Show 2021,10/21/2021,2021,https://www.nationalhardwareshow.com/,DM,Zipwall,W1026,,,,,,,en-US,,,,
National Hardware Show 2021,10/21/2021,2021,https://www.nationalhardwareshow.com/,DM,Zircon Corp,W2431,,https://www.zircon.com,info@zircon.com,1-408-963-4550,,,en-US,Builder Tools & Instruments | DIY Products | Builder Tools & Instruments | Cordless/Battery Operated Power Tools | Hand Tools & Accessories,,Zircon branded stud finders,"Zircon Corporation designs, develops, manufactures, and markets the most comprehensive selling line of high-technology electronic hand tools for the do-it-yourself (DIY) consumer and professional tradesman worldwide. Forty-five years after its inception, Zircon products have global appeal and are available in 31 countries throughout the Americas, Europe, Asia, and Australia. With more than 50 million stud finders sold to date, Zircon continues to be the only company dedicated solely to electronic hand tools while focusing on the entire customer experience."
National Hardware Show 2021,10/21/2021,2021,https://www.nationalhardwareshow.com/,DM,ZoomBroom inc,W2608D,,https://www.zoombrooms.com/,info@zoombrooms.com,734-203-7689,,,en-US,"Lawn & Garden Products | Outdoor Patio & Lawn Furniture Accessories | Outdoor Power Equipment, Replacement Parts | Cleaning Supplies",,,"From a concept born on a putting green, we have developed the lightest, quietest, and easiest to use debris blower. While it has plenty of power to move leaves around the yard, it was designed for much more common, everyday tasks like cleaning the patio and deck, sweeping off the front porch and steps, and clearing off the driveway and sidewalk after mowing. It is also ideal for RVers. With built in batteries, it is easy for anyone from 9 to 90 to use."
