ShowName,ShowDate,ShowYear,ShowWebsite,SubmittedBy,ExhibitorName,BoothNumber,HallLocation,Website,Email,Phone,Fax,Address,Country,Categories,Manufacturers,Brands,Description
Furniture Manufacturers,02/01/2022,2022,https://www.bfm.org.uk/directory/furniture-manufacturers/,DM,Alma1938,,,http://alma1938.com/,sales@almahome.co.uk,020 7377 0762,,"12 - 14 Greatorex Street, Whitechapel, London, E1 5NF",,"Bedroom furniture | Bespoke furniture | Cabinets, storage and shelving | Dining seating and stools | Dining tables | Home entertainment | Home office | Occasional",,,"Since 1938, ALMA has been an inspirational and knowledgeable supplier of leather"
Furniture Manufacturers,02/01/2022,2022,https://www.bfm.org.uk/directory/furniture-manufacturers/,DM,Artistic Upholstery Limited,,,http://www.artisticupholstery.co.uk,sales@artisticupholstery.co.uk,0115 973 4481,,"Bridge Street, Long Eaton, Nottingham, NG10 4QQ",,Beds and mattresses | Bespoke furniture | Home office | Sofas and armchairs,,,Designers and Makers of Bespoke Furniture since 1952
Furniture Manufacturers,02/01/2022,2022,https://www.bfm.org.uk/directory/furniture-manufacturers/,DM,Alstons (Upholstery) Ltd,,,http://www.alstons.co.uk,info@alstons.co.uk,01206 765343,,"Albro Works, Gosbecks Road, Colchester, Essex, CO2 9JU",,Sofabeds | Sofas and armchairs,,,Beautiful Upholstery for over 60 years
Furniture Manufacturers,02/01/2022,2022,https://www.bfm.org.uk/directory/furniture-manufacturers/,DM,Ashley Manor Upholstery Ltd,,,http://www.ashleymanor.co.uk,info@ashleymanor.co.uk,01384 486 800,,"Unit 1 Woodside Ind. Estate, Pedmore Road, Dudley, West Midlands, DY2 0RL",,Sofas and armchairs,,,Making the present as meaningful as the past
Furniture Manufacturers,02/01/2022,2022,https://www.bfm.org.uk/directory/furniture-manufacturers/,DM,Alan Cooper Cabinetmaker Ltd,,,https://alancoopercabinetmaker.uk/,alan@ac-c.co.uk,7550002345,,"73 St. Annes Road, Aylesbury, Buckinghamshire, HP19 7RB",,"Bedroom furniture | Bespoke furniture | Cabinets, storage and shelving | Dining tables | Home entertainment | Home office | Kitchens | Occasional",,,Bespoke Fitted and Free-Standing Furniture
Furniture Manufacturers,02/01/2022,2022,https://www.bfm.org.uk/directory/furniture-manufacturers/,DM,Alpha Designs Upholstery Limited,,,,sales@alpha-designs.co.uk,01902 492937,,"Unit 1 Stag Industrial Estate, Oxford Street, Bilston, West Midlands, WV14 7HZ",,Sofas and armchairs,,,Alpha Designs Upholstery creates unique classic and contemporary sofas and chairs for residential and commercial use
Furniture Manufacturers,02/01/2022,2022,https://www.bfm.org.uk/directory/furniture-manufacturers/,DM,Airsprung Beds Ltd,,,http://www.airsprungbeds.co.uk/,sales@airsprungbeds.co.uk,01225 754 411,,"Canal Road, Trowbridge, Wiltshire, BA14 8RQ",,Beds and mattresses,,,Airsprung Beds has been manufacturing beds in Wiltshire for over 140 years
Furniture Manufacturers,02/01/2022,2022,https://www.bfm.org.uk/directory/furniture-manufacturers/,DM,Andrena Furniture Ltd,,,http://www.andrena.co.uk,enquiries@andrena.co.uk,01992 451 722,,"Geddings Road, Hoddesdon, Hertfordshire, EN11 0NT",,"Bespoke furniture | Cabinets, storage and shelving | Dining seating and stools | Dining tables | Home entertainment",,,Andrena Furniture Ltd is a family owned and managed company which began making Oak furniture over 30 years ago
Furniture Manufacturers,02/01/2022,2022,https://www.bfm.org.uk/directory/furniture-manufacturers/,DM,Adjustamatic Beds Limited,,,https://www.adjustablebeds.co.uk/,info@adjustablebeds.co.uk,0808 159 7283,,"1st Floor, The Pinnacle, Central Court,, Station Way, Crawley, RH10 1JH",,Beds and mattresses | Rise/ recliners | Sofas and armchairs,,,Beds and chairs tailor-made for your comfort
Furniture Manufacturers,02/01/2022,2022,https://www.bfm.org.uk/directory/furniture-manufacturers/,DM,A&G Furniture Ltd,,,,furniture104@protonmail.com,01255 762104,,"104 Old Road, Clacton-on-Sea, Essex, CO15 3AA",,,,,"We sell brand new and pre-owned furniture, Deep Sleep Beds & mattresses, sofas, white appliances, wall art, tables, chairs and curtain poles."
Furniture Manufacturers,02/01/2022,2022,https://www.bfm.org.uk/directory/furniture-manufacturers/,DM,Browns of West Wycombe,,,http://www.brownsofwestwycombe.com,enquiries@brownsofwestwycombe.com,01494 524 537,,"Church Lane, West Wycombe, Buckinghamshire, HP14 3AH",,"Bedroom furniture | Bespoke furniture | Cabinets, storage and shelving | Dining seating and stools | Dining tables | Home entertainment | Home office | Occasional | Sofas and armchairs",,,Contemporary and traditional furniture
Furniture Manufacturers,02/01/2022,2022,https://www.bfm.org.uk/directory/furniture-manufacturers/,DM,Beautysleep Beds,,,https://www.beautysleepbeds.co.uk/index.htm,sales@beautysleepbeds.co.uk,01924 409966,,"Lonsdale Mills, 55 Halifax Road, Liversedge, West Yorkshire, WF15 6LF, Liversedge, WF15 6LF",,Beds and mattresses,,,Welcome to Beautysleep - Engineered for a good sleep
Furniture Manufacturers,02/01/2022,2022,https://www.bfm.org.uk/directory/furniture-manufacturers/,DM,Belfield Group Ltd,,,https://thebelfieldgroup.com/,info@thebelfieldgroup.com,0115 9071700,,"Hallam Fields Road, Ilkeston, Derbyshire, DE7 4AZ, Ilkeston, Derbyshire, DE7 4AZ",,Beds and mattresses | Sofas and armchairs | Soft furnishings and accessories,,,"If you’re sitting on it, we’ve probably made it"
Furniture Manufacturers,02/01/2022,2022,https://www.bfm.org.uk/directory/furniture-manufacturers/,DM,Celebrity Motion Furniture,,,https://www.celebrity-furniture.co.uk/,info@celebrity-furniture.co.uk,01623 440 626,,"Common Road, Huthwaite, Nottinghamshire, NG17 2JY",,Rise/ recliners | Sofas and armchairs,,,At Celebrity we have been manufacturing quality furniture for over 30 years
Furniture Manufacturers,02/01/2022,2022,https://www.bfm.org.uk/directory/furniture-manufacturers/,DM,Cavendish Upholstery Limited,,,http://www.cavendish-upholstery.co.uk/,suites@cavendish-upholstery.co.uk,01257 479 402,,"Mayfield Mill, Briercliffe Road, Chorley, Lancashire, PR6 ODA",,Rise/ recliners | Sofas and armchairs,,,Our expert craftsmen and women draw on over 40 years of design and manufacturing knowledge
Furniture Manufacturers,02/01/2022,2022,https://www.bfm.org.uk/directory/furniture-manufacturers/,DM,Bristows Furniture,,,http://www.bristowsfurniture.com,sales@bristowsfurniture.com,01935 425 221,,"8 Edward Close, Preston Plucknet, Somerset, BA22 8RU",,"Bespoke furniture | Cabinets, storage and shelving | Dining seating and stools | Dining tables | Reproduction | Sofas and armchairs",,,Bristows Furniture have been supplying our trade customers for over 40 years
Furniture Manufacturers,02/01/2022,2022,https://www.bfm.org.uk/directory/furniture-manufacturers/,DM,Burgess Bedding Company Ltd,,,https://www.burgessbeds.co.uk/,sales@burgessbedding.com,01706 212731,,"Unit 2, Knowsley Rd Ind Est, Knowsley Park Way, Rossendale, BB4 4RS, Rossendale, BB4 4RS",,Beds and mattresses,,,Beautifully Hand Crafted in Lancashire since 1927
Furniture Manufacturers,02/01/2022,2022,https://www.bfm.org.uk/directory/furniture-manufacturers/,DM,Brave Design Ltd,,,http://www.bravedesign.uk.com/,info@bravedesign.uk.com,01744 816883,,"5 Brindley Road, Reginald Road Ind Est, St Helens, WA9 4HY",,"Bedroom furniture | Bespoke furniture | Cabinets, storage and shelving | Home entertainment | Occasional",,,Bespoke Furniture Solutions
Furniture Manufacturers,02/01/2022,2022,https://www.bfm.org.uk/directory/furniture-manufacturers/,DM,Buoyant Upholstery,,,https://www.buoyant-upholstery.co.uk/,sales@buoyant-upholstery.co.uk,01282 691631,,"Hallam Road, Nelson, Lancashire, BB9 8AJ",,Sofas and armchairs,,,Quality furniture since 1909
Furniture Manufacturers,02/01/2022,2022,https://www.bfm.org.uk/directory/furniture-manufacturers/,DM,David Gundry Upholstery Ltd,,,http://www.davidgundry.com/,enquiries@davidgundry.com,0115 9729147,,"Harrington Mills, Leopold Street, Long Eaton, Nottinghamshire, NG10 4QE",,Sofas and armchairs,,,Designed and made by hand since 1972
Furniture Manufacturers,02/01/2022,2022,https://www.bfm.org.uk/directory/furniture-manufacturers/,DM,Dreams,,,https://www.dreams.co.uk,contactus@dreams.co.uk,01628 535353,,"Knaves Beach, High Wycombe, Bucks, HP10 9YU",,Beds and mattresses | Childrens furniture | Sofabeds,,,"For over 30 years, Dreams has been passionate about providing everyone with the perfect night’s sleep"
Furniture Manufacturers,02/01/2022,2022,https://www.bfm.org.uk/directory/furniture-manufacturers/,DM,Delcor Limited,,,http://www.delcor.co.uk/,sales@delcor.co.uk,0191 237 1303,,"Delcor House, Double Row,, Seaton Delaval, Northumberland, NE25 0PR",,Beds and mattresses | Sofas and armchairs,,,"Designer made-to-measure sofas and chairs, made entirely in beautiful Northumberland"
Furniture Manufacturers,02/01/2022,2022,https://www.bfm.org.uk/directory/furniture-manufacturers/,DM,Ashwood Designs,,,http://www.ashwood-designs.co.uk/,info@ashwood-designs.co.uk,01685 883388,,"Robertstown House,, Aberdare Business Park, Robertstown, Aberdare, Mid Glamorgan, CF44 8ER",,Sofas and armchairs,,,Simply Comfy Sofas
Furniture Manufacturers,02/01/2022,2022,https://www.bfm.org.uk/directory/furniture-manufacturers/,DM,Dura Beds,,,https://www.durabeds.co.uk/,sales@durabeds.co.uk,01924 422 537,,"Kelvin Business Park, Grange Rd, Batley, WF17 6PB",,Beds and mattresses,,,Wake up and feel the difference
Furniture Manufacturers,02/01/2022,2022,https://www.bfm.org.uk/directory/furniture-manufacturers/,DM,DIY Alcove Cabinets,,,,sales@diyalcovecabinets.co.uk,01403 823824,,"Pallinghurst Farm, Guildford Road, Rudgwick, RH12 3BQ, Rudgwick, RH12 3BQ",,"Cabinets, storage and shelving",,,Alcove cabinets and wardrobes ‘supplied as a kit for you to fit’
Furniture Manufacturers,02/01/2022,2022,https://www.bfm.org.uk/directory/furniture-manufacturers/,DM,DFS,,,https://www.dfs.co.uk/,contactus@dfs.co.uk,01302 573329,,"1 Rockingham Way, Redhouse Interchange, Adwick Le Street, Doncaster, South Yorkshire, DN6 7NA, Doncaster, South Yorkshire, DN6 7NA",,Beds and mattresses | Dining seating and stools | Dining tables | Rise/ recliners | Sofabeds | Sofas and armchairs,,,We know a thing or two about sofas
Furniture Manufacturers,02/01/2022,2022,https://www.bfm.org.uk/directory/furniture-manufacturers/,DM,Collins & Hayes Furniture Ltd,,,http://www.collinsandhayes.co.uk/,customer.support@collinsandhayes.co.uk,1773309599,,"Castlewood Business Park, Farmwell Lane, Sutton in Ashfield, Nottinghamshire, NG17 1BX",,Sofas and armchairs,,,Understated Luxury | Sublime Comfort | Beautiful Detail
Furniture Manufacturers,02/01/2022,2022,https://www.bfm.org.uk/directory/furniture-manufacturers/,DM,Deep Sleep Beds (UK) Ltd,,,https://deepsleepbeds.co.uk/,deepsleepbedsltd@hotmail.com,01924 274465,,"Phase 2 Warneford Avenue, Ossett, West Yorkshire, WF5 9NJ",,Beds and mattresses,,,"Our key principles are Quality, Value and Comfort"
Furniture Manufacturers,02/01/2022,2022,https://www.bfm.org.uk/directory/furniture-manufacturers/,DM,David Hunt Lighting,,,http://www.davidhunt-lighting.com/,sales@davidhuntlighting.co.uk,+44(0)1295 672 200,,"Tilemans Lane, Shipston on Stour, Warwickshire, CV36 4HP",,Lighting | Outdoor,,,Bespoke lighting made in the cotswolds
Furniture Manufacturers,02/01/2022,2022,https://www.bfm.org.uk/directory/furniture-manufacturers/,DM,Corwell,,,http://www.corwell.co.uk,info@corwell.co.uk,0118 983 3404,,"Unit 6, Amners Farm, Burghfield, Reading, Berkshire, RG30 3UE",,"Bedroom furniture | Beds and mattresses | Bespoke furniture | Cabinets, storage and shelving | Dining seating and stools | Dining tables | Home entertainment | Home office | Occasional | Outdoor",,,We specialise in making quality hand made furniture to your exact requirements
Furniture Manufacturers,02/01/2022,2022,https://www.bfm.org.uk/directory/furniture-manufacturers/,DM,Excellent Relax Bedding Co,,,http://www.excellent-relax.co.uk/,info@exrelax.co.uk,01924 441 654,,"Howden Clough Industrial Estate,Off Leeds Road, Birstall, Batley, West Yorkshire, WF17 0JB",,Beds and mattresses,,,"With over 25 years of experience, we are justifiably proud of our hard-won reputation"
Furniture Manufacturers,02/01/2022,2022,https://www.bfm.org.uk/directory/furniture-manufacturers/,DM,Edge Beanbags Ltd,,,http://www.edgebeanbags.co.uk/,ps@edgebeanbags.co.uk,0118 9780042,,"8 Ruby Close, Wokingham, Berkshire, RG41 3TX",,Soft furnishings and accessories,,,Creators of luxury beanbags & home of the Techbed
Furniture Manufacturers,02/01/2022,2022,https://www.bfm.org.uk/directory/furniture-manufacturers/,DM,Ercol,,,http://www.ercol.com,sales@ercol.com,01844 271 800,,"Summerleys Road, Princes Risborough, Buckinghamshire, HP27 9PX",,"Bedroom furniture | Beds and mattresses | Cabinets, storage and shelving | Dining seating and stools | Dining tables",,,"Lucian R. Ercolani founded ercol in 1920 in High Wycombe, Buckinghamshire the heartland of English furniture making"
Furniture Manufacturers,02/01/2022,2022,https://www.bfm.org.uk/directory/furniture-manufacturers/,DM,Ellis Furniture,,,http://www.ellisfurniture.co.uk/,sales@ellisfurniture.co.uk,01484 514212,,"Silver Street, Huddersfield, West Yorkshire, HD5 9BA",,Bathrooms | Kitchens,,,To make the most of every space through expertise
Furniture Manufacturers,02/01/2022,2022,https://www.bfm.org.uk/directory/furniture-manufacturers/,DM,Eborcraft,,,http://www.eborcraft.co.uk,sales@eborcraft.co.uk,01904 481020,,"Chessingham Park, Dunnington,York, York, YO19 5SE",,Office,,,Manufacturers of contemporary wood veneer office furniture
Furniture Manufacturers,02/01/2022,2022,https://www.bfm.org.uk/directory/furniture-manufacturers/,DM,Exclusive Home,,,http://www.exclusive-furniture.co.uk/,sales@exclusive-furniture.co.uk,01258 472001,,"Unit 9a,, Butts Pond Industrial Estate, Sturminster Newton, Dorset, DT10 1AZ",,"Bedroom furniture | Bespoke furniture | Cabinets, storage and shelving | Home entertainment | Home office",,,Full one-stop service
Furniture Manufacturers,02/01/2022,2022,https://www.bfm.org.uk/directory/furniture-manufacturers/,DM,Exclusive HTQ Ltd (Contract),,,http://www.exclusive-furniture.co.uk,sales@exclusive-furniture.co.uk,01258 472001,,"Unit 9a,, Butts Pond Industrial Estate,, Sturminster Newton, Dorset, DT10 1AZ",,Bespoke furniture | Contract Seating | Office,,,"Educational, Healthcare, Commercial"
Furniture Manufacturers,02/01/2022,2022,https://www.bfm.org.uk/directory/furniture-manufacturers/,DM,Eat Sleep Live Ltd,,,https://www.eatsleeplive.co.uk,info@eatsleeplive.co.uk,01159 700 060,,"The Old Joinery Mill, 2 Nuthall Road, Nottingham, NG8 5AZ",,"Bedroom furniture | Beds and mattresses | Bespoke furniture | Cabinets, storage and shelving | Dining seating and stools | Dining tables | Occasional | Outdoor",,,"At Eat Sleep Live, natural solid wood furniture with rustic, handcrafted quality is our trademark"
Furniture Manufacturers,02/01/2022,2022,https://www.bfm.org.uk/directory/furniture-manufacturers/,DM,Hestia,,,http://furmanac.co.uk/hestia_1.html,info@furmanac.com,+44 (0)1384 408844,,"Unit 71, The Pensnett Estate, Third Avenue, Kingswinford, West Midlands, DY6 7FF",,Beds and mattresses,,,"A luxurious collection of handmade mattresses, divans and full height headboards"
Furniture Manufacturers,02/01/2022,2022,https://www.bfm.org.uk/directory/furniture-manufacturers/,DM,Duresta Upholstery Limited,,,http://www.duresta.com/,sales@duresta.co.uk,0115 973 7000,,"Fields Farm Road, Long Eaton, Nottinghamshire, NG10 3FZ",,Sofas and armchairs,,,Discover the beauty of Duresta sofas and chairs
Furniture Manufacturers,02/01/2022,2022,https://www.bfm.org.uk/directory/furniture-manufacturers/,DM,Highgrove Beds,,,http://www.highgrovebeds.co.uk/,info@highgrovebeds.co.uk,+44 (0) 1924 406600,,"Headlands Road, Liversedge, West Yorkshire, WF15 6QA",,Beds and mattresses,,,Highgrove is one of the UK’s fastest growing bed brands and is now well established in the UK marketplace
Furniture Manufacturers,02/01/2022,2022,https://www.bfm.org.uk/directory/furniture-manufacturers/,DM,Easy Rest Beds Ltd,,,http://www.easyrestbeds.co.uk/,info@easyrestbeds.co.uk,01274 733743,,"Parkside Mill, Parkside Road, West Bowling, Bradford, West Yorkshire, BD5 8DX",,Beds and mattresses,,,Easy Rest Beds have been manufacturing mattresses & divans for close on twenty years
Furniture Manufacturers,02/01/2022,2022,https://www.bfm.org.uk/directory/furniture-manufacturers/,DM,G Plan Upholstery Ltd,,,http://www.gplan.co.uk/,info@gplan.co.uk,01225 700 880,,"Hampton Park West Business Park, Melksham, Wiltshire, SN12 6GU",,Rise/ recliners | Sofas and armchairs,,,Great past. Great present. Great future
Furniture Manufacturers,02/01/2022,2022,https://www.bfm.org.uk/directory/furniture-manufacturers/,DM,Greengate Furniture Ltd,,,http://www.greengate.co.uk,sales@greengate.co.uk,01494 755 400,,"St George's Works, Coronation Road, High Wycombe, Buckinghamshire, HP12 3GG",,Beds and mattresses | Sofabeds | Sofas and armchairs,,,The Greengate Collections are designed to suit the needs of the upper segment of the interiors market
Furniture Manufacturers,02/01/2022,2022,https://www.bfm.org.uk/directory/furniture-manufacturers/,DM,Gainsborough,,,http://www.gainsborough-beds.co.uk/,sales@gainsborough-beds.co.uk,01225 779 132,,"Ladydown Estate, Canal Road, Trowbridge, Wiltshire, BA14 8RL",,Beds and mattresses,,,Gainsborough have many years of experience in producing high quality hand crafted long lasting luxurious products
Furniture Manufacturers,02/01/2022,2022,https://www.bfm.org.uk/directory/furniture-manufacturers/,DM,Forest Contract,,,http://www.forestcontract.com,info@forestcontract.com,0161 737 6918,,"Newbury House,Ford Lane, Salford, Greater Manchester, M6 6PD",,Bedroom furniture | Beds and mattresses | Bespoke furniture | Contract Seating | Sofabeds | Sofas and armchairs,,,Manufacturers for the hospitality and leisure market
Furniture Manufacturers,02/01/2022,2022,https://www.bfm.org.uk/directory/furniture-manufacturers/,DM,Furmanac Limited,,,http://www.furmanac.co.uk/,info@furmanac.com,+44 (0)1384 408844,,"Unit 71, The Pensnett Estate, Third Avenue, Kingswinford, West Midlands, DY6 7FF",,Beds and mattresses | Rise/ recliners | Sofas and armchairs,,,Furmanac family business is UK's largest manufacturer of adjustable beds
Furniture Manufacturers,02/01/2022,2022,https://www.bfm.org.uk/directory/furniture-manufacturers/,DM,Gascoigne Designs Ltd,,,http://www.gascoignedesigns.co.uk,sales@gascoignedesigns.co.uk,0115 946 4070,,"Wilsthorpe Road, Long Eaton, Nottinghamshire, NG10 3JW",,Sofas and armchairs,,,High quality and stylish upholstered furniture
Furniture Manufacturers,02/01/2022,2022,https://www.bfm.org.uk/directory/furniture-manufacturers/,DM,Futureglass,,,http://futureglass.eu/,reception@futureglass.cop.uk,01376 330 300,,"Unit 8 Park Drive Industrial Estate, Braintree, Essex, CM7 1AW",,Glass and stone furniture,,,Futureglass believes that the home is a special place where you should love to be
Furniture Manufacturers,02/01/2022,2022,https://www.bfm.org.uk/directory/furniture-manufacturers/,DM,Forest Sofa,,,https://www.forestsofa.co.uk/,info@forestsofa.co.uk,+44 (0) 1617 376918,,"Newbury House, Ford Lane, Salford, Greater Manchester, M6 6PD",,Sofas and armchairs,,,Hand-made
Furniture Manufacturers,02/01/2022,2022,https://www.bfm.org.uk/directory/furniture-manufacturers/,DM,Jay-Be,,,http://www.jaybe.com/,service@jaybe.co.uk,+44 (0) 1924 66 66 33,,"Dewsbury Mills, Thornhill Road, Dewsbury, West Yorkshire, WF12 9QE",,Beds and mattresses,,,Sleep Smart Products
Furniture Manufacturers,02/01/2022,2022,https://www.bfm.org.uk/directory/furniture-manufacturers/,DM,Hush-a-Bye Beds,,,http://www.hushabyebeds.co.uk/,sales@hushabyebeds.co.uk,01225 779135,,"Canal Road, Trowbridge, Wiltshire, BA14 8RL",,Beds and mattresses,,,Go on treat yourself - enter the world of Hush-a-Bye
Furniture Manufacturers,02/01/2022,2022,https://www.bfm.org.uk/directory/furniture-manufacturers/,DM,High Seat Ltd,,,http://www.hslchairs.com/,customerservice@hslchairs.com,01924 507050,,"Units 1-3a Grange Road Industrial Estate, Grange Road, Batley, West Yorkshire, WF17 6LN",,Rise/ recliners | Sofas and armchairs,,,Handcrafted in Britian
Furniture Manufacturers,02/01/2022,2022,https://www.bfm.org.uk/directory/furniture-manufacturers/,DM,Hypnos Limited,,,http://www.hypnosbeds.com/,sleep@hypnosbeds.com,01844 348 200,,"Longwick Road, Princes Risborough, Buckinghamshire, HP27 9RT",,Beds and mattresses,,,Sleep sustainably - wake up beautifully
Furniture Manufacturers,02/01/2022,2022,https://www.bfm.org.uk/directory/furniture-manufacturers/,DM,Hunter Knight Upholstery Limited,,,http://www.hunterknight.co.uk/,info@hunterknight.co.uk,0115 973 3446,,"Unit 11, Harrington Mills, Leopold Street, Long Eaton, Nottingham, NG10 4QE",,Sofas and armchairs,,,British manufacturer who designs and produces high quality sofas and bespoke furniture
Furniture Manufacturers,02/01/2022,2022,https://www.bfm.org.uk/directory/furniture-manufacturers/,DM,Hyder Beds Ltd,,,http://www.hyderbedsltd.com/,info@hyderbedsltd.com,01924 462616,,"Kashmir House, Bradford Street, Dewsbury, West Yorkshire, WF13 1EN",,Beds and mattresses,,,Dedicated to exceeding expectations
Furniture Manufacturers,02/01/2022,2022,https://www.bfm.org.uk/directory/furniture-manufacturers/,DM,JDD Furniture Ltd,,,https://www.jddfurniture.com/,info@jddfurniture.com,0121 5172310,,"96C Carver Street, Birmingham, B1 3AL",,Bespoke furniture | Dining seating and stools | Dining tables | Occasional | Other | Outdoor | Sofas and armchairs,,,Designed For doing
Furniture Manufacturers,02/01/2022,2022,https://www.bfm.org.uk/directory/furniture-manufacturers/,DM,Hush / Sleep Collection,,,http://www.hush-collection.com/,orders@hush-collection.com,01225 779135,,"Canal Road, Trowbridge, Wiltshire, BA14 8RQ",,Beds and mattresses,,,The mattress that defines you
Furniture Manufacturers,02/01/2022,2022,https://www.bfm.org.uk/directory/furniture-manufacturers/,DM,Highgrove Beds Group Hospitality & Contract Collection,,,http://highgrovebedsgroup.co.uk,info@highgrovebeds.co.uk,+44 (0) 1924 406600,,"Headlands Road, Liversedge, WF15 6QA",,Beds and mattresses,,,"Specialists bed makers for hotels, cruise ships and guest houses"
Furniture Manufacturers,02/01/2022,2022,https://www.bfm.org.uk/directory/furniture-manufacturers/,DM,Highgrove Beds Group,,,http://highgrovebedsgroup.co.uk,info@highgrovebeds.co.uk,+44 (0) 1924 406600,,"Headlands Road, Liversedge, WF15 6QA",,Beds and mattresses,,,"Highgrove Beds Group is a well-established, ambitious UK bed manufacturer"
Furniture Manufacturers,02/01/2022,2022,https://www.bfm.org.uk/directory/furniture-manufacturers/,DM,Malax Bespoke Building Ltd,,,http://malax.co.uk/,info@malax.co.uk,0208 9355 058,,"Unit 935 Yeovil Road, Slough Trading Estate, Slough, SL1 4NH",,Bespoke furniture | Dining tables | Home office | Outdoor,,,Excellence and Professionalism
Furniture Manufacturers,02/01/2022,2022,https://www.bfm.org.uk/directory/furniture-manufacturers/,DM,Made Bedrooms & Interiors,,,https://madebedrooms.co.uk/,info@madebedrooms.co.uk,01536 697996,,"6-8 Brunel Road, Corby,, Northamptonshire,, NN17 4JW, Corby, NN17 4JW",,"Bedroom furniture | Cabinets, storage and shelving",,,Made-to-Measure Quality Fitted Wardrobes
Furniture Manufacturers,02/01/2022,2022,https://www.bfm.org.uk/directory/furniture-manufacturers/,DM,Lebus Upholstery,,,http://lebus.co.uk/,sales@lebus.co.uk,01724 407751,,"Queensway Ind. Est, Dunlop Way, Scunthorpe, Lincolnshire, DN16 3RN",,Sofas and armchairs,,,Furniture made with love for 180 years
Furniture Manufacturers,02/01/2022,2022,https://www.bfm.org.uk/directory/furniture-manufacturers/,DM,London Cabinet Makers,,,http://www.londoncabinetmakers.com/,info@londoncabinetmakers.com,0143 881 6773,,"The Barns, Bury Farm, Hollybush Lane, Datchworth, Hertfordshire, SG3 6RE",,"Bespoke furniture | Cabinets, storage and shelving | Dining seating and stools | Dining tables | Home entertainment | Home office | Kitchens | Occasional",,,True British Craftwork
Furniture Manufacturers,02/01/2022,2022,https://www.bfm.org.uk/directory/furniture-manufacturers/,DM,Long Eaton Craft & Design Company,,,https://www.longeatoncraft.design/,konrad@longeatoncraft.design,0115 946212,,"Unit 1, Milner Road,, Long Eaton, NG10 1LB",,Sofas and armchairs,,,"Passionate about quality, design and detail"
Furniture Manufacturers,02/01/2022,2022,https://www.bfm.org.uk/directory/furniture-manufacturers/,DM,Lady Clare Ltd,,,http://www.lady-clare.com/,info@lady-clare.com,01453 824 482,,"Oldends Lane Industrial Estate, Stonehouse, Gloucestershire, GL10 3RQ",,Occasional | Other,,,Lady Clare has been supplying hand crafted placemats and home accessories since 1932
Furniture Manufacturers,02/01/2022,2022,https://www.bfm.org.uk/directory/furniture-manufacturers/,DM,John Lewis of Hungerford,,,https://www.john-lewis.co.uk/,contactus@john-lewis.co.uk/,01235 774300,,"Grove Technology Park, Downsview Rd, Wantage, OX12 9FA",,"Bedroom furniture | Beds and mattresses | Bespoke furniture | Cabinets, storage and shelving | Dining seating and stools | Dining tables | Kitchens | Occasional",,,British design
Furniture Manufacturers,02/01/2022,2022,https://www.bfm.org.uk/directory/furniture-manufacturers/,DM,Kayflex,,,http://kayflex.co.uk/,sales@kayflex.co.uk,01924 453331,,"Ravensthorpe Mills, Huddersfield Rd, Dewsbury, WF13 3NA",,Beds and mattresses | Bespoke furniture,,,A leading UK memory foam mattress manufacturer
Furniture Manufacturers,02/01/2022,2022,https://www.bfm.org.uk/directory/furniture-manufacturers/,DM,Joseph Flanigan & Sons Ltd,,,http://flaniganfurniture.com/,mail@flaniganfurniture.com,+44 (028) 3887 1208,,"27 Tandragee Street, Richhill, County Armagh, BT61 9PS",,Office,,,Quality office furniture
Furniture Manufacturers,02/01/2022,2022,https://www.bfm.org.uk/directory/furniture-manufacturers/,DM,Knight Sleep Ltd,,,https://www.knight-sleep.com,info@knight-sleep.com,01924 451223,,"Unit 3,Ground floor, Carr Mills, 162 Bradford RD, Dewsbury, West Yorkshire, WF13 2HA",,Beds and mattresses | Bespoke furniture,,,Quality products
Furniture Manufacturers,02/01/2022,2022,https://www.bfm.org.uk/directory/furniture-manufacturers/,DM,MiChair,,,http://www.furmanac.co.uk/michair_75.html,info@furmanac.com,+44 (0)1384 408844,,"Unit 71, The Pensnett Estate, Third Avenue, Kingswinford, West Midlands, DY6 7FF",,Rise/ recliners | Sofas and armchairs,,,The Michair range of lift and recliner chairs by Furmanac are proudly hand-made in the UK
Furniture Manufacturers,02/01/2022,2022,https://www.bfm.org.uk/directory/furniture-manufacturers/,DM,moresleep,,,http://moresleepbeds.com,info@moresleepbeds.co.uk,+44(0) 1924 406600,,"Headlands Road, Liversedge, WF15 6QA",,Beds and mattresses,,,For people who want more
Furniture Manufacturers,02/01/2022,2022,https://www.bfm.org.uk/directory/furniture-manufacturers/,DM,MG Designs Upholstery,,,http://www.mgdesignsupholstery.co.uk/,Martin@mgdesignsupholstery.co.uk,0115 946 4888,,"Leopold St, Long Eaton, NG10 4QE",,Sofas and armchairs,,,Classic designs
Furniture Manufacturers,02/01/2022,2022,https://www.bfm.org.uk/directory/furniture-manufacturers/,DM,Myer Adams (UK) Ltd,,,http://www.myeradams.co.uk/,sales@myeradams.com,+(0)1924 444 463,,"Unit 1, Grange Road Industrial Estate, Grange Road, Batley, West Yorkshire, WF17 6LN",,Beds and mattresses,,,Bed manufacturers & mattress manufacturers
Furniture Manufacturers,02/01/2022,2022,https://www.bfm.org.uk/directory/furniture-manufacturers/,DM,Michael Tyler Furniture Ltd,,,http://www.michael-tyler.co.uk,info@michael-tyler.co.uk,01424 756675,,"Woodlands Way, The Ridge, Hastings, East Sussex, TN34 2RY",,Sofas and armchairs,,,Michael Tyler Furniture Ltd is one of Britain’s leading manufacturers of high quality upholstered furniture
Furniture Manufacturers,02/01/2022,2022,https://www.bfm.org.uk/directory/furniture-manufacturers/,DM,Millbrook Beds,,,https://www.millbrook-beds.co.uk/,enquiries@millbrook-beds.com,023 8086 6111,,"Calmore Industrial Park, Totton, Southampton, SO40 3XJ, Totton, Southampton, SO40 3XJ",,Beds and mattresses,,,Millbrook Beds - A perfect Sleep
Furniture Manufacturers,02/01/2022,2022,https://www.bfm.org.uk/directory/furniture-manufacturers/,DM,MiBed,,,http://furmanac.co.uk/mibed_2.html,info@furmanac.com,+44 (0)1384 408844,,"Unit 71, The Pensnett Estate, Third Avenue, Kingswinford, West Midlands, DY6 7FF",,Beds and mattresses,,,The MiBed range by Furmanac is the UK’s largest bed brand specialising in adjustable beds
Furniture Manufacturers,02/01/2022,2022,https://www.bfm.org.uk/directory/furniture-manufacturers/,DM,Norris Bedding Ltd,,,https://norrisbedding.co.uk/,office@norrisbedding.co.uk,020 7274 5306,,"Unit 2, Belvedere Business Park, Crabtree Manorway South, Belvedere, SE5 9PU",,Beds and mattresses,,,The Beginning
Furniture Manufacturers,02/01/2022,2022,https://www.bfm.org.uk/directory/furniture-manufacturers/,DM,Romantica Beds,,,http://laromanticabeds.com/,info@laromanticabeds.com,01924 402 258,,"Moorbank Mills, Artillery St, Heckmondwike, West Yorkshire, WF16 0NT",,Beds and mattresses,,,Our vision
Furniture Manufacturers,02/01/2022,2022,https://www.bfm.org.uk/directory/furniture-manufacturers/,DM,MA Living Ltd,,,http://maliving.co.uk/,sales@maliving.co.uk,+44 (0) 1924 457 333,,"Unit B & C Treefield Industrial eastate, Geldard Road, Gildersome, LS27 7JU, Gomersal, West Yorkshire, LS27 7JU",,Beds and mattresses | Sofas and armchairs,,,Quality furniture in the heart of yorkshire
Furniture Manufacturers,02/01/2022,2022,https://www.bfm.org.uk/directory/furniture-manufacturers/,DM,Rushmere Beds & Chairs Ltd,,,https://www.rushmeremobility.co.uk/,customerservices@rushmeremobility.co.uk,0800 195 1338,,"22 Neville Court, Castle Lane, Warwick, CV34 4EZ",,Beds and mattresses | Rise/ recliners | Sofas and armchairs | Stairlifts,,,The Rushmere Promise
Furniture Manufacturers,02/01/2022,2022,https://www.bfm.org.uk/directory/furniture-manufacturers/,DM,Sanctum,,,http://sanctumbeds.co.uk,info@sanctumbeds.co.uk,+44(0) 1924 406600,,"Headlands Road, Liversedge, WF15 6QA",,Beds and mattresses,,,An exciting premium brand featuring a wide range of luxury pocket sprung beds crafted by expert hands right here in the UK
Furniture Manufacturers,02/01/2022,2022,https://www.bfm.org.uk/directory/furniture-manufacturers/,DM,Maysons furniture,,,http://maysonsfurniture.com/#0,info@maysonsfurniture.com,+44 0121 766 6492,,"Bisley Works, Golden Hillock Rd, Birmingham, B11 2PZ",,Bedroom furniture,,,Maysons furniture has over 25 years' experience in the design and manufacture of bedroom furniture
Furniture Manufacturers,02/01/2022,2022,https://www.bfm.org.uk/directory/furniture-manufacturers/,DM,Revival Beds,,,http://www.revivalbeds.co.uk/,info@revivalbeds.co.uk,01777 869 669,,"Beehive Street, Retford, Nottinghamshire, DN22 6JE",,"Bedroom furniture | Beds and mattresses | Bespoke furniture | Cabinets, storage and shelving | Occasional",,,Hand-built for a lifetime
Furniture Manufacturers,02/01/2022,2022,https://www.bfm.org.uk/directory/furniture-manufacturers/,DM,Shepherd PR,,,http://www.bfm.org.uk/,info@bfm.org.uk,0120546368,,"Bloxham Mill Business Centre, Barford Road, Bloxham, Banbury, Oxfordshire, OX15 4FF, Banbury, Oxfordshire, OX15 4FF",,Business Support | Services to the trade,,,Representing the British furniture industry for more than 60 years
Furniture Manufacturers,02/01/2022,2022,https://www.bfm.org.uk/directory/furniture-manufacturers/,DM,One Call Furniture Ltd,,,http://www.1cfl.co.uk/,sales@1cfl.com,0845 108 4084,,"Unit 1, Maybells Commercial Estate, Ripple Road, Barking, IG11 OTP",,Bedroom furniture,,,Furniture is the moveable decoration that can characterize the fashion of a time period...
Furniture Manufacturers,02/01/2022,2022,https://www.bfm.org.uk/directory/furniture-manufacturers/,DM,Recliner Chairs and Beds Ltd,,,https://www.reclinerchairsandbeds.co.uk,samantha@reclinerchairsandbeds.co.uk,(0115) 880 0110,,"Unit 3 Paragon Works, Wilsthorpe Road, Long Eaton, Nottinghamshire, NG10 3JW",,Beds and mattresses | Rise/ recliners | Sofas and armchairs,,,"We believe that everyone should have access to quality, value for money products that make life easier"
Furniture Manufacturers,02/01/2022,2022,https://www.bfm.org.uk/directory/furniture-manufacturers/,DM,Parker Knoll,,,http://www.parkerknoll.co.uk/,sales@parkerknoll.co.uk,01773 604121,,"Castlewood Business Park, Farmwell Lane, Sutton In Ashfield, Nottinghamshire, NG17 1BX",,Rise/ recliners | Sofas and armchairs,,,Parker Knoll is well renowned for designing and developing the best of British sofas and chairs to the highest possible quality
Furniture Manufacturers,02/01/2022,2022,https://www.bfm.org.uk/directory/furniture-manufacturers/,DM,OMK Design Limited,,,http://www.omkdesign.com/,enquiries@omkdesign.com,020 7631 1335,,"Stephen Buildings, 30 Stephen Street, London, W1T 1QR",,Contract Seating | Dining seating and stools | Occasional | Outdoor,,,OMK Design Ltd is a private limited company founded in 1964 and has traded for over 35 years as a furniture designer and manufacturer.
Furniture Manufacturers,02/01/2022,2022,https://www.bfm.org.uk/directory/furniture-manufacturers/,DM,Oak Tree Mobility,,,http://www.oaktreemobility.co.uk/,online@oaktreemobility.co.uk,0800 999 2781,,"St James Court, Cannon Street, Bristol, BS1 3LH",,Bathrooms | Beds and mattresses | Bespoke furniture | Rise/ recliners | Sofas and armchairs | Stairlifts,,,"Quality, service, great price"
Furniture Manufacturers,02/01/2022,2022,https://www.bfm.org.uk/directory/furniture-manufacturers/,DM,Swanglen Furnishings,,,http://www.swanglen.co.uk/,sales@swanglen.co.uk,+44(0)117 971 1200,,"Unit G, St. Vincent's Trading Estate, Bristol, BS2 0UY",,Beds and mattresses | Sofas and armchairs | Soft furnishings and accessories,,,A leading UK bedroom furniture and headboard manufacturer
Furniture Manufacturers,02/01/2022,2022,https://www.bfm.org.uk/directory/furniture-manufacturers/,DM,Sherborne Upholstery Limited,,,http://www.sherborneupholstery.co.uk/,sales@sherborne-uph.co.uk,01274 882633,,"Pasture Lane, Clayton, Bradford, West Yorkshire, BD14 6LT",,Beds and mattresses | Rise/ recliners | Sofas and armchairs,,,The home of relaxation
Furniture Manufacturers,02/01/2022,2022,https://www.bfm.org.uk/directory/furniture-manufacturers/,DM,Stoneham,,,http://www.stoneham-kitchens.co.uk/,kitchens@stoneham.plc.uk,020 8300 8181,,"Powerscroft Road, Footscray, Sidcup, Kent, DA14 5DZ",,Kitchens,,,You don’t just buy a Stoneham kitchen; you invest in one
Furniture Manufacturers,02/01/2022,2022,https://www.bfm.org.uk/directory/furniture-manufacturers/,DM,Sofa Brands International Limited,,,http://www.sofabrands.com/,enquiries@sofabrands.com,01225 792383,,"Hampton Business Park, Melksham, Wiltshire, SN12 6GU",,Rise/ recliners | Sofas and armchairs,,,"SBI serves the UK's mid to high end sofa market. Our brands,"
Furniture Manufacturers,02/01/2022,2022,https://www.bfm.org.uk/directory/furniture-manufacturers/,DM,Steve Bristow Furniture,,,http://stevebristowfurniture.co.uk/,info@stevebristowfurniture.co.uk,01626 330 337,,"Unit 2 Heywood Estate, Pottery Road, Kingsteignton, Newton Abbot, Devon, TQ12 3RS",,Bespoke furniture | Dining seating and stools | Dining tables | Glass and stone furniture | Occasional | Outdoor,,,Stonemason meets modern design
Furniture Manufacturers,02/01/2022,2022,https://www.bfm.org.uk/directory/furniture-manufacturers/,DM,tetrad,,,http://www.tetrad.co.uk/,info@tetrad.co.uk,(01772) 792936,,"Hartford Mill, Swan Street, Preston, Lancashire, PR1 5PQ",,Sofas and armchairs,,,Over 50 years of handcrafted quality
Furniture Manufacturers,02/01/2022,2022,https://www.bfm.org.uk/directory/furniture-manufacturers/,DM,Silentnight Group,,,http://www.silentnightgroup.co.uk/,enquiries@silentnightgroup.co.uk,01282 813051,,"Long Ing Business Park, Long Ing Lane, Barnoldswick, Lancashire, BB18 6BJ",,Beds and mattresses,,,Our Brands
Furniture Manufacturers,02/01/2022,2022,https://www.bfm.org.uk/directory/furniture-manufacturers/,DM,Soane Britain,,,http://www.soane.co.uk/,shop@soane.co.uk,+44 (0) 20 7730 6400,,"50-52 Pimlico Road, London, SW1W 8LP",,Dining seating and stools | Dining tables | Lighting | Mirrors | Outdoor | Sofas and armchairs | Soft furnishings and accessories,,,"Soane Britain designs and makes furniture, upholstery, lighting, fabrics, wallpapers and interior necessitie"
Furniture Manufacturers,02/01/2022,2022,https://www.bfm.org.uk/directory/furniture-manufacturers/,DM,Snooze Sleep Ltd,,,https://snoozesleep.co.uk/,sales@snoozesleep.co.uk,01924 666 781,,"Unit 8-9 Saville Business Centre, Mill Street East, Dewsbury, WF12 9AH",,Beds and mattresses,,,At Snooze Sleep we believe in the comfort that adds value to your being.
Furniture Manufacturers,02/01/2022,2022,https://www.bfm.org.uk/directory/furniture-manufacturers/,DM,Sitting Pretty by Pride Mobility Limited,,,http://www.spchairs.co.uk/,sales@spchairs.co.uk,01773 811 610,,"Factories 2 & 3, Dunsil Road, Brookhill Industrial Estate, Pinxton, Nottinghamshire, NG16 6LE",,Beds and mattresses | Rise/ recliners | Sofas and armchairs,,,Here at Sitting Pretty we are extremely passionate about our furniture
Furniture Manufacturers,02/01/2022,2022,https://www.bfm.org.uk/directory/furniture-manufacturers/,DM,Welcome Furniture Limited,,,http://www.welcomefurniture.co.uk/,sales@welcomefurniture.co.uk,08445 883 353,,"Cibyn Industrial Estate, Caernarfon, Gwynedd, LL55 2BD",,Bedroom furniture | Dining seating and stools | Dining tables | Occasional,,,...ready assembled quality bedroom & living room furniture
Furniture Manufacturers,02/01/2022,2022,https://www.bfm.org.uk/directory/furniture-manufacturers/,DM,Westbridge Furniture Designs Limited,,,http://www.westbridgefurniture.com/,sales@westbridgefurniture.com,01352 714131,,"Unit 1 Tenth Avenue, Zone 3, ,, Deeside Industrial Park, Deeside, Clywd, CH5 2UA",,Sofas and armchairs,,,We develop the finest furniture designs using the highest quality materials to the exacting standards
Furniture Manufacturers,02/01/2022,2022,https://www.bfm.org.uk/directory/furniture-manufacturers/,DM,TurnPost,,,http://turnpost.co.uk/,vanessa@turnpost.co.uk,01937 572570,,"Jordans House, Leeds Road, Collingham, West Yorkshire, LS22 5AA",,Beds and mattresses | Bespoke furniture,,,Luxury four poster beds
Furniture Manufacturers,02/01/2022,2022,https://www.bfm.org.uk/directory/furniture-manufacturers/,DM,Vale Bridgecraft,,,https://www.valebridgecraft.co.uk/,office@valebridgecraft.co.uk,01422 885000,,"Greenhill Industrial Estate, Mytholmroyd, Hebden Bridge, West Yorkshire, HX7 5QF",,Rise/ recliners | Sofas and armchairs,,,The art of the craft
Furniture Manufacturers,02/01/2022,2022,https://www.bfm.org.uk/directory/furniture-manufacturers/,DM,Wheatcroft Beds,,,https://www.wheatcroftbeds.co.uk/,info@wheatcroftbeds.co.uk,01924 488145,,"Wheatcroft Mills, Town Street, Dewsbury, West Yorkshire, WF13 2HG",,Beds and mattresses,,,Quality beds without compromise
Furniture Manufacturers,02/01/2022,2022,https://www.bfm.org.uk/directory/furniture-manufacturers/,DM,Vispring,,,https://www.vispring.com/en-uk/,info@vispring.com,+44 1752 366311,,"Ernesettle Lane, Ernesettle, Plymouth, PL5 2TT",,Beds and mattresses,,,The finest handmade beds / 100 years in the making
Furniture Manufacturers,02/01/2022,2022,https://www.bfm.org.uk/directory/furniture-manufacturers/,DM,Welters Organisation Worldwide,,,http://www.welters-worldwide.com/,admin@welters-worldwide.com,08702 416 422,,"PO Box 159, Carlisle, CA2 5BG",,"Bespoke furniture | Cabinets, storage and shelving | Dining seating and stools | Dining tables | Occasional",,,Furniture design and innovation
Furniture Manufacturers,02/01/2022,2022,https://www.bfm.org.uk/directory/furniture-manufacturers/,DM,The Lounge Co. (Furniture) Limited,,,https://www.theloungeco.com/,customercare@theloungeco.com,01225 792 333,,"104 - 108 Chiswick High Road, Chiswick, London, W4 1PU",,Sofas and armchairs,,,We at The Lounge Co. know what makes a great sofa
Furniture Manufacturers,02/01/2022,2022,https://www.bfm.org.uk/directory/furniture-manufacturers/,DM,The Cane Industries (UK) Ltd,,,http://www.caneindustries.co.uk/,jonathan@caneindustries.co.uk,+44 (0)1582 727 123,,"2B Laporte Way, Luton, Bedfordshire, LU4 8RJ",,Dining seating and stools | Dining tables | Occasional | Rise/ recliners | Sofas and armchairs,,,Proud British Business with first class service and products of highest quality
Furniture Manufacturers,02/01/2022,2022,https://www.bfm.org.uk/directory/furniture-manufacturers/,DM,William Hands,,,http://williamhands.com/,hello@WilliamHands.com,01494 524222,,"36 Dashwood Avenue, High Wycombe, Buckinghamshire, HP12 3DX",,Office,,,"Exceptional service, craftsmanship and design"
Furniture Manufacturers,02/01/2022,2022,https://www.bfm.org.uk/directory/furniture-manufacturers/,DM,Wren Kitchens,,,https://www.wrenkitchens.com/,customercare@wrenkitchens.com,01652 248480,,"The Nest, Falkland Way, Barton-upon-Humber, DN18 5RL",,Kitchens,,,Widest range in the UK - Kitchens are unique as you are
Furniture Manufacturers,02/01/2022,2022,https://www.bfm.org.uk/directory/furniture-manufacturers/,DM,Whitemeadow Furniture,,,http://www.whitemeadow.com,enquiries@whitemeadow.com,01623 555660,,"Orchard Way, Calladine Business Park, Sutton in Ashfield, Nottinghamshire, NG17 1JU",,Beds and mattresses | Sofas and armchairs,,,Whitemeadow is the largest independently owned upholstery manufacturer in Britain today
Furniture Manufacturers,02/01/2022,2022,https://www.bfm.org.uk/directory/furniture-manufacturers/,DM,The Chaise Longue Company Limited,,,http://www.thechaiselongueco.co.uk/home,info@thechaiselongueco.co.uk,+44 (0)1482 22 23 06,,"15 Boulevard Unit Factory Estate, Boulevard, Hull, HU3 4AY",,Sofas and armchairs,,,"Individual, Stylish & Versatile"
