ShowName,ShowDate,ShowYear,ShowWebsite,SubmittedBy,ExhibitorName,BoothNumber,HallLocation,Website,Email,Phone,Fax,Address,Country,Categories,Manufacturers,Brands,Description
Intergift,02/02/2022,2022,https://www.ifema.es/en/intergift,DM,DOSFER CUADROS Y ESPEJOS,3E14,,http://www.dosfer.com,,+34 637 44 96 02,,"GUIPÚZCOA, ORIA ETORBIDEA 4/1, 20160",ESPAÑA,Productos,,,"Enmarcaciones Dósfer somos una empresa con varias décadas de experiencia en el sector de la decoración. Empezamos con un pequeño negocio de enmarcación y crecimos hasta abarcar diferentes sectores. Ahora mismo, gracias a nuestros diferentes catálogos con sus más de 6.000 referencias, estamos orgullosos de trabajar con grandes decoradores, múltiples tiendas de decoración, distribuidores internacionales y grandes superficies. En Enmarcaciones Dósfer también nos hemos encargado de la fabricación de los cuadros en múltiples residencias, hoteles, museos y edificios institucionales. Los cuadros de Enmarcaciones Dósfer decoran las paredes de residencias de empresas como Geriatros, Caser, Fundosa o Lamorous. También en hoteles de las cadenas Radisson, Elba, Los Jándalos, Barceló o Aránzazu entre otros.
Uno de los puntos fuertes de nuestra empresa es que, además de las miles de referencias ya disponibles en nuestros catálogos, tenemos la posibilidad de diseñar e imprimir nuestras láminas. En Enmarcaciones Dósfer tenemos la posibilidad de proporcionar cuadros con tamaños y motivos adecuados para cada instalación, adaptándonos a los gustos, demandas y necesidades del cliente.
Imprimimos sobre canvas, papel recubierto, papel fotográfico o papel artesano, siempre con tintas UV que garantizan la conservación de los colores. Disponemos de un amplio catálogo de molduras y montajes –con cristal, arraglas, barnizado sobre tabla, en lienzo con bastidor– para poder adaptarnos a cualquier requisito estético o norma de seguridad. Así mismo ponemos a disposición del cliente la posibilidad de encargarnos de la instalación y colocación de los cuadros en destino."
Intergift,02/02/2022,2022,https://www.ifema.es/en/intergift,DM,DECO HOME AND GARDEN,5D10,,http://www.decohg.com,,+34 683 15 99 31,,"BARCELONA, OSONA, Nº 9 BIS, 08551",ESPAÑA,Productos,,,"Somos una empresa distribuidora de productos de decoración
de la casa, del jardín y en especial decoración de la mesa. Tenemos más de 20
años de experiencia en el sector y ofrecemos las últimas tendencias
adaptándonos a las necesidades de nuestros clientes. Estamos siempre orientados
a su satisfacción y de entre las firmas que distribuimos destaca la empresa
holandesa Ambiente Europe."
Intergift,02/02/2022,2022,https://www.ifema.es/en/intergift,DM,EXCLUSIVAS CAMACHO,5C01,,http://www.e-camacho.com,,95-2322900,,"MÁLAGA, AVDA. ORTEGA Y GASSET,309-P.I. SAN LUIS, 29006",ESPAÑA,Productos,,,"Empresa española dedicada a la importación y distribución  de artículos de regalo y decoración. Fundada en 1964. 
Disponemos de unas modernas instalaciones  con una superficie util de 18.000 m2, y almacenes con capacidad de carga de 16.000 europalets, gestionados con un avanzado sistema logístico .
Ademas de nuestro Show-room, contamos con una extensa red comercial que comprende diversos mercados como España, Portugal e Italia."
Intergift,02/02/2022,2022,https://www.ifema.es/en/intergift,DM,FOIMPEX,3C16,,http://www.foimprex.com.es,ventas@foimpex.es,93-2968882,,"Barcelona, Crom 25, 08940",España,Productos,,,"Con 40 años de experiencia, en Foimpex imaginamos, diseñamos y seleccionamos los mejores artículos de cada temporada para crear cada colección. Nuestro objetivo es compartir, sorprender, vivir con nuestros clientes las nuevas tendencias en decoración y las últimas novedades en regalo.
  Nos gusta mimar los detalles en cada uno de los productos, desde que nacen hasta que llegan al cliente. Nos esforzamos en avanzarnos y reinventarnos para ofrecer tendencias acogedoras, diferentes y especiales. El maravilloso mundo de la decoración, cada vez más exigente, valora la innovación continua y la creación constante.
  Agradecemos a nuestros clientes su confianza y que nos permitan compartir con ellos nuestra pasión por este mundo."
Intergift,02/02/2022,2022,https://www.ifema.es/en/intergift,DM,COORDONNE,1D04,,http://www.coordonne.com,,+34933227314,,"BARCELONA, Bajo, 08004",ESPAÑA,Productos,,,"Editor of wallpapers, fabrics and decorative paints from Barcelona since 1978."
Intergift,02/02/2022,2022,https://www.ifema.es/en/intergift,DM,DECORAGLOBA,5E10,,http://www.decoragloba.com,info@decoragloba.com,96-3381717,,"Valencia, PASAJE DR. BARTUAL MORET , 5 B, 46010",España,Productos,,,"Mayorista de velas decorativas perfumadas, difusores mikado y ambientadores para el hogar. Suministramos productos de decoración relacionados con la iluminación natural. Para personalizar y diseñar ambientes con estilo e identidad.Fabricamos artesanalmente nuestras fragancias del hogar, con materias primas naturales, cera 100% vegetal y mecha de algodón natural. Aromas que transmiten sensaciones y que te hacen viajar a otros lugares, e incluso a tus recuerdos, a través de la memoria olfativa. Descubre nuestras colecciones de fragancias.Le invitamos a visitar nuestra web para conocer más sobre Decoragloba."
Intergift,02/02/2022,2022,https://www.ifema.es/en/intergift,DM,CRISAL DECORACION,3A05,,http://www.crisaldecoracion.com,,95-2040038,,"MÁLAGA, CALLE PARIS, NUM. 31  POL. SAN LUIS, 29006",ESPAÑA,Productos,,,"Crisal Decoracion
Crisal Decoracion nace en los años 90 apostando con fuerza por la belleza y la calidad en el mundo de la decoración. Durante todo este tiempo, nos hemos distinguido por el buen servicio ofrecido y por la gran experiencia tanto en el sector residencial como el de ""contract"". Nuestro mobiliario se encuentra presente en instalaciones decoradas por interiorista de primera línea. 
Además, les ofrecemos muebles de última tendencia y disponibilidad inmediata en la mayoría de los casos, debido al volumen de stocks disponible. Nuestros muebles son elaborados de forma artesanal, con maderas macizas y acabados naturales, aportando a nuestros productos un carácter especial y único.
En nuestra web podrán visualizar todos nuestros productos y consultar todo tipo de detalles y características de los mismos."
Intergift,02/02/2022,2022,https://www.ifema.es/en/intergift,DM,FISURA,7B05,,http://www.fisura.com,,659-093590,,"LEÓN, CTRA. GIJÓN-SEVILLA PK 154 NAVE 2, 24231",ESPAÑA,Productos,,,"ELIGE QUÉ Y CÓMO QUIERES VIVIR...

En Fisura siempre miramos hacia delante con firmeza y optimismo. En estos últimos meses hemos aprendido que la esencia de la vida está en sentirse a gusto en cualquier lugar y ante cualquier circunstancia. La búsqueda de ese sentimiento es lo que nos ha animado más aún a trabajar para inundar nuestra nueva colección de luz, color, aroma, asertividad, diversión y para haceros experimentar estas buenas sensaciones.

En esta colección AW2021 continuamos con la misma tendencia alegre, original y canalla que nos define. Ampliamos líneas de productos y presentamos novedades con las que nuestros clientes se sentirán realmente identificados con nuestra marca. Además te presentamos colecciones formadas por distintas lineas de producto basadas en la misma temática para ponerte más fácil crear distintos ambientes.

CHOOSE WHAT AND HOW YOU WANT TO LIVE......

At Fisura we’re always looking forward with firmness and optimism. During last months we have learnedthat the essence of life is to feel at ease in any place and in any circumstance. The search for this feeling is what has encouraged us to work even harder to flood our new collection with light, colour, scent, assertiveness, fun and to make you experience these good feelings.

In this AW2021 collection we continue with the same cheerful, original and scoundrel trend that defines us. We are extending our product lines and presenting new products with which our customers will feel truly identified with our brand. We also present collections made up of different product lines based on the same theme to make it easier for you to create different atmospheres.

CHOISISSEZ CE QUE VOUS VOULEZ VIVRE...

Chez Fisura, nous regardons toujours vers l’avenir avec fermeté et optimisme. Ces derniers mois, nous avons appris que l’essence de la vie est de sentir à l’aise en tout lieu et en toute circonstance. C’est la recherche de ce sentiment qui nous a incités à travailler encore plus dur pour inonder notre nouvelle collection de lumière, de couleurs, d’arômes, d’affirmation de soi, de plaisir et pour vous faire vivre ces bonnes sensations.

Dans cette collection AW2021 nous continuons avec la même tendance joyeuse, originale et voyou qui nous définit. Nous élargissons nos lignes de produits et présentons de nouveaux produits avec lesquels nos clients se sentiront vraiment identifiés à notre marque. Nous présentons également des collections composées de différentes lignes de produits basées sur le même thème afin de vous permettre de créer plus facilement différentes atmosphères. 

Página web de FISURA"
Intergift,02/02/2022,2022,https://www.ifema.es/en/intergift,DM,CAIMANA S.A.,3C03,,http://www.caimana.es,,91-6420319,,"MADRID, GUADALQUIVIR, 7. - P.I. COBO CALLEJA, 28947",ESPAÑA,Productos,,,
Intergift,02/02/2022,2022,https://www.ifema.es/en/intergift,DM,#AUM - Popat Store Lda,5A16,,http://www.aum.pt,popatstore@hotmail.com,+351937260332,,"RUA QUINTA DOS ALAMOS, LT30,, 2625-577",PORTUGAL,Productos,,,"A Popat Store Importação e Exportação Lda é uma empresa  sediada em Portugal, com uma experiencia 25 anos no mercado europeu, sobretudo ibérico, e com o objetivo principal de satisfazer os seus clientes e pareceiros com os variados produtos alimentares, aromáticos e decoração, especialmente orientais.A AUM Fragrances é uma das marcas especializadas na destinção dos produtos aromáticos de alta qualidade e amigos do ambiente. Incensos, Velas, Difusores, Óleos e muitos outros aromatizantes estão incluidos no leque das ofertas.Representamos também as marcas melhor conceituadas e bem conhecidas a nível mundial de incenso e óleos aromáticos, como a Goloka, HEM, Cycle, Flute, Satya, Parimal."
Intergift,02/02/2022,2022,https://www.ifema.es/en/intergift,DM,CERABELLA,5E08,,http://www.cerabella.com,comercial@cerabella.com,+34937153102,,"BARCELONA, CL CEMENTERI NOU, 6, 08181",ESPAÑA,Productos,,,"Cerabella es una manufactura artesanal de velas establecida en 1862 en Barcelona; una cerería en la que la tradición y la artesanía se combinan con la creatividad y la innovación para desarrollar, a partir de las mejores materias primas naturales, velas de alta gama y calidad excepcional, que incluyen múltiples y diversos proyectos de cera y velas personalizadas."
Intergift,02/02/2022,2022,https://www.ifema.es/en/intergift,DM,BRUCS,3C01,,http://www.brucs.com,,972-821962,,"GIRONA, Carrer Taper, 6-16, 17220",ESPAÑA,Productos,,,"Brucs fue creada en 1991 con un principio fundamental, entender el diseño de interiores como una forma única de crear estados de ánimo y sentimientos. Desde entonces crean colecciones con una clara identidad y sofisticación con el deseo de pasar los límites de lo estándar. 
Esto se traduce en una colección que ofrece un concepto integral de decoración, incluyendo muebles, iluminación, accesorios de decoración y tapizados, todo ello creado a partir de una combinación de colores, materiales y texturas únicas.   
Brucs tiene un marcado espiritu internacional, exportando a muchos países sus productos. Entre su tipologia de clientes hay las tiendas Retail, con una red de colaboradores muy extensa, y el Contract, realizando proyectos con los mejores arquitectos y estudios del sector."
Intergift,02/02/2022,2022,https://www.ifema.es/en/intergift,DM,ANA CABELLO ORTIZ,3D17,,http://www.karaventura.com,,957-684616,,"CÓRDOBA, CL RABADANES, 5 LOCAL, 14540",ESPAÑA,Productos,,,"Kara Ventura es un estudio de creación e impresión decorativa de papel pintado, murales lienzos y Pantallas para Lámparas
Partiendo de nuestros diseños, creamos colecciones decorativas de papel de pared, lienzos, papeles autoadhesivos, lámparas etc. que combinan perfectamente entre ellos, para que consigas tu espacio exclusivo, reflejo de tu personalidad."
Intergift,02/02/2022,2022,https://www.ifema.es/en/intergift,DM,BALCOSTA,5A10,,http://www.balcosta.com,,968-895555,,"MURCIA, CL URUGUAY, S/N.PARC. 14/13 P.I. OESTE, 30820",ESPAÑA,Productos,,,"Balcosta - una empresa familiar con más de 40 años de experiencia,especializada en la venta de artículos de decoración.Desde 1979 siempre ha sido un líder en el sector de interiorismo , ofreciendo a sus clientes las últimas tendencias en decoración de hogar. 
La marca de Balcosta está presente no sólo en España, sino también en otros países  siendo reconocida como una empresa de confianza por la alta calidad de los artículos y el trato inmejorable con los clientes cuyo número va creciendo año tras año aumentando la familia de Balcosta.

El estilo Oriental de los muebles y artículos decorativos de Balcosta transmite la calidez, la armonía y la sensación de tranquilidad. Las formas puras y suaves junto con los colores naturales acogedores con un toque moderno es la mejor opción para los que adoran la naturaleza y esencia en decoración. 

Como todos los años,sin falta ninguna, podéis encontrar a Balcosta en la Feria Intergift de Septiembre 2021,donde presenta sus últimas novedades. ¡Pase por el pabellón 5 stand 5A10 y déjate sorprender !"
Intergift,02/02/2022,2022,https://www.ifema.es/en/intergift,DM,VP OURENSE INTERIORISMO,3C02,,http://www.vpinteriorismo.com,info@vpinteriorismo.com,988-259534,,"OURENSE, PQ EMP.PEREIRO DE AGUIAR,VIAL CTRAL 31, 32792",ESPAÑA,Productos,,,"El valor del diseño
Nuestra marca, VP Interiorismo, guiada por la confianza en el valor del diseño como herramienta para mejorar el bienestar de las personas, trabaja para ofrecer a los profesionales de la arquitectura, diseño interior y decoración, elementos que ayuden a convertir cada espacio en el relato de una historia. 
Nuestro catálogo ofrece elementos de mobiliario de diseño atemporal capaces de dialogar con estilos diferentes, aportando soluciones para el salón, el comedor familiar, el rincón de lectura o el tan buscado espacio de oficina en casa, siempre con un diseño tranquilo y meditado, que aporte estilo y calidez a un espacio. 
Esculturas en cerámica y metal, cuadros, piezas de decoración, lámparas de mesa … son el alma de nuestra marca, defendiendo que son éstos los detalles que ayudan a que cada lugar refleje su personalidad propia.  
Ofrecemos soluciones de mobiliario, piezas de decoración, esculturas, cuadros, textil, iluminación…  
Ofrecemos diseño equilibrado entre vanguardia y tradición. 
Ofrecemos confianza y rapidez en el servicio. 
Ofrecemos entusiasmo y amor por lo que hacemos. 
Consolidados en el mercado nacional y apostando por un proyecto internacional."
Intergift,02/02/2022,2022,https://www.ifema.es/en/intergift,DM,VIVAMADERA-TAGOMAGO-ORGANIC,3C12,,http://www.vivamadera.com /,tagomagopedidos@gmail.com;admin@vivamadera.com; tuoagency@gmail.com,+34673819364,,"ALICANTE, C/ISAAC PERAL, 9, 03720",ESPAÑA,Productos,,,"ORGANIC design es una marca de mobiliario de lineas sencillas y colores neutros con piezas de muebles, orientadas a proyectos de hotel y villas de lujo, que promulgan un enfoque humanizador para el diseño inspirándose en el espíritu de la naturaleza. Sofás y poufs con múltiples posibilidades compositivas. Camas y sofás camas de diversas medidas para la máxima flexibilidad. Mesas que combinan materiales naturales, como la piedra y la madera. O telas en texturas naturales como es el algodón. Por su parte, TagoMago es una marca especializada en muebles para espacios exteriores. Su estilo, fiel al carácter mediterráneo, crea piezas con un diseño propio y de alta calidad. Y es que TagoMago elabora artesanalmente sus muebles con fibras naturales de bambú y ratán, obteniendo muebles exclusivos y adaptables a cualquier ambiente.Los muebles para exterior e interior de madera maciza reciclada de Vivamadera son perfectos para crear una atmósfera cálida, acogedora y con personalidad. La alta calidad de su mobiliario respetuoso con el medio ambiente se ve reflejado en su durabilidad, funcionalidad y versatilidad, además de que exigen un mantenimiento mínimo."
Intergift,02/02/2022,2022,https://www.ifema.es/en/intergift,DM,VERSA HOME,5B03,,http://www.versa-home.es,,+34 944 34 14 81,,"VIZCAYA, CTRA. BILBAO-GALDACANO, 32, 48004",ESPAÑA,Productos,,,
Intergift,02/02/2022,2022,https://www.ifema.es/en/intergift,DM,VICAL HOME,3E04,,http://www.vicalhome.com,vical@vicalhome.com,96-2200060,,"VALENCIA, POL. EL CARRASCOT, S/N, 46850",ESPAÑA,Productos,,,VICAL offers the best home furniture and decoration articles based on innovation and quality. We approach worldwide decorative trends to the public satisfying their needs in terms of aesthetics and functionality. Discover our entire catalog on www.vicalhome.com
Intergift,02/02/2022,2022,https://www.ifema.es/en/intergift,DM,ROMIMEX WORLD S.L.,3B01,,http://www.romimex.com,info@romimex.com,+34924800364,,"BADAJOZ, C/ PEDREGALES, 3, 06400",ESPAÑA,Productos,,,"ROMIMEX WORLD cumple 50 años en el sector de la decoración y mueble auxiliar. En Intergift Febrero'22 expondrá más 2.500 nuevas referencias, en su habitual ubicacion del pabellón 3. Stand B01, pero aún con más metros y diseño.Nos vemos en Intergift!!"
Intergift,02/02/2022,2022,https://www.ifema.es/en/intergift,DM,PARITEX,5E12,,www.paritex.fr,commercial.px@orange.fr,+33148232599,,"115 RUE ETIENNE DOLET, 93380",FRANCIA,Productos,,,
Intergift,02/02/2022,2022,https://www.ifema.es/en/intergift,DM,ITEM INTERNATIONAL S.A.,5C04,,http://www.itemint.com,,93-7768300,,"BARCELONA, P.I. CAN ESTAPE/ C/FERROCARRIL, 7 NAVE 5, 08755",ESPAÑA,Productos,,,"ITEM International somos una empresa líder en el sector de la importación y exportación de artículos de muebles, regalo, hogar, decoración, papelería y juguetes fundada en Barcelona el año 1986, pero que desde hace más de 20 años con nuestra sede en Castellbisbal. No encontraréis en ningún otro lugar un amplio catálogo como el nuestro, con más de 18.000 referencias de las cuales 8.000 son novedades anuales.

Trabajamos para aportar nuestra experiencia y profesionalidad en nuestro día a día, con el objetivo que el éxito de vuestro negocio sea también el nuestro. El equipo de ITEM estamos siempre a vuestra disposición para atenderos, asesoraros y ayudaros en cualquier situación. 
Apostamos por una comunicación fluida y cercana para crear una atmósfera de confianza que facilite vuestra operativa. Nuestros productos y servicios, así como nuestra ilusión para seguir siendo una empresa puntera en el sector, hace que estemos en un proceso de mejora y evolución continuada, adaptándonos a las nuevas situaciones del mercado.

Nuestras marcas son una extensión de nuestra filosofía; buen servicio, calidad y extenso catálogo con las últimas tendencias a nivel mundial. Asegurando a nuestros clientes, una apuesta de éxito fiable y de confianza en sus negocios.

Os recomendamos que nos conozcáis personalmente en una de nuestras jornadas de puertas abiertas que realizamos en nuestra sede en Castellbisbal o en nuestro stand en las diferentas ferias en las que asistimos como Intergift (Madrid), Maison Object (París) o Expohogar (Barcelona)."
Intergift,02/02/2022,2022,https://www.ifema.es/en/intergift,DM,SOMPEX-FLAMELESS,3D16,,http://www.virtual-europe.com,,615-070692,,"BARCELONA, C) AUSIAS MARCH, 48 BAJOS, 08010",ESPAÑA,Productos,,,"Virtual es una empresa de distribución de productos de iluminación y decoración en Europa.
Tras 6 años de experiencia, se ha consolidado con la representación de marcas como Luminara, Flameless, Sompex, Villeroy & Boch y Newdes iluminación."
Intergift,02/02/2022,2022,https://www.ifema.es/en/intergift,DM,SIGNES GRIMALT ARTESANIA S.A.,5D04,,http://www.signes-grimalt.com,,+34 965 76 05 66,,"ALICANTE, CTRA. NAL. 332, KM. 191,500, 03740",ESPAÑA,Productos,,,"Desde 1968, Signes Grimalt importa y exporta una buena oferta de artículos de regalo y decoración, de calidad y buen precio, para distribuirlos por tiendas de España y otros países del mundo. Siempre venta exclusiva a profesionales. Con una renovación constante y con red de vendedores. Com marca propia ORIGEN home decor
Actualmente también cuenta con una marca de ropa Isla Bonita by sigris con un estílo boho - hippie - chic además de ibicenco. Compuesto por prendas tanto para playa como para lucir por la calle. Esta marca la encontrará en Momad. Pab 8 A10 y seguro que no le deja indiferente."
Intergift,02/02/2022,2022,https://www.ifema.es/en/intergift,DM,hiwood.,5A12,,http://www.hiwooddesign.com,hola@hiwooddesign.com,+34667608956,,"MADRID, C/ GENOVA Nº5, 28004",ESPAÑA,Productos,,,"hiwood. nace de la pasión por el diseño en madera. Creamos piezas únicas atemporales que hablan de la realidad de los materiales y sus detalles.Durante los últimos años, el diseño se ha convertido en parte fundamental de nuestras vidas, tanto por los espacios en los que vivimos como por los objetos que nos rodean. Su evolución ha sido exponencial gracias a la digitalización pero, de algún modo, se ha perdido el mimo que el proceso artesanal proyectaba a cada pieza logrando convertirla en única y que queremos reivindicar. Todo esto junto a un sistema de fabricación sostenible, convierten a hiwood en toda una revolución en el diseño."
Intergift,02/02/2022,2022,https://www.ifema.es/en/intergift,DM,ICH WALLPAPER,1F36,,https://ichwallpaper.com,a.delacruz@ichwallpaper.com,+34961536080,,"VALENCIA, CAMINO AZAGADOR 5, 46930",ESPAÑA,Productos,,,"Desde 1962, ICH es una de las fábricas de papel pintado más antiguas de Europa.Dedicada, por una parte, a editar y comercializar nuestras propias colecciones y, por otra, a realizar fabricaciones exclusivas para firmas de reconocido prestigio internacional. ICH ha ido evolucionando y consolidándose en el marcado nacional e internacional por su adaptabilidad al cliente y por su eficacia en la distribución y en la innovación de diseños y soportes técnicos.Founded in 1962, ICH is one of the oldest wallpaper factories in Europe.We are dedicated, on the one hand, to editing and marketing our own collections and, on the other, to making exclusive products for firms of recognized international prestige. ICH has evolved and consolidated in the domestic and international market place through its adaptability to the customer, efficiency in distribution, design innovation and technical support."
Intergift,02/02/2022,2022,https://www.ifema.es/en/intergift,DM,MALUCA DE CASA BARRERA,4G08 - 5C09,,http://www.casabarrera.com,,+34 699 19 45 86,,"ALICANTE, P. JUYARCO, PDA. MADRIGUEREZ, 50-52, 03700",ESPAÑA,Productos,,,
Intergift,02/02/2022,2022,https://www.ifema.es/en/intergift,DM,IMORI,3C07,,http://www.imori.es,,93-8471845,,"BARCELONA, CAMI DE LA MOTA, 17. (POL. INDUSTRIAL)., 08474",ESPAÑA,Productos,,,"Somos una empresa familiar con mas de 50 años de experiencia
a sus espaldas. Generación tras generación, nuestro objetivo siempre ha sido
encontrar la armonía entre innovación , creatividad y calidad en nuestros
artículos que cada temporada seleccionamos para hacérselos llegar a nuestros
clientes y así poder crear esas personales atmósferas que tanto nos
caracterizan.  

  Nuestro objetivo ha sido encontrar el equilibrio perfecto
entre diseño, calidad y precio competitivo.  
  Cuidamos todos los detalles en la elaboración de nuestros
artículos, y así crear una pieza especial.  
  La búsqueda y constante estudio de las nuevas tendencias tan
cambiantes, nos hace ser referente en el sector.  
  Trabajamos para hacerles llegar la mayor variedad de
productos con cada nueva temporada.  
  Hemos sabido adaptarnos a las tendencias en decoración
gracias a un joven equipo de diseño en constante búsqueda de nuevas colecciones
que tanto identifican a nuestra marca."
Intergift,02/02/2022,2022,https://www.ifema.es/en/intergift,DM,"GUADARTE, S.L.",3C04,,http://www.guadarte.com,comercial@guadarte.com,+34 955 61 05 05,,"Sevilla, Ctra. Sevilla-Málaga, Km. 10 S/N, 41500",España,Productos,,,
Intergift,02/02/2022,2022,https://www.ifema.es/en/intergift,DM,HELIO FERRETTI,7A05,,http://www.helioferreti.com,,93-3368880,,"BARCELONA, P.I GRAN VIA SUR, CAN PI, 19, 08908",ESPAÑA,Productos,,,"Helio Ferretti es una marca especializada en la distribución de artículos de regalo informal, accesorios para el hogar, gadgets y artículos de fumador localizada en Barcelona.

Diseñamos, producimos y comercializamos nuestros propios productos. Las colecciones están compuestas por productos prácticos para la vida cotidiana, diseñados con creatividad y mucha frescura, siempre siguiendo las tendencias mas actuales.

Descubre nuestras líneas de producto, creadas por diseñadores altamente cualificados que viajan para encontrar las últimas novedades del mercado. 
Tenemos más de 30 años de experiencia. Distribuimos más de 5.000 referencias a numerosas tiendas y mayoristas. A nivel internacional, contamos con distribuidores en varios países."
Intergift,02/02/2022,2022,https://www.ifema.es/en/intergift,DM,FORNORD,7C12,,http://www.importdisribution.be,,+34 3269532440,,CL M. BEN BEHE  SAMUEL,BÉLGICA,Productos,,,"Lider europeo en importación y exportación de accesorios para el hogar, ponemos nuestra experiencia internacional al servicio de nuestros clientes para satisfacer mejor sus necesidades.
Especialmente buscados por minoristas y tiendas especialozadas en todo el mundo, ofrecemos una amplia selección de productos que se renuevan periódicamente según las tendencias."
