ShowName,ShowDate,ShowYear,ShowWebsite,SubmittedBy,ExhibitorName,BoothNumber,HallLocation,Website,Email,Phone,Fax,Address,Country,Categories,Manufacturers,Brands,Description
KBB,03/06/2022,2022,https://www.eisenwarenmesse.com/,DM,Compusoft,M84,,https://www.compusoftgroup.com,,,,"United Kingdom, Ash Tree House, Norman Court,, Ashby de la Zouch, LE65 2UZ",United Kingdom,Technology / Software,,,"We power the sales of KBB retailers by making it easy to create designs that are both stunning and accurate.Our software uses the most comprehensive and up-to-date catalogue data in the market to ensure that designs don't just look true-to-life but will be the right price and size to deliver on your promises. This gives our customers the confidence to design, present and quote while with their customers so that they can close more deals in less time."
KBB,03/06/2022,2022,https://www.eisenwarenmesse.com/,DM,20-20 Technologies Limited,M80,,,,,,United Kingdom,United Kingdom,,,,
KBB,03/06/2022,2022,https://www.eisenwarenmesse.com/,DM,4WARDROBES - THE WARDROBE SPECIALISTS,M108,,https://4wardrobes.co.uk/,,,,"United Kingdom, 397 Archway roadHighgate, London, N64EY",United Kingdom,,,,"Quality, elegance and innovation are the cornerstones of our brand. By staying true to these three principles we’ve developed three wardrobe ranges. These are namely F, K and M. All three ranges have been innovatively designed and manufactured in Italy, a country renowned for its design aesthetic and craftsmanship. These ranges of wardrobes offer a vast array of options to cater to all spaces, no matter how awkward or tricky, we have an ingenious solution. Our goal is not to merely meet our customer’s needs but surpass them and fulfil their dreams."
KBB,03/06/2022,2022,https://www.eisenwarenmesse.com/,DM,Abode,K70,,http://www.abodedesigns.co.uk,,,,"United Kingdom, Unit L Zenith Park, Whaley Road, Barnsley, S75 1HT",United Kingdom,,,,"Abode is a market-leading designer of kitchen sinks, taps, bathroom brassware and showering. Part of Norcros Group (Holdings) Limited, the Abode brand has a reputation for innovative design, contemporary styling and high quality.We are truly passionate about the design and development of sinks and taps that not only perform in the style stakes but on functionality too. That's why many products in our portfolio have been recognised in various industry awards, the latest been an SBID win for our patented Swich product for it's innovative design and sustainability driving credentials.Our"
KBB,03/06/2022,2022,https://www.eisenwarenmesse.com/,DM,Acquabella,E30,,https://www.acquabella.com/en/,,,,"Spain, Pol. Ind Belcaire, Calle C, Parcela 1201, Castellón, Vall D´Uixo, 12600",Spain,,,,"Acquabella presents an innovative and avant-garde decorative concept of the shower space. Acquabella was born with the vision of giving life to your bathing environment. Our creations continue to arouse emotions and allow you to experience to the full their elegance and beauty. This new concept allows users to design their bathroom using elements such as bespoke shower trays in different textures and colours, as well as panels, worktops, furniture, etc."
KBB,03/06/2022,2022,https://www.eisenwarenmesse.com/,DM,Agoform GmbH,S102,,,,,,Germany,Germany,,,,
KBB,03/06/2022,2022,https://www.eisenwarenmesse.com/,DM,AGT Agac Sanayi ve Tic. A.S.,H114,,,,,,Turkey,Turkey,,,,
KBB,03/06/2022,2022,https://www.eisenwarenmesse.com/,DM,Akva-Rodos Ltd,C62,,,,,,Ukraine,Ukraine,,,,
KBB,03/06/2022,2022,https://www.eisenwarenmesse.com/,DM,Alanod Ltd,V82,,,,,,United Kingdom,United Kingdom,,,,
KBB,03/06/2022,2022,https://www.eisenwarenmesse.com/,DM,Alku by Getley,M90,,http://www.alku.co.uk,,,,"United Kingdom, Units 3a & 3b Carver Road,, Astonfields Industrial Estates, Stafford, ST16 3HR",United Kingdom,,,,"Alku, a fantastic new brand by long-established UK manufacturer Getley UK.  Conceived with a simple notion, to be easy for designers to use, but still retaining the flexibility that Getley UK is synonymous with.  Alku features a comprehensive range of modern, contemporary, traditional, and In-Frame kitchens.  No matter the customers’ requirements Alku will fulfil the needs. "
KBB,03/06/2022,2022,https://www.eisenwarenmesse.com/,DM,Alyse Ankastre Ihracat Ithalat Ltd. Sti,L102,,,,,,Turkey,Turkey,,,,
KBB,03/06/2022,2022,https://www.eisenwarenmesse.com/,DM,Anthill Software,P102,,https://anthill.co.uk/,,,,"United Kingdom, 46 The Calls, Leeds, LS27EY",United Kingdom,Technology / Software | Software,,,"“Our mission is to help companies provide a consistent Customer Experience across teams, channels and locations.""Every company in the world works differently, so we have built a platform to work around and support your individual operations and way or working.Plan your unique Customer Journey into customisable workflow streams by allocating actions to teams (Sales, Admin and Support etc), then monitor performance via live and interactive role-based dashboards.Improve efficiency and productivity by triggering personalised notifications at any stage to customers and teams"
KBB,03/06/2022,2022,https://www.eisenwarenmesse.com/,DM,Aqualla Brassware Ltd,E70,,,,,,United Kingdom,United Kingdom,,,,
KBB,03/06/2022,2022,https://www.eisenwarenmesse.com/,DM,ARISTODOORS,R110,,,,,,"United Kingdom, Unit 9, Hawthorn centre, Elmgrove road, London, HA12RF",United Kingdom,,,,
KBB,03/06/2022,2022,https://www.eisenwarenmesse.com/,DM,Armac Martin,M110,,,,,,"United Kingdom, 160 Dollman Street., Birmingham, Birmingham, B7 4RS",United Kingdom,,,,
KBB,03/06/2022,2022,https://www.eisenwarenmesse.com/,DM,ArtiCAD Ltd,J 60,,,,,,United Kingdom,United Kingdom,,,,
KBB,03/06/2022,2022,https://www.eisenwarenmesse.com/,DM,ArtiCAD Ltd,N60,,https://www.articad.com,,,,"United Kingdom, 3-5 Rickmansworth Road, Watford, WD18 0GX",United Kingdom,Technology / Software,,,"From start-ups to corporates, ArtiCAD's stunning CAD software, VR and unique online tech for kitchens, bedrooms, bathrooms and interiors help professionals win sales, manage installations and also deliver an exceptional customer experience: online, in-store and in-home.Celebrating our 30th year of software innovation, the ArtiCAD team is showcasing six new product launches at kbb 2022 and we look forward to welcoming you to our stand.Serving design professionals across the globe, our desktop and cloud-based CAD software is geared for your success. KBB sees a new version with enhanced"
KBB,03/06/2022,2022,https://www.eisenwarenmesse.com/,DM,Atlanta Bathrooms,D80,,https://atlantabathrooms.com/,,,,"United Kingdom, 19/34 Bedesway, Bede Industrial Estate, Jarrow, NE32 3BE",United Kingdom,Bathroom | Furniture,,,
KBB,03/06/2022,2022,https://www.eisenwarenmesse.com/,DM,Atlasplan by The Surface Collection,P70,,,,,,United Kingdom,United Kingdom,,,,
KBB,03/06/2022,2022,https://www.eisenwarenmesse.com/,DM,autokitchen UK Ltd,M60,,https://www.autokitchen.co.uk/,,,,"United Kingdom, 48, Bethel House, Heronsgate Rd, Chorleywood, WD3 5BB",United Kingdom,CAD | Technology / Software | Kitchen | Bedroom | Bathroom,,,"autokitchen design softwareautokitchen 22 PRO is the flagship kitchen, bedroom and bathroom design software that sits above autokitchen STUDIO which is a program for kitchen design only. Both are .DWG based programs making collaboration between architects and other professionals easier.Its stand out features are that it has the technical tools to design bespoke cabinets of any style and then give the user technical specifications, workshop drawings and digital cut lists for manual or CNC machining via its export function. autokitchen contains extensive catalogues"
KBB,03/06/2022,2022,https://www.eisenwarenmesse.com/,DM,BA,N70,,,,,,"United Kingdom, Derryloran Industrial Estate, Cookstown, BT80 9LU",United Kingdom,,,,
KBB,03/06/2022,2022,https://www.eisenwarenmesse.com/,DM,Banks and Lloyd (Shipping) Ltd,N102,,,,,,United Kingdom,United Kingdom,,,,
KBB,03/06/2022,2022,https://www.eisenwarenmesse.com/,DM,Bathroom Origins,C54,,,,,,United Kingdom,United Kingdom,,,,
KBB,03/06/2022,2022,https://www.eisenwarenmesse.com/,DM,Bauformat Kuchen GmhH & Co.KG,R80,,https://www.bauformat.de/en/,,,,"Germany, Bau-for-mat Küchen GmbH & Co. KGKattwinkel 132584 Löhne, Löhne, 32584",Germany,Kitchen | Bathroom | Lighting | Surfaces / Hard Materials | Bathroom Furniture | Cabinets & Furniture | Worktops / Surfaces | Decorative Lighting | L.E.D's | Appliances | Sinks | Bathroom Accessories | Accessories | Cooker Hood,,,"Founded in 1917 and now in its third generation, our family business has evolved into a company group that's at home on the international stage. Our members of staff are the bedrock of our success which is based on a four-brand strategy: kitchens from BAUFORMAT and burger cover the entire market spectrum from entry-level model to premium segment. BURG is renowned for top-quality electrical appliances, with the badea brand being synonymous with individually tailored bathroom furniture.The ""MADE IN GERMANY"" hallmark of quality extends far beyond our roots and our manufacturing"
KBB,03/06/2022,2022,https://www.eisenwarenmesse.com/,DM,Be Modern Limited,D80,,,,,,United Kingdom,United Kingdom,,,,
KBB,03/06/2022,2022,https://www.eisenwarenmesse.com/,DM,Berry Alloc NV,C90,,,,,,Belgium,Belgium,,,,
KBB,03/06/2022,2022,https://www.eisenwarenmesse.com/,DM,Bocchi UK Ltd,K82,,,,,,United Kingdom,United Kingdom,,,,
KBB,03/06/2022,2022,https://www.eisenwarenmesse.com/,DM,Bora Holding GmbH,L90,,,,,,"Austria, BORA Vertriebs GmbH & Co KGInnstraße 1, Niederndorf bei Kufstein, 6342",Austria,,,,
KBB,03/06/2022,2022,https://www.eisenwarenmesse.com/,DM,Bosch,T100 W100,,,,,,United Kingdom,United Kingdom,,,,
KBB,03/06/2022,2022,https://www.eisenwarenmesse.com/,DM,BSH Home Appliances Ltd,W100,,,,,,United Kingdom,United Kingdom,,,,
KBB,03/06/2022,2022,https://www.eisenwarenmesse.com/,DM,BSH Home Appliances Ltd,T100,,,,,,United Kingdom,United Kingdom,,,,
KBB,03/06/2022,2022,https://www.eisenwarenmesse.com/,DM,Bunting Shaker Catch Company,T64,,https://www.e-magnetsuk.com,,,,"United Kingdom, Bunting Magnetics Europe Limited, Northbridge Road, Berkhamsted, HP4 1EH",United Kingdom,,,,The Shaker Magnetic Catch is designed specifically for handmade in-frame doors for bespoke kitchen cabinets.The Shaker Magnetic Catch is 29mm long by 20mm deep and 15mm high and features a chrome finish with a hidden screw head. Fixing requires only one No. 4 woodscrew and raised bosses on the mounting surface to prevent any rotation even though only one screw is employed. The magnetic strength of the catch generates a 5kg holding force.Three different styles of catch plate are available for the Shaker Magnetic Catch including a new leather-clad catch plate that dampens down any
KBB,03/06/2022,2022,https://www.eisenwarenmesse.com/,DM,Burbidge Kitchen Makers,S85,,,,,,"United Kingdom, Burbidge & Son Ltd,Burnsall Road, Canley,, Coventry,, CV5 6BS",United Kingdom,,,,
KBB,03/06/2022,2022,https://www.eisenwarenmesse.com/,DM,C-Tec N.I Limited,F90,,,,,,United Kingdom,United Kingdom,,,,
KBB,03/06/2022,2022,https://www.eisenwarenmesse.com/,DM,C.R. Laurence of Europe Ltd,G70,,,,,,United Kingdom,United Kingdom,,,,
KBB,03/06/2022,2022,https://www.eisenwarenmesse.com/,DM,Ca' Pietra,G50,,https://capietra.com/,,,,"United Kingdom, Stonebridge House, Nursteed Road, Devizes, SN10 3DY",United Kingdom,Bathroom | Accessories | Construction & Building | Décor | Flooring | Kitchen | Surfaces / Hard Materials | Fabric & Wallcoverings | Decorative Accessories | Bathroom Accessories | Adhesives & Grouts | Ceramic Wall Tiles | Ceramic Floor Tiles | Accessories | Natural Stone Tiles | Surface Finishes | Tiles | Worktops / Surfaces,,,"Hey, we are Ca’ PietraSeriously stylish stone &amp; tiles and Proper Good Paint™ is our thing. We are so glad you found us.If you are tile-obsessed, a décor-dreamer or looking for stone to make your home shine, then Ca’ Pietra could be perfect for you. Their Creative Lead Grazzie Wilson said “we believe that every home deserves a statement tile. Whether that tile is patterned, textured, an interesting shape or size or even a colour combination or finish that makes it stand out from the crowd."""
KBB,03/06/2022,2022,https://www.eisenwarenmesse.com/,DM,CAD+T Solutions,M102,,,,,,Austria,Austria,,,,
KBB,03/06/2022,2022,https://www.eisenwarenmesse.com/,DM,Caesarstone (UK) Ltd,J90,,https://www.caesarstone.co.uk/,,,,"United Kingdom, Unit 3, Navigation Park, Morson Road, Enfield, EN3 4NQ",United Kingdom,Architectural Details / Finishing | Bathroom | Construction & Building | Kitchen | Surfaces / Hard Materials | Worktops / Surfaces | Surface Technology | Technology / Software | Bathroom Furniture,,,"We’ve led the world of surface design since 1987, driven by our passion for craftsmanship and innovation. Inspired by the world around us, our collections capture the organic beauty of natural stone and the bold, urban styles of concrete and weathered patinas, each surface unique, timeless. As worktop specialists, Caesarstone achieves the highest global standards for quality, environment, and sustainability. Practical, durable and beautiful, Caesarstone brings style and sophistication to any space. "
KBB,03/06/2022,2022,https://www.eisenwarenmesse.com/,DM,Cambria,M70,,,,,,"United States, 11000 West 78th St. Suite:220, Eden Prairie, 55344",United States,,,,
KBB,03/06/2022,2022,https://www.eisenwarenmesse.com/,DM,Cardinal Innovations Ltd,Q62,,,,,,United Kingdom,United Kingdom,,,,
KBB,03/06/2022,2022,https://www.eisenwarenmesse.com/,DM,Carisa Radiators Ltd,G30,,,,,,"Turkey, Feneryolu MahBagdat CadNo. 126/B Feneryolu/Kadikoy, Istanbul, 34742",Turkey,,,,
KBB,03/06/2022,2022,https://www.eisenwarenmesse.com/,DM,Carron,D60,,,,,,United Kingdom,United Kingdom,,,,
KBB,03/06/2022,2022,https://www.eisenwarenmesse.com/,DM,Carron,D60,,,,,,United Kingdom,United Kingdom,,,,
KBB,03/06/2022,2022,https://www.eisenwarenmesse.com/,DM,Caware Filtering Corporation,G60,,,,,,"Taiwan, China","Taiwan, China",,,,
KBB,03/06/2022,2022,https://www.eisenwarenmesse.com/,DM,Ca’ Pietra,G50,,https://www.capietra.com,,,,"United Kingdom, Stonebridge House, Nursteed Road, Devizes, SN10 3DY",United Kingdom,"Accessories | Bathroom | Construction & Building | Décor | Fabric & Wallcoverings | Flooring | Kitchen | Surfaces / Hard Materials | Decorative Accessories | Wallpanelling, Joinery & Architectural Detail | Architectural Details / Finishing | Bathroom Accessories | Adhesives & Grouts | Ceramic Wall Tiles | Ceramic Floor Tiles | Accessories | Natural Stone Tiles | Tiles | Worktops / Surfaces | Surface Finishes",,,"Hey, we are Ca’ PietraSeriously stylish stone &amp; tiles and Proper Good Paint™ is our thing. We are so glad you found us.If you are tile-obsessed, a décor-dreamer or looking for stone to make your home shine, then Ca’ Pietra could be perfect for you. Their Creative Lead Grazzie Wilson said “we believe that every home deserves a statement tile. Whether that tile is patterned, textured, an interesting shape or size or even a colour combination or finish that makes it stand out from the crowd."""
KBB,03/06/2022,2022,https://www.eisenwarenmesse.com/,DM,CDA Group Ltd,K110,,,,,,United Kingdom,United Kingdom,,,,
KBB,03/06/2022,2022,https://www.eisenwarenmesse.com/,DM,CEBI KILIT VE MOBILYA AKSESUARLARI SAN.,T81,,http://cebidesign.com/en/,,,,"Turkey, Abdurrahmangazi Mahallesi Akabe Caddesi No:33, İstanbul, SANCAKTEPE, 34791",Turkey,Accessories | Architectural Details / Finishing | Components / Equipment / Production | Construction & Building | Fixtures & Fittings | Furniture | Kitchen | Accessories | Door & Window Furniture & Hardware,,,"CEBI producing  door handles, door pull handles &amp; knobs, furniture handles, knobs, coat hooks, kids furniture handles, and coat hooks in Istanbul.CEBI carries its signature to living spaces since 1979 with the theme of passion and perfection that feeds its original, refined, and above-the-line designs. Çebi combines the gains of his long history in the sector with her deep experience with knowledge and expertise. With its privileged quality and unique design variety, it has been accomplishing the difficulties for years. It makes innovative touches to decorations with its original"
KBB,03/06/2022,2022,https://www.eisenwarenmesse.com/,DM,Cimstone,K106,,,,,,"United Kingdom, Monarch Courtyard
12 Salthouse Rd, Northamptonshire, Northampton, NN4 7BD",United Kingdom,,,,
KBB,03/06/2022,2022,https://www.eisenwarenmesse.com/,DM,Construplas S.L.,D41,,,,,,Spain,Spain,,,,
KBB,03/06/2022,2022,https://www.eisenwarenmesse.com/,DM,Cristofoli International Ltd,M120,,,,,,United Kingdom,United Kingdom,,,,
KBB,03/06/2022,2022,https://www.eisenwarenmesse.com/,DM,CRL Stone,G70,,,,,,"United Kingdom, Charles Babbage Avenue Kingsway Business Park, Rochdale, OL16 4NW",United Kingdom,,,,
KBB,03/06/2022,2022,https://www.eisenwarenmesse.com/,DM,Crofts & Assinder Limited,V84,,,,,,United Kingdom,United Kingdom,,,,
KBB,03/06/2022,2022,https://www.eisenwarenmesse.com/,DM,Dallmer Ltd,H60,,,,,,United Kingdom,United Kingdom,,,,
KBB,03/06/2022,2022,https://www.eisenwarenmesse.com/,DM,Dansani,F30,,https://www.dansani.co.uk,,,,"United Kingdom, 7 Mermaid Walk The Waterfront, Brighton Marina, East Sussex, BN2 5WA",United Kingdom,Bathroom Accessories | Bathroom | Bathroom Furniture | Toilets | Shower Enclosures,,,"Our mission is to make it easy and inspiring to design your bathroom with beautiful, well designed and functional solutions. All created based on good craftsmanship and with deep roots in our Danish design traditions.     "
KBB,03/06/2022,2022,https://www.eisenwarenmesse.com/,DM,Davroc Ltd,F60,,https://www.davroc.co.uk/,,,,"United Kingdom, Ibroc House
Essex Road
Hoddesdon, EN110QS",United Kingdom,Accessories | Decorative Accessories | Bathroom,,,
KBB,03/06/2022,2022,https://www.eisenwarenmesse.com/,DM,Der Kreis UK LLP,M90,,,,,,United Kingdom,United Kingdom,,,,
KBB,03/06/2022,2022,https://www.eisenwarenmesse.com/,DM,DF Sales Ltd,V83,,,,,,United Kingdom,United Kingdom,,,,
KBB,03/06/2022,2022,https://www.eisenwarenmesse.com/,DM,DM Intelligent Technology (UK) Limited,M114,,,,,,United Kingdom,United Kingdom,,,,
KBB,03/06/2022,2022,https://www.eisenwarenmesse.com/,DM,DM Intelligent Technology (UK) Limited,J104,,,,,,United Kingdom,United Kingdom,,,,
KBB,03/06/2022,2022,https://www.eisenwarenmesse.com/,DM,Dunavox,K64,,,,,,"Hungary, 1-13 
Rokolya utca, Budapest, 1131",Hungary,,,,
KBB,03/06/2022,2022,https://www.eisenwarenmesse.com/,DM,"DUNE CERAMICA, S.L",L94,,,,,,United Kingdom,United Kingdom,,,,
KBB,03/06/2022,2022,https://www.eisenwarenmesse.com/,DM,Duplach Grupo Bybanos S L,E74,,,,,,Spain,Spain,,,,
KBB,03/06/2022,2022,https://www.eisenwarenmesse.com/,DM,Easy sanitairy Solutions BV,E40,,,,,,Netherlands,Netherlands,,,,
KBB,03/06/2022,2022,https://www.eisenwarenmesse.com/,DM,Electrolux Plc,J75,,,,,,United Kingdom,United Kingdom,,,,
KBB,03/06/2022,2022,https://www.eisenwarenmesse.com/,DM,Elfin Kitchens Ltd,R118,,,,,,United Kingdom,United Kingdom,,,,
KBB,03/06/2022,2022,https://www.eisenwarenmesse.com/,DM,Elica | D R Kitchen Appliances Ltd,H70,,,,,,"United Kingdom, 2 Alpha Road, Aldershot, GU12 4RG",United Kingdom,,,,
KBB,03/06/2022,2022,https://www.eisenwarenmesse.com/,DM,ELLETIPI srl,V76,,,,,,Italy,Italy,,,,
KBB,03/06/2022,2022,https://www.eisenwarenmesse.com/,DM,Ellsi Ltd,K104,,,,,,United Kingdom,United Kingdom,,,,
KBB,03/06/2022,2022,https://www.eisenwarenmesse.com/,DM,Eucotherm,G64,,,,,,United Kingdom,United Kingdom,,,,
KBB,03/06/2022,2022,https://www.eisenwarenmesse.com/,DM,EverydaySafe by Chubbsafes,M116,,https://www.everydaysafe.com,,,,"United Kingdom, Kennicot Well Lane, Wednesfield, Wolverhampton, WV11 1XR",United Kingdom,"Kitchen | Cabinets & Furniture | Appliances | Furniture | Bedroom | Safes | Accessories | Bathroom Furniture | Bathroom | Components / Equipment / Production | Draws | Storage, Equipment & Racking",,,"Global leaders in security Chubbsafes has launched the world's first kitchen drawer that is a certified safe which opens using your fingerprint or through our dedicated app.The EverydaySafe is an easily accessible, concealed safe that fits discreetly into a kitchen cabinet which offers protection against keyless car theft and contactless credit card fraud.Designed to look like an internal or external kitchen drawer, it comes with its own Blum Movento runner system, Blumotion soft-close mechanism and the ability to attach any manufacturers drawer front to it so"
KBB,03/06/2022,2022,https://www.eisenwarenmesse.com/,DM,Evoline,Q110,,,,,,"United Kingdom, 32 Prospect PlaceCamden Road, Bath, BA1 5JD",United Kingdom,,,,
KBB,03/06/2022,2022,https://www.eisenwarenmesse.com/,DM,Ferre - Femas Cooking Appliances,G94,,https://www.ferre.com.tr,,,,"Turkey, O.S.B. 9. Cadde No:17, Kayseri, Melikgazi, 38070",Turkey,,,,
KBB,03/06/2022,2022,https://www.eisenwarenmesse.com/,DM,Fibo (UK) Limited,E44,,,,,,United Kingdom,United Kingdom,,,,
KBB,03/06/2022,2022,https://www.eisenwarenmesse.com/,DM,Finsa Home Ltd,L104,,,,,,United Kingdom,United Kingdom,,,,
KBB,03/06/2022,2022,https://www.eisenwarenmesse.com/,DM,Finsa UK Limited,R95,,,,,,United Kingdom,United Kingdom,,,,
KBB,03/06/2022,2022,https://www.eisenwarenmesse.com/,DM,Flair Showers Limited,F40,,,,,,Ireland,Ireland,,,,
KBB,03/06/2022,2022,https://www.eisenwarenmesse.com/,DM,Flo Marketing Limited,G102,,,,,,United Kingdom,United Kingdom,,,,
KBB,03/06/2022,2022,https://www.eisenwarenmesse.com/,DM,Formed UK,V70,,,,,,"United Kingdom, 2 Crofton road
Allenby Rd Ind Est, Linconshire, Lincoln, LN3 4NL",United Kingdom,,,,
KBB,03/06/2022,2022,https://www.eisenwarenmesse.com/,DM,Formenti & Giovenzana SPA,T70,,,,,,Italy,Italy,,,,
KBB,03/06/2022,2022,https://www.eisenwarenmesse.com/,DM,Formica Limited,J100,,,,,,United Kingdom,United Kingdom,,,,
KBB,03/06/2022,2022,https://www.eisenwarenmesse.com/,DM,Frontline Bathrooms Ltd,C52,,,,,,United Kingdom,United Kingdom,,,,
KBB,03/06/2022,2022,https://www.eisenwarenmesse.com/,DM,Furnipart A/S,R100,,,,,,Denmark,Denmark,,,,
KBB,03/06/2022,2022,https://www.eisenwarenmesse.com/,DM,GALLERIA PONTE VENETO LTD,E60,,,,,,United Kingdom,United Kingdom,,,,
KBB,03/06/2022,2022,https://www.eisenwarenmesse.com/,DM,Gamma Fittings Ltd,V62,,,,,,United Kingdom,United Kingdom,,,,
KBB,03/06/2022,2022,https://www.eisenwarenmesse.com/,DM,Genesis Global Systems Limited,H94,,,,,,United Kingdom,United Kingdom,,,,
KBB,03/06/2022,2022,https://www.eisenwarenmesse.com/,DM,Gräbert GmbH,L106,,,,,,"Germany, Nestorstr.36a, Berlin, 10709",Germany,,,,
KBB,03/06/2022,2022,https://www.eisenwarenmesse.com/,DM,Grbert GmbH,N101,,,,,,Germany,Germany,,,,
KBB,03/06/2022,2022,https://www.eisenwarenmesse.com/,DM,"Grupo Alvic FR Mobiliario, S.L.",S112,,,,,,Spain,Spain,,,,
KBB,03/06/2022,2022,https://www.eisenwarenmesse.com/,DM,Gruppo Mauro Saviola Srl,S104,,,,,,Italy,Italy,,,,
KBB,03/06/2022,2022,https://www.eisenwarenmesse.com/,DM,Gunnebo Safe Storage Europe GmbH,M116,,,,,,Germany,Germany,,,,
KBB,03/06/2022,2022,https://www.eisenwarenmesse.com/,DM,Gunnebo UK Ltd,M116,,,,,,United Kingdom,United Kingdom,,,,
KBB,03/06/2022,2022,https://www.eisenwarenmesse.com/,DM,Hafele UK Ltd,S70,,,,,,United Kingdom,United Kingdom,,,,
KBB,03/06/2022,2022,https://www.eisenwarenmesse.com/,DM,Haier Europe,L70,,,,,,United Kingdom,United Kingdom,,,,
KBB,03/06/2022,2022,https://www.eisenwarenmesse.com/,DM,Hamberger Sanitary Gmbh,D70,,,,,,Germany,Germany,,,,
KBB,03/06/2022,2022,https://www.eisenwarenmesse.com/,DM,Hettich UK,T94,,,,,,United Kingdom,United Kingdom,,,,
KBB,03/06/2022,2022,https://www.eisenwarenmesse.com/,DM,Hexagon,R62,,,,,,"United Kingdom, 1370 Montpellier CourtGloucester Business Park, Gloucester, GL3 4AH",United Kingdom,,,,
KBB,03/06/2022,2022,https://www.eisenwarenmesse.com/,DM,House of Rohl,K90,,,,,,"United Kingdom, Gateway XIII
Ferry Lane, Essex, Rainham, RM13 9JY",United Kingdom,,,,
KBB,03/06/2022,2022,https://www.eisenwarenmesse.com/,DM,Houzz UK Ltd,S114,,,,,,United Kingdom,United Kingdom,,,,
KBB,03/06/2022,2022,https://www.eisenwarenmesse.com/,DM,Imex Ceramics UK Ltd,F50,,,,,,United Kingdom,United Kingdom,,,,
KBB,03/06/2022,2022,https://www.eisenwarenmesse.com/,DM,Impuls Kuchen,P80,,,,,,United Kingdom,United Kingdom,,,,
KBB,03/06/2022,2022,https://www.eisenwarenmesse.com/,DM,Infinity | The Engineered Surface,N82,,,,,,Italy,Italy,,,,
KBB,03/06/2022,2022,https://www.eisenwarenmesse.com/,DM,Innowin International Co.Ltd,F12,,,,,,"Taiwan, China","Taiwan, China",,,,
KBB,03/06/2022,2022,https://www.eisenwarenmesse.com/,DM,"Inoxpan, S.L",L87,,,,,,Spain,Spain,,,,
KBB,03/06/2022,2022,https://www.eisenwarenmesse.com/,DM,InSinkErator,J84,,,,,,United Kingdom,United Kingdom,,,,
KBB,03/06/2022,2022,https://www.eisenwarenmesse.com/,DM,Inspired Furniture Limited,Q100,,,,,,United Kingdom,United Kingdom,,,,
KBB,03/06/2022,2022,https://www.eisenwarenmesse.com/,DM,"Joy Hardware Ind. Co., Ltd",W72,,,,,,"Taiwan, China","Taiwan, China",,,,
KBB,03/06/2022,2022,https://www.eisenwarenmesse.com/,DM,Kaelo Ltd,K100,,,,,,United Kingdom,United Kingdom,,,,
KBB,03/06/2022,2022,https://www.eisenwarenmesse.com/,DM,KBB Replacement Doors Ltd,Q59,,,,,,United Kingdom,United Kingdom,,,,
KBB,03/06/2022,2022,https://www.eisenwarenmesse.com/,DM,KDK Bathroom Ware Ltd,C60,,,,,,United Kingdom,United Kingdom,,,,
KBB,03/06/2022,2022,https://www.eisenwarenmesse.com/,DM,Kesseboehmer GmbH,T90,,,,,,Germany,Germany,,,,
KBB,03/06/2022,2022,https://www.eisenwarenmesse.com/,DM,KH System Mobel GmbH,Q102,,,,,,Germany,Germany,,,,
KBB,03/06/2022,2022,https://www.eisenwarenmesse.com/,DM,King Slide Works Co Ltd,W90,,,,,,"Taiwan, China","Taiwan, China",,,,
KBB,03/06/2022,2022,https://www.eisenwarenmesse.com/,DM,Konig UK,Q114,,,,,,United Kingdom,United Kingdom,,,,
KBB,03/06/2022,2022,https://www.eisenwarenmesse.com/,DM,Königstone Ltd,Q104,,,,,,"United Kingdom, The Old Brick YardOrton RoadRothwell, Kettering, NN14 6AA",United Kingdom,,,,
KBB,03/06/2022,2022,https://www.eisenwarenmesse.com/,DM,Lacanche,N110,,,,,,United Kingdom,United Kingdom,,,,
KBB,03/06/2022,2022,https://www.eisenwarenmesse.com/,DM,Legnox Spa,C64,,,,,,Italy,Italy,,,,
KBB,03/06/2022,2022,https://www.eisenwarenmesse.com/,DM,Legnox Spa,E66,,,,,,Italy,Italy,,,,
KBB,03/06/2022,2022,https://www.eisenwarenmesse.com/,DM,Leicht Kuechen AG,S75,,,,,,Germany,Germany,,,,
KBB,03/06/2022,2022,https://www.eisenwarenmesse.com/,DM,Leyton Lighting Ltd,N90,,,,,,United Kingdom,United Kingdom,,,,
KBB,03/06/2022,2022,https://www.eisenwarenmesse.com/,DM,Liebherr,K114,,https://home.liebherr.com/en/gbr/home/homepage.html,,,,"United Kingdom, Normandy Lane, Biggleswade, SG18 8QB",United Kingdom,,,,
KBB,03/06/2022,2022,https://www.eisenwarenmesse.com/,DM,Lithe Audio,R102,,,,,,"United Kingdom, Unit 3Stockwell WorksStephenson Way, Crawley, RH10 1TN",United Kingdom,,,,
KBB,03/06/2022,2022,https://www.eisenwarenmesse.com/,DM,Mario ME Ltd.,G62,,,,,,Ukraine,Ukraine,,,,
KBB,03/06/2022,2022,https://www.eisenwarenmesse.com/,DM,Merlyn Industries Limited,E54,,,,,,"United Kingdom, Ladyfield HouseStation HouseWilmslow, Cheshire, SK9 1BU",United Kingdom,,,,
KBB,03/06/2022,2022,https://www.eisenwarenmesse.com/,DM,MHK,P84,,,,,,"United Kingdom, 1310 Solihull ParkwayBirmingham Business Park, Birmingham, B37 7YB",United Kingdom,,,,
KBB,03/06/2022,2022,https://www.eisenwarenmesse.com/,DM,Midland Stone Centre Ltd,S95,,,,,,United Kingdom,United Kingdom,,,,
KBB,03/06/2022,2022,https://www.eisenwarenmesse.com/,DM,Mirka (UK) Ltd,T60,,http://www.mirka.co.uk,,,,"United Kingdom, Saxon House Shirwell Crescent Furzton Lake, Milton Keynes, MK4 1GA",United Kingdom,Tools | Components / Equipment / Production,,,"Mirka leads the industry with its innovative tools and dust-free abrasive solutions. As the furniture and joinery sector continues to evolve, Mirka aims to ensure its products anticipate and meet end users’ needs and requirements. This ensures the company can provide a wide-ranging product portfolio that helps control costs as well as increase efficiency and productivity while providing a healthier dust-free work environment."
KBB,03/06/2022,2022,https://www.eisenwarenmesse.com/,DM,Miro Products Limited,S93,,,,,,United Kingdom,United Kingdom,,,,
KBB,03/06/2022,2022,https://www.eisenwarenmesse.com/,DM,Mood Kitchens Limited,L82,,,,,,United Kingdom,United Kingdom,,,,
KBB,03/06/2022,2022,https://www.eisenwarenmesse.com/,DM,Multipanel,D85,,,,,,United Kingdom,United Kingdom,,,,
KBB,03/06/2022,2022,https://www.eisenwarenmesse.com/,DM,Neolith Distributiion S.L.,H90,,,,,,Spain,Spain,,,,
KBB,03/06/2022,2022,https://www.eisenwarenmesse.com/,DM,Next-Tech,P98,,,,,,Belgium,Belgium,,,,
KBB,03/06/2022,2022,https://www.eisenwarenmesse.com/,DM,Ninkaplast GmbH,S80,,,,,,Germany,Germany,,,,
KBB,03/06/2022,2022,https://www.eisenwarenmesse.com/,DM,Nobilia,Q80,,,,,,"Germany, Waldstraße 53-57Verl, 33415",Germany,,,,
KBB,03/06/2022,2022,https://www.eisenwarenmesse.com/,DM,Novy Ltd,J82,,,,,,United Kingdom,United Kingdom,,,,
KBB,03/06/2022,2022,https://www.eisenwarenmesse.com/,DM,Nu-Style Products Ltd,D56,,,,,,United Kingdom,United Kingdom,,,,
KBB,03/06/2022,2022,https://www.eisenwarenmesse.com/,DM,O&S Doors Ltd,Q78,,,,,,United Kingdom,United Kingdom,,,,
KBB,03/06/2022,2022,https://www.eisenwarenmesse.com/,DM,Original Style,B60,,http://www.originalstyle.com,,,,"United Kingdom, Falcon Road, Sowton Industrial Estate, Exeter, EX2 7LB",United Kingdom,Bathroom | Décor | Fixtures & Fittings | Flooring | Kitchen | Fabric & Wallcoverings | Ceramic Wall Tiles | Ceramic Floor Tiles | Bespoke Services | Services / Education | Natural Stone Tiles | Surfaces / Hard Materials | Tiles | CAD | Technology / Software | Adhesives & Grouts | Construction & Building,,,"Original Style offer a huge choice of high quality wall and floor tiles and mosaics in glass, stone, ceramic and porcelain , all suitable for residential locations, and most of them can be used in commercial settings too. We've celebrated over 30 years as a successful tile manufacturer and distributor. We have been producing tiles in Exeter, Devon since 1986, using a combination of quality raw materials, traditional techniques alongside new technology, and a skilled and dedicated work force.We are committed to maintaining the superior quality of our popular traditional and contemporary"
KBB,03/06/2022,2022,https://www.eisenwarenmesse.com/,DM,Perform Panel,D56,,,,,,"United Kingdom, Donaldson House, Saltire CentrePentland Park, Glenrothes, Fife, KY6 2AG",United Kingdom,,,,
KBB,03/06/2022,2022,https://www.eisenwarenmesse.com/,DM,Pfleiderer UK Ltd,R104,,https://www.pfleiderer.com/ukb2b-en/,,,,"United Kingdom, Greenway House, Larkwood Way, Tytherington Business Park, Macclesfield, SK10 2XR",United Kingdom,,,,"The Pfleiderer group, pronounced Fly-der-er are one of a a leading European wood-based panel manufacturer with annual sales in excess of €1 billion and employing circa 3,500 dedicated individuals globally. The Pfleiderer Group offers a complete range of wood-based panel products for every decorative surface and construction project, making us the perfect partner to the timber trade, furniture manufacturers, fabricators, designers and architects. Pfleiderer consolidates the product ranges of Duropal and Thermopal under the Pfleiderer umbrella brand, operating state of the art production facilities"
KBB,03/06/2022,2022,https://www.eisenwarenmesse.com/,DM,Plastribution Limited,S60,,,,,,United Kingdom,United Kingdom,,,,
KBB,03/06/2022,2022,https://www.eisenwarenmesse.com/,DM,"Poalgi, S.L.",D52,,,,,,Spain,Spain,,,,
KBB,03/06/2022,2022,https://www.eisenwarenmesse.com/,DM,Profiltek Spain S.A.,D40,,,,,,Spain,Spain,,,,
KBB,03/06/2022,2022,https://www.eisenwarenmesse.com/,DM,Pronorm Einbaukuchen GmbH,P90,,,,,,Germany,Germany,,,,
KBB,03/06/2022,2022,https://www.eisenwarenmesse.com/,DM,QA Flooring Solutions Ltd,J112,,,,,,United Kingdom,United Kingdom,,,,
KBB,03/06/2022,2022,https://www.eisenwarenmesse.com/,DM,Quartzforms UK Ltd,F80,,,,,,United Kingdom,United Kingdom,,,,
KBB,03/06/2022,2022,https://www.eisenwarenmesse.com/,DM,Quooker (UK) Ltd,S100,,,,,,United Kingdom,United Kingdom,,,,
KBB,03/06/2022,2022,https://www.eisenwarenmesse.com/,DM,Quooker (UK) Ltd,S100,,,,,,United Kingdom,United Kingdom,,,,
KBB,03/06/2022,2022,https://www.eisenwarenmesse.com/,DM,Radox Radiators Ltd,D34,,,,,,United Kingdom,United Kingdom,,,,
KBB,03/06/2022,2022,https://www.eisenwarenmesse.com/,DM,Rehau Ltd,R114,,,,,,United Kingdom,United Kingdom,,,,
KBB,03/06/2022,2022,https://www.eisenwarenmesse.com/,DM,"Reliable UK Trading Co., LTD",N100,,,,,,United Kingdom,United Kingdom,,,,
KBB,03/06/2022,2022,https://www.eisenwarenmesse.com/,DM,Roca,RS 32-34,,https://www.uk.roca.com/,,,,"United Kingdom, Interlink Way West, Bardon Hill, Coalville, LE67 1LD",United Kingdom,Bathroom | Bathroom Accessories | Bathroom Furniture | Baths | Health / Hygiene Products | Services & Education | Shower Heads | Shower Trays | Showers | Sinks & Basins | Taps / Brassware | Toilets | Mirrors | Accessories | Decorative Accessories | Accessories | Kitchen,,,"More than 100 years of history that have made us a worldwide referenceRoca is a company dedicated to the design, production, and marketing of bathroom products for architecture, construction, and interior design. Founded in 1917, it combines tradition and knowledge with a passion for innovation and respect for the environment with the aim of meeting people's needs and contributing to the improvement of society's well-being.  With sustainability present in all its production processes and with the commitment to help preserve a better planet for future generations,"
KBB,03/06/2022,2022,https://www.eisenwarenmesse.com/,DM,Rotpunk Kuchen GmbH,Q90,,,,,,Germany,Germany,,,,
KBB,03/06/2022,2022,https://www.eisenwarenmesse.com/,DM,Rotpunkt,Q90,,,,,,Germany,Germany,,,,
KBB,03/06/2022,2022,https://www.eisenwarenmesse.com/,DM,RTD,W82,,,,,,United Kingdom,United Kingdom,,,,
KBB,03/06/2022,2022,https://www.eisenwarenmesse.com/,DM,Rudge & Co Limited,H62,,,,,,United Kingdom,United Kingdom,,,,
KBB,03/06/2022,2022,https://www.eisenwarenmesse.com/,DM,Saint-Gobain Building Distribution Ltd,D54,,,,,,United Kingdom,United Kingdom,,,,
KBB,03/06/2022,2022,https://www.eisenwarenmesse.com/,DM,Samsung Electronics (UK) Ltd,M74,,,,,,United Kingdom,United Kingdom,,,,
KBB,03/06/2022,2022,https://www.eisenwarenmesse.com/,DM,Sanica dis Ticaret AS,F70,,,,,,Turkey,Turkey,,,,
KBB,03/06/2022,2022,https://www.eisenwarenmesse.com/,DM,Saniflo Ltd,B82,,,,,,United Kingdom,United Kingdom,,,,
KBB,03/06/2022,2022,https://www.eisenwarenmesse.com/,DM,Santa Margherita Spa,V74,,,,,,Italy,Italy,,,,
KBB,03/06/2022,2022,https://www.eisenwarenmesse.com/,DM,Santa Margherita Spa,V74,,,,,,Italy,Italy,,,,
KBB,03/06/2022,2022,https://www.eisenwarenmesse.com/,DM,Saviola,S104,,,,,,"Italy, Viale Lombardia, 29, Viadana, 46019",Italy,,,,
KBB,03/06/2022,2022,https://www.eisenwarenmesse.com/,DM,Scavolini Spa,P74,,,,,,Italy,Italy,,,,
KBB,03/06/2022,2022,https://www.eisenwarenmesse.com/,DM,Schüller Möbelwerk KG,R70,,,,,,"Germany, Rother Straße 1, Herrieden, 91567",Germany,Kitchen,,,
KBB,03/06/2022,2022,https://www.eisenwarenmesse.com/,DM,SD Products Ltd,T62,,,,,,United Kingdom,United Kingdom,,,,
KBB,03/06/2022,2022,https://www.eisenwarenmesse.com/,DM,SD Products Ltd,S87,,,,,,United Kingdom,United Kingdom,,,,
KBB,03/06/2022,2022,https://www.eisenwarenmesse.com/,DM,SEDN Kitchen & Bathroom Industrial Co. L,H94,,,,,,China,China,,,,
KBB,03/06/2022,2022,https://www.eisenwarenmesse.com/,DM,Sensio,K72,,https://sensio.co.uk,,,,"United Kingdom, Unit 7 Speedwell Road, Whitwood, Castleford, WF10 5PY",United Kingdom,,,,"Experts in our field, we design and develop, high quality, market leading LED lighting solutions to the kitchen, bedroom and bathroom (kbb) market. Alongside this, education is our top priority to ensure lighting, which is often perceived as complex and therefore dismissed, is easily understood. We want to Make Lighting Simple and endeavour to not only design products which are simple to use but provide all the tools and support required. "
KBB,03/06/2022,2022,https://www.eisenwarenmesse.com/,DM,SERIART G2 - S.R.L.,B42,,,,,,Italy,Italy,,,,
KBB,03/06/2022,2022,https://www.eisenwarenmesse.com/,DM,Showerwall,D54,,https://showerwall.co.uk/,,,,United Kingdom,United Kingdom,Bathroom | Panels | Fabric & Wallcoverings,,,Showerwall offers a versatile and easy to fit bathroom wall panelling system that is a fantastic alternative to tiles. The sophisticated and versatile collections embrace innovation and the latest trends. It is a 100% waterproof panelling system backed by a guarantee of up to 15 years.
KBB,03/06/2022,2022,https://www.eisenwarenmesse.com/,DM,Signo Nanocare,L106,,,,,,United Kingdom,United Kingdom,,,,
KBB,03/06/2022,2022,https://www.eisenwarenmesse.com/,DM,Simon Acres Group Ltd.,R60,,,,,,United Kingdom,United Kingdom,,,,
KBB,03/06/2022,2022,https://www.eisenwarenmesse.com/,DM,Sirius Buying Group,L60,,,,,,United Kingdom,United Kingdom,,,,
KBB,03/06/2022,2022,https://www.eisenwarenmesse.com/,DM,Spatech International Ltd,B50,,,,,,"Hong Kong, S.A.R. China","Hong Kong, S.A.R. China",,,,
KBB,03/06/2022,2022,https://www.eisenwarenmesse.com/,DM,STAR MUTFAK VE MOB. AKS. SAN. TIC. A.S.,V72,,,,,,Turkey,Turkey,,,,
KBB,03/06/2022,2022,https://www.eisenwarenmesse.com/,DM,Sugatsune Kogyo (UK) Limited,T80,,,,,,United Kingdom,United Kingdom,,,,
KBB,03/06/2022,2022,https://www.eisenwarenmesse.com/,DM,SycamoreLED.com,L100,,https://www.sycamoreled.com,,,,"United Kingdom, Unit 6 Astley Lane Industrial Estate, Swillington, Leeds, LS26 8XT",United Kingdom,Lighting | Accessories | Kitchen | Bathroom Accessories | Bathroom | Home Technology / Control Systems | Technology / Software | L.E.D's | Decorative Lighting,,,"SycamoreLED.com is a market leading manufacturer and supplier of LED lighting and control systems to the KBB market and lighting sectors. Established in 1998, Sycamore has built a strong reputation for offering unrivalled customer service and innovative products.Major investment in new technologies, personnel, and state of the art testing and training facilities has enabled us to cross over into different market sectors, whilst maintaining our status as a major manufacturer and supplier of high-quality lighting and control systems throughout the UK and Europe.Based at Sycamore"
KBB,03/06/2022,2022,https://www.eisenwarenmesse.com/,DM,SYSTEM MOBILYA AKSESUARLARI A.S.,B80,,,,,,Turkey,Turkey,,,,
KBB,03/06/2022,2022,https://www.eisenwarenmesse.com/,DM,TESKA BANYO AKSESUARLARI SAN. VE DIS. TIC. LTD.STI.,J80,,,,,,Turkey,Turkey,,,,
KBB,03/06/2022,2022,https://www.eisenwarenmesse.com/,DM,The Lightworks Ltd,L85,,,,,,United Kingdom,United Kingdom,,,,
KBB,03/06/2022,2022,https://www.eisenwarenmesse.com/,DM,The Marble Group Ltd,N104,,https://www.themarblestore.co.uk/,,,,"United Kingdom, Welham House, Welham Green, AL9 7HF",United Kingdom,,,,"The Marble Group are the UK's leading specialists in providing, fabricating and installing stone worktops, including quartz, ceramic, marble and granite, to the trade and public alike. "
KBB,03/06/2022,2022,https://www.eisenwarenmesse.com/,DM,The Tap Factory Ltd.,J108,,,,,,United Kingdom,United Kingdom,,,,
KBB,03/06/2022,2022,https://www.eisenwarenmesse.com/,DM,Titus Tool Company Limited,V80,,,,,,United Kingdom,United Kingdom,,,,
KBB,03/06/2022,2022,https://www.eisenwarenmesse.com/,DM,TLW,M82,,https://tlwglobal.com/,,,,"United Kingdom, Brunel House, Brunel Close, Harworth, Doncaster, DN11 8QA",United Kingdom,Lighting | Decorative Lighting | L.E.D's | Kitchen | Bedroom | Bathroom | Mirrors | Accessories | Home Technology / Control Systems | Technology / Software,,,"TLW is a market-leading manufacturer and supplier of innovative lighting solutions. We specialise inhigh quality products, coupled with incomparable service and dedication to our customers.Specific attention is given to the development of furniture lighting solutions and products for the KBBmarket. Our products are illuminating industry-leading brands on a global scale and our current clientbase includes some of the largest international manufacturers."
KBB,03/06/2022,2022,https://www.eisenwarenmesse.com/,DM,Toffs Fitted Furniture,K60,,,,,,United Kingdom,United Kingdom,,,,
KBB,03/06/2022,2022,https://www.eisenwarenmesse.com/,DM,"Transformad, S.A.",S90,,,,,,Spain,Spain,,,,
KBB,03/06/2022,2022,https://www.eisenwarenmesse.com/,DM,Triflow Concepts,E76,,,,,,United Kingdom,United Kingdom,,,,
KBB,03/06/2022,2022,https://www.eisenwarenmesse.com/,DM,Tron Worktops Limited,P100,,,,,,United Kingdom,United Kingdom,,,,
KBB,03/06/2022,2022,https://www.eisenwarenmesse.com/,DM,TURAN SERAMIK SAN. ve TIC. A.S.,C34,,,,,,Turkey,Turkey,,,,
KBB,03/06/2022,2022,https://www.eisenwarenmesse.com/,DM,uform,uform,,,,,,United Kingdom,United Kingdom,,,,
KBB,03/06/2022,2022,https://www.eisenwarenmesse.com/,DM,Vauth-Sagel Systemtechnik GmbH & Co. KG,S72,,,,,,Germany,Germany,,,,
KBB,03/06/2022,2022,https://www.eisenwarenmesse.com/,DM,Ventmann UK Ltd,G92,,,,,,United Kingdom,United Kingdom,,,,
KBB,03/06/2022,2022,https://www.eisenwarenmesse.com/,DM,Verona Group,E80,,https://www.veronagroup.co.uk,,,,"United Kingdom, Lumina,, Park Approach, Thorpe Park, Leeds, LS15 8GB",United Kingdom,Surfaces / Hard Materials | Tiles | Natural Stone Tiles | Accessories | Decorative Accessories | Architectural Details / Finishing | Bathroom | Bedroom | Construction & Building | Flooring | Kitchen | Bathroom Accessories | Components / Equipment / Production | Ceramic Floor Tiles | Heating,,,"Verona was founded over 20 years ago in 2001 and has since grown to become the UK’s leading distributor of tiles, mosaics, outdoor porcelain and flooring.We have a large range of on-trend products that are carefully chosen by our experienced team with the UK consumer in mind.  We source these products from our dedicated manufacturing partners all around the world to ensure we are delivering the best quality available.With a Yorkshire based distribution centre that is over ¼ million square feet, we have a large UK stock holding, that can cater for everything from single independent"
KBB,03/06/2022,2022,https://www.eisenwarenmesse.com/,DM,Virtual Worlds by Logicom,G80,,https://www.virtualworlds.co.uk/,,,,"United Kingdom, 1 Portland Drive, Willen, Milton Keynes, MK15 9JW",United Kingdom,,,,Take your design service to the next level!Virtual Worlds 3D interactive CAD and immersive virtual reality 4D system delivers an incomparable customer experience empowering retailers to sell more product at a higher margin in a dramatically shortened sale cycle.
KBB,03/06/2022,2022,https://www.eisenwarenmesse.com/,DM,Vroma Ltd,G90,,,,,,United Kingdom,United Kingdom,,,,
KBB,03/06/2022,2022,https://www.eisenwarenmesse.com/,DM,Westin,N84,,,,,,United Kingdom,United Kingdom,,,,
KBB,03/06/2022,2022,https://www.eisenwarenmesse.com/,DM,Wex Trade,J114,,,,,,United Kingdom,United Kingdom,,,,
KBB,03/06/2022,2022,https://www.eisenwarenmesse.com/,DM,Whitebirk Sink Co Ltd,H82,,,,,,United Kingdom,United Kingdom,,,,
KBB,03/06/2022,2022,https://www.eisenwarenmesse.com/,DM,Whitebirk Sink Co Ltd,J110,,,,,,United Kingdom,United Kingdom,,,,
KBB,03/06/2022,2022,https://www.eisenwarenmesse.com/,DM,Wiper sp. zo.o.,C50,,,,,,Poland,Poland,,,,
KBB,03/06/2022,2022,https://www.eisenwarenmesse.com/,DM,Wirquin,D62,,,,,,United Kingdom,United Kingdom,,,,
KBB,03/06/2022,2022,https://www.eisenwarenmesse.com/,DM,Zuma Array Ltd,V90,,,,,,United Kingdom,United Kingdom,,,,
