ShowName,ShowDate,ShowYear,ShowWebsite,SubmittedBy,ExhibitorName,BoothNumber,HallLocation,Website,Email,Phone,Fax,Address,Country,Categories,Manufacturers,Brands,Description
Homebuilding & Renovation Show,01/15/2022,2022,https://farnborough.homebuildingshow.co.uk/,DM,Kutchenhaus,E105,,http://www.kutchenhaus.co.uk,,,, United Kingdom,United Kingdom,,,,
Homebuilding & Renovation Show,01/15/2022,2022,https://farnborough.homebuildingshow.co.uk/,DM,Lacanche Range Cookers,H118,,,,,, United Kingdom,United Kingdom,,,,
Homebuilding & Renovation Show,01/15/2022,2022,https://farnborough.homebuildingshow.co.uk/,DM,Kloeber,H100,,,,,, United Kingdom,United Kingdom,,,,
Homebuilding & Renovation Show,01/15/2022,2022,https://farnborough.homebuildingshow.co.uk/,DM,Landscape Design by James Brunton-Smith,F112,,,,,, United Kingdom,United Kingdom,,,,
Homebuilding & Renovation Show,01/15/2022,2022,https://farnborough.homebuildingshow.co.uk/,DM,About Roofing Supplies,J102,,,,,, United Kingdom,United Kingdom,,,,
Homebuilding & Renovation Show,01/15/2022,2022,https://farnborough.homebuildingshow.co.uk/,DM,Kingspan Timber Solutions Ltd.,B106,,,,,, United Kingdom,United Kingdom,,,,
Homebuilding & Renovation Show,01/15/2022,2022,https://farnborough.homebuildingshow.co.uk/,DM,Led-Zip Lighting,A102,,,,,, United Kingdom,United Kingdom,,,,
Homebuilding & Renovation Show,01/15/2022,2022,https://farnborough.homebuildingshow.co.uk/,DM,Lighthouse (Southern) Ltd,F108,,,,,, United Kingdom,United Kingdom,,,,
Homebuilding & Renovation Show,01/15/2022,2022,https://farnborough.homebuildingshow.co.uk/,DM,Jigsaw Infrared & Green Solutions,J101,,,,,, United Kingdom,United Kingdom,,,,
Homebuilding & Renovation Show,01/15/2022,2022,https://farnborough.homebuildingshow.co.uk/,DM,Huntsman Building Solutions,M114,,http://www.huntsmanifs.com,,,, United Kingdom,United Kingdom,,,,
Homebuilding & Renovation Show,01/15/2022,2022,https://farnborough.homebuildingshow.co.uk/,DM,Internorm,C102,,http://www.internorm.co.uk,,,, United Kingdom,United Kingdom,,,,
Homebuilding & Renovation Show,01/15/2022,2022,https://farnborough.homebuildingshow.co.uk/,DM,Idealcombi,E102,,,,,, United Kingdom,United Kingdom,,,,
Homebuilding & Renovation Show,01/15/2022,2022,https://farnborough.homebuildingshow.co.uk/,DM,Just Add Popcorn,G120,,http://www.justaddpopcorn.co.uk/contact/,,,, United Kingdom,United Kingdom,,,,
Homebuilding & Renovation Show,01/15/2022,2022,https://farnborough.homebuildingshow.co.uk/,DM,Isotex by Insul Hub,M120,,,,,, United Kingdom,United Kingdom,,,,
Homebuilding & Renovation Show,01/15/2022,2022,https://farnborough.homebuildingshow.co.uk/,DM,Yeoman Rainguard,J118,,http://www.rainguard.co.uk,,,, United Kingdom,United Kingdom,,,,
Homebuilding & Renovation Show,01/15/2022,2022,https://farnborough.homebuildingshow.co.uk/,DM,Jardin De France,A106,,,,,, United Kingdom,United Kingdom,,,,
Homebuilding & Renovation Show,01/15/2022,2022,https://farnborough.homebuildingshow.co.uk/,DM,Xtrahand,A002,,,,,, United Kingdom,United Kingdom,,,,
Homebuilding & Renovation Show,01/15/2022,2022,https://farnborough.homebuildingshow.co.uk/,DM,York Handmade Brick,J108,,http://www.yorkhandmade.co.uk,,,, United Kingdom,United Kingdom,,,,
Homebuilding & Renovation Show,01/15/2022,2022,https://farnborough.homebuildingshow.co.uk/,DM,You Control Ltd,D119,,http://www.youcontrol.uk.com,,,, United Kingdom,United Kingdom,,,,
Homebuilding & Renovation Show,01/15/2022,2022,https://farnborough.homebuildingshow.co.uk/,DM,J & JW Longbottom Ltd,D124,,,,,, United Kingdom,United Kingdom,,,,
Homebuilding & Renovation Show,01/15/2022,2022,https://farnborough.homebuildingshow.co.uk/,DM,WWF,L133,,,,,, United Kingdom,United Kingdom,,,,
Homebuilding & Renovation Show,01/15/2022,2022,https://farnborough.homebuildingshow.co.uk/,DM,Woodstock Of Ascot,M108,,,,,, United Kingdom,United Kingdom,,,,
Homebuilding & Renovation Show,01/15/2022,2022,https://farnborough.homebuildingshow.co.uk/,DM,Woodolex,D106,,,,,, United Kingdom,United Kingdom,,,,
Homebuilding & Renovation Show,01/15/2022,2022,https://farnborough.homebuildingshow.co.uk/,DM,Whotz Hot,A001,,,,,, United Kingdom,United Kingdom,,,,
Homebuilding & Renovation Show,01/15/2022,2022,https://farnborough.homebuildingshow.co.uk/,DM,VAT Self Build Reclaim,A100,,,,,, United Kingdom,United Kingdom,,,,
Homebuilding & Renovation Show,01/15/2022,2022,https://farnborough.homebuildingshow.co.uk/,DM,Weatherproof UK,E118,,,,,, United Kingdom,United Kingdom,,,,
Homebuilding & Renovation Show,01/15/2022,2022,https://farnborough.homebuildingshow.co.uk/,DM,Ultraline,J104,,,,,, United Kingdom,United Kingdom,,,,
Homebuilding & Renovation Show,01/15/2022,2022,https://farnborough.homebuildingshow.co.uk/,DM,wwwcustomtimberwindowscom,J100,,,,,, United Kingdom,United Kingdom,,,,
Homebuilding & Renovation Show,01/15/2022,2022,https://farnborough.homebuildingshow.co.uk/,DM,Trendi Switch,K129,,,,,, United Kingdom,United Kingdom,,,,
Homebuilding & Renovation Show,01/15/2022,2022,https://farnborough.homebuildingshow.co.uk/,DM,Windhager,J105,,,,,, United Kingdom,United Kingdom,,,,
Homebuilding & Renovation Show,01/15/2022,2022,https://farnborough.homebuildingshow.co.uk/,DM,UK Wood Floors,E103,,http://www.ukwoodfloors.co.uk,,,, United Kingdom,United Kingdom,,,,
Homebuilding & Renovation Show,01/15/2022,2022,https://farnborough.homebuildingshow.co.uk/,DM,The Oak Glass House,L102,,,,,, United Kingdom,United Kingdom,,,,
Homebuilding & Renovation Show,01/15/2022,2022,https://farnborough.homebuildingshow.co.uk/,DM,Toulan 2000,C122,,,,,, United Kingdom,United Kingdom,,,,
Homebuilding & Renovation Show,01/15/2022,2022,https://farnborough.homebuildingshow.co.uk/,DM,Total AV Control,D109,,,,,, United Kingdom,United Kingdom,,,,
Homebuilding & Renovation Show,01/15/2022,2022,https://farnborough.homebuildingshow.co.uk/,DM,Triple X Trading,J124,,http://www.triplextrading.co.uk,,,, United Kingdom,United Kingdom,,,,
Homebuilding & Renovation Show,01/15/2022,2022,https://farnborough.homebuildingshow.co.uk/,DM,Traditional Clay Roof Tiles,K111,,,,,, United Kingdom,United Kingdom,,,,
Homebuilding & Renovation Show,01/15/2022,2022,https://farnborough.homebuildingshow.co.uk/,DM,The Myers Touch,F109,,http://www.themyerstouch.co.uk,,,, United Kingdom,United Kingdom,,,,
Homebuilding & Renovation Show,01/15/2022,2022,https://farnborough.homebuildingshow.co.uk/,DM,The Glass Balustrade Company,C100,,http://www.glassbalustradecompany.co.uk/,,,, United Kingdom,United Kingdom,,,,
Homebuilding & Renovation Show,01/15/2022,2022,https://farnborough.homebuildingshow.co.uk/,DM,Totally Bespoke Joinery Ltd,E118,,http://www.totallybespokejoinery.com/,,,, United Kingdom,United Kingdom,,,,
Homebuilding & Renovation Show,01/15/2022,2022,https://farnborough.homebuildingshow.co.uk/,DM,Speedybuild Ltd,A006,,,,,, United Kingdom,United Kingdom,,,,
Homebuilding & Renovation Show,01/15/2022,2022,https://farnborough.homebuildingshow.co.uk/,DM,Sub Cool FM,J106,,http://www.sub-cool-fm.co.uk,,,, United Kingdom,United Kingdom,,,,
Homebuilding & Renovation Show,01/15/2022,2022,https://farnborough.homebuildingshow.co.uk/,DM,Simply Sound and Vision,N120,,,,,, United Kingdom,United Kingdom,,,,
Homebuilding & Renovation Show,01/15/2022,2022,https://farnborough.homebuildingshow.co.uk/,DM,Self-Build Zone,B111,,,,,, United Kingdom,United Kingdom,,,,
Homebuilding & Renovation Show,01/15/2022,2022,https://farnborough.homebuildingshow.co.uk/,DM,Sunbloc,G123,,,,,, United Kingdom,United Kingdom,,,,
Homebuilding & Renovation Show,01/15/2022,2022,https://farnborough.homebuildingshow.co.uk/,DM,Rhoco Es Ltd,C90,,,,,, United Kingdom,United Kingdom,,,,
Homebuilding & Renovation Show,01/15/2022,2022,https://farnborough.homebuildingshow.co.uk/,DM,Smart Fence UK,D111,,,,,, United Kingdom,United Kingdom,,,,
Homebuilding & Renovation Show,01/15/2022,2022,https://farnborough.homebuildingshow.co.uk/,DM,Sleepmaster Therapy,H122,,,,,, United Kingdom,United Kingdom,,,,
Homebuilding & Renovation Show,01/15/2022,2022,https://farnborough.homebuildingshow.co.uk/,DM,Scandia Hus,H101,,,,,, United Kingdom,United Kingdom,,,,
Homebuilding & Renovation Show,01/15/2022,2022,https://farnborough.homebuildingshow.co.uk/,DM,Roof Assured by Sika,F111,,,,,, United Kingdom,United Kingdom,,,,
Homebuilding & Renovation Show,01/15/2022,2022,https://farnborough.homebuildingshow.co.uk/,DM,Quooker,G126,,http://www.quooker.co.uk,,,, United Kingdom,United Kingdom,,,,
Homebuilding & Renovation Show,01/15/2022,2022,https://farnborough.homebuildingshow.co.uk/,DM,Quinetic Wireless Solutions,D105,,http://www.tlc-direct.co.uk,,,, United Kingdom,United Kingdom,,,,
Homebuilding & Renovation Show,01/15/2022,2022,https://farnborough.homebuildingshow.co.uk/,DM,Refresh Renovations,B115,,,,,, United Kingdom,United Kingdom,,,,
Homebuilding & Renovation Show,01/15/2022,2022,https://farnborough.homebuildingshow.co.uk/,DM,Rega Ventilation,G130,,http://www.regavent.co.uk,,,, United Kingdom,United Kingdom,,,,
Homebuilding & Renovation Show,01/15/2022,2022,https://farnborough.homebuildingshow.co.uk/,DM,Retrotouch,G101,,,,,, United Kingdom,United Kingdom,,,,
Homebuilding & Renovation Show,01/15/2022,2022,https://farnborough.homebuildingshow.co.uk/,DM,Rawington Ltd,L104,,http://www.rawington.com,,,, United Kingdom,United Kingdom,,,,
Homebuilding & Renovation Show,01/15/2022,2022,https://farnborough.homebuildingshow.co.uk/,DM,Roller Garage Doors Centre,N114,,,,,, United Kingdom,United Kingdom,,,,
Homebuilding & Renovation Show,01/15/2022,2022,https://farnborough.homebuildingshow.co.uk/,DM,Protek Group Limited,K109,,,,,, United Kingdom,United Kingdom,,,,
Homebuilding & Renovation Show,01/15/2022,2022,https://farnborough.homebuildingshow.co.uk/,DM,Pygmalion & Funk,A104,,,,,, United Kingdom,United Kingdom,,,,
Homebuilding & Renovation Show,01/15/2022,2022,https://farnborough.homebuildingshow.co.uk/,DM,Oakdale,A112,,http://www.oakdalebeds.co.uk,,,, United Kingdom,United Kingdom,,,,
Homebuilding & Renovation Show,01/15/2022,2022,https://farnborough.homebuildingshow.co.uk/,DM,Platinum Lifts,B100,,http://www.platinum-lifts.co.uk,,,, United Kingdom,United Kingdom,,,,
Homebuilding & Renovation Show,01/15/2022,2022,https://farnborough.homebuildingshow.co.uk/,DM,ODC,H106,,http://www.odctrading.co.uk,,,, United Kingdom,United Kingdom,,,,
Homebuilding & Renovation Show,01/15/2022,2022,https://farnborough.homebuildingshow.co.uk/,DM,New Wave AV Ltd,B114,,http://www.newwaveav.co.uk,,,, United Kingdom,United Kingdom,,,,
Homebuilding & Renovation Show,01/15/2022,2022,https://farnborough.homebuildingshow.co.uk/,DM,Mulberry Silk,N107,,,,,, United Kingdom,United Kingdom,,,,
Homebuilding & Renovation Show,01/15/2022,2022,https://farnborough.homebuildingshow.co.uk/,DM,Modus Vivendi,K106,,http://www.mv-installations.com,,,, United Kingdom,United Kingdom,,,,
Homebuilding & Renovation Show,01/15/2022,2022,https://farnborough.homebuildingshow.co.uk/,DM,PMG Architecture,A120,,http://www.pmgarchitecture.co.uk,,,, United Kingdom,United Kingdom,,,,
Homebuilding & Renovation Show,01/15/2022,2022,https://farnborough.homebuildingshow.co.uk/,DM,Marlborough House Financial Planning,K117,,http://www.mymortgage.London,,,, United Kingdom,United Kingdom,,,,
Homebuilding & Renovation Show,01/15/2022,2022,https://farnborough.homebuildingshow.co.uk/,DM,Pool Design,C114,,,,,, United Kingdom,United Kingdom,,,,
Homebuilding & Renovation Show,01/15/2022,2022,https://farnborough.homebuildingshow.co.uk/,DM,Link It Solutions Ltd,H113,,,,,, United Kingdom,United Kingdom,,,,
Homebuilding & Renovation Show,01/15/2022,2022,https://farnborough.homebuildingshow.co.uk/,DM,Luxuria Property,G101,,,,,, United Kingdom,United Kingdom,,,,
Homebuilding & Renovation Show,01/15/2022,2022,https://farnborough.homebuildingshow.co.uk/,DM,Lucas Grant,C112,,,,,, United Kingdom,United Kingdom,,,,
Homebuilding & Renovation Show,01/15/2022,2022,https://farnborough.homebuildingshow.co.uk/,DM,Nudura by ICF Southern,F103,,,,,, United Kingdom,United Kingdom,,,,
Homebuilding & Renovation Show,01/15/2022,2022,https://farnborough.homebuildingshow.co.uk/,DM,Lumination,G114,,,,,, United Kingdom,United Kingdom,,,,
Homebuilding & Renovation Show,01/15/2022,2022,https://farnborough.homebuildingshow.co.uk/,DM,Holiday Cottages,F107,,,,,, United Kingdom,United Kingdom,,,,
Homebuilding & Renovation Show,01/15/2022,2022,https://farnborough.homebuildingshow.co.uk/,DM,MJH Architects,A008,,,,,, United Kingdom,United Kingdom,,,,
Homebuilding & Renovation Show,01/15/2022,2022,https://farnborough.homebuildingshow.co.uk/,DM,Greenpeace,D121,,http://www.working4wildlife.org,,,, United Kingdom,United Kingdom,,,,
Homebuilding & Renovation Show,01/15/2022,2022,https://farnborough.homebuildingshow.co.uk/,DM,Furness Brick & Tile,E120,,http://www.furnessbrick.com,,,, United Kingdom,United Kingdom,,,,
Homebuilding & Renovation Show,01/15/2022,2022,https://farnborough.homebuildingshow.co.uk/,DM,Hoko Design,E112,,http://www.hokodesign.com,,,, United Kingdom,United Kingdom,,,,
Homebuilding & Renovation Show,01/15/2022,2022,https://farnborough.homebuildingshow.co.uk/,DM,Lithe Audio,G105,,http://www.LITHEAUDIO.COM,,,, United Kingdom,United Kingdom,,,,
Homebuilding & Renovation Show,01/15/2022,2022,https://farnborough.homebuildingshow.co.uk/,DM,Holden Management,F114,,,,,, United Kingdom,United Kingdom,,,,
Homebuilding & Renovation Show,01/15/2022,2022,https://farnborough.homebuildingshow.co.uk/,DM,HBD Systems,G112,,,,,, United Kingdom,United Kingdom,,,,
Homebuilding & Renovation Show,01/15/2022,2022,https://farnborough.homebuildingshow.co.uk/,DM,Fleming homes,H107,,,,,, United Kingdom,United Kingdom,,,,
Homebuilding & Renovation Show,01/15/2022,2022,https://farnborough.homebuildingshow.co.uk/,DM,Flint & Flame,G102,,,,,, United Kingdom,United Kingdom,,,,
Homebuilding & Renovation Show,01/15/2022,2022,https://farnborough.homebuildingshow.co.uk/,DM,Greys Art Stone Ltd,N110,,,,,, United Kingdom,United Kingdom,,,,
Homebuilding & Renovation Show,01/15/2022,2022,https://farnborough.homebuildingshow.co.uk/,DM,Fuller Heating,A116,,,,,, United Kingdom,United Kingdom,,,,
Homebuilding & Renovation Show,01/15/2022,2022,https://farnborough.homebuildingshow.co.uk/,DM,Fibrespan UK,N116,,http://www.fibrespanuk.com,,,, United Kingdom,United Kingdom,,,,
Homebuilding & Renovation Show,01/15/2022,2022,https://farnborough.homebuildingshow.co.uk/,DM,Gartec Ltd,K107,,,,,, United Kingdom,United Kingdom,,,,
Homebuilding & Renovation Show,01/15/2022,2022,https://farnborough.homebuildingshow.co.uk/,DM,Finite Design,A90,,http://www.finitedesign.co.uk,,,, United Kingdom,United Kingdom,,,,
Homebuilding & Renovation Show,01/15/2022,2022,https://farnborough.homebuildingshow.co.uk/,DM,Ella Austin Kitchens,J114,,,,,, United Kingdom,United Kingdom,,,,
Homebuilding & Renovation Show,01/15/2022,2022,https://farnborough.homebuildingshow.co.uk/,DM,Express Bi Fold Doors,L108,,,,,, United Kingdom,United Kingdom,,,,
Homebuilding & Renovation Show,01/15/2022,2022,https://farnborough.homebuildingshow.co.uk/,DM,EcoHaus Sw,J104,,,,,, United Kingdom,United Kingdom,,,,
Homebuilding & Renovation Show,01/15/2022,2022,https://farnborough.homebuildingshow.co.uk/,DM,Everest,K100,,,,,, United Kingdom,United Kingdom,,,,
Homebuilding & Renovation Show,01/15/2022,2022,https://farnborough.homebuildingshow.co.uk/,DM,Dreadnought Tiles,C118,,,,,, United Kingdom,United Kingdom,,,,
Homebuilding & Renovation Show,01/15/2022,2022,https://farnborough.homebuildingshow.co.uk/,DM,Direct Supplies World of Interiors,C106,,http://www.directsuppliesltd.com,,,, United Kingdom,United Kingdom,,,,
Homebuilding & Renovation Show,01/15/2022,2022,https://farnborough.homebuildingshow.co.uk/,DM,Ecological Sips,E108,,,,,, United Kingdom,United Kingdom,,,,
Homebuilding & Renovation Show,01/15/2022,2022,https://farnborough.homebuildingshow.co.uk/,DM,Eco Energy Environment Ltd,D102,,,,,, United Kingdom,United Kingdom,,,,
Homebuilding & Renovation Show,01/15/2022,2022,https://farnborough.homebuildingshow.co.uk/,DM,Danwood,G118,,http://www.danwood.com,,,, United Kingdom,United Kingdom,,,,
Homebuilding & Renovation Show,01/15/2022,2022,https://farnborough.homebuildingshow.co.uk/,DM,DIY Shutters and Blinds,L101,,http://www.countryshutters.co.uk,,,, United Kingdom,United Kingdom,,,,
Homebuilding & Renovation Show,01/15/2022,2022,https://farnborough.homebuildingshow.co.uk/,DM,Core Conservation,D100,,,,,, United Kingdom,United Kingdom,,,,
Homebuilding & Renovation Show,01/15/2022,2022,https://farnborough.homebuildingshow.co.uk/,DM,Costco,C109,,,,,, United Kingdom,United Kingdom,,,,
Homebuilding & Renovation Show,01/15/2022,2022,https://farnborough.homebuildingshow.co.uk/,DM,Cottages.com,G108,,http://www.cottages.com,,,, United Kingdom,United Kingdom,,,,
Homebuilding & Renovation Show,01/15/2022,2022,https://farnborough.homebuildingshow.co.uk/,DM,Deborah Law Interiors,E104,,http://www.deborahlawinteriors.co.uk,,,, United Kingdom,United Kingdom,,,,
Homebuilding & Renovation Show,01/15/2022,2022,https://farnborough.homebuildingshow.co.uk/,DM,CVC Ventilation,K125,,,,,, United Kingdom,United Kingdom,,,,
Homebuilding & Renovation Show,01/15/2022,2022,https://farnborough.homebuildingshow.co.uk/,DM,D AND H OAK FRAMING,E109,,,,,, United Kingdom,United Kingdom,,,,
Homebuilding & Renovation Show,01/15/2022,2022,https://farnborough.homebuildingshow.co.uk/,DM,Cadira,B101,,,,,, United Kingdom,United Kingdom,,,,
Homebuilding & Renovation Show,01/15/2022,2022,https://farnborough.homebuildingshow.co.uk/,DM,Chimella,M102,,,,,, United Kingdom,United Kingdom,,,,
Homebuilding & Renovation Show,01/15/2022,2022,https://farnborough.homebuildingshow.co.uk/,DM,Comptons Kitchens,E106,,https://www.comptons-furniture.co.uk/,,,, United Kingdom,United Kingdom,,,,
Homebuilding & Renovation Show,01/15/2022,2022,https://farnborough.homebuildingshow.co.uk/,DM,Connected With Style Ltd,A114,,,,,, United Kingdom,United Kingdom,,,,
Homebuilding & Renovation Show,01/15/2022,2022,https://farnborough.homebuildingshow.co.uk/,DM,Climachill,M100,,http://www.climachill.co.uk,,,, United Kingdom,United Kingdom,,,,
Homebuilding & Renovation Show,01/15/2022,2022,https://farnborough.homebuildingshow.co.uk/,DM,CAD UP,F101,,,,,, United Kingdom,United Kingdom,,,,
Homebuilding & Renovation Show,01/15/2022,2022,https://farnborough.homebuildingshow.co.uk/,DM,Britelite,B110,,,,,, United Kingdom,United Kingdom,,,,
Homebuilding & Renovation Show,01/15/2022,2022,https://farnborough.homebuildingshow.co.uk/,DM,Arctic Cabins,D113,,http://www.arcticcabins.co.uk,,,, United Kingdom,United Kingdom,,,,
Homebuilding & Renovation Show,01/15/2022,2022,https://farnborough.homebuildingshow.co.uk/,DM,Border Oak Design & Construction Ltd,K116,,,,,, United Kingdom,United Kingdom,,,,
Homebuilding & Renovation Show,01/15/2022,2022,https://farnborough.homebuildingshow.co.uk/,DM,Advantage Home Construction Insurance,K128,,,,,, United Kingdom,United Kingdom,,,,
Homebuilding & Renovation Show,01/15/2022,2022,https://farnborough.homebuildingshow.co.uk/,DM,Blue Sky CAD,A80,,,,,, United Kingdom,United Kingdom,,,,
Homebuilding & Renovation Show,01/15/2022,2022,https://farnborough.homebuildingshow.co.uk/,DM,BergHOFF,K131,,http://www.londonchinagroup.com,,,, United Kingdom,United Kingdom,,,,
Homebuilding & Renovation Show,01/15/2022,2022,https://farnborough.homebuildingshow.co.uk/,DM,Black Elephant Architecture,B116,,,,,, United Kingdom,United Kingdom,,,,
Homebuilding & Renovation Show,01/15/2022,2022,https://farnborough.homebuildingshow.co.uk/,DM,Agadon Heat & Design,B104,,,,,, United Kingdom,United Kingdom,,,,
Homebuilding & Renovation Show,01/15/2022,2022,https://farnborough.homebuildingshow.co.uk/,DM,Anthony Mullan,F104,,http://info@anthonymullan.com,,,, United Kingdom,United Kingdom,,,,
