ShowName,ShowDate,ShowYear,ShowWebsite,SubmittedBy,ExhibitorName,BoothNumber,HallLocation,Website,Email,Phone,Fax,Address,Country,Categories,Manufacturers,Brands,Description
Partnertage,02/01/2022,2022,https://www.partnertage-ostwestfalen.de/,DM,2-Connect,,,,,,,,,,,,
Partnertage,02/01/2022,2022,https://www.partnertage-ostwestfalen.de/,DM,3B,,,,,,,,,,,,
Partnertage,02/01/2022,2022,https://www.partnertage-ostwestfalen.de/,DM,ABC-Reoler,,,,,,,,,,,,
Partnertage,02/01/2022,2022,https://www.partnertage-ostwestfalen.de/,DM,Albimo,,,,,,,,,,,,
Partnertage,02/01/2022,2022,https://www.partnertage-ostwestfalen.de/,DM,Alfamo,,,,,,,,,,,,
Partnertage,02/01/2022,2022,https://www.partnertage-ostwestfalen.de/,DM,AP Furniture,,,,,,,,,,,,
Partnertage,02/01/2022,2022,https://www.partnertage-ostwestfalen.de/,DM,Arredo Quick,,,,,,,,,,,,
Partnertage,02/01/2022,2022,https://www.partnertage-ostwestfalen.de/,DM,Arterior,,,,,,,,,,,,
Partnertage,02/01/2022,2022,https://www.partnertage-ostwestfalen.de/,DM,Belle Unico,,,,,,,,,,,,
Partnertage,02/01/2022,2022,https://www.partnertage-ostwestfalen.de/,DM,Benformato,,,,,,,,,,,,
Partnertage,02/01/2022,2022,https://www.partnertage-ostwestfalen.de/,DM,Bianchini,,,,,,,,,,,,
Partnertage,02/01/2022,2022,https://www.partnertage-ostwestfalen.de/,DM,Bomis Seher,,,,,,,,,,,,
Partnertage,02/01/2022,2022,https://www.partnertage-ostwestfalen.de/,DM,Bönninghoff,,,,,,,,,,,,
Partnertage,02/01/2022,2022,https://www.partnertage-ostwestfalen.de/,DM,Brix,,,,,,,,,,,,
Partnertage,02/01/2022,2022,https://www.partnertage-ostwestfalen.de/,DM,Canett,,,,,,,,,,,,
Partnertage,02/01/2022,2022,https://www.partnertage-ostwestfalen.de/,DM,Carla & Marge,,,,,,,,,,,,
Partnertage,02/01/2022,2022,https://www.partnertage-ostwestfalen.de/,DM,Cilek Mobilya,,,,,,,,,,,,
Partnertage,02/01/2022,2022,https://www.partnertage-ostwestfalen.de/,DM,Concept,,,,,,,,,,,,
Partnertage,02/01/2022,2022,https://www.partnertage-ostwestfalen.de/,DM,Corium,,,,,,,,,,,,
Partnertage,02/01/2022,2022,https://www.partnertage-ostwestfalen.de/,DM,D&N,,,,,,,,,,,,
Partnertage,02/01/2022,2022,https://www.partnertage-ostwestfalen.de/,DM,Diventa,,,,,,,,,,,,
Partnertage,02/01/2022,2022,https://www.partnertage-ostwestfalen.de/,DM,Domicil,,,,,,,,,,,,
Partnertage,02/01/2022,2022,https://www.partnertage-ostwestfalen.de/,DM,Domo Collection,,,,,,,,,,,,
Partnertage,02/01/2022,2022,https://www.partnertage-ostwestfalen.de/,DM,Duo Collection,,,,,,,,,,,,
Partnertage,02/01/2022,2022,https://www.partnertage-ostwestfalen.de/,DM,EA-Möbel,,,,,,,,,,,,
Partnertage,02/01/2022,2022,https://www.partnertage-ostwestfalen.de/,DM,Edas,,,,,,,,,,,,
Partnertage,02/01/2022,2022,https://www.partnertage-ostwestfalen.de/,DM,Edelholtz,,,,,,,,,,,,
Partnertage,02/01/2022,2022,https://www.partnertage-ostwestfalen.de/,DM,Elfo,,,,,,,,,,,,
Partnertage,02/01/2022,2022,https://www.partnertage-ostwestfalen.de/,DM,English Chesterfield,,,,,,,,,,,,
Partnertage,02/01/2022,2022,https://www.partnertage-ostwestfalen.de/,DM,Euro Diffusion,,,,,,,,,,,,
Partnertage,02/01/2022,2022,https://www.partnertage-ostwestfalen.de/,DM,EVE Collection,,,,,,,,,,,,
Partnertage,02/01/2022,2022,https://www.partnertage-ostwestfalen.de/,DM,FA Furniture Asia,,,,,,,,,,,,
Partnertage,02/01/2022,2022,https://www.partnertage-ostwestfalen.de/,DM,Femo Trade,,,,,,,,,,,,
Partnertage,02/01/2022,2022,https://www.partnertage-ostwestfalen.de/,DM,Finori,,,,,,,,,,,,
Partnertage,02/01/2022,2022,https://www.partnertage-ostwestfalen.de/,DM,FORTE,,,,,,,,,,,,
Partnertage,02/01/2022,2022,https://www.partnertage-ostwestfalen.de/,DM,Furniflair,,,,,,,,,,,,
Partnertage,02/01/2022,2022,https://www.partnertage-ostwestfalen.de/,DM,Gradel,,,,,,,,,,,,
Partnertage,02/01/2022,2022,https://www.partnertage-ostwestfalen.de/,DM,GREEN,,,,,,,,,,,,
Partnertage,02/01/2022,2022,https://www.partnertage-ostwestfalen.de/,DM,Handelsagentur Leonardo Simone,,,,,,,,,,,,
Partnertage,02/01/2022,2022,https://www.partnertage-ostwestfalen.de/,DM,Happy Home,,,,,,,,,,,,
Partnertage,02/01/2022,2022,https://www.partnertage-ostwestfalen.de/,DM,Hela,,,,,,,,,,,,
Partnertage,02/01/2022,2022,https://www.partnertage-ostwestfalen.de/,DM,HM Helvetia Meble,,,,,,,,,,,,
Partnertage,02/01/2022,2022,https://www.partnertage-ostwestfalen.de/,DM,HTL,,,,,,,,,,,,
Partnertage,02/01/2022,2022,https://www.partnertage-ostwestfalen.de/,DM,IMV,,,,,,,,,,,,
Partnertage,02/01/2022,2022,https://www.partnertage-ostwestfalen.de/,DM,Incado,,,,,,,,,,,,
Partnertage,02/01/2022,2022,https://www.partnertage-ostwestfalen.de/,DM,INDEX LIVING,,,,,,,,,,,,
Partnertage,02/01/2022,2022,https://www.partnertage-ostwestfalen.de/,DM,Indivani,,,,,,,,,,,,
Partnertage,02/01/2022,2022,https://www.partnertage-ostwestfalen.de/,DM,Inter Bad,,,,,,,,,,,,
Partnertage,02/01/2022,2022,https://www.partnertage-ostwestfalen.de/,DM,Inter Bed,,,,,,,,,,,,
Partnertage,02/01/2022,2022,https://www.partnertage-ostwestfalen.de/,DM,Inter Dining,,,,,,,,,,,,
Partnertage,02/01/2022,2022,https://www.partnertage-ostwestfalen.de/,DM,Inter Handel,,,,,,,,,,,,
Partnertage,02/01/2022,2022,https://www.partnertage-ostwestfalen.de/,DM,Inter Sofas,,,,,,,,,,,,
Partnertage,02/01/2022,2022,https://www.partnertage-ostwestfalen.de/,DM,Inter-Furn,,,,,,,,,,,,
Partnertage,02/01/2022,2022,https://www.partnertage-ostwestfalen.de/,DM,Iwaniccy,,,,,,,,,,,,
Partnertage,02/01/2022,2022,https://www.partnertage-ostwestfalen.de/,DM,J&C Intelligent,,,,,,,,,,,,
Partnertage,02/01/2022,2022,https://www.partnertage-ostwestfalen.de/,DM,Kauno Baldai,,,,,,,,,,,,
Partnertage,02/01/2022,2022,https://www.partnertage-ostwestfalen.de/,DM,Len-Fra Rahmen und Spiegel,,,,,,,,,,,,
Partnertage,02/01/2022,2022,https://www.partnertage-ostwestfalen.de/,DM,Libra Sofa,,,,,,,,,,,,
Partnertage,02/01/2022,2022,https://www.partnertage-ostwestfalen.de/,DM,Lindberg Möbelteam,,,,,,,,,,,,
Partnertage,02/01/2022,2022,https://www.partnertage-ostwestfalen.de/,DM,Livingfurn,,,,,,,,,,,,
Partnertage,02/01/2022,2022,https://www.partnertage-ostwestfalen.de/,DM,M2 Kollektion,,,,,,,,,,,,
Partnertage,02/01/2022,2022,https://www.partnertage-ostwestfalen.de/,DM,Mäusbacher,,,,,,,,,,,,
Partnertage,02/01/2022,2022,https://www.partnertage-ostwestfalen.de/,DM,MCA Foyer,,,,,,,,,,,,
Partnertage,02/01/2022,2022,https://www.partnertage-ostwestfalen.de/,DM,MCA furniture,,,,,,,,,,,,
Partnertage,02/01/2022,2022,https://www.partnertage-ostwestfalen.de/,DM,MCA Innonova,,,,,,,,,,,,
Partnertage,02/01/2022,2022,https://www.partnertage-ostwestfalen.de/,DM,MCA Innoseat,,,,,,,,,,,,
Partnertage,02/01/2022,2022,https://www.partnertage-ostwestfalen.de/,DM,MCA Innotrend,,,,,,,,,,,,
Partnertage,02/01/2022,2022,https://www.partnertage-ostwestfalen.de/,DM,MCArt Wood,,,,,,,,,,,,
Partnertage,02/01/2022,2022,https://www.partnertage-ostwestfalen.de/,DM,Minlife,,,,,,,,,,,,
Partnertage,02/01/2022,2022,https://www.partnertage-ostwestfalen.de/,DM,Mirrors & More,,,,,,,,,,,,
Partnertage,02/01/2022,2022,https://www.partnertage-ostwestfalen.de/,DM,MMI Sleeping,,,,,,,,,,,,
Partnertage,02/01/2022,2022,https://www.partnertage-ostwestfalen.de/,DM,Möbeldesign,,,,,,,,,,,,
Partnertage,02/01/2022,2022,https://www.partnertage-ostwestfalen.de/,DM,Möbelpartner,,,,,,,,,,,,
Partnertage,02/01/2022,2022,https://www.partnertage-ostwestfalen.de/,DM,Modam’s Mobilya,,,,,,,,,,,,
Partnertage,02/01/2022,2022,https://www.partnertage-ostwestfalen.de/,DM,Moretti Compact,,,,,,,,,,,,
Partnertage,02/01/2022,2022,https://www.partnertage-ostwestfalen.de/,DM,Neofacture,,,,,,,,,,,,
Partnertage,02/01/2022,2022,https://www.partnertage-ostwestfalen.de/,DM,Nino Leuchten,,,,,,,,,,,,
Partnertage,02/01/2022,2022,https://www.partnertage-ostwestfalen.de/,DM,Prevent Fabric,,,,,,,,,,,,
Partnertage,02/01/2022,2022,https://www.partnertage-ostwestfalen.de/,DM,Prevent Interior,,,,,,,,,,,,
Partnertage,02/01/2022,2022,https://www.partnertage-ostwestfalen.de/,DM,Prevent Leather,,,,,,,,,,,,
Partnertage,02/01/2022,2022,https://www.partnertage-ostwestfalen.de/,DM,Probell,,,,,,,,,,,,
Partnertage,02/01/2022,2022,https://www.partnertage-ostwestfalen.de/,DM,Quadrato,,,,,,,,,,,,
Partnertage,02/01/2022,2022,https://www.partnertage-ostwestfalen.de/,DM,Reality,,,,,,,,,,,,
Partnertage,02/01/2022,2022,https://www.partnertage-ostwestfalen.de/,DM,Scapa,,,,,,,,,,,,
Partnertage,02/01/2022,2022,https://www.partnertage-ostwestfalen.de/,DM,Schildmeyer,,,,,,,,,,,,
Partnertage,02/01/2022,2022,https://www.partnertage-ostwestfalen.de/,DM,simple…*M*-Möbel,,,,,,,,,,,,
Partnertage,02/01/2022,2022,https://www.partnertage-ostwestfalen.de/,DM,Sitab,,,,,,,,,,,,
Partnertage,02/01/2022,2022,https://www.partnertage-ostwestfalen.de/,DM,Spiegelprofi,,,,,,,,,,,,
Partnertage,02/01/2022,2022,https://www.partnertage-ostwestfalen.de/,DM,Strictly Design,,,,,,,,,,,,
Partnertage,02/01/2022,2022,https://www.partnertage-ostwestfalen.de/,DM,Sun Garden,,,,,,,,,,,,
Partnertage,02/01/2022,2022,https://www.partnertage-ostwestfalen.de/,DM,Svenform,,,,,,,,,,,,
Partnertage,02/01/2022,2022,https://www.partnertage-ostwestfalen.de/,DM,Teak en Terras,,,,,,,,,,,,
Partnertage,02/01/2022,2022,https://www.partnertage-ostwestfalen.de/,DM,Telmex,,,,,,,,,,,,
Partnertage,02/01/2022,2022,https://www.partnertage-ostwestfalen.de/,DM,Teppiche Lalee,,,,,,,,,,,,
Partnertage,02/01/2022,2022,https://www.partnertage-ostwestfalen.de/,DM,Theodor Sass,,,,,,,,,,,,
Partnertage,02/01/2022,2022,https://www.partnertage-ostwestfalen.de/,DM,TORNA,,,,,,,,,,,,
Partnertage,02/01/2022,2022,https://www.partnertage-ostwestfalen.de/,DM,Tradepoint,,,,,,,,,,,,
Partnertage,02/01/2022,2022,https://www.partnertage-ostwestfalen.de/,DM,Trendteam,,,,,,,,,,,,
Partnertage,02/01/2022,2022,https://www.partnertage-ostwestfalen.de/,DM,Van Buren,,,,,,,,,,,,
Partnertage,02/01/2022,2022,https://www.partnertage-ostwestfalen.de/,DM,Vierhaus,,,,,,,,,,,,
Partnertage,02/01/2022,2022,https://www.partnertage-ostwestfalen.de/,DM,Violino,,,,,,,,,,,,
Partnertage,02/01/2022,2022,https://www.partnertage-ostwestfalen.de/,DM,Vogelsänger Studios,,,,,,,,,,,,
Partnertage,02/01/2022,2022,https://www.partnertage-ostwestfalen.de/,DM,Weinrich,,,,,,,,,,,,
Partnertage,02/01/2022,2022,https://www.partnertage-ostwestfalen.de/,DM,Wolnosc Meblarska,,,,,,,,,,,,
Partnertage,02/01/2022,2022,https://www.partnertage-ostwestfalen.de/,DM,Xonox,,,,,,,,,,,,
Partnertage,02/01/2022,2022,https://www.partnertage-ostwestfalen.de/,DM,Yatas,,,,,,,,,,,,
Partnertage,02/01/2022,2022,https://www.partnertage-ostwestfalen.de/,DM,Zoe Furnconsult,,,,,,,,,,,,
