ShowName,ShowDate,ShowYear,ShowWebsite,SubmittedBy,ExhibitorName,BoothNumber,HallLocation,Website,Email,Phone,Fax,Address,Country,Categories,Manufacturers,Brands,Description
Nightclub & Bar Show,03/21/2022,2022,https://www.barandrestaurantexpo.com/,DM,7Shifts,423,,,,,,,,,,,
Nightclub & Bar Show,03/21/2022,2022,https://www.barandrestaurantexpo.com/,DM,Aardvark Straws,1229,,,,,,,,,,,
Nightclub & Bar Show,03/21/2022,2022,https://www.barandrestaurantexpo.com/,DM,AC RadioCom,1038,,,,,,,,,,,
Nightclub & Bar Show,03/21/2022,2022,https://www.barandrestaurantexpo.com/,DM,"Accardis Systems, Inc.",1019,,,,,,,,,,,
Nightclub & Bar Show,03/21/2022,2022,https://www.barandrestaurantexpo.com/,DM,ADJ,727,,,,,,,,,,,
Nightclub & Bar Show,03/21/2022,2022,https://www.barandrestaurantexpo.com/,DM,Air Comm Radio,719,,,,,,,,,,,
Nightclub & Bar Show,03/21/2022,2022,https://www.barandrestaurantexpo.com/,DM,Alco Prevention Canada,640,,,,,,,,,,,
Nightclub & Bar Show,03/21/2022,2022,https://www.barandrestaurantexpo.com/,DM,American Beverage Cocktails,519,,,,,,,,,,,
Nightclub & Bar Show,03/21/2022,2022,https://www.barandrestaurantexpo.com/,DM,Arryved POS,1058,,,,,,,,,,,
Nightclub & Bar Show,03/21/2022,2022,https://www.barandrestaurantexpo.com/,DM,Associated Agencies Inc,1227,,,,,,,,,,,
Nightclub & Bar Show,03/21/2022,2022,https://www.barandrestaurantexpo.com/,DM,ATM Merchant Services,331,,,,,,,,,,,
Nightclub & Bar Show,03/21/2022,2022,https://www.barandrestaurantexpo.com/,DM,Atmosphere TV,1021,,,,,,,,,,,
Nightclub & Bar Show,03/21/2022,2022,https://www.barandrestaurantexpo.com/,DM,AutoFry,RZ33,,,,,,,,,,,
Nightclub & Bar Show,03/21/2022,2022,https://www.barandrestaurantexpo.com/,DM,Bar-I,529,,,,,,,,,,,
Nightclub & Bar Show,03/21/2022,2022,https://www.barandrestaurantexpo.com/,DM,Barn Furniture Mart,316,,,,,,,,,,,
Nightclub & Bar Show,03/21/2022,2022,https://www.barandrestaurantexpo.com/,DM,BarPay,427,,,,,,,,,,,
Nightclub & Bar Show,03/21/2022,2022,https://www.barandrestaurantexpo.com/,DM,Bbot,1410,,,,,,,,,,,
Nightclub & Bar Show,03/21/2022,2022,https://www.barandrestaurantexpo.com/,DM,Beattie's Distillers,1412,,,,,,,,,,,
Nightclub & Bar Show,03/21/2022,2022,https://www.barandrestaurantexpo.com/,DM,Beer Tubes,737,,,,,,,,,,,
Nightclub & Bar Show,03/21/2022,2022,https://www.barandrestaurantexpo.com/,DM,Berg Company,716,,,,,,,,,,,
Nightclub & Bar Show,03/21/2022,2022,https://www.barandrestaurantexpo.com/,DM,Bissell Commercial,746,,,,,,,,,,,
Nightclub & Bar Show,03/21/2022,2022,https://www.barandrestaurantexpo.com/,DM,Blackstorm Brands,344,,,,,,,,,,,
Nightclub & Bar Show,03/21/2022,2022,https://www.barandrestaurantexpo.com/,DM,Boiron Americas Inc,429,,,,,,,,,,,
Nightclub & Bar Show,03/21/2022,2022,https://www.barandrestaurantexpo.com/,DM,Cangshan Cutlery,RZ19,,,,,,,,,,,
Nightclub & Bar Show,03/21/2022,2022,https://www.barandrestaurantexpo.com/,DM,Casa Maestri,1308,,,,,,,,,,,
Nightclub & Bar Show,03/21/2022,2022,https://www.barandrestaurantexpo.com/,DM,Cawley Company,1314,,,,,,,,,,,
Nightclub & Bar Show,03/21/2022,2022,https://www.barandrestaurantexpo.com/,DM,Chaco Flaco,34,,,,,,,,,,,
Nightclub & Bar Show,03/21/2022,2022,https://www.barandrestaurantexpo.com/,DM,Citrus America,333,,,,,,,,,,,
Nightclub & Bar Show,03/21/2022,2022,https://www.barandrestaurantexpo.com/,DM,Clover,RZ20,,,,,,,,,,,
Nightclub & Bar Show,03/21/2022,2022,https://www.barandrestaurantexpo.com/,DM,Cool-A-Zone,1241,,,,,,,,,,,
Nightclub & Bar Show,03/21/2022,2022,https://www.barandrestaurantexpo.com/,DM,Crate Systems & Noble Distillery,3,,,,,,,,,,,
Nightclub & Bar Show,03/21/2022,2022,https://www.barandrestaurantexpo.com/,DM,D-Color Printing Co,421,,,,,,,,,,,
Nightclub & Bar Show,03/21/2022,2022,https://www.barandrestaurantexpo.com/,DM,Daisey Corsets,841,,,,,,,,,,,
Nightclub & Bar Show,03/21/2022,2022,https://www.barandrestaurantexpo.com/,DM,DEMO,248,,,,,,,,,,,
Nightclub & Bar Show,03/21/2022,2022,https://www.barandrestaurantexpo.com/,DM,"Devault Enterprises, Inc.",523,,,,,,,,,,,
Nightclub & Bar Show,03/21/2022,2022,https://www.barandrestaurantexpo.com/,DM,DIY Disinfectant,2,,,,,,,,,,,
Nightclub & Bar Show,03/21/2022,2022,https://www.barandrestaurantexpo.com/,DM,DJ Trivia,1223,,,,,,,,,,,
Nightclub & Bar Show,03/21/2022,2022,https://www.barandrestaurantexpo.com/,DM,Don Elias Premium Tequila,1016,,,,,,,,,,,
Nightclub & Bar Show,03/21/2022,2022,https://www.barandrestaurantexpo.com/,DM,Drinique,1331,,,,,,,,,,,
Nightclub & Bar Show,03/21/2022,2022,https://www.barandrestaurantexpo.com/,DM,DSDLink,941,,,,,,,,,,,
Nightclub & Bar Show,03/21/2022,2022,https://www.barandrestaurantexpo.com/,DM,East and West Embroidery,1045,,,,,,,,,,,
Nightclub & Bar Show,03/21/2022,2022,https://www.barandrestaurantexpo.com/,DM,ELMECO,1138,,,,,,,,,,,
Nightclub & Bar Show,03/21/2022,2022,https://www.barandrestaurantexpo.com/,DM,Emuamericas llc,843,,,,,,,,,,,
Nightclub & Bar Show,03/21/2022,2022,https://www.barandrestaurantexpo.com/,DM,Excel Dryers,651,,,,,,,,,,,
Nightclub & Bar Show,03/21/2022,2022,https://www.barandrestaurantexpo.com/,DM,Flip Tray,1334,,,,,,,,,,,
Nightclub & Bar Show,03/21/2022,2022,https://www.barandrestaurantexpo.com/,DM,Focus POS Systems,416,,,,,,,,,,,
Nightclub & Bar Show,03/21/2022,2022,https://www.barandrestaurantexpo.com/,DM,Foghat Smoker,442,,,,,,,,,,,
Nightclub & Bar Show,03/21/2022,2022,https://www.barandrestaurantexpo.com/,DM,Frosty Factory of America,1123,,,,,,,,,,,
Nightclub & Bar Show,03/21/2022,2022,https://www.barandrestaurantexpo.com/,DM,Frylow,939,,,,,,,,,,,
Nightclub & Bar Show,03/21/2022,2022,https://www.barandrestaurantexpo.com/,DM,Ghost Ice,324,,,,,,,,,,,
Nightclub & Bar Show,03/21/2022,2022,https://www.barandrestaurantexpo.com/,DM,Glastender,1318,,,,,,,,,,,
Nightclub & Bar Show,03/21/2022,2022,https://www.barandrestaurantexpo.com/,DM,GS Holistic,1234,,,,,,,,,,,
Nightclub & Bar Show,03/21/2022,2022,https://www.barandrestaurantexpo.com/,DM,Guestqueue,1136,,,,,,,,,,,
Nightclub & Bar Show,03/21/2022,2022,https://www.barandrestaurantexpo.com/,DM,Guitar Center,1034,,,,,,,,,,,
Nightclub & Bar Show,03/21/2022,2022,https://www.barandrestaurantexpo.com/,DM,Heartland,623,,,,,,,,,,,
Nightclub & Bar Show,03/21/2022,2022,https://www.barandrestaurantexpo.com/,DM,Heineken,51,,,,,,,,,,,
Nightclub & Bar Show,03/21/2022,2022,https://www.barandrestaurantexpo.com/,DM,Henry James Innovations,859,,,,,,,,,,,
Nightclub & Bar Show,03/21/2022,2022,https://www.barandrestaurantexpo.com/,DM,Hold,"33, 321, 323, 329, 353, 355, 610, 718, 740, 759, 804, 827, 839, 1257, 1316, 1538",,,,,,,,,,,
Nightclub & Bar Show,03/21/2022,2022,https://www.barandrestaurantexpo.com/,DM,Holsag,410,,,,,,,,,,,
Nightclub & Bar Show,03/21/2022,2022,https://www.barandrestaurantexpo.com/,DM,Holsag Canada,310,,,,,,,,,,,
Nightclub & Bar Show,03/21/2022,2022,https://www.barandrestaurantexpo.com/,DM,Hoshizaki America Inc,943,,,,,,,,,,,
Nightclub & Bar Show,03/21/2022,2022,https://www.barandrestaurantexpo.com/,DM,Hospitality Insurance Agency,516,,,,,,,,,,,
Nightclub & Bar Show,03/21/2022,2022,https://www.barandrestaurantexpo.com/,DM,Ice-o-matic,RZ17,,,,,,,,,,,
Nightclub & Bar Show,03/21/2022,2022,https://www.barandrestaurantexpo.com/,DM,IDScan.net,419,,,,,,,,,,,
Nightclub & Bar Show,03/21/2022,2022,https://www.barandrestaurantexpo.com/,DM,IGNITE,643,,,,,,,,,,,
Nightclub & Bar Show,03/21/2022,2022,https://www.barandrestaurantexpo.com/,DM,IGPM Distribution,749,,,,,,,,,,,
Nightclub & Bar Show,03/21/2022,2022,https://www.barandrestaurantexpo.com/,DM,Illuminated Trees,1404,,,,,,,,,,,
Nightclub & Bar Show,03/21/2022,2022,https://www.barandrestaurantexpo.com/,DM,InsureOne Insurance,1209,,,,,,,,,,,
Nightclub & Bar Show,03/21/2022,2022,https://www.barandrestaurantexpo.com/,DM,Jackson Warewashing Systems,945,,,,,,,,,,,
Nightclub & Bar Show,03/21/2022,2022,https://www.barandrestaurantexpo.com/,DM,Joe Hand Promotions,541,,,,,,,,,,,
Nightclub & Bar Show,03/21/2022,2022,https://www.barandrestaurantexpo.com/,DM,Keurig Dr. Pepper,55,,,,,,,,,,,
Nightclub & Bar Show,03/21/2022,2022,https://www.barandrestaurantexpo.com/,DM,King of Sparklers,1109,,,,,,,,,,,
Nightclub & Bar Show,03/21/2022,2022,https://www.barandrestaurantexpo.com/,DM,Kold-Draft,1117,,,,,,,,,,,
Nightclub & Bar Show,03/21/2022,2022,https://www.barandrestaurantexpo.com/,DM,Koloa Rum,543,,,,,,,,,,,
Nightclub & Bar Show,03/21/2022,2022,https://www.barandrestaurantexpo.com/,DM,Krowne,1143,,,,,,,,,,,
Nightclub & Bar Show,03/21/2022,2022,https://www.barandrestaurantexpo.com/,DM,Laser Encore,412,,,,,,,,,,,
Nightclub & Bar Show,03/21/2022,2022,https://www.barandrestaurantexpo.com/,DM,Last Call Trivia,538,,,,,,,,,,,
Nightclub & Bar Show,03/21/2022,2022,https://www.barandrestaurantexpo.com/,DM,Liquid Management,604,,,,,,,,,,,
Nightclub & Bar Show,03/21/2022,2022,https://www.barandrestaurantexpo.com/,DM,Liquid Nitro Beverages,1208,,,,,,,,,,,
Nightclub & Bar Show,03/21/2022,2022,https://www.barandrestaurantexpo.com/,DM,Little Toad Creek,338,,,,,,,,,,,
Nightclub & Bar Show,03/21/2022,2022,https://www.barandrestaurantexpo.com/,DM,LloydPans,848,,,,,,,,,,,
Nightclub & Bar Show,03/21/2022,2022,https://www.barandrestaurantexpo.com/,DM,Manitowoc Ice,1009,,,,,,,,,,,
Nightclub & Bar Show,03/21/2022,2022,https://www.barandrestaurantexpo.com/,DM,Marquii,1236,,,,,,,,,,,
Nightclub & Bar Show,03/21/2022,2022,https://www.barandrestaurantexpo.com/,DM,Marz Products,1141,,,,,,,,,,,
Nightclub & Bar Show,03/21/2022,2022,https://www.barandrestaurantexpo.com/,DM,Matador Foods,RZ14,,,,,,,,,,,
Nightclub & Bar Show,03/21/2022,2022,https://www.barandrestaurantexpo.com/,DM,MEGA-LTE,836,,,,,,,,,,,
Nightclub & Bar Show,03/21/2022,2022,https://www.barandrestaurantexpo.com/,DM,Mercer Culinary,948,,,,,,,,,,,
Nightclub & Bar Show,03/21/2022,2022,https://www.barandrestaurantexpo.com/,DM,Mexcor International Wine & Spirits,616,,,,,,,,,,,
Nightclub & Bar Show,03/21/2022,2022,https://www.barandrestaurantexpo.com/,DM,Middleby,"434, RZ32",,,,,,,,,,,
Nightclub & Bar Show,03/21/2022,2022,https://www.barandrestaurantexpo.com/,DM,Middleton Mixology,959,,,,,,,,,,,
Nightclub & Bar Show,03/21/2022,2022,https://www.barandrestaurantexpo.com/,DM,Mobile Training,1023,,,,,,,,,,,
Nightclub & Bar Show,03/21/2022,2022,https://www.barandrestaurantexpo.com/,DM,Moyer Diebel,1221,,,,,,,,,,,
Nightclub & Bar Show,03/21/2022,2022,https://www.barandrestaurantexpo.com/,DM,Mr. Black Industry,1013,,,,,,,,,,,
Nightclub & Bar Show,03/21/2022,2022,https://www.barandrestaurantexpo.com/,DM,Netspend,1313,,,,,,,,,,,
Nightclub & Bar Show,03/21/2022,2022,https://www.barandrestaurantexpo.com/,DM,Nightclub Security,517,,,,,,,,,,,
Nightclub & Bar Show,03/21/2022,2022,https://www.barandrestaurantexpo.com/,DM,NuCO2,1039,,,,,,,,,,,
Nightclub & Bar Show,03/21/2022,2022,https://www.barandrestaurantexpo.com/,DM,Ole Smoky Distillery,1216,,,,,,,,,,,
Nightclub & Bar Show,03/21/2022,2022,https://www.barandrestaurantexpo.com/,DM,Open Water,1329,,,,,,,,,,,
Nightclub & Bar Show,03/21/2022,2022,https://www.barandrestaurantexpo.com/,DM,Orange Door,1231,,,,,,,,,,,
Nightclub & Bar Show,03/21/2022,2022,https://www.barandrestaurantexpo.com/,DM,Pacific Coast Producers,636,,,,,,,,,,,
Nightclub & Bar Show,03/21/2022,2022,https://www.barandrestaurantexpo.com/,DM,Partender,1004,,,,,,,,,,,
Nightclub & Bar Show,03/21/2022,2022,https://www.barandrestaurantexpo.com/,DM,PayFacto,327,,,,,,,,,,,
Nightclub & Bar Show,03/21/2022,2022,https://www.barandrestaurantexpo.com/,DM,Perlick,1027,,,,,,,,,,,
Nightclub & Bar Show,03/21/2022,2022,https://www.barandrestaurantexpo.com/,DM,Phade by Wincup,527,,,,,,,,,,,
Nightclub & Bar Show,03/21/2022,2022,https://www.barandrestaurantexpo.com/,DM,PointOS,1213,,,,,,,,,,,
Nightclub & Bar Show,03/21/2022,2022,https://www.barandrestaurantexpo.com/,DM,Polycade,304,,,,,,,,,,,
Nightclub & Bar Show,03/21/2022,2022,https://www.barandrestaurantexpo.com/,DM,Precision Pours Inc,1338,,,,,,,,,,,
Nightclub & Bar Show,03/21/2022,2022,https://www.barandrestaurantexpo.com/,DM,Premier Proteins,753,,,,,,,,,,,
Nightclub & Bar Show,03/21/2022,2022,https://www.barandrestaurantexpo.com/,DM,Price Chopper Wristbands,1411,,,,,,,,,,,
Nightclub & Bar Show,03/21/2022,2022,https://www.barandrestaurantexpo.com/,DM,RD USA,510,,,,,,,,,,,
Nightclub & Bar Show,03/21/2022,2022,https://www.barandrestaurantexpo.com/,DM,Redfern Enterprises Inc,614,,,,,,,,,,,
Nightclub & Bar Show,03/21/2022,2022,https://www.barandrestaurantexpo.com/,DM,RFALV Services,641,,,,,,,,,,,
Nightclub & Bar Show,03/21/2022,2022,https://www.barandrestaurantexpo.com/,DM,Ripples,404,,,,,,,,,,,
Nightclub & Bar Show,03/21/2022,2022,https://www.barandrestaurantexpo.com/,DM,Robot Coupe,618,,,,,,,,,,,
Nightclub & Bar Show,03/21/2022,2022,https://www.barandrestaurantexpo.com/,DM,Rockless Table,851,,,,,,,,,,,
Nightclub & Bar Show,03/21/2022,2022,https://www.barandrestaurantexpo.com/,DM,Rudolph Foods,RZ10,,,,,,,,,,,
Nightclub & Bar Show,03/21/2022,2022,https://www.barandrestaurantexpo.com/,DM,Saltwater Woody Rum,16,,,,,,,,,,,
Nightclub & Bar Show,03/21/2022,2022,https://www.barandrestaurantexpo.com/,DM,Sazerac,23,,,,,,,,,,,
Nightclub & Bar Show,03/21/2022,2022,https://www.barandrestaurantexpo.com/,DM,Scotsman Ice Booth,1118,,,,,,,,,,,
Nightclub & Bar Show,03/21/2022,2022,https://www.barandrestaurantexpo.com/,DM,Sevenrooms,1122,,,,,,,,,,,
Nightclub & Bar Show,03/21/2022,2022,https://www.barandrestaurantexpo.com/,DM,Shift 4 Payments,808,,,,,,,,,,,
Nightclub & Bar Show,03/21/2022,2022,https://www.barandrestaurantexpo.com/,DM,Shot Caller,1432,,,,,,,,,,,
Nightclub & Bar Show,03/21/2022,2022,https://www.barandrestaurantexpo.com/,DM,Singa,647,,,,,,,,,,,
Nightclub & Bar Show,03/21/2022,2022,https://www.barandrestaurantexpo.com/,DM,Skechers,845,,,,,,,,,,,
Nightclub & Bar Show,03/21/2022,2022,https://www.barandrestaurantexpo.com/,DM,Skybox Spots Network,1043,,,,,,,,,,,
Nightclub & Bar Show,03/21/2022,2022,https://www.barandrestaurantexpo.com/,DM,Smart Bar USA,414,,,,,,,,,,,
Nightclub & Bar Show,03/21/2022,2022,https://www.barandrestaurantexpo.com/,DM,SmartTab POS,816,,,,,,,,,,,
Nightclub & Bar Show,03/21/2022,2022,https://www.barandrestaurantexpo.com/,DM,Smoking Guns,659,,,,,,,,,,,
Nightclub & Bar Show,03/21/2022,2022,https://www.barandrestaurantexpo.com/,DM,SoundTube Entertainment,1017,,,,,,,,,,,
Nightclub & Bar Show,03/21/2022,2022,https://www.barandrestaurantexpo.com/,DM,Specifi,RZ18,,,,,,,,,,,
Nightclub & Bar Show,03/21/2022,2022,https://www.barandrestaurantexpo.com/,DM,Spoton,431,,,,,,,,,,,
Nightclub & Bar Show,03/21/2022,2022,https://www.barandrestaurantexpo.com/,DM,Sproket,RZ23,,,,,,,,,,,
Nightclub & Bar Show,03/21/2022,2022,https://www.barandrestaurantexpo.com/,DM,Stonegate Foods,736,,,,,,,,,,,
Nightclub & Bar Show,03/21/2022,2022,https://www.barandrestaurantexpo.com/,DM,Stonegrill USA,1434,,,,,,,,,,,
Nightclub & Bar Show,03/21/2022,2022,https://www.barandrestaurantexpo.com/,DM,Sunkist Foodservice Equipment,1204,,,,,,,,,,,
Nightclub & Bar Show,03/21/2022,2022,https://www.barandrestaurantexpo.com/,DM,Sweet Mesquite Bakery,1113,,,,,,,,,,,
Nightclub & Bar Show,03/21/2022,2022,https://www.barandrestaurantexpo.com/,DM,Sweet Oaks Winery,1638,,,,,,,,,,,
Nightclub & Bar Show,03/21/2022,2022,https://www.barandrestaurantexpo.com/,DM,Tagrisk Insurance Services,1024,,,,,,,,,,,
Nightclub & Bar Show,03/21/2022,2022,https://www.barandrestaurantexpo.com/,DM,Tailgating Specialties,1417,,,,,,,,,,,
Nightclub & Bar Show,03/21/2022,2022,https://www.barandrestaurantexpo.com/,DM,The Kurvball Whiskey Company,56,,,,,,,,,,,
Nightclub & Bar Show,03/21/2022,2022,https://www.barandrestaurantexpo.com/,DM,Topo Chico,RZ15,,,,,,,,,,,
Nightclub & Bar Show,03/21/2022,2022,https://www.barandrestaurantexpo.com/,DM,Total Touch,751,,,,,,,,,,,
Nightclub & Bar Show,03/21/2022,2022,https://www.barandrestaurantexpo.com/,DM,Trident Beverage / Lazy Bay,1238,,,,,,,,,,,
Nightclub & Bar Show,03/21/2022,2022,https://www.barandrestaurantexpo.com/,DM,TRUE,821,,,,,,,,,,,
Nightclub & Bar Show,03/21/2022,2022,https://www.barandrestaurantexpo.com/,DM,Uber Eats,"1431, RZ26",,,,,,,,,,,
Nightclub & Bar Show,03/21/2022,2022,https://www.barandrestaurantexpo.com/,DM,"Unistraws, LLC",1119,,,,,,,,,,,
Nightclub & Bar Show,03/21/2022,2022,https://www.barandrestaurantexpo.com/,DM,United Standard POS,1228,,,,,,,,,,,
Nightclub & Bar Show,03/21/2022,2022,https://www.barandrestaurantexpo.com/,DM,US BeerSAVER Systems INC,313,,,,,,,,,,,
Nightclub & Bar Show,03/21/2022,2022,https://www.barandrestaurantexpo.com/,DM,Valley Dynamo,814,,,,,,,,,,,
Nightclub & Bar Show,03/21/2022,2022,https://www.barandrestaurantexpo.com/,DM,VitoFry,RZ28,,,,,,,,,,,
Nightclub & Bar Show,03/21/2022,2022,https://www.barandrestaurantexpo.com/,DM,White Claw Hard Seltzer,"52, 1031",,,,,,,,,,,
Nightclub & Bar Show,03/21/2022,2022,https://www.barandrestaurantexpo.com/,DM,Wonkyware,1116,,,,,,,,,,,
Nightclub & Bar Show,03/21/2022,2022,https://www.barandrestaurantexpo.com/,DM,Wristband Resources,1121,,,,,,,,,,,
Nightclub & Bar Show,03/21/2022,2022,https://www.barandrestaurantexpo.com/,DM,WyreStorm,1036,,,,,,,,,,,
Nightclub & Bar Show,03/21/2022,2022,https://www.barandrestaurantexpo.com/,DM,XXI Martinis,1,,,,,,,,,,,
Nightclub & Bar Show,03/21/2022,2022,https://www.barandrestaurantexpo.com/,DM,Zlight Technology,645,,,,,,,,,,,
Nightclub & Bar Show,03/21/2022,2022,https://www.barandrestaurantexpo.com/,DM,,"239, 240, 241, 243, 245, 347, 348, 440, 441, 444, 445, 446, 1539, 1540, 1541, 1543, 1544, 1545, 1546, 1548, 1549, 1550, 1639, 1640, 1641, 1643, 1644, 1645, 1646, 1648, 1649, 1650, 1046, 1048, 1051, 1054, 1055, 1056, 1057, 1060, 1061, 1140, 1148, 1149, 1150, 1151, 1153, 1154, 1155, 1156, 1157, 1158, 1160, 1219, 1222, 1248, 1249, 1253, 1260, 1317, 1321, 1322, 1327, 1328, 1335, 1336, 1341, 1357, 1358, 1359, 1360, 1361, 1416, 1419, 1421, 1423, 1424, 1427, 1428, 1429, 1438, 1439, 1440, 1460, 1461, 318, 319, 339, 341, 342, 343, 345, 346, 349, 350, 351, 352, 356, 357, 358, 359, 361, 420, 539, 540, 544, 545, 546, 547, 548, 549, 551, 552, 553, 555, 637, 649, 652, 653, 660, 661, 747, 760, 761, 855, 857, 858, 861, 862, 863, 940, 951, 952, 953, 954, 955, 957, 958, 961, 962, 963, RZ1, RZ2, RZ29, RZ3, RZ34, RZ35, RZ36, RZ37, RZ4, RZ5, RZ6, 1049, 1145, 1239, 1243, 1246, 1250, 1256, 1258, 1323, 1339, 1457, 657, 757, 853, RZ27, 627, 472, RZ11, RZ12, RZ13, RZ16, RZ21, RZ22, RZ24, RZ25, RZ30, RZ31, RZ7, RZ8, RZ9, 10, 11, 12, 13, 14, 27, 28, 29, 30, 31, 32, 7, 8, 9",,,,,,,,,,,
