ShowName,ShowDate,ShowYear,ShowWebsite,SubmittedBy,ExhibitorName,BoothNumber,HallLocation,Website,Email,Phone,Fax,Address,Country,Categories,Manufacturers,Brands,Description
Mobitex,02/23/2022,2022,https://www.ibvv.cz/en/,DM,Dreambeds s. r. o.,Pavilion F,006,,radek@dreambeds.cz,+420 724 760 305 ,,"Vinohradská 1420/3, 120 00, Brno, Czech Republic",,,,,
Mobitex,02/23/2022,2022,https://www.ibvv.cz/en/,DM,DOPPLER CZ spol. s r.o.,Pavilion F,014,,doppler@doppler.cz,+420 386 301 611 ,,"Trocnovská 70, 374 01, Trhové Sviny, Czech Republic",,,,,
Mobitex,02/23/2022,2022,https://www.ibvv.cz/en/,DM,"DOLCE VITA SOFA, s.r.o.",Pavilion F,001,,info@dolcevitasofa.cz,+420 603 599 980 ,,"Pod Skalkou 489/2a, 751 24, Přerov, Czech Republic",,,,,
Mobitex,02/23/2022,2022,https://www.ibvv.cz/en/,DM,České vysoké učení technické v Praze,,,,,+420 224 357 280 ,,"Technická 2, 166 27, Praha 6, Czech Republic",,,,,
Mobitex,02/23/2022,2022,https://www.ibvv.cz/en/,DM,"Ceiba, s. r. o.",Pavilion F,037,,tumova@ceiba.cz,+420 727 952 111 ,,"Jana Opletala 1265, 250 01, Brandýs nad Labem - Stará Boleslav, Czech Republic",,,,,
Mobitex,02/23/2022,2022,https://www.ibvv.cz/en/,DM,"DELSO INTERIÉRY, s.r.o.",Pavilion F,024,,delso@delso.cz,+420 775 580 680 ,,"Na Harfě 3, 190 00, Praha 9, Czech Republic",,,,,
Mobitex,02/23/2022,2022,https://www.ibvv.cz/en/,DM,Darré,Pavilion F,049,,info@darre.cz,+420 721 414 141 ,,"Smiřických 1120, 547 01, Náchod, Czech Republic",,,,,
Mobitex,02/23/2022,2022,https://www.ibvv.cz/en/,DM,"Cech čalouníků a dekoratérů a truhlářů, z. s.",Pavilion F,002,,cech_cal@volny.cz,+420 541 159 350 ,,"Výstaviště 405/1, 603 00, Brno, Czech Republic",,,,,
Mobitex,02/23/2022,2022,https://www.ibvv.cz/en/,DM,BS-textil s.r.o.,Pavilion F,005,,bstextil@volny.cz,+420 567 300 700 ,,"Strojírenská 9, 586 01, Jihlava, Czech Republic",,,,,
Mobitex,02/23/2022,2022,https://www.ibvv.cz/en/,DM,"ALPHA - křesla CZ, s.r.o.",Pavilion F,056,,info@masaznikresla.cz,+420 604 234 341 ,,"V Zahrádkách 860, 330 21, Líně, Czech Republic",,,,,
Mobitex,02/23/2022,2022,https://www.ibvv.cz/en/,DM,Aksamite nábytek s.r.o.,Pavilion F,015,,nabytek.brno@aksamite.cz,+420 777 124 238 ,,"Svratecká 989, 664 42, Brno - Modřice, Czech Republic",,,,,
Mobitex,02/23/2022,2022,https://www.ibvv.cz/en/,DM,BitterMan s.r.o.,Pavilion F,055,,bradac@bradackv.cz,+420 608 980 677 ,,"Křenova 438/7, 162 00, Praha 6, Czech Republic",,,,,
Mobitex,02/23/2022,2022,https://www.ibvv.cz/en/,DM,Biokamin EU s.r.o.,Pavilion F,060,,info@biokamin-eu.com,+421 917 521 427 ,,"Panónska cesta 34, 851 04, Bratislava, Slovakia",,,,,
Mobitex,02/23/2022,2022,https://www.ibvv.cz/en/,DM,Bibetus s.r.o.,Pavilion F,040,,info@bibetus.cz,+420 544 214 627 ,,"Loosova 262/1, 638 00, Brno, Czech Republic",,,,,
Mobitex,02/23/2022,2022,https://www.ibvv.cz/en/,DM,Bohumil Šťastný,Pavilion F,059,,info@houpejse.cz,+420 604 161 104 ,,"Nové Domky 47, 588 21, Velký Beranov, Czech Republic",,,,,
Mobitex,02/23/2022,2022,https://www.ibvv.cz/en/,DM,Gessler,"Pavilion F,  Pavilion F","073, 053",,petrakostka@seznam.cz,+420 776 667 655 ,,"Nám. 14. října, 150 00, Praha, Czech Republic",,,,,
Mobitex,02/23/2022,2022,https://www.ibvv.cz/en/,DM,Firma DOLEJŠÍ - AUTOTRAKČNÍ LEHÁTKA s.r.o.,Pavilion F,061,,kontakt@lehatko.cz,+420 465 582 242 ,,"Englerova 316/2, 196 00, Praha 9, Czech Republic",,,,,
Mobitex,02/23/2022,2022,https://www.ibvv.cz/en/,DM,LIVING GLOBAL INTERIO s.r.o.,Pavilion F,026,,ostrava@global-interio.cz,+420 734 443 818 ,,"Čs. armády 360, 735 51, Bohumín - Pudlov, Czech Republic",,,,,
Mobitex,02/23/2022,2022,https://www.ibvv.cz/en/,DM,Li-Go Light,Pavilion F,035,,chmelik@li-go.cz,+420 604 602 244 ,,"Na Maninách 1590/29, 170 00, Praha 7, Czech Republic",,,,,
Mobitex,02/23/2022,2022,https://www.ibvv.cz/en/,DM,Eurotest s.r.o.,Pavilion F,057,,info@spacisystemy.cz,+420 387 410 087 ,,"Na Návsi 84, 370 08, Staré Hodějovice, Czech Republic",,,,,
Mobitex,02/23/2022,2022,https://www.ibvv.cz/en/,DM,"ESYST, s.r.o.",Pavilion F,039,,esyst@esyst.cz,+420 541 233 424 ,,"Vídeňská 101/119, 619 00, Brno, Czech Republic",,,,,
Mobitex,02/23/2022,2022,https://www.ibvv.cz/en/,DM,Magniflex,Pavilion F,025,,info@magniflex.cz,+420 739 492 220 ,,"Šaldova 219/1, 186 00, Praha 8 – Karlín, Czech Republic",,,,,
Mobitex,02/23/2022,2022,https://www.ibvv.cz/en/,DM,Fa KOPA s.r.o.,Pavilion F,009,,kopa@fakopa.cz,+420 412 545 092 ,,"Ústecká 95, 405 02, Děčín, Czech Republic",,,,,
Mobitex,02/23/2022,2022,https://www.ibvv.cz/en/,DM,KOODUU,Pavilion F,030,,info@kooduu.sk,+421 904 352 881 ,,"Tupého 27A, 831 01, Bratislava, Slovakia",,,,,
Mobitex,02/23/2022,2022,https://www.ibvv.cz/en/,DM,MOBIREF DESIGN S.R.L.,Pavilion F,044,,mobirefdesign@yahoo.com,+40 722 316 998 ,,"Laminorului, nr. 46, 130089, Targoviste, Romania",,,,,
Mobitex,02/23/2022,2022,https://www.ibvv.cz/en/,DM,Mistrovství České republiky oboru truhlář,,,,info@furniturecluster.cz,+420 774 113 529 ,,"Kozí 26/4, 602 00, Brno, Czech Republic",,,,,
Mobitex,02/23/2022,2022,https://www.ibvv.cz/en/,DM,MAX-FURNITURE BT,Pavilion F,036,,info@maxpelle.hu,+36 306 347 597 ,,"Farkasvermi út 40, 8000, Székesfehérvár, Hungary",,,,,
Mobitex,02/23/2022,2022,https://www.ibvv.cz/en/,DM,MARELL s.r.o.,Pavilion F,011,,jindra@marell.cz,+420 608 040 513 ,,"Herčíkova 246/1a, 612 00, Brno, Czech Republic",,,,,
Mobitex,02/23/2022,2022,https://www.ibvv.cz/en/,DM,Koneli Design,Pavilion F,041,,info@koneli-design.com,+420 774 034 642 ,,"č. p. 213, 594 53, Osová Bítýška, Czech Republic",,,,,
Mobitex,02/23/2022,2022,https://www.ibvv.cz/en/,DM,Mendelova univerzita v Brně,,,,jaroslav.svoboda@mendelu.cz,+420 545 134 175 ,,"Zemědělská 3, 613 00, Brno, Czech Republic",,,,,
Mobitex,02/23/2022,2022,https://www.ibvv.cz/en/,DM,"Klastr českých nábytkářů, družstvo",Pavilion F,029,,info@furniturecluster.cz,+420 774 113 529 ,,"Kozí 26/4, 602 00, Brno, Czech Republic",,,,,
Mobitex,02/23/2022,2022,https://www.ibvv.cz/en/,DM,JV POHODA s.r.o.,Pavilion F,016,,obchod@jvpohoda.com,+420 377 328 302 ,,"Nádražní 14, 301 00, Plzeň, Czech Republic",,,,,
Mobitex,02/23/2022,2022,https://www.ibvv.cz/en/,DM,JURA Petraco,Pavilion F,069,,info@petraco.cz,+420 549 244 232 ,,"Kounicova 271/13, 602 00, Brno, Czech Republic",,,,,
Mobitex,02/23/2022,2022,https://www.ibvv.cz/en/,DM,TANATEX s.r.o.,Pavilion F,071,,tanatex@tanatex.cz,+420 608 700 383 ,,"č. p. 1, 434 01, Skršín, Czech Republic",,,,,
Mobitex,02/23/2022,2022,https://www.ibvv.cz/en/,DM,Tomáš Velek,Pavilion F,042,,pronajmy2019@seznam.cz,+420 704 079 760 ,,"Krále Václava IV. 2/8, 148 00, Praha 4, Czech Republic",,,,,
Mobitex,02/23/2022,2022,https://www.ibvv.cz/en/,DM,Timbermakers s.r.o.,Pavilion F,028,,info@timbermakers.cz,+420 608 283 148 ,,"Zelinova 7012, 760 05, Zlín, Czech Republic",,,,,
Mobitex,02/23/2022,2022,https://www.ibvv.cz/en/,DM,SWISS BEDS s.r.o.,Pavilion F,017,,prikryl@grandbeds.com,+420 602 501 877 ,,"Benešova 605/18, 602 00, Brno, Czech Republic",,,,,
Mobitex,02/23/2022,2022,https://www.ibvv.cz/en/,DM,Střední uměleckoprůmyslová škola hudebních nástrojů a nábytku,,,,hnn@hnn.cz,+420 494 946 010 ,,"17. listopadu 1202, 500 03, Hradec Králové, Czech Republic",,,,,
Mobitex,02/23/2022,2022,https://www.ibvv.cz/en/,DM,světspánku.cz,Pavilion F,020,,obchod@svetspanku.cz,+420 543 212 855 ,,"Vídeňská 112, 619 00, Brno, Czech Republic",,,,,
Mobitex,02/23/2022,2022,https://www.ibvv.cz/en/,DM,"Střední škola umění a designu a Vyšší odborná škola Brno, příspěvková organizace",,,,,+420 543 421 370 ,,"Husova 10, 602 00, Brno, Czech Republic",,,,,
Mobitex,02/23/2022,2022,https://www.ibvv.cz/en/,DM,Střední škola nábytkářská a obchodní Bystřice pod Hostýnem,,,,ssno@ssno.cz,+420 573 380 802 ,,"Holešovská 394, 768 61, Bystřice pod Hostýnem, Czech Republic",,,,,
Mobitex,02/23/2022,2022,https://www.ibvv.cz/en/,DM,Softub CZ,Pavilion F,013,,softub@softub.cz,+0 ,,"K Pérovně 1622/33, 102 00, Praha, Czech Republic",,,,,
Mobitex,02/23/2022,2022,https://www.ibvv.cz/en/,DM,Spíme.cz - Postelia s.r.o.,Pavilion F,018,,info@spime.cz,+420 383 136 000 ,,"Radlická 2368/106, 150 00, Praha, Czech Republic",,,,,
Mobitex,02/23/2022,2022,https://www.ibvv.cz/en/,DM,Stillers company s.r.o.,Pavilion F,027,,stillerscomp@gmail.com,+421 919 224 633 ,,"Sad SNP 8, 010 01, Žilina, Slovakia",,,,,
Mobitex,02/23/2022,2022,https://www.ibvv.cz/en/,DM,RASL čalouněný nábytek,Pavilion F,069,,jaroslav.frantal@rasl-nabytek.cz,+420 737 566 379 ,,"1. máje 623, 588 22, Luka nad Jihlavou, Czech Republic",,,,,
Mobitex,02/23/2022,2022,https://www.ibvv.cz/en/,DM,Royal Comfort,Pavilion F,048,,info@royalcomfort.cz,+420 778 000 797 ,,"Vinohradská 37/13, 120 00, Praha, Czech Republic",,,,,
Mobitex,02/23/2022,2022,https://www.ibvv.cz/en/,DM,"Rott Design, s.r.o.",Pavilion F,023,,tomas@rottdesign.cz,+420 608 414 575 ,,"Jeremenkova 1144/8, 147 00, Praha, Czech Republic",,,,,
Mobitex,02/23/2022,2022,https://www.ibvv.cz/en/,DM,"POLSTRIN DESIGN, s.r.o.",Pavilion F,003,,info@polstrin.cz,+420 495 057 165 ,,"Pražská 685, 500 04, Hradec Králové, Czech Republic",,,,,
Mobitex,02/23/2022,2022,https://www.ibvv.cz/en/,DM,Západočeská univerzita v Plzni,,,,podatelna@zcu.cz,+420 377 638 701 ,,"Univerzitní 8, 301 00, Plzeň, Czech Republic",,,,,
Mobitex,02/23/2022,2022,https://www.ibvv.cz/en/,DM,Z - TRADE s.r.o.,Pavilion F,046,,ztrade@ztrade.cz,+420 731 648 024 ,,"třída Soukenická 93, 550 01, Broumov, Czech Republic",,,,,
Mobitex,02/23/2022,2022,https://www.ibvv.cz/en/,DM,WHI Channels s.r.o.,"Pavilion F,  Pavilion F","058, 051",,elea.promotion@post.cz,+420 608 326 192 ,,"Bílkova 855/19, 110 00, Praha, Czech Republic",,,,,
Mobitex,02/23/2022,2022,https://www.ibvv.cz/en/,DM,VIKY & Co. s.r.o.,Pavilion F,047,,ludvik.kraus@email.cz,+420 776 830 800 ,,"Nerudova 24, 118 00, Praha, Czech Republic",,,,,
Mobitex,02/23/2022,2022,https://www.ibvv.cz/en/,DM,Valmax Led Eco s.r.o.,Pavilion F,069,,info@valmax.cz,+420 725 808 365 ,,"Hlavní 185/87, 624 00, Brno, Czech Republic",,,,,
Mobitex,02/23/2022,2022,https://www.ibvv.cz/en/,DM,Univerzita Tomáše Bati ve Zlíně - Fakulta multimediálních komunikací,,,,kovarik@utb.cz,+420 576 036 405 ,,"Univerzitní 2431, 760 01, Zlín, Czech Republic",,,,,
Mobitex,02/23/2022,2022,https://www.ibvv.cz/en/,DM,"Univerzita Jana Evangelisty Purkyně, Fakulta umění a designu, katedra designu, ateliér Design keramiky",,,,jc@jancapek.net,+420 417 571 931 ,,"Pasteurova 9, 400 01, Ústí nad Labem, Czech Republic",,,,,
Mobitex,02/23/2022,2022,https://www.ibvv.cz/en/,DM,"Univerzita Jana Evangelisty Purkyně, Fakulta umění a designu, ateliér Produktový design a ateliér Design keramiky",,,,jc@jancapek.net,+420 417 571 931 ,,"Pasteurova 9, 400 01, Ústí nad Labem, Czech Republic",,,,,
Mobitex,02/23/2022,2022,https://www.ibvv.cz/en/,DM,Univerzita Hradec Králové,,,,maria.hromadova@uhk.cz,+420 493 332 600 ,,"Rokitanského 62, 500 03, Hradec Králové, Czech Republic",,,,,
Mobitex,02/23/2022,2022,https://www.ibvv.cz/en/,DM,Unics Store s.r.o.,Pavilion F,054,,unicsstore@gmail.com,+420 774 145 327 ,,"Kaprova 42/14, 110 00, Praha 1, Czech Republic",,,,,
Mobitex,02/23/2022,2022,https://www.ibvv.cz/en/,DM,TSP Traktor Yed. Par. Dis Tic. ve San. Ltd Sti,Pavilion F,045,,yunus@tspspareparts.com,+90 535 604 543 9 ,,"3109.sok 4/C, 38080, Kayseri, Turkey",,,,,
Mobitex,02/23/2022,2022,https://www.ibvv.cz/en/,DM,Perdok & Novotná,Pavilion F,031,,info@perdok-novotna.cz,+420 724 042 057 ,,"U Marily 641, 338 28, Radnice, Czech Republic",,,,,
Mobitex,02/23/2022,2022,https://www.ibvv.cz/en/,DM,OFFICE PRO SERVICE s.r.o.,Pavilion F,007,,info@officepro-brno.cz,+420 608 339 885 ,,"Loosova 262/1, 638 00, Brno, Czech Republic",,,,,
Mobitex,02/23/2022,2022,https://www.ibvv.cz/en/,DM,NEUK s.r.o,Pavilion F,004,,neuberger@neuk.cz,+420 388 320 072 ,,"Dlouhá louka 480, 384 22, Vlachovo Březí, Czech Republic",,,,,
Mobitex,02/23/2022,2022,https://www.ibvv.cz/en/,DM,"Nejči nábytek, s.r.o.",Pavilion F,008,,opava@nejcinabytek.cz,+420 553 622 685 ,,"Těšínská 89, 746 01, Opava, Czech Republic",,,,,
Mobitex,02/23/2022,2022,https://www.ibvv.cz/en/,DM,Nábytek z kartonu s.r.o.,Pavilion F,043,,katerina.ticha82@seznam.cz,+420 774 729 022 ,,"Olomoucká 567/41, 746 01, Opava, Czech Republic",,,,,
Mobitex,02/23/2022,2022,https://www.ibvv.cz/en/,DM,JLLC ''ZOV-PROFIL'',Pavilion F,052,,marketing.zovprofil@gmail.com,+375 152 523 534 ,,"Gerasimovicha, 1, 230011, Grodno, Belarus",,,,,
Mobitex,02/23/2022,2022,https://www.ibvv.cz/en/,DM,JELÍNEK - výroba nábytku s.r.o.,Pavilion F,010,,obchod@jelinek.eu,+420 571 759 811 ,,"Masarykova 672/35, 757 01, Valašské Meziříčí, Czech Republic",,,,,
Mobitex,02/23/2022,2022,https://www.ibvv.cz/en/,DM,JECH CZ s.r.o.,Pavilion F,019,,obchod@jech.cz,+420 494 629 233 ,,"Nádražní 481, 518 01, Dobruška, Czech Republic",,,,,
Mobitex,02/23/2022,2022,https://www.ibvv.cz/en/,DM,JASYKO s.r.o.,"Pavilion F,  Pavilion F","070, 069",,jasyko@jasyko.cz,+420 541 210 108 ,,"Purkyňova 45, 612 00, Brno, Czech Republic",,,,,
Mobitex,02/23/2022,2022,https://www.ibvv.cz/en/,DM,IBERIS s.r.o.,Pavilion F,072,,iberis.h@volny.cz,+0 ,,"č. p. 151, 664 48, Nebovidy, Czech Republic",,,,,
Mobitex,02/23/2022,2022,https://www.ibvv.cz/en/,DM,Intrea-Piko s.r.o.,Pavilion F,032,,obchod@intrea.cz,+420 251 552 217 ,,"Sasanková 2657/2, 106 00, Praha 10, Czech Republic",,,,,
Mobitex,02/23/2022,2022,https://www.ibvv.cz/en/,DM,GRAND BEDS,Pavilion F,017,,,+0 ,,"Benešova 605/18, 602 00, Brno, Czech Republic",,,,,
