ShowName,ShowDate,ShowYear,ShowWebsite,SubmittedBy,ExhibitorName,BoothNumber,HallLocation,Website,Email,Phone,Fax,Address,Country,Categories,Manufacturers,Brands,Description
Kiff - Kiev International Furniture Forum,03/02/2022,2022,https://www.kiff.kiev.ua/en/home-eng/,DM,ACWORD,,,,,,,,,,,,
Kiff - Kiev International Furniture Forum,03/02/2022,2022,https://www.kiff.kiev.ua/en/home-eng/,DM,ADS Aluminium Décor System,,,,,,,,,,,,
Kiff - Kiev International Furniture Forum,03/02/2022,2022,https://www.kiff.kiev.ua/en/home-eng/,DM,ADVANCED HEATING TECHNOLOGIES,,,,,,,,,,,,
Kiff - Kiev International Furniture Forum,03/02/2022,2022,https://www.kiff.kiev.ua/en/home-eng/,DM,AGARA,,,,,,,,,,,,
Kiff - Kiev International Furniture Forum,03/02/2022,2022,https://www.kiff.kiev.ua/en/home-eng/,DM,ALBENA,,,,,,,,,,,,
Kiff - Kiev International Furniture Forum,03/02/2022,2022,https://www.kiff.kiev.ua/en/home-eng/,DM,ALEDRO,,,,,,,,,,,,
Kiff - Kiev International Furniture Forum,03/02/2022,2022,https://www.kiff.kiev.ua/en/home-eng/,DM,ALFA MEBLI,,,,,,,,,,,,
Kiff - Kiev International Furniture Forum,03/02/2022,2022,https://www.kiff.kiev.ua/en/home-eng/,DM,ALTENDORF,,,,,,,,,,,,
Kiff - Kiev International Furniture Forum,03/02/2022,2022,https://www.kiff.kiev.ua/en/home-eng/,DM,AMARANTHGROUP,,,,,,,,,,,,
Kiff - Kiev International Furniture Forum,03/02/2022,2022,https://www.kiff.kiev.ua/en/home-eng/,DM,AMERS,,,,,,,,,,,,
Kiff - Kiev International Furniture Forum,03/02/2022,2022,https://www.kiff.kiev.ua/en/home-eng/,DM,AMF,,,,,,,,,,,,
Kiff - Kiev International Furniture Forum,03/02/2022,2022,https://www.kiff.kiev.ua/en/home-eng/,DM,ANTARES,,,,,,,,,,,,
Kiff - Kiev International Furniture Forum,03/02/2022,2022,https://www.kiff.kiev.ua/en/home-eng/,DM,APOLENA,,,,,,,,,,,,
Kiff - Kiev International Furniture Forum,03/02/2022,2022,https://www.kiff.kiev.ua/en/home-eng/,DM,ARBRE,,,,,,,,,,,,
Kiff - Kiev International Furniture Forum,03/02/2022,2022,https://www.kiff.kiev.ua/en/home-eng/,DM,AREA 26,,,,,,,,,,,,
Kiff - Kiev International Furniture Forum,03/02/2022,2022,https://www.kiff.kiev.ua/en/home-eng/,DM,ARGROUP,,,,,,,,,,,,
Kiff - Kiev International Furniture Forum,03/02/2022,2022,https://www.kiff.kiev.ua/en/home-eng/,DM,ARHOME,,,,,,,,,,,,
Kiff - Kiev International Furniture Forum,03/02/2022,2022,https://www.kiff.kiev.ua/en/home-eng/,DM,ARTEM RONSKY,,,,,,,,,,,,
Kiff - Kiev International Furniture Forum,03/02/2022,2022,https://www.kiff.kiev.ua/en/home-eng/,DM,ARTEM RONSKY,,,,,,,,,,,,
Kiff - Kiev International Furniture Forum,03/02/2022,2022,https://www.kiff.kiev.ua/en/home-eng/,DM,ARTGLASS,,,,,,,,,,,,
Kiff - Kiev International Furniture Forum,03/02/2022,2022,https://www.kiff.kiev.ua/en/home-eng/,DM,ARTPLAY,,,,,,,,,,,,
Kiff - Kiev International Furniture Forum,03/02/2022,2022,https://www.kiff.kiev.ua/en/home-eng/,DM,ART-PROM LLC,,,,,,,,,,,,
Kiff - Kiev International Furniture Forum,03/02/2022,2022,https://www.kiff.kiev.ua/en/home-eng/,DM,"ASPEKT PLUS, ТОВ",,,,,,,,,,,,
Kiff - Kiev International Furniture Forum,03/02/2022,2022,https://www.kiff.kiev.ua/en/home-eng/,DM,ATON SERVICE LTD,,,,,,,,,,,,
Kiff - Kiev International Furniture Forum,03/02/2022,2022,https://www.kiff.kiev.ua/en/home-eng/,DM,B&T DESIGN,,,,,,,,,,,,
Kiff - Kiev International Furniture Forum,03/02/2022,2022,https://www.kiff.kiev.ua/en/home-eng/,DM,BAM TM,,,,,,,,,,,,
Kiff - Kiev International Furniture Forum,03/02/2022,2022,https://www.kiff.kiev.ua/en/home-eng/,DM,BENJAMIN MOORE UKRAINE,,,,,,,,,,,,
Kiff - Kiev International Furniture Forum,03/02/2022,2022,https://www.kiff.kiev.ua/en/home-eng/,DM,BEREST,,,,,,,,,,,,
Kiff - Kiev International Furniture Forum,03/02/2022,2022,https://www.kiff.kiev.ua/en/home-eng/,DM,BIESSE,,,,,,,,,,,,
Kiff - Kiev International Furniture Forum,03/02/2022,2022,https://www.kiff.kiev.ua/en/home-eng/,DM,BILLUCHI,,,,,,,,,,,,
Kiff - Kiev International Furniture Forum,03/02/2022,2022,https://www.kiff.kiev.ua/en/home-eng/,DM,BLANCHE,,,,,,,,,,,,
Kiff - Kiev International Furniture Forum,03/02/2022,2022,https://www.kiff.kiev.ua/en/home-eng/,DM,BUDIVELNA ZIRKA,,,,,,,,,,,,
Kiff - Kiev International Furniture Forum,03/02/2022,2022,https://www.kiff.kiev.ua/en/home-eng/,DM,CASATI,,,,,,,,,,,,
Kiff - Kiev International Furniture Forum,03/02/2022,2022,https://www.kiff.kiev.ua/en/home-eng/,DM,CENTER LTD,,,,,,,,,,,,
Kiff - Kiev International Furniture Forum,03/02/2022,2022,https://www.kiff.kiev.ua/en/home-eng/,DM,Chervonogradskiy DOK,,,,,,,,,,,,
Kiff - Kiev International Furniture Forum,03/02/2022,2022,https://www.kiff.kiev.ua/en/home-eng/,DM,Comfort Mebli,,,,,,,,,,,,
Kiff - Kiev International Furniture Forum,03/02/2022,2022,https://www.kiff.kiev.ua/en/home-eng/,DM,COMFORTZONE,,,,,,,,,,,,
Kiff - Kiev International Furniture Forum,03/02/2022,2022,https://www.kiff.kiev.ua/en/home-eng/,DM,DAO SUN,,,,,,,,,,,,
Kiff - Kiev International Furniture Forum,03/02/2022,2022,https://www.kiff.kiev.ua/en/home-eng/,DM,DAVIDOS,,,,,,,,,,,,
Kiff - Kiev International Furniture Forum,03/02/2022,2022,https://www.kiff.kiev.ua/en/home-eng/,DM,DECOGROUP,,,,,,,,,,,,
Kiff - Kiev International Furniture Forum,03/02/2022,2022,https://www.kiff.kiev.ua/en/home-eng/,DM,DECORATOR,,,,,,,,,,,,
Kiff - Kiev International Furniture Forum,03/02/2022,2022,https://www.kiff.kiev.ua/en/home-eng/,DM,DHC Media,,,,,,,,,,,,
Kiff - Kiev International Furniture Forum,03/02/2022,2022,https://www.kiff.kiev.ua/en/home-eng/,DM,DIVANOFF,,,,,,,,,,,,
Kiff - Kiev International Furniture Forum,03/02/2022,2022,https://www.kiff.kiev.ua/en/home-eng/,DM,"DNIPRO COLOR, LLC",,,,,,,,,,,,
Kiff - Kiev International Furniture Forum,03/02/2022,2022,https://www.kiff.kiev.ua/en/home-eng/,DM,DOBRA PIDLOGA,,,,,,,,,,,,
Kiff - Kiev International Furniture Forum,03/02/2022,2022,https://www.kiff.kiev.ua/en/home-eng/,DM,DOBRA PIDLOGA,,,,,,,,,,,,
Kiff - Kiev International Furniture Forum,03/02/2022,2022,https://www.kiff.kiev.ua/en/home-eng/,DM,DOBROBUT-PLUS,,,,,,,,,,,,
Kiff - Kiev International Furniture Forum,03/02/2022,2022,https://www.kiff.kiev.ua/en/home-eng/,DM,DREAMSDESIGN,,,,,,,,,,,,
Kiff - Kiev International Furniture Forum,03/02/2022,2022,https://www.kiff.kiev.ua/en/home-eng/,DM,DRIMKO,,,,,,,,,,,,
Kiff - Kiev International Furniture Forum,03/02/2022,2022,https://www.kiff.kiev.ua/en/home-eng/,DM,EDS European design school,,,,,,,,,,,,
Kiff - Kiev International Furniture Forum,03/02/2022,2022,https://www.kiff.kiev.ua/en/home-eng/,DM,ELECRAN SOFT- GIBLAB,,,,,,,,,,,,
Kiff - Kiev International Furniture Forum,03/02/2022,2022,https://www.kiff.kiev.ua/en/home-eng/,DM,ELEGANT TEXTILE,,,,,,,,,,,,
Kiff - Kiev International Furniture Forum,03/02/2022,2022,https://www.kiff.kiev.ua/en/home-eng/,DM,ELIO HOME,,,,,,,,,,,,
Kiff - Kiev International Furniture Forum,03/02/2022,2022,https://www.kiff.kiev.ua/en/home-eng/,DM,Erbi Décor,,,,,,,,,,,,
Kiff - Kiev International Furniture Forum,03/02/2022,2022,https://www.kiff.kiev.ua/en/home-eng/,DM,ERGO TABLE,,,,,,,,,,,,
Kiff - Kiev International Furniture Forum,03/02/2022,2022,https://www.kiff.kiev.ua/en/home-eng/,DM,EVRODIM,,,,,,,,,,,,
Kiff - Kiev International Furniture Forum,03/02/2022,2022,https://www.kiff.kiev.ua/en/home-eng/,DM,EVRODIM,,,,,,,,,,,,
Kiff - Kiev International Furniture Forum,03/02/2022,2022,https://www.kiff.kiev.ua/en/home-eng/,DM,EXCLUSIVEHANDMADEFURNITURE,,,,,,,,,,,,
Kiff - Kiev International Furniture Forum,03/02/2022,2022,https://www.kiff.kiev.ua/en/home-eng/,DM,EXIM TEXTIL,,,,,,,,,,,,
Kiff - Kiev International Furniture Forum,03/02/2022,2022,https://www.kiff.kiev.ua/en/home-eng/,DM,FARMAT 4,,,,,,,,,,,,
Kiff - Kiev International Furniture Forum,03/02/2022,2022,https://www.kiff.kiev.ua/en/home-eng/,DM,FELDER GROUP,,,,,,,,,,,,
Kiff - Kiev International Furniture Forum,03/02/2022,2022,https://www.kiff.kiev.ua/en/home-eng/,DM,FIMAL,,,,,,,,,,,,
Kiff - Kiev International Furniture Forum,03/02/2022,2022,https://www.kiff.kiev.ua/en/home-eng/,DM,FITOART,,,,,,,,,,,,
Kiff - Kiev International Furniture Forum,03/02/2022,2022,https://www.kiff.kiev.ua/en/home-eng/,DM,FLY DESIGN,,,,,,,,,,,,
Kiff - Kiev International Furniture Forum,03/02/2022,2022,https://www.kiff.kiev.ua/en/home-eng/,DM,FLY DESIGN,,,,,,,,,,,,
Kiff - Kiev International Furniture Forum,03/02/2022,2022,https://www.kiff.kiev.ua/en/home-eng/,DM,FREVINI,,,,,,,,,,,,
Kiff - Kiev International Furniture Forum,03/02/2022,2022,https://www.kiff.kiev.ua/en/home-eng/,DM,Frevini Parquet,,,,,,,,,,,,
Kiff - Kiev International Furniture Forum,03/02/2022,2022,https://www.kiff.kiev.ua/en/home-eng/,DM,FUNDERMAX,,,,,,,,,,,,
Kiff - Kiev International Furniture Forum,03/02/2022,2022,https://www.kiff.kiev.ua/en/home-eng/,DM,FURNICOM,,,,,,,,,,,,
Kiff - Kiev International Furniture Forum,03/02/2022,2022,https://www.kiff.kiev.ua/en/home-eng/,DM,FUTURE,,,,,,,,,,,,
Kiff - Kiev International Furniture Forum,03/02/2022,2022,https://www.kiff.kiev.ua/en/home-eng/,DM,Galaktik Production Company LLC,,,,,,,,,,,,
Kiff - Kiev International Furniture Forum,03/02/2022,2022,https://www.kiff.kiev.ua/en/home-eng/,DM,GALLIARDO,,,,,,,,,,,,
Kiff - Kiev International Furniture Forum,03/02/2022,2022,https://www.kiff.kiev.ua/en/home-eng/,DM,GreatCatalog,,,,,,,,,,,,
Kiff - Kiev International Furniture Forum,03/02/2022,2022,https://www.kiff.kiev.ua/en/home-eng/,DM,Grigi Leoni,,,,,,,,,,,,
Kiff - Kiev International Furniture Forum,03/02/2022,2022,https://www.kiff.kiev.ua/en/home-eng/,DM,GRILI,,,,,,,,,,,,
Kiff - Kiev International Furniture Forum,03/02/2022,2022,https://www.kiff.kiev.ua/en/home-eng/,DM,GROSPOL,,,,,,,,,,,,
Kiff - Kiev International Furniture Forum,03/02/2022,2022,https://www.kiff.kiev.ua/en/home-eng/,DM,HAMMER,,,,,,,,,,,,
Kiff - Kiev International Furniture Forum,03/02/2022,2022,https://www.kiff.kiev.ua/en/home-eng/,DM,HEBROCK,,,,,,,,,,,,
Kiff - Kiev International Furniture Forum,03/02/2022,2022,https://www.kiff.kiev.ua/en/home-eng/,DM,HEVEA,,,,,,,,,,,,
Kiff - Kiev International Furniture Forum,03/02/2022,2022,https://www.kiff.kiev.ua/en/home-eng/,DM,HOLLAND HOME,,,,,,,,,,,,
Kiff - Kiev International Furniture Forum,03/02/2022,2022,https://www.kiff.kiev.ua/en/home-eng/,DM,HOME DECOR,,,,,,,,,,,,
Kiff - Kiev International Furniture Forum,03/02/2022,2022,https://www.kiff.kiev.ua/en/home-eng/,DM,Home décor,,,,,,,,,,,,
Kiff - Kiev International Furniture Forum,03/02/2022,2022,https://www.kiff.kiev.ua/en/home-eng/,DM,INFINITY,,,,,,,,,,,,
Kiff - Kiev International Furniture Forum,03/02/2022,2022,https://www.kiff.kiev.ua/en/home-eng/,DM,INSTELL,,,,,,,,,,,,
Kiff - Kiev International Furniture Forum,03/02/2022,2022,https://www.kiff.kiev.ua/en/home-eng/,DM,INTARSIO,,,,,,,,,,,,
Kiff - Kiev International Furniture Forum,03/02/2022,2022,https://www.kiff.kiev.ua/en/home-eng/,DM,ITALPRESSE,,,,,,,,,,,,
Kiff - Kiev International Furniture Forum,03/02/2022,2022,https://www.kiff.kiev.ua/en/home-eng/,DM,IX-WOOD,,,,,,,,,,,,
Kiff - Kiev International Furniture Forum,03/02/2022,2022,https://www.kiff.kiev.ua/en/home-eng/,DM,KEOMA ITALIA,,,,,,,,,,,,
Kiff - Kiev International Furniture Forum,03/02/2022,2022,https://www.kiff.kiev.ua/en/home-eng/,DM,KMA UKRAINE,,,,,,,,,,,,
Kiff - Kiev International Furniture Forum,03/02/2022,2022,https://www.kiff.kiev.ua/en/home-eng/,DM,KMTEX,,,,,,,,,,,,
Kiff - Kiev International Furniture Forum,03/02/2022,2022,https://www.kiff.kiev.ua/en/home-eng/,DM,KONSTANTA,,,,,,,,,,,,
Kiff - Kiev International Furniture Forum,03/02/2022,2022,https://www.kiff.kiev.ua/en/home-eng/,DM,KONZEPTION,,,,,,,,,,,,
Kiff - Kiev International Furniture Forum,03/02/2022,2022,https://www.kiff.kiev.ua/en/home-eng/,DM,Kraft,,,,,,,,,,,,
Kiff - Kiev International Furniture Forum,03/02/2022,2022,https://www.kiff.kiev.ua/en/home-eng/,DM,"KRISTALL, TM",,,,,,,,,,,,
Kiff - Kiev International Furniture Forum,03/02/2022,2022,https://www.kiff.kiev.ua/en/home-eng/,DM,KUTEK,,,,,,,,,,,,
Kiff - Kiev International Furniture Forum,03/02/2022,2022,https://www.kiff.kiev.ua/en/home-eng/,DM,La casa sofa,,,,,,,,,,,,
Kiff - Kiev International Furniture Forum,03/02/2022,2022,https://www.kiff.kiev.ua/en/home-eng/,DM,LA CASA SOFA,,,,,,,,,,,,
Kiff - Kiev International Furniture Forum,03/02/2022,2022,https://www.kiff.kiev.ua/en/home-eng/,DM,LIBERTA,,,,,,,,,,,,
Kiff - Kiev International Furniture Forum,03/02/2022,2022,https://www.kiff.kiev.ua/en/home-eng/,DM,LIMASO,,,,,,,,,,,,
Kiff - Kiev International Furniture Forum,03/02/2022,2022,https://www.kiff.kiev.ua/en/home-eng/,DM,LUX-X,,,,,,,,,,,,
Kiff - Kiev International Furniture Forum,03/02/2022,2022,https://www.kiff.kiev.ua/en/home-eng/,DM,Maestro Kitchen,,,,,,,,,,,,
Kiff - Kiev International Furniture Forum,03/02/2022,2022,https://www.kiff.kiev.ua/en/home-eng/,DM,MAGNIFLEX,,,,,,,,,,,,
Kiff - Kiev International Furniture Forum,03/02/2022,2022,https://www.kiff.kiev.ua/en/home-eng/,DM,Maiimo FURNITURE,,,,,,,,,,,,
Kiff - Kiev International Furniture Forum,03/02/2022,2022,https://www.kiff.kiev.ua/en/home-eng/,DM,MAIIMO FURNITURE,,,,,,,,,,,,
Kiff - Kiev International Furniture Forum,03/02/2022,2022,https://www.kiff.kiev.ua/en/home-eng/,DM,MARGO GROUP,,,,,,,,,,,,
Kiff - Kiev International Furniture Forum,03/02/2022,2022,https://www.kiff.kiev.ua/en/home-eng/,DM,MARKETLIS,,,,,,,,,,,,
Kiff - Kiev International Furniture Forum,03/02/2022,2022,https://www.kiff.kiev.ua/en/home-eng/,DM,MATISS-ART-STUDIO,,,,,,,,,,,,
Kiff - Kiev International Furniture Forum,03/02/2022,2022,https://www.kiff.kiev.ua/en/home-eng/,DM,MAYTONI,,,,,,,,,,,,
Kiff - Kiev International Furniture Forum,03/02/2022,2022,https://www.kiff.kiev.ua/en/home-eng/,DM,Mebelnye Technologii,,,,,,,,,,,,
Kiff - Kiev International Furniture Forum,03/02/2022,2022,https://www.kiff.kiev.ua/en/home-eng/,DM,MEBLI KARPAT,,,,,,,,,,,,
Kiff - Kiev International Furniture Forum,03/02/2022,2022,https://www.kiff.kiev.ua/en/home-eng/,DM,MEBLION,,,,,,,,,,,,
Kiff - Kiev International Furniture Forum,03/02/2022,2022,https://www.kiff.kiev.ua/en/home-eng/,DM,MEHANIZM-MEBEL,,,,,,,,,,,,
Kiff - Kiev International Furniture Forum,03/02/2022,2022,https://www.kiff.kiev.ua/en/home-eng/,DM,MELVIN,,,,,,,,,,,,
Kiff - Kiev International Furniture Forum,03/02/2022,2022,https://www.kiff.kiev.ua/en/home-eng/,DM,METAL DESIGN,,,,,,,,,,,,
Kiff - Kiev International Furniture Forum,03/02/2022,2022,https://www.kiff.kiev.ua/en/home-eng/,DM,MIX MEBLI,,,,,,,,,,,,
Kiff - Kiev International Furniture Forum,03/02/2022,2022,https://www.kiff.kiev.ua/en/home-eng/,DM,MOTIONITALIA,,,,,,,,,,,,
Kiff - Kiev International Furniture Forum,03/02/2022,2022,https://www.kiff.kiev.ua/en/home-eng/,DM,M-Standart,,,,,,,,,,,,
Kiff - Kiev International Furniture Forum,03/02/2022,2022,https://www.kiff.kiev.ua/en/home-eng/,DM,O`LENS,,,,,,,,,,,,
Kiff - Kiev International Furniture Forum,03/02/2022,2022,https://www.kiff.kiev.ua/en/home-eng/,DM,OSAMA,,,,,,,,,,,,
Kiff - Kiev International Furniture Forum,03/02/2022,2022,https://www.kiff.kiev.ua/en/home-eng/,DM,OTK-Service,,,,,,,,,,,,
Kiff - Kiev International Furniture Forum,03/02/2022,2022,https://www.kiff.kiev.ua/en/home-eng/,DM,"PAPATYA, Komandor 2000, TM Tilia",,,,,,,,,,,,
Kiff - Kiev International Furniture Forum,03/02/2022,2022,https://www.kiff.kiev.ua/en/home-eng/,DM,"PDL LLc, Metaltex TM, Posud De Luxе",,,,,,,,,,,,
Kiff - Kiev International Furniture Forum,03/02/2022,2022,https://www.kiff.kiev.ua/en/home-eng/,DM,PRIMA INTERIOR,,,,,,,,,,,,
Kiff - Kiev International Furniture Forum,03/02/2022,2022,https://www.kiff.kiev.ua/en/home-eng/,DM,RADEX,,,,,,,,,,,,
Kiff - Kiev International Furniture Forum,03/02/2022,2022,https://www.kiff.kiev.ua/en/home-eng/,DM,"ROLLTEX, LLC",,,,,,,,,,,,
Kiff - Kiev International Furniture Forum,03/02/2022,2022,https://www.kiff.kiev.ua/en/home-eng/,DM,S.S. SCAFOLDING,,,,,,,,,,,,
Kiff - Kiev International Furniture Forum,03/02/2022,2022,https://www.kiff.kiev.ua/en/home-eng/,DM,SANDALYECI,,,,,,,,,,,,
Kiff - Kiev International Furniture Forum,03/02/2022,2022,https://www.kiff.kiev.ua/en/home-eng/,DM,SEQUOIA,,,,,,,,,,,,
Kiff - Kiev International Furniture Forum,03/02/2022,2022,https://www.kiff.kiev.ua/en/home-eng/,DM,SERGIO STALLIERE,,,,,,,,,,,,
Kiff - Kiev International Furniture Forum,03/02/2022,2022,https://www.kiff.kiev.ua/en/home-eng/,DM,SHAGREEN ltd,,,,,,,,,,,,
Kiff - Kiev International Furniture Forum,03/02/2022,2022,https://www.kiff.kiev.ua/en/home-eng/,DM,Shvejnik,,,,,,,,,,,,
Kiff - Kiev International Furniture Forum,03/02/2022,2022,https://www.kiff.kiev.ua/en/home-eng/,DM,SIGNAL,,,,,,,,,,,,
Kiff - Kiev International Furniture Forum,03/02/2022,2022,https://www.kiff.kiev.ua/en/home-eng/,DM,SIGNAL,,,,,,,,,,,,
Kiff - Kiev International Furniture Forum,03/02/2022,2022,https://www.kiff.kiev.ua/en/home-eng/,DM,Skarlat,,,,,,,,,,,,
Kiff - Kiev International Furniture Forum,03/02/2022,2022,https://www.kiff.kiev.ua/en/home-eng/,DM,SLATE-LITE,,,,,,,,,,,,
Kiff - Kiev International Furniture Forum,03/02/2022,2022,https://www.kiff.kiev.ua/en/home-eng/,DM,SLONIMMEBEL,,,,,,,,,,,,
Kiff - Kiev International Furniture Forum,03/02/2022,2022,https://www.kiff.kiev.ua/en/home-eng/,DM,SONIC style workshop,,,,,,,,,,,,
Kiff - Kiev International Furniture Forum,03/02/2022,2022,https://www.kiff.kiev.ua/en/home-eng/,DM,STANCOMPLECT,,,,,,,,,,,,
Kiff - Kiev International Furniture Forum,03/02/2022,2022,https://www.kiff.kiev.ua/en/home-eng/,DM,STANKODNEPR,,,,,,,,,,,,
Kiff - Kiev International Furniture Forum,03/02/2022,2022,https://www.kiff.kiev.ua/en/home-eng/,DM,STEELBASE,,,,,,,,,,,,
Kiff - Kiev International Furniture Forum,03/02/2022,2022,https://www.kiff.kiev.ua/en/home-eng/,DM,STRIEBIG,,,,,,,,,,,,
Kiff - Kiev International Furniture Forum,03/02/2022,2022,https://www.kiff.kiev.ua/en/home-eng/,DM,STUDIOGLASS,,,,,,,,,,,,
Kiff - Kiev International Furniture Forum,03/02/2022,2022,https://www.kiff.kiev.ua/en/home-eng/,DM,TEHNOHATA,,,,,,,,,,,,
Kiff - Kiev International Furniture Forum,03/02/2022,2022,https://www.kiff.kiev.ua/en/home-eng/,DM,TehnoTable,,,,,,,,,,,,
Kiff - Kiev International Furniture Forum,03/02/2022,2022,https://www.kiff.kiev.ua/en/home-eng/,DM,Thermomix,,,,,,,,,,,,
Kiff - Kiev International Furniture Forum,03/02/2022,2022,https://www.kiff.kiev.ua/en/home-eng/,DM,Treeland,,,,,,,,,,,,
Kiff - Kiev International Furniture Forum,03/02/2022,2022,https://www.kiff.kiev.ua/en/home-eng/,DM,TURETSKIY,,,,,,,,,,,,
Kiff - Kiev International Furniture Forum,03/02/2022,2022,https://www.kiff.kiev.ua/en/home-eng/,DM,Vash Dom,,,,,,,,,,,,
Kiff - Kiev International Furniture Forum,03/02/2022,2022,https://www.kiff.kiev.ua/en/home-eng/,DM,VECTOR,,,,,,,,,,,,
Kiff - Kiev International Furniture Forum,03/02/2022,2022,https://www.kiff.kiev.ua/en/home-eng/,DM,VELA TM,,,,,,,,,,,,
Kiff - Kiev International Furniture Forum,03/02/2022,2022,https://www.kiff.kiev.ua/en/home-eng/,DM,VELES,,,,,,,,,,,,
Kiff - Kiev International Furniture Forum,03/02/2022,2022,https://www.kiff.kiev.ua/en/home-eng/,DM,VENKO,,,,,,,,,,,,
Kiff - Kiev International Furniture Forum,03/02/2022,2022,https://www.kiff.kiev.ua/en/home-eng/,DM,VETRO MEBEL,,,,,,,,,,,,
Kiff - Kiev International Furniture Forum,03/02/2022,2022,https://www.kiff.kiev.ua/en/home-eng/,DM,VIKO MEBLI,,,,,,,,,,,,
Kiff - Kiev International Furniture Forum,03/02/2022,2022,https://www.kiff.kiev.ua/en/home-eng/,DM,Villa Grazia,,,,,,,,,,,,
Kiff - Kiev International Furniture Forum,03/02/2022,2022,https://www.kiff.kiev.ua/en/home-eng/,DM,VN WOOD,,,,,,,,,,,,
Kiff - Kiev International Furniture Forum,03/02/2022,2022,https://www.kiff.kiev.ua/en/home-eng/,DM,WILDFLAME,,,,,,,,,,,,
Kiff - Kiev International Furniture Forum,03/02/2022,2022,https://www.kiff.kiev.ua/en/home-eng/,DM,WISDOM,,,,,,,,,,,,
Kiff - Kiev International Furniture Forum,03/02/2022,2022,https://www.kiff.kiev.ua/en/home-eng/,DM,Wood concept,,,,,,,,,,,,
Kiff - Kiev International Furniture Forum,03/02/2022,2022,https://www.kiff.kiev.ua/en/home-eng/,DM,WOOD CONCEPT,,,,,,,,,,,,
Kiff - Kiev International Furniture Forum,03/02/2022,2022,https://www.kiff.kiev.ua/en/home-eng/,DM,WOODENSIDE,,,,,,,,,,,,
Kiff - Kiev International Furniture Forum,03/02/2022,2022,https://www.kiff.kiev.ua/en/home-eng/,DM,XOKO TRADE LLC,,,,,,,,,,,,
Kiff - Kiev International Furniture Forum,03/02/2022,2022,https://www.kiff.kiev.ua/en/home-eng/,DM,YVES FOUQUET,,,,,,,,,,,,
Kiff - Kiev International Furniture Forum,03/02/2022,2022,https://www.kiff.kiev.ua/en/home-eng/,DM,ZEGEN,,,,,,,,,,,,
Kiff - Kiev International Furniture Forum,03/02/2022,2022,https://www.kiff.kiev.ua/en/home-eng/,DM,"ТЕXМЕТ, LTD",,,,,,,,,,,,
