ShowName,ShowDate,ShowYear,ShowWebsite,SubmittedBy,ExhibitorName,BoothNumber,HallLocation,Website,Email,Phone,Fax,Address,Country,Categories,Manufacturers,Brands,Description
Furniture Manufacturing Expo,07/20/2021,2021,https://www.furnituremanufacturingexpo.com/,DM,Automated Solutions,1711,,,,,,"Lincolnton, NC, United States",,,,,
Furniture Manufacturing Expo,07/20/2021,2021,https://www.furnituremanufacturingexpo.com/,DM,Atlanta Attachment Company,1315,,https://www.atlatt.com,,,,"Lawrenceville, Georgia, United States",,Adhesives / Finishes / Paints | Computer Software / Information Technology | Cutting & Sewing Equipment | Research & Development,,,
Furniture Manufacturing Expo,07/20/2021,2021,https://www.furnituremanufacturingexpo.com/,DM,Kuris USA,1411,,http://www.kurisusa.com,,,,"Blountville, TN, United States",,Cutting & Sewing Equipment | Cutting & Tools For Foam | Distributors | Fabrics / Upholstery | Fibers | Findings / Trims | Foam | Furniture / Bedding Mechanisms | Furniture Manufacturing Machinery | Hardware & Components | Labels | Nonwovens | Packaging | Quilting Machinery | Racking Systems | Research & Development | Supplies | Testing Equipment,,,
Furniture Manufacturing Expo,07/20/2021,2021,https://www.furnituremanufacturingexpo.com/,DM,LINC Systems,1316,,http://www.lincsystems.com,,,,"Westfield, IN, United States",,Distributors | Hardware & Components | Labels | Packaging | Racking Systems | Supplies,,, 
Furniture Manufacturing Expo,07/20/2021,2021,https://www.furnituremanufacturingexpo.com/,DM,Lectra,1714,,https://www.lectra.com/,,,,"Smyrna, GA, United States",,Furniture Manufacturing Machinery,,,"With over 50 years of industry experience, Lectra offers intelligent and connected solutions that set new standards in the automated cutting of fabric and leather. These fully integrated solutions enable a variety of production models while focusing on innovation to support our customers' transformation into the digital age. "
Furniture Manufacturing Expo,07/20/2021,2021,https://www.furnituremanufacturingexpo.com/,DM,"Accu-Router, Inc",1011,,http://www.accu-router.com,,,,"Morrison, TN, United States",,,,,
Furniture Manufacturing Expo,07/20/2021,2021,https://www.furnituremanufacturingexpo.com/,DM,Amann-USA,1704,,https://www.amannusa.com/,,,,"Broomfield, CO, United States",,Supplies | Yarns / Threads,,,"Since 1854, AMANN Group has been one of the leading international manufacturers of high-quality sewing threads, embroidery threads and Smart Yarns.  For decades, AMANN USA has been serving the North American market - offering a great level of support and expertise not found elsewhere."
Furniture Manufacturing Expo,07/20/2021,2021,https://www.furnituremanufacturingexpo.com/,DM,Mocean First | Bartimaeus by Design,1505,,http://www.moceanfirst.com,,,,"Thomasville, NC, United States",,Contract Manufacturing | Distributors | Furniture / Bedding Mechanisms | Hardware & Components | Research & Development | Supplies,,,
Furniture Manufacturing Expo,07/20/2021,2021,https://www.furnituremanufacturingexpo.com/,DM,Assembly Tool Specialists,1019,,http://www.assytool.com,,,,"Twinsburg, OH, United States",,Hardware & Components | Supplies,,,"Assembly Tool Specialists, Inc. designs and manufacturers high-quality, unique tools that prevent damage to products and operator injury on the assembly line."
Furniture Manufacturing Expo,07/20/2021,2021,https://www.furnituremanufacturingexpo.com/,DM,Lee's Decorative Showcase | DADS Nails,1501,,http://www.leesdec.com,,,,"Hickory, NC, United States",,Distributors | Furniture / Bedding Mechanisms | Hardware & Components | Supplies | Yarns / Threads,,,"Wholesale supplier of decorative furniture nails, wood, acrylic and metal legs, pillow forms, trim and gimp, and many supplies for upholstery."
Furniture Manufacturing Expo,07/20/2021,2021,https://www.furnituremanufacturingexpo.com/,DM,Kaidi Electrical,1710,,http://www.kaidielectrical.com,,,,"Baldwyn, MO, United States",,,,,
Furniture Manufacturing Expo,07/20/2021,2021,https://www.furnituremanufacturingexpo.com/,DM,identiGROW,1130,,http://www.identigrow.com,,,,"Port Republic, VA, United States",,Labels,,,"""Identify your product - Grow  your business!"" The vision we live by, and we make that process easy and affordable for you. From small quantities to large, we have a product that works for you and makes you look good to your customers."
Furniture Manufacturing Expo,07/20/2021,2021,https://www.furnituremanufacturingexpo.com/,DM,Hickory Springs ,1315,,,,,,"Hickory, NC, United States",,,,,
Furniture Manufacturing Expo,07/20/2021,2021,https://www.furnituremanufacturingexpo.com/,DM,Highlead | Jack Of The Americas,1617,,http://www.candcenterprise.com,,,,"Sparta, White, United States",,Cutting & Sewing Equipment | Distributors | Furniture Manufacturing Machinery,,,
Furniture Manufacturing Expo,07/20/2021,2021,https://www.furnituremanufacturingexpo.com/,DM,Henderson Sewing Machine Co. Inc.,1405,,http://www.hendersonsewing.com,,,,"Andalusia, AL, United States",,Cutting & Sewing Equipment | Distributors | Furniture Manufacturing Machinery | Quilting Machinery | Research & Development | Supplies,,,"Henderson Sewing Machine Co Inc, founded in 1968, is a global supplier of industrial sewing machines, their parts, and custom automated sewing machines for the SEWING PRODUCTS INDUSTRY. We have grown by offering customers the highest quality products at competitive prices with superior customer service."
Furniture Manufacturing Expo,07/20/2021,2021,https://www.furnituremanufacturingexpo.com/,DM,ZUND,1305,,http://www.zund.com,,,,"Oak Creek, WI, United States",,Cutting & Sewing Equipment | Cutting & Tools For Foam,,,"Zünd offers automated single-/dual-beam cutting solutions complete with nesting, capture, and pattern-matching systems for efficient processing of upholstered furniture materials including leather, textile, foam, and chipboard. Unmatched in versatility and productivity, Zünd cutting systems also excel in low cost of ownership."
Furniture Manufacturing Expo,07/20/2021,2021,https://www.furnituremanufacturingexpo.com/,DM,Wright Global Graphics,1600,,,,,,"Thomasville, NC, United States",,,,,
Furniture Manufacturing Expo,07/20/2021,2021,https://www.furnituremanufacturingexpo.com/,DM,"Hickory Saw & Tool, Inc.",1223,,,,,,"Hickory, NC, United States",,,,,
Furniture Manufacturing Expo,07/20/2021,2021,https://www.furnituremanufacturingexpo.com/,DM,Warm Industrial Nonwovens,1328,,https://www.warmindustrial.com/,,,,"Lynnwood, WA, United States",,Contract Manufacturing | Fabrics / Upholstery | Fibers | Nonwovens,,,"WIN is a division of Warm Products Inc., a family owned business producing quality nonwovens for over 20 years. We run a variety of fibers with needlepunch, Garnett, thermo-bonding and saturation coating capabilities. Manufacturing large quantities with minimal lead times, providing the quality and consistency your company demands."
Furniture Manufacturing Expo,07/20/2021,2021,https://www.furnituremanufacturingexpo.com/,DM,USI Insurance Services: Employee Benefits/Property+Casualty,1230,,https://www.usi.com/,,,,"Charlotte, NC, United States",,Financial Management,,,"USI Insurance Services is one of the largest privately held insurance brokerage and consulting firms in the US, delivering solutions in Employee Benefits, Property and Casualty and Retirement.   Utilizing our innovative and proprietary OMNI analytics platform, we deliver customized results with positive bottom-line impact for our clients. "
Furniture Manufacturing Expo,07/20/2021,2021,https://www.furnituremanufacturingexpo.com/,DM,Trotters Sewing Company,1522,,http://www.trotterssewing.com,,,,"Asheboro, NC, United States",,Contract Manufacturing,,,"Trotters Sewing Company is a family-owned and operated contract cut and sew business in Asheboro, NC."
Furniture Manufacturing Expo,07/20/2021,2021,https://www.furnituremanufacturingexpo.com/,DM,The Manufacturing Solutions Center at CVCC,1021,,http://www.manufacturingsolutionscenter.org,,,,"Conover, NC, United States",,,,,
Furniture Manufacturing Expo,07/20/2021,2021,https://www.furnituremanufacturingexpo.com/,DM,Wipelli Inc.,1423,,http://www.wipelliusa.com,,,,"Rhodhiss, NC, United States",,Fabrics / Upholstery,,,"Wipelli offers high-quality anilines, contract/hospitality, and aftermarket automotive leathers from Europe and South America.  With a modern onsite testing laboratory, an extensive Hair-on-Hide inventory with a user-friendly web selection platform, 400+ in-stock leather SKU’s, and an industry leading customer service team; Wipelli is set to change your leather buying experience."
Furniture Manufacturing Expo,07/20/2021,2021,https://www.furnituremanufacturingexpo.com/,DM,The Fox Company,1110,,http://www.thefoxcompany.com,,,,"Charlotte, NC, United States",,Adhesives / Finishes / Paints | Cutting & Sewing Equipment | Cutting & Tools For Foam | Distributors | Furniture Manufacturing Machinery | Research & Development | Supplies,,,"The Fox Company, based in Charlotte, North Carolina, has been specializing in machinery for the sewn-products industry and allied industries since our founding in 1932."
Furniture Manufacturing Expo,07/20/2021,2021,https://www.furnituremanufacturingexpo.com/,DM,Synthetic Yarn and Fabric Association,1013,,http://www.thesyfa.org,,,,"Lyman  29365, SC, United States",,,,,
Furniture Manufacturing Expo,07/20/2021,2021,https://www.furnituremanufacturingexpo.com/,DM,TexTempo Shop Floor Controls and Incentive Payroll,1716,,http://www.textempo.com,,,,"Atlanta, GA, United States",,Computer Software / Information Technology,,,"Textempo helps furniture manufacturers optimize production and product development by providing high value software solutions to reduce labor costs, improve throughput and shorten delivery times. Our mission focuses on Real Time visualization and transparency of factory floor processes to insure SKU profitability while avoiding mistakes and seizing opportunities. "
Furniture Manufacturing Expo,07/20/2021,2021,https://www.furnituremanufacturingexpo.com/,DM,Sewn Products Equip Co.,1205,,http://www.sewnproducts.com,,,,"Jefferson, GA, United States",,Cutting & Sewing Equipment | Cutting & Tools For Foam | Quilting Machinery | Racking Systems | Supplies,,," is a major supplier of machinery, parts and accessories to industries that manufacture apparel, furniture, marine and aviation vehicles, industrial fabric products, products formed from flexible composites and many other allied industries. "
Furniture Manufacturing Expo,07/20/2021,2021,https://www.furnituremanufacturingexpo.com/,DM,Starline,1225,,,,,,"Canonsburg, PA, United States",,,,,
Furniture Manufacturing Expo,07/20/2021,2021,https://www.furnituremanufacturingexpo.com/,DM,SPRE,1221,,http://www.spretextile.com,,,,"hangzhou, zhejiang, China",,Fibers,,,"we are a polyester staple fiber supplier, we have plant in China and Thailand, we can supply hollow conjugate silicon PSF, hollow conjugate nonsilicon PSF, microfiber, black PSF etc. our product are mainly used for hometextile, padding, wadding, automotive industry etc."
Furniture Manufacturing Expo,07/20/2021,2021,https://www.furnituremanufacturingexpo.com/,DM,Quis Machinery Inc.,1101,,https://www.quismachinery.com/,,,,"Asheville, NC, United States",,Distributors | Furniture Manufacturing Machinery | Wood Process Machinery,,,"Quis Machinery uses our expertise in production to provide the manufacturing industry with solutions to help improve their people, products, and processes."
Furniture Manufacturing Expo,07/20/2021,2021,https://www.furnituremanufacturingexpo.com/,DM,Sunny Sewing Machines,1703,,,,,,"Dallas, TX, United States",,,,,
Furniture Manufacturing Expo,07/20/2021,2021,https://www.furnituremanufacturingexpo.com/,DM,Southern Carlson,1513,,https://www.southerncarlson.com,,,,"Winston-Salem, NC, United States",,Furniture Manufacturing Machinery | Hardware & Components | Packaging | Supplies,,,"SouthernCarlson has been a preferred vendor, serving the furniture industry for 75 years. Since those early days, our product offering has expanded to encompass thousands of products, representing every major brand to serve all of your fastening needs. Our experienced personnel are eager to provide solutions, and increase your productivity."
Furniture Manufacturing Expo,07/20/2021,2021,https://www.furnituremanufacturingexpo.com/,DM,Richelieu USA,1004,,http://www.richelieu.com,,,,"Thomasville, NC, United States",,,,,
Furniture Manufacturing Expo,07/20/2021,2021,https://www.furnituremanufacturingexpo.com/,DM,Preferred Furniture Components,1105,,,,,,"High Point, NC, United States",,Distributors | Hardware & Components | Supplies | Yarns / Threads,,,
Furniture Manufacturing Expo,07/20/2021,2021,https://www.furnituremanufacturingexpo.com/,DM,NCSU Wood Products Ext.,1122,,https:outreach.c nr.ncsu.edu/ncwood,,,,"Raleigh, North Carolina, United States",,,,,
Furniture Manufacturing Expo,07/20/2021,2021,https://www.furnituremanufacturingexpo.com/,DM,Power Adhesives,1222,,http://www.knottec.com,,,,"Charlotte, NC, United States",,Adhesives / Finishes / Paints | Distributors | Packaging,,,"What can we glue for you?  Power Adhesives offer an array of adhesives for applications such as upholstered furniture, positioning templates, fabric bonding, corner spacer blocks, knot filling. "
Furniture Manufacturing Expo,07/20/2021,2021,https://www.furnituremanufacturingexpo.com/,DM,Guardsman,1707,,,,,,"Grand Rapids, MI, United States",,,,,
Furniture Manufacturing Expo,07/20/2021,2021,https://www.furnituremanufacturingexpo.com/,DM,Novita Home Furnishing,1518,,http://novita.us,,,,"Mineola, NY, United States",,,,,
Furniture Manufacturing Expo,07/20/2021,2021,https://www.furnituremanufacturingexpo.com/,DM,Pathfinder Advanced Cutting Technology,1005,,,,,,"Hickory, NC, United States",,,,,
Furniture Manufacturing Expo,07/20/2021,2021,https://www.furnituremanufacturingexpo.com/,DM,Northwood Machine Mfg. Co.,1114,,http://www.northwoodmachine.com,,,,"Louisville, KY, United States",,,,,
Furniture Manufacturing Expo,07/20/2021,2021,https://www.furnituremanufacturingexpo.com/,DM,"Gerber Technology, A Lectra Company",1400,,http://www.gerbertechnology.com,,,,"Tolland, CT, United States",,Computer Software / Information Technology | Cutting & Sewing Equipment | Cutting & Tools For Foam | Furniture Manufacturing Machinery | Hardware & Components,,,"For half a century, Gerber Technology has been helping companies around the world develop, manufacture and take their products to market smarter, faster, and more efficiently."
Furniture Manufacturing Expo,07/20/2021,2021,https://www.furnituremanufacturingexpo.com/,DM,Hangman Products,1224,,http://www.hangmanproducts.com,,,,"Simi Valley, CA, United States",,Hardware & Components,,,"Hangman Products is a US hardware manufacturer and supplier to retailers, distributors, and OEM(s).  Most of our products are made, packaged and shipped out of LA factory.  We do have partners in Taiwan and China to service our Asian manufacturers. We provide quality, flexibility, short lead times, and quick responses."
Furniture Manufacturing Expo,07/20/2021,2021,https://www.furnituremanufacturingexpo.com/,DM,Fil-Tec,1425,,https://www.fil-tec.com/Furniture,,,,"Hagerstown, MD, United States",,Yarns / Threads,,,"Fil-Tec, Inc is the leading nylon and polyester thread and pre-wound bobbin manufacturer in the U.S. We supply thread and bobbins to well known furniture manufacturers around the globe. Please contact us for thread and bobbin samples at 301-824-6166 or www.fil-tec.com"
Furniture Manufacturing Expo,07/20/2021,2021,https://www.furnituremanufacturingexpo.com/,DM,Fastening Solutions | Encore Hartco,1300,,,,,,"Montgomery, AL, United States",,,,,
Furniture Manufacturing Expo,07/20/2021,2021,https://www.furnituremanufacturingexpo.com/,DM,Fibrix,1524,,http://fibrix.com,,,,"Conover, NC, United States",,Fibers | Foam | Nonwovens,,,
Furniture Manufacturing Expo,07/20/2021,2021,https://www.furnituremanufacturingexpo.com/,DM,Economic Development Partnership of North Carolina,1023,,http://www.edpnc.com,,,,"Cary, NC, United States",,,,,
Furniture Manufacturing Expo,07/20/2021,2021,https://www.furnituremanufacturingexpo.com/,DM,General Finishes,1008,,,,,,"East Troy, WI, United States",,,,,
Furniture Manufacturing Expo,07/20/2021,2021,https://www.furnituremanufacturingexpo.com/,DM,Eastman Machine Company,1611,,http://www.eastmancuts.com,,,,"Buffalo, NY, United States",,Computer Software / Information Technology | Cutting & Sewing Equipment | Cutting & Tools For Foam | Fabrics / Upholstery | Fibers | Foam | Furniture Manufacturing Machinery | Nonwovens,,,"For over 130 years, Eastman Machine Company has provided furniture manufacturers across the globe with American-made cutting solutions. Eastman offers the widest variety of manually operated and automated cutting systems for traditional fabrics used in furniture, upholstery, and fiberfill. Eastman machinery is proven to reduce labor, increase quality, and maximize material utilization. "
Furniture Manufacturing Expo,07/20/2021,2021,https://www.furnituremanufacturingexpo.com/,DM,Digitize Designs,1121,,http://www.digitizedesigns.com,,,,"Greenville, SC, United States",,Computer Software / Information Technology | Research & Development,,,"Digitize Designs distributes several lines of hand-held metrology grade 3D scanners and software for applications including reverse engineering, quality control, PBR material creation, photorealistic 3D asset creation for use with e-commerce, augmented reality and virtual reality, digital renderings, and many more. "
Furniture Manufacturing Expo,07/20/2021,2021,https://www.furnituremanufacturingexpo.com/,DM,Elof Hansson,1220,,,,,,"Tarrytown, NY, United States",,,,,
Furniture Manufacturing Expo,07/20/2021,2021,https://www.furnituremanufacturingexpo.com/,DM,"DAPA Products, Inc.",1322,,,,,,"Jasper, AL, United States",,Fabrics / Upholstery | Findings / Trims | Hardware & Components,,,"DAPA Products, Inc. manufactures products for the Upholstered Furniture industry such as Braided welt cords, Foam welt cords, Lip welt and other types of welt cords.  DAPA also offers products like Edge Rolls and Tack strips and can manufacture custom plastic profiles upon request."
Furniture Manufacturing Expo,07/20/2021,2021,https://www.furnituremanufacturingexpo.com/,DM,Consew,1605,,http://www.consew.com,,,,"Carlstadt, NJ, United States",,Computer Software / Information Technology | Cutting & Sewing Equipment | Cutting & Tools For Foam | Foam Fabricating Machinery | Furniture Manufacturing Machinery | Quilting Machinery | Supplies,,,"Consew is a leading manufacture of commercial sewing and cutting machines. Consew products are distributed world wide through dealers that sale and support locally. Focased on heavy duty appications, Consew  best know in the uphostry and mattress industries. Meistergram will be on exhibit with pattern  inserts and embroidery."
Furniture Manufacturing Expo,07/20/2021,2021,https://www.furnituremanufacturingexpo.com/,DM,Crest Leather,1615,,http://www.crestleather.com,,,,"Greensboro, NC, United States",,Fabrics / Upholstery | Supplies,,,"Crest Leather is a leading global producer of high quality upholsery leather for end-use in the residential, contract, hospitality, and design sectors. Headquartered in London, Crest Leather owns and operates tanneries in Italy and Brazil, with further warehouse and distribution facilities in the UK, USA, Canada, and South Africa."
Furniture Manufacturing Expo,07/20/2021,2021,https://www.furnituremanufacturingexpo.com/,DM,DAP America Inc.,1115,,,,,,"Norcross, GA, United States",,,,,
Furniture Manufacturing Expo,07/20/2021,2021,https://www.furnituremanufacturingexpo.com/,DM,Coats,1123,,http://www.coats.com,,,,"Charlotte, NC, United States",,,,,
Furniture Manufacturing Expo,07/20/2021,2021,https://www.furnituremanufacturingexpo.com/,DM,"Card Clothing & Services, Inc.",1329,,,,,,"Kings Mountain, NC, United States",,Fibers | Furniture Manufacturing Machinery | Nonwovens | Quilting Machinery,,,"Card Clothing & Services, Inc. (CCS) is a leading US supplier of fiber, foam, down and feather processing equipment. This includes the "
Furniture Manufacturing Expo,07/20/2021,2021,https://www.furnituremanufacturingexpo.com/,DM,C.S. Osborne & Co. | Massasoit,1324,,http://www.csosborneupholsterytools.com,,,,"Harrison, NJ, United States",,Adhesives / Finishes / Paints | Cutting & Sewing Equipment | Cutting & Tools For Foam | Fibers | Hardware & Components | Supplies | Yarns / Threads,,,"C. S. Osborne & Co. manufacturers a complete line of upholstery hand tools, buttons & machines, decorative nails and sewing needles. Our affiliate Massasoit Tackband produces Tack Tite, Curve Ease / Flex Grip, Nail Trim and webbing for the furniture industry."
Furniture Manufacturing Expo,07/20/2021,2021,https://www.furnituremanufacturingexpo.com/,DM,Brown Wood Inc.,1012,,http://www.brownwoodinc.com,,,,"Lincolnwood, IL, United States",,Contract Manufacturing | Hardware & Components | Wood / Wood Products,,,"Brown Wood Inc. is a full service wood component supplier for furniture, display and cabinetry. "
Furniture Manufacturing Expo,07/20/2021,2021,https://www.furnituremanufacturingexpo.com/,DM,Bill's Sewing + Juki America,1211,,,,,,"Hildebran, NC, United States",,Cutting & Sewing Equipment | Supplies | Yarns / Threads,,,
Furniture Manufacturing Expo,07/20/2021,2021,https://www.furnituremanufacturingexpo.com/,DM,Barber Manufacturing,1419,,,,,,"Anderson, IN, United States",,,,,
Furniture Manufacturing Expo,07/20/2021,2021,https://www.furnituremanufacturingexpo.com/,DM,BeA Fasteners USA,1204,,http://www.beafastenersusa.com,,,,"Greensboro, NC, United States",,Furniture Manufacturing Machinery | Supplies,,,We at BeA are proud to be provide furniture makers with the right tool for the job - your MoneyMaker
Furniture Manufacturing Expo,07/20/2021,2021,https://www.furnituremanufacturingexpo.com/,DM,Axiom America LLC,1217,,http://www.axiomamerica.com,,,,"High Point, NC, United States",,Computer Software / Information Technology | Cutting & Sewing Equipment | Fabrics / Upholstery,,,"Axiom America  offers equipment, services and supplies to digital fabric printing industries.  With on demand roll fed cutting lasers, digital fabric printing, laser markers and rotary heat presses,  Axiom America supports manufacturers with the tools needed to maximize on demand printing to ensure lower production costs and lead times."
