ShowName,ShowDate,ShowYear,ShowWebsite,SubmittedBy,ExhibitorName,BoothNumber,HallLocation,Website,Email,Phone,Fax,Address,Country,Categories,Manufacturers,Brands,Description
Istanbul Furniture Fair,01/25/2022,2022,https://www.istanbulfurniturefair.com,DM,312 DESİGN METAL MOBİLYA AKSESUAR FUNDA ÖZGÜR,931,9,www.312dizayn.com.tr,,+90 542 348 9291,,saray mah. 1501 sok. 9/3-4 kahramankazan / ANKARA / KAHRAMANKAZAN / ANKARA / TÜRKİYE,,,,,
Istanbul Furniture Fair,01/25/2022,2022,https://www.istanbulfurniturefair.com,DM,32 C.M.S MOBİLYA OR. ÜR. HIRD. İNŞ. NAK. SAN. VE TİC. LTD. ŞTİ.,826/A,8,www.renimobilya.com,,+90 536 318 0821,,FATİH MAH. 59 CD. NO:5 SAV KÖY BELDESİ / ISPARTA / MERKEZ / ISPARTA / TÜRKİYE,,,,,
Istanbul Furniture Fair,01/25/2022,2022,https://www.istanbulfurniturefair.com,DM,A VE C MOBİLYA SAN. TİC. LTD. ŞTİ.,825/A,8,www.avecmobilya.com,,+90 352 240 3004,,MOBİLYACILAR SİTESİ OYMAAĞAÇ MAH. 5082 SOAK 3/J / KOCASİNAN / KAYSERİ / TÜRKİYE,,,,,
Istanbul Furniture Fair,01/25/2022,2022,https://www.istanbulfurniturefair.com,DM,A.T.D. AHMET TALAT DURAN DIŞ TİC LTD ŞTİ,1132/B,11,,,+90 352 321 3031,,KAYSERİ O.S.B. 24. CADDE NO:23 / MELİKGAZİ / KAYSERİ / TÜRKİYE,,,,,
Istanbul Furniture Fair,01/25/2022,2022,https://www.istanbulfurniturefair.com,DM,ACTIVE MOBİLYA SAN.VE TİC.LTD.ŞTİ.,901,9,www.activemobilya.com,,+90 535 610 1699,,Masko Mobilyacılar Sitesi 15/A Blok 18/20 Başakşehir/İstanbul / Başakşehir / İSTANBUL / TÜRKİYE,,,,,
Istanbul Furniture Fair,01/25/2022,2022,https://www.istanbulfurniturefair.com,DM,ACTİVEDESİNG MOBİLYA-METİN ATAMAN,545/B,5,,,+90 224 713 4409,,Mahmudiye mah. Tabakhane cad. No: 2/1 / inegöl / BURSA / TÜRKİYE,,,,,
Istanbul Furniture Fair,01/25/2022,2022,https://www.istanbulfurniturefair.com,DM,AÇIKEL MOBİLYA AKSESUAR GIDA İTH. İHR. SAN. VE TİC. LTD. ŞTİ.,955,9,www.acikelmobilya.com.tr,,+90 536 263 2888,,GÜZELBURÇ MAH. SANAYİ SİTESİ 14. CAD. NO: 2/1 / antakya / HATAY / TÜRKİYE,,,,,
Istanbul Furniture Fair,01/25/2022,2022,https://www.istanbulfurniturefair.com,DM,ADAR MOBİLYA İNŞ.OTOM.SAN.TİC.LTD.ŞTİ.,603/B,6,www.mertmobilya.com,,+90 532 574 2200,,MAHMUDİYE MAH. GAZCILAR SOK. NO: 2/A / İNEGÖL / BURSA / TÜRKİYE,,,,,
Istanbul Furniture Fair,01/25/2022,2022,https://www.istanbulfurniturefair.com,DM,ADİL ÖZKAN MOBİLYA İTH. İHR. SAN. VE TİC. LTD. ŞTİ.,634/A,6,,,+90 532 730 6014,,SHOWROOM:YENİ SANAYİ SİTESİ 3.İNİŞ 5.CADDE NO:16 ANTAKYA/HATAY FABRİKA:AÇIKDERE MAHALLESİ MOBİLYACILAR SİTESİ CADDESİ NO:19/1 ANTAKYA/HATAY / ANTAKYA / HATAY / TÜRKİYE,,,,,
Istanbul Furniture Fair,01/25/2022,2022,https://www.istanbulfurniturefair.com,DM,ADLERO MASA SANDALYE,943,9,www.adlero.com.tr,,+90 312 353 3330,,Diriliş Mah. Turgut Özal 2 bulvarı no:214 Mamak Ankara / MAMAK / ANKARA / TÜRKİYE,,,,,
Istanbul Furniture Fair,01/25/2022,2022,https://www.istanbulfurniturefair.com,DM,AES ELEKTRONİK MAKİNA SANAYİ VE TİCARET A. Ş.,F1,Fuaye/Foyer,www.aesgroup.com.tr,,+90 224 443 3390,,NOSAB Şeftali Cd. 118. Sk. No4 / nilüfer / BURSA / TÜRKİYE,,,,,
Istanbul Furniture Fair,01/25/2022,2022,https://www.istanbulfurniturefair.com,DM,AKABE MOB.İML.VE MLZ.İNŞ.İTH.İHR.SAN.VE TİC.LTD.ŞT,941,9,www.akabeaksesuar.com,,+90 530 289 6189,,Açıkdere Mah. Mobilyacılar Sitesi (İhtisas Sanayi Sitesi) No:70 / ANTAKYA / HATAY / TÜRKİYE,,,,,
Istanbul Furniture Fair,01/25/2022,2022,https://www.istanbulfurniturefair.com,DM,AKAY MOBİLYA SAN.TİC.A.Ş.,224,2,www.allegrohome.com,,+90 543 330 7011,,Yeniceköy Mah. Mobilya Cad. No: 32 / İnegöl / BURSA / TÜRKİYE,,,,,
Istanbul Furniture Fair,01/25/2022,2022,https://www.istanbulfurniturefair.com,DM,AKC MOBİLYA ORMAN ÜRÜN.TUR.İNŞ. İTH. İHR.SAN.TİC.LTD.ŞTİ.,206,2,www.livello.com.tr,,+90 541 442 3442,,SÜLEYMANİYE OSB 1. CAD. NO: 27 / inegöl / BURSA / TÜRKİYE,,,,,
Istanbul Furniture Fair,01/25/2022,2022,https://www.istanbulfurniturefair.com,DM,AKÇALAR GÜNCEL MOBİLYA İNŞ. SAN. TİC. LTD. ŞTİ.,215,2,,,+90 224 714 1470,,HAMZABEY OSB MAH. 5.CADDE NO.18/1 BURSA - İNEGÖL / İNEGÖL / BURSA / TÜRKİYE,,,,,
Istanbul Furniture Fair,01/25/2022,2022,https://www.istanbulfurniturefair.com,DM,AKHAN PLASTİK KALIP VE HED. EŞYA SAN.TİC. LTD.ŞTİ.,954,9,www.timegold.com.tr,,+90 212 485 2195,,İOSB Atatürk Blv. 13. Cadde Çevre San. Sit. 5. Blok No: 28 / başakşehir / İSTANBUL / TÜRKİYE,,,,,
Istanbul Furniture Fair,01/25/2022,2022,https://www.istanbulfurniturefair.com,DM,AKM MOBİLYA MAK. SAN. TİC. LTD. ŞTİ.,825/B,8,www.aracikan.com,,+90 533 084 4575,,Yeniceköy mh. Mobilya cd. No:36/42 / Bursa / BURSA / TÜRKİYE,,,,,
Istanbul Furniture Fair,01/25/2022,2022,https://www.istanbulfurniturefair.com,DM,AKMOY KOLTUK YUSUF ORDU,1213/B,12,,,+90 224 712 1612,,Mahmudiye Mah.13 Sok. No : 3/c / İnegöl / BURSA / TÜRKİYE,,,,,
Istanbul Furniture Fair,01/25/2022,2022,https://www.istanbulfurniturefair.com,DM,AKMOY KOLTUK YUSUF ORDU,1213/B,12,,,+90 535 921 4288,,mahmudiye mh.13 sk no:13/c inegöl bursa / / BURSA / TÜRKİYE,,,,,
Istanbul Furniture Fair,01/25/2022,2022,https://www.istanbulfurniturefair.com,DM,AKSAN MOBİLYA PAZARLAMA VE SANAYİ TİCARET A.Ş.,222,2,www.vettore.com.tr,,+90 533 203 3904,,Kavakli Mah. Selanik Cad. No: 25 / Silivri / İSTANBUL / TÜRKİYE,,,,,
Istanbul Furniture Fair,01/25/2022,2022,https://www.istanbulfurniturefair.com,DM,AKSU AHŞAP PANEL İMALATI MOB. SAN. TİC. LTD. ŞTİ.,1015/B,10,http://www.aksusuar.com/,,+90 506 804 8323,,organize sanayi bölgesi 34. cad. no: 5 / MELİKGAZİ / KAYSERİ / TÜRKİYE,,,,,
Istanbul Furniture Fair,01/25/2022,2022,https://www.istanbulfurniturefair.com,DM,AKSU MOBİLYA KANEPE-DURMUŞ AKSU,225,2,www.idaksu.com,,+90 352 336 3446,,ORGANİZE SANAYİ BÖLGESİ 5. CAD. NO: 7 / MELİKGAZİ / KAYSERİ / TÜRKİYE,,,,,
Istanbul Furniture Fair,01/25/2022,2022,https://www.istanbulfurniturefair.com,DM,AKTAN SANDALYE AĞAÇ ÜRÜNLERİ SAN. VE TİC. LTD. ŞTİ.,1055/A,10,www.aktansandalye.com,,+90 232 257 5095,,MEHMET AKİF CADDESİ NO: 82-84-86 OĞLANANASI MAHALLESİ ESTİM SANAYİ SİTESİ KISIKKÖY / MENDERES / İZMİR / TÜRKİYE,,,,,
Istanbul Furniture Fair,01/25/2022,2022,https://www.istanbulfurniturefair.com,DM,AKYOL MOBİLYA DEK. SAN. VE TİC. LTD. ŞTİ.,1221/B,12,www.akyolmobilya.com,,+90 212 746 5858,,Sancaktepe Mh. Sahil Boyu Sk. No:254 / Silivri / İSTANBUL / TÜRKİYE,,,,,
Istanbul Furniture Fair,01/25/2022,2022,https://www.istanbulfurniturefair.com,DM,AKYOL MOBİLYA ORMAN ÜR.SAN.TİC.LTD.ŞTİ.,216,2,www.akyollife.com.tr,,+90 538 674 5176,,"Mobilya ve Ağaç İşleri İhtisas Organize Sanayi Bölgesi 17. cad. No: 11, Hamzabey / İNEGÖL / BURSA / TÜRKİYE",,,,,
Istanbul Furniture Fair,01/25/2022,2022,https://www.istanbulfurniturefair.com,DM,ALBELLO MOBİLYA VE KOLTUK SAN. VE TİC.LTD.ŞTİ.,303/A,3,www.albellomobilya.com,,+90 532 605 2107,,YENİCEKÖY MAHALLESİ AKINCILAR CADDE NO:6 / 2 / İNEGÖL / BURSA / TÜRKİYE,,,,,
Istanbul Furniture Fair,01/25/2022,2022,https://www.istanbulfurniturefair.com,DM,ALEMMO MOBİLYA SAN VE TİC LTD ŞTİ,810/C,8,www.alemmomobilya.com,,+90 533 409 1995,,KÖRKÜN SANAYİ SİTESİ OĞUZELİ / Oğuzeli / GAZİANTEP / TÜRKİYE,,,,,
Istanbul Furniture Fair,01/25/2022,2022,https://www.istanbulfurniturefair.com,DM,ALER MOBİLYA ORMAN ÜRÜNLERİ İNŞAAT SAN.VE TİC.LTD.ŞTİ.,701/A,7,www.decohill.com/en/,,+90 531 681 4643,,Mahmudiye Mah. Cavdar Sok. No: 4 / İnegöl / BURSA / TÜRKİYE,,,,,
Istanbul Furniture Fair,01/25/2022,2022,https://www.istanbulfurniturefair.com,DM,ALİTE CLASSİC AVANGARDE MUSTAFA HAMLAKAY,14A,14A,www.alitekoltuk.com,,+90 533 211 2829,,MAHMUDİYE MH. SANAYİ ZAFER CD. NO:9 / İNEGÖL / BURSA / TÜRKİYE,,,,,
Istanbul Furniture Fair,01/25/2022,2022,https://www.istanbulfurniturefair.com,DM,ALMİLA MOBİLYA A.Ş.,1122,11,https://www.almila.com.tr/,,+90 352 322 1987,,1.origanize sanayi bölgesi 21.cadde no:1-G MELİKGAZİ/KAYSERİ / Melikgazi / KAYSERİ / TÜRKİYE,,,,,
Istanbul Furniture Fair,01/25/2022,2022,https://www.istanbulfurniturefair.com,DM,ALTAY GRUP TASARIM MOBİLYA DEKORASYON  İNŞ. OTOM. TURİZM TAAH. SAN. TİC. LTD. ŞTİ.,1432,14,altaycollection.com,,+90 506 427 3069,,Önder Mah. Yalınç Sok. No:3 Siteler Ankara / Altındağ / ANKARA / TÜRKİYE,,,,,
Istanbul Furniture Fair,01/25/2022,2022,https://www.istanbulfurniturefair.com,DM,ALTIN BÜRO DAY.TÜKETİM MAL. SAN.VE TİC.LTD.ŞTİ.,432,4,https://www.altinburo.com/,,+90 332 346 1910,,Konya 3. O.S.B. Kuddusi Cad. No:30 Selçuklu - KONYA / Selçuklu / KONYA / TÜRKİYE,,,,,
Istanbul Furniture Fair,01/25/2022,2022,https://www.istanbulfurniturefair.com,DM,ALTINZAMBAK TEKSTİL GIDA DAY.TÜK.MAL. İNŞAAT VE SAN.TİC.LTD.ŞTİ.,611,6,www.galamobilya.com,,+90 224 714 9600,,İNEGÖL MOBİLYA AĞAÇİŞLERİ İHTİSAS OSB 1. CAD NO: 21 / İNEGÖL / BURSA / TÜRKİYE,,,,,
Istanbul Furniture Fair,01/25/2022,2022,https://www.istanbulfurniturefair.com,DM,ALYA DIŞ TİCARET LİMİTED ŞİRKETİ,F1,Fuaye/Foyer,www.alya.com.tr,,+90 212 224 9195,,İkitelli Masko Mobilyacılar Sitesi 20/A Blok No:25 / BAŞAKŞEHİR / İSTANBUL / TÜRKİYE,,,,,
Istanbul Furniture Fair,01/25/2022,2022,https://www.istanbulfurniturefair.com,DM,AMAZON WOODEN İNŞAAT MÜHENDİSLİK SANAYİ TİCARET LTD.ŞTİ.,1010,10,www.amazonwooden.com,,+90 554 343 5197,,TEKELER MH KERESTECILER SITESI 45. CD NO:24 ADAPAZARI/SAKARYA / ADAPAZARI / SAKARYA / TÜRKİYE,,,,,
Istanbul Furniture Fair,01/25/2022,2022,https://www.istanbulfurniturefair.com,DM,ANDEZİT MİMARLIK TEKNİK YATIRIM TURZ. İNŞ. TAAH. SAN VE TİC. A.Ş.,412/A,4,www.sitisofis.com.tr,,+90 352 697 4283,,Cumhuriyet Mah. Sedef Bulvarı No: 51/A SÜKSÜN / İNCESU / KAYSERİ / TÜRKİYE,,,,,
Istanbul Furniture Fair,01/25/2022,2022,https://www.istanbulfurniturefair.com,DM,ANKARA SİTELER MOBİLYA ÜRETİCİLERİ DERNEĞİ ANSİMOD İKTİSADİ İŞLETMESİ,1431,14,www.ansimod.org.tr,,+90 312 348 5560,,Ali Ersoy mahallesi 21.Sokak No:5/7 Siteler / Altındağ / ANKARA / TÜRKİYE,,,,,
Istanbul Furniture Fair,01/25/2022,2022,https://www.istanbulfurniturefair.com,DM,ANKAYAŞAM AKSESUAR MAKİNE MOBİLYA METAL MOBİLYA METAL VE SAN.TİC.LTD.ŞTİ.,1002,10,,,+90 374 255 618,,CUMHURİYET MAH. 66. SOK NO: 7/B İNEGÖL / BURSA / İNEGÖL / BURSA / TÜRKİYE,,,,,
Istanbul Furniture Fair,01/25/2022,2022,https://www.istanbulfurniturefair.com,DM,ANTAKS MOBİLYA İML. VE MALZ. İNŞ. PET GID. NAK. İTH. TAAH. SAN. TİC. LTD. ŞTİ.,941,9,www.akabeaksesuar.com,,+90 530 289 6189,,açıkdere mahallesi mobilyacılar sitesi (ihtisas sanayi sitesi) no: 71 Antakya / HATAY / ANTAKYA / HATAY / TÜRKİYE,,,,,
Istanbul Furniture Fair,01/25/2022,2022,https://www.istanbulfurniturefair.com,DM,ANTİK AHŞAP MOB. DEK. SAN. VE TİC. LTD. ŞTİ.,911/A,9,www.antikgarden.com.tr,,0543 903 0911,,karacaören köyü mevkii / Boyabat / SİNOP / TÜRKİYE,,,,,
Istanbul Furniture Fair,01/25/2022,2022,https://www.istanbulfurniturefair.com,DM,ARCADIA DESING TEKNOLOJİ TİC. LTD.ŞTİ.,F2,Fuaye/Foyer,https://arcadiadesign.com.tr/,,+90 212 909 9107,,"Bebek, Boğaziçi Üniversitesi, Güney Kampüs No: 10 / Beşiktaş / İSTANBUL / TÜRKİYE",,,,,
Istanbul Furniture Fair,01/25/2022,2022,https://www.istanbulfurniturefair.com,DM,ARDASAN SANDALYE KOLTUK MOBİLYA TEKSTİL VE ORMAN ÜRÜN.LTD.ŞTİ.,526/A,5,www.ardasandalye.com,,+90 224 714 1485,,Mahmudiye Mahallesi 20. Mobilya Sok. NO: 3/F İNEGÖL / BURSA / İNEGÖL / BURSA / TÜRKİYE,,,,,
Istanbul Furniture Fair,01/25/2022,2022,https://www.istanbulfurniturefair.com,DM,ARICI MOBİLYA KOLTUK MOBİLYA MALZ. İNŞ. SAN. VE TİC. LTD. ŞTİ.,304,3,www.idolmobilya.com,,+90 224 715 6667,,Hamzabey OSB Mah. 23.Cad. No:1/2 / İnegöl / BURSA / TÜRKİYE,,,,,
Istanbul Furniture Fair,01/25/2022,2022,https://www.istanbulfurniturefair.com,DM,ARMESSE MOBİLYA SANAYİ VE TİC.LTD.ŞTİ.,1224/A,12,www.armesse.com.tr,,+90 533 456 1652,,MAHMUDİYE MAH. 26. MOBİLYA SOK NO:9 / İNEGÖL / BURSA / TÜRKİYE,,,,,
Istanbul Furniture Fair,01/25/2022,2022,https://www.istanbulfurniturefair.com,DM,ARMİS YATAK A.Ş.,237,2,www.armisyatak.com,,+90 850 640 0333,,Balmumcu Mahallesi Itri Sok. No: 8/1 / BEŞİKTAŞ / İSTANBUL / TÜRKİYE,,,,,
Istanbul Furniture Fair,01/25/2022,2022,https://www.istanbulfurniturefair.com,DM,ARREDA MOBİLİ DARTE OSMAN AYBİL,315,3,https://www.arreda.com.tr,,+90 444 5 563,,inegöl ağaç işleri ihtisas organize bölg. 3.cad no:14 hamzabey mahallesi-inegöl-bursa-türkiye / bursa-inegöl / BURSA / TÜRKİYE,,,,,
Istanbul Furniture Fair,01/25/2022,2022,https://www.istanbulfurniturefair.com,DM,ARSLAN KARDEŞLER MOBİLYA TİC. VE SAN.LTD.ŞTİ.,1412/A,14,www.akmmobilya.com.tr  www.intrahome.com.tr,,+90 312 348 5432,,ÖNDER MAH. DOLANTI CAD. NO:5 SİTELER / ALTINDAĞ / ANKARA / TÜRKİYE,,,,,
Istanbul Furniture Fair,01/25/2022,2022,https://www.istanbulfurniturefair.com,DM,ART DECO MOBİLYA İNŞ. TAAH. SAN. TİC. LTD. ŞTİ.,1410,14,www.sherwood.com.tr,,+90 850 305 2848,,Malazgirt Caddesi No:133 Altındağ/ANKARA / ALTINDAĞ / ANKARA / TÜRKİYE,,,,,
Istanbul Furniture Fair,01/25/2022,2022,https://www.istanbulfurniturefair.com,DM,ARTEM,323/A,3,www.artem.com.tr,,+90 216 561 7701,,Osmangazi Mahallesi Sevil Cd N4 / A Sancaktepe / İstanbul / Sancaktepe / İSTANBUL / TÜRKİYE,,,,,
Istanbul Furniture Fair,01/25/2022,2022,https://www.istanbulfurniturefair.com,DM,ARTEMEDYA YAYINCILIK ÖMER REMZİ TÜLEK,F4,Fuaye/Foyer,,,+90 554 977 8630,,Zagronospasa SK Kavaklı mahallesi / Beylikdüzü / İSTANBUL / TÜRKİYE,,,,,
Istanbul Furniture Fair,01/25/2022,2022,https://www.istanbulfurniturefair.com,DM,AS HİRA MOBİLYA SAN.TİC.LTD.ŞTİ.,541,5,www.celmomobilya.com,,+90 224 713 3959,,YENİCEKÖY MAH. Mah. 648. SOK. No: 3 / İNEGÖL / BURSA / TÜRKİYE,,,,,
Istanbul Furniture Fair,01/25/2022,2022,https://www.istanbulfurniturefair.com,DM,AS ODA MOBİLYA ORM.ÜRÜN.İNŞ.SAN.TİC.LTD.ŞTİ.,712,7,www.asodamobilya.com,,+90 224 718 6001,,Organize San. Böl. 4. Cad. No:12 / İNEGÖL / BURSA / TÜRKİYE,,,,,
Istanbul Furniture Fair,01/25/2022,2022,https://www.istanbulfurniturefair.com,DM,ASIR YATAK EV TEKSTİLİ MOBİLYA SAN VE TİC LTD ŞTİ,224/B,2,https://asirmobilya.com.tr/,,+90 533 707 0072,,OSB. 24.CAD NO: 57 / MELİKGAZİ / KAYSERİ / TÜRKİYE,,,,,
Istanbul Furniture Fair,01/25/2022,2022,https://www.istanbulfurniturefair.com,DM,ASUDE MOBİLYA SAN. LTD. ŞTİ.,524/A,5,www.donetta.com.tr,,+90 555 969 8095,,DONETTA MOBİLYA ORGANİZE SANAYİ BÖLGESİ 24. CAD. NO: 20 / MELİKGAZİ / KAYSERİ / TÜRKİYE,,,,,
Istanbul Furniture Fair,01/25/2022,2022,https://www.istanbulfurniturefair.com,DM,ATAKUR MOBİLYA İMALAT İTH.İHR.TİC. VE SAN.LTD.ŞTİ.,822,8,www.sermoni.com.tr,,+90 532 217 8570,,BAHÇELİEVLER MAH.KİRİŞHANE CD NO:65 / SERDİVAN / SAKARYA / TÜRKİYE,,,,,
Istanbul Furniture Fair,01/25/2022,2022,https://www.istanbulfurniturefair.com,DM,ATELYE KEPİ DEKORASYON VE MOB. SAN. TIC .LTD. ŞTİ.,841,8,www.bykepi.com,,+90 232 281 3976,,Fatih mh 1193 Sk No:8 Sarnıç / Gaziemir / İZMİR / TÜRKİYE,,,,,
Istanbul Furniture Fair,01/25/2022,2022,https://www.istanbulfurniturefair.com,DM,AVİZYUM AYDINLATAN TASARIM,140,1,www.avizyum.com,,+90 539 659 1168,,Yeniceköy mahallesi mobilya cad.i mobiliyum AVM kat: 2 no: 39 / İnegöl / BURSA / TÜRKİYE,,,,,
Istanbul Furniture Fair,01/25/2022,2022,https://www.istanbulfurniturefair.com,DM,AYATA METAL ENDÜSTRİ BORU PROFİL HADDECİLİK SAN.VE TİC. A.Ş.,506/A,5,www.ayatametal.com,,+90 352 321 1266,,ORGANİZE SANAYİ BÖLGESİ 21. CAD. NO: 7 / MELİKGAZİ / KAYSERİ / TÜRKİYE,,,,,
Istanbul Furniture Fair,01/25/2022,2022,https://www.istanbulfurniturefair.com,DM,AYHAN GRUP MOBİLYA NALB.MALZ.SAN.TİC.LTD.ŞTİ.,513,5,https://ayhanhome.com,,+90 224 715 5742,,Mahmudiye Mah. 30.Mobilya Sok. No:21/A / İNEGÖL / BURSA / TÜRKİYE,,,,,
Istanbul Furniture Fair,01/25/2022,2022,https://www.istanbulfurniturefair.com,DM,AYNA DÜNYASI MOBİLYA CAM VE AKS SAN TİC LTD ŞTİ,14A,14A,www.aynadunyasi.com.tr,,+90 545 690 6526,,YUKARI DUDULLU MAH. 18 MART CAD. NO:21/A ÜMRANİYE İSTANBUL / İSTANBUL / İSTANBUL / TÜRKİYE,,,,,
Istanbul Furniture Fair,01/25/2022,2022,https://www.istanbulfurniturefair.com,DM,AYTAÇ AYDINLATMA SAN.VE TİC.LTD.ŞTİ.,14A,14A,www.lucea.com.tr,,+90 444 0 521,,KARADENİZ MAH CEBECİ CAD NO NO:175/1 34240 / GAZİ OSMAN PAŞA / İSTANBUL / TÜRKİYE,,,,,
Istanbul Furniture Fair,01/25/2022,2022,https://www.istanbulfurniturefair.com,DM,AZEMO MOBİLYA İNŞAAT SAN. TİC. LTD. ŞTİ.,1026,10,www.azemomobilya.com,,+90 362 266 7709,,ÖRNEK SANAYİ SİTESİ 1026. CAD. NO: 1 / TEKKEKÖY / SAMSUN / TÜRKİYE,,,,,
Istanbul Furniture Fair,01/25/2022,2022,https://www.istanbulfurniturefair.com,DM,BADE MOBİLYA ORMAN ÜRÜN.İNŞ.SAN. VE TİC.LTD.ŞTİ.,614/E,6,www.sofamia.com,,+90 224 714 8500,,İnegöl Mobilya Ağaç İşleri İhtisas Organize Sanayi Bölgesi Hamzabey Köyü Üstü 1. cad. No: 13/Z / İnegöl / BURSA / TÜRKİYE,,,,,
Istanbul Furniture Fair,01/25/2022,2022,https://www.istanbulfurniturefair.com,DM,BALMODA MOBİLYA SAN.TİC.LTD.ŞTİ.,535/B,5,,,+90 543 732 7760,,MAHMUDİYE MAH. HİZMET Sok. No: 14 / İNEGÖL / BURSA / TÜRKİYE,,,,,
Istanbul Furniture Fair,01/25/2022,2022,https://www.istanbulfurniturefair.com,DM,BALYOZ MADENCİLİK İNŞAAT SAN. VE TİC. LTD. ŞTİ.,14A,14A,Www.balyoz.com.tr,,+90 533 929 1719,,KEMALPAŞA MAHALLESİ BAHÇIVAN SOKAK NO 1/7D İNEGÖL BURSA / İnegöl / BURSA / TÜRKİYE,,,,,
Istanbul Furniture Fair,01/25/2022,2022,https://www.istanbulfurniturefair.com,DM,BAP MOBİLYA ORMAN ÜRÜNLERİ İNŞAAT NAKLİYAT SAN.VE TİC.LTD.ŞTİ.,1203,12,www.woudavenue.com.tr,,+90 224 718 5007,,MAHMUDİYE MAH. 26.MOBİLYA SOK. NO:27 / İNEGÖL / BURSA / TÜRKİYE,,,,,
Istanbul Furniture Fair,01/25/2022,2022,https://www.istanbulfurniturefair.com,DM,BARIŞ MOBİLYA MUAMMER ÜNALAN,100,1,,,+90 549 715 8415,,MAHMUDİYE MAH. KARAAĞAÇ CAD. NO: 8 / İNEGÖL / BURSA / TÜRKİYE,,,,,
Istanbul Furniture Fair,01/25/2022,2022,https://www.istanbulfurniturefair.com,DM,BAŞDİNÇ MOBİLYA SAN. TİC. LTD. ŞTİ.,1214,12,,,+90 545 718 6055,,mesudiye mah.33 mobilya sok dasell mobilya / inegöl / BURSA / TÜRKİYE,,,,,
Istanbul Furniture Fair,01/25/2022,2022,https://www.istanbulfurniturefair.com,DM,BAŞTERZİLER MOBİLYA PAZ. SAN. VE TİC. A.Ş.,1034,10,www.vitello.com.tr,,+90 232 281 6100,,FATİH MAH. 1191 SK. NO:18 SARNIÇ - GAZİEMİR / İZMİR / İZMİR / TURKEY / İZMİR / TÜRKİYE,,,,,
Istanbul Furniture Fair,01/25/2022,2022,https://www.istanbulfurniturefair.com,DM,BAVES MOBİLYA SAN.VE TİC. LTD. ŞTİ.,426/B,4,https://www.noahsdesign.com/,,+90 532 766 2681,,Dokuz Eylül Mah.692 sokak No:20/A / GAZİEMİR / İZMİR / TÜRKİYE,,,,,
Istanbul Furniture Fair,01/25/2022,2022,https://www.istanbulfurniturefair.com,DM,BAYDAR TEKSTİL KONFEKSİYON KOLTUK MOB.SAN. VE TİC.LTD.ŞTİ.,202/A,2,www.lenova.com.tr,,+90 549 553 0363,,ORGANIZE SAN. BOL. 2. CAD. NO:26 / İNEGÖL / BURSA / TÜRKİYE,,,,,
Istanbul Furniture Fair,01/25/2022,2022,https://www.istanbulfurniturefair.com,DM,BAYKAN MOBİLYA MUTFAK İMALATI TOPTAN VE PERAKENDE SATIŞ SAN. VE TİC.LTD.ŞTİ.,214/B,2,www.baymob.com.tr,,+90 266 290 8001,,ORGANİZE SANAYİ BÖLGESİ 4.CADDE NO:8 / ALTIEYLÜL / BALIKESİR / TÜRKİYE,,,,,
Istanbul Furniture Fair,01/25/2022,2022,https://www.istanbulfurniturefair.com,DM,BAYRAS MOBİLYA ORMAN ÜRÜN. İNŞAAT TAŞ.SAN. VE DIŞ.TİC.LTD.ŞTİ.,1133/A,11,www.benimodam.com.tr,,+90 224 724 2545,,Cerrah Mah. inönü Cad. No:35 / İnegöl / BURSA / TÜRKİYE,,,,,
Istanbul Furniture Fair,01/25/2022,2022,https://www.istanbulfurniturefair.com,DM,BEDAŞ YATAK BAZA MOBİLYA TEKSTİL SAN. VE TİC. LTD. ŞTİ.,820/C,8,www.bedasyatak.com.tr,,+90 352 321 2421,,ORGANİZE SAN.BÖL. 23.CAD. NO.32 / MELİKGAZİ / KAYSERİ / TÜRKİYE,,,,,
Istanbul Furniture Fair,01/25/2022,2022,https://www.istanbulfurniturefair.com,DM,BELLACASA MOBİLYA KOLTUK TEKS.TUR.İNŞ.SAN.TİC.LTD.ŞTİ.,201,2,www.bellacasa.com.tr,,+90 534 260 3280,,MAHMUDIYE MH. 17. MOBILYA SOK. NO:5/1 / İNEGÖL / BURSA / TÜRKİYE,,,,,
Istanbul Furniture Fair,01/25/2022,2022,https://www.istanbulfurniturefair.com,DM,BEMENTE KOLTUK MOBİLYA ORMAN ÜRÜN.SAN.TİC.LTD.ŞTİ.,603/A,6,https://bemente.com/,,+90 532 540 9376,,MAHMUDİYE MAHALLESİ 28 MOBİLYA SOKAK NO:1/1 / İNEGÖL / BURSA / TÜRKİYE,,,,,
Istanbul Furniture Fair,01/25/2022,2022,https://www.istanbulfurniturefair.com,DM,BERAT KOLTUK FEVZİ KOÇER,1006,10,Berranokoltuk.com,,+90 543 421 6362,,Karpuzlu-2 caddesi 94/1 Altındağ ANKARA / Altındağ / ANKARA / TÜRKİYE,,,,,
Istanbul Furniture Fair,01/25/2022,2022,https://www.istanbulfurniturefair.com,DM,BERRE DIŞ TİCARET MOBİLYA LTD. ŞTİ.,502/B,5,www.berremobilya.com.tr,,+90 352 322 0158,,ORGANİZE SANAYİ BÖLGESİ 32. CAD. NO: 1/A1 / MELİKGAZİ / KAYSERİ / TÜRKİYE,,,,,
Istanbul Furniture Fair,01/25/2022,2022,https://www.istanbulfurniturefair.com,DM,BERVA MOBİLYA İML. OR. AH.Ş TEKS. ÜRN. İNŞ. TAAH. İTH. İHR. VE DAHİLİ TİC. LTD. ŞTİ.,514,5,www.bervamobilya.com,,+90 543 662 9989,,Yeni Sanayi Sitesi 2. İniş 4.Cad. 11/A Blok No:1 / Antakya / HATAY / TÜRKİYE,,,,,
Istanbul Furniture Fair,01/25/2022,2022,https://www.istanbulfurniturefair.com,DM,BESTLİNE ART MOBİLYA SANAYİ VE TİCARET LTD. ŞTİ.,105,1,,,+90 532 221 3733,,MAHMUDİYE MH. 24. MOBİLYA SK. NO:D-5 İNEGÖL/BURSA / İNEGÖL / BURSA / TÜRKİYE,,,,,
Istanbul Furniture Fair,01/25/2022,2022,https://www.istanbulfurniturefair.com,DM,BEYZA MOBİLYA DAY TÜK MAD GIDA MADEN İNŞ PET ÜR SAN TİC AŞ,211,2,www.beyza.com,,+90 352 321 1974,,KAYSERİ OSB MAH. 6. CAD. NO: 31 / MELİKGAZİ / KAYSERİ / TÜRKİYE,,,,,
Istanbul Furniture Fair,01/25/2022,2022,https://www.istanbulfurniturefair.com,DM,BİANOS MOBİLYA A.Ş.,422/B,4,www.bianos.com.tr,,+90 312 444 4540,,Ankara-Samsun Karayolu 35.km No:20 Hasanoğlan / Elmadağ / ANKARA / TÜRKİYE,,,,,
Istanbul Furniture Fair,01/25/2022,2022,https://www.istanbulfurniturefair.com,DM,BİGE AKBABA,214/A,2,www.bigeakbaba.com,,+90 555 976 0643,,AKÇABURGAZ MAH. 1585 SOK. TEM34 İŞ MERKEZİ B2 BLOK NO : 35-36 / ESENYURT / İSTANBUL / TÜRKİYE,,,,,
Istanbul Furniture Fair,01/25/2022,2022,https://www.istanbulfurniturefair.com,DM,BİMSAN BAZA BAŞLIK METAL ÖNER ÖZTÜRK,805,8,www.bimsanbaza.com,,+90 352 311 4238,,FABRİKA: ORGANİZE SANAYİ BÖLGESİ KARPUZSEKİSİ MAH. 32. CADDE NO:4 / HACILAR / KAYSERİ / TÜRKİYE,,,,,
Istanbul Furniture Fair,01/25/2022,2022,https://www.istanbulfurniturefair.com,DM,BİNDEBİR MOBİLYA SANAYİ TİCARET LTD. ŞTİ.,722/A,7,https://01salotti.com/,,+90 322 346 0449,,GUZELEVLER MH. KERESTECILER SIT. 2064. SOK. / yüreğir / ADANA / TÜRKİYE,,,,,
Istanbul Furniture Fair,01/25/2022,2022,https://www.istanbulfurniturefair.com,DM,BİRENK HOME CONCEPT MUSTAFA KARAHAN,F3,Fuaye/Foyer,www.birenkhome.com,,+90 531 254 3002,,MAHMUDİYE MAH. Küçük sanayi sit. Ağaç İşleri Bölümü 24. Mobilya sok. No: 16/3 / İNEGÖL / BURSA / TÜRKİYE,,,,,
Istanbul Furniture Fair,01/25/2022,2022,https://www.istanbulfurniturefair.com,DM,BOİS HOME MOBİLYA SANAYİ VE TİCARET A.Ş.,546/A,5,www.boishomefurniture.com,,+90 224 714 8167,,Süleymaniye Mah. Babacan Cad. No: 25/A Kırcalı Mobilya Center ARTBOIS MOBİLYA / İnegöl / BURSA / TÜRKİYE,,,,,
Istanbul Furniture Fair,01/25/2022,2022,https://www.istanbulfurniturefair.com,DM,BONİTO KOLTUK FARUK BEYLEN,202,2,www.bonitokoltuk.com.tr,,+90 224 715 5570,,MAHMUDİYE MAH. ŞEN SOK. NO: 3 / İNEGÖL / BURSA / TÜRKİYE,,,,,
Istanbul Furniture Fair,01/25/2022,2022,https://www.istanbulfurniturefair.com,DM,BOZTAŞ PREMİUM MOBİLYA LTD.ŞTİ.,1211/A,12,www.boztaspremium.com,,+90 530 416 4999,,HAMZABEY OSB. MAH. 9. CAD. NO: 3 / İNEGÖL / BURSA / TÜRKİYE,,,,,
Istanbul Furniture Fair,01/25/2022,2022,https://www.istanbulfurniturefair.com,DM,BRESS MOBİLYA SAN. VE TİC.LTD.ŞTİ.,143,1,,,+90 532 457 9312,,MAHMUDİYE MAHALLESİ 28.MOBİLYA SOKAK NO:28 C/A İNEGÖL/BURSA / İNEGÖL / BURSA / TÜRKİYE,,,,,
Istanbul Furniture Fair,01/25/2022,2022,https://www.istanbulfurniturefair.com,DM,BURSA KOLTUK DEKORASYON SALİH GÖCEN,534/B,5,www.bselle.com.tr,,+90 543 952 0846,,Mahmudiye Mah. Ertuğrulgazi Cad. 2. Bahar Sok. No: 3/A Kat: 2 / İnegöl / BURSA / TÜRKİYE,,,,,
Istanbul Furniture Fair,01/25/2022,2022,https://www.istanbulfurniturefair.com,DM,BÜYÜK İTHALAT VE İHRACAT LTD. ŞTİ.,926,9,www.colortablo.com,,+90 212 659 2246,,İSTOÇ Z BLOK NO: 51-53 / BAĞCILAR / İSTANBUL / TÜRKİYE,,,,,
Istanbul Furniture Fair,01/25/2022,2022,https://www.istanbulfurniturefair.com,DM,BY CAN GARDEN TOLGA ERTON,1046,10,bycangarden.com,,+90 553 295 7299,,Osb 24.cad.no 56 bycan Garden Melikgazi kayseri / Melikgazi / KAYSERİ / TÜRKİYE,,,,,
Istanbul Furniture Fair,01/25/2022,2022,https://www.istanbulfurniturefair.com,DM,BY DOĞANAY MOBİLYA ORMAN ÜRÜN.SAN.TİC.LTD.ŞTİ.,602,6,www.vanitti.com,,224 777 0033,,ORGANİZE SANAYİ BÖLGESİ 2. CAD. NO:11-A / İNEGÖL / BURSA / TÜRKİYE,,,,,
Istanbul Furniture Fair,01/25/2022,2022,https://www.istanbulfurniturefair.com,DM,BYD MAĞAZACILIK TEKSTİL PAZ. VE TİC. A.Ş.,,,www.brillant.com,,+90 212 886 8000,,OSMANGAZİ MAH.MAREŞAL FEVZİ ÇAKMAK CAD.NO:8 ESENYURT 34522 / ESENYURT / İSTANBUL / TÜRKİYE,,,,,
Istanbul Furniture Fair,01/25/2022,2022,https://www.istanbulfurniturefair.com,DM,CADDEHOME ORMAN ÜRÜNLERİ MOBİLYA KOLTUK SAN. VE TİC.LTD.ŞTİ.,701/B,7,,,+90 224 713 2585,,SÜLEYMANİYE MAH. OSB 3. CAD. NO: 7 / İNEGÖL / BURSA / TÜRKİYE,,,,,
Istanbul Furniture Fair,01/25/2022,2022,https://www.istanbulfurniturefair.com,DM,CADI METAL MOBİLYA TASARIM ÜRETİM TİC.LTD.ŞTİ.,911,9,cadidesign.com,,+90 534 088 8510,,Akpınar Mah. Bilim Cad. No:11/-1 / SANCAKTEPE / İSTANBUL / TÜRKİYE,,,,,
Istanbul Furniture Fair,01/25/2022,2022,https://www.istanbulfurniturefair.com,DM,CADI METAL MOBİLYA TASARIM ÜRETİM TİC.LTD.ŞTİ.,400,4,,,+05340888510,,Akpınar MAHALLESİ BİLİM CADDESİ NO :11 SANCAKTEPE / ISTANBUL / ISTANBUL / İSTANBUL / TÜRKİYE,,,,,
Istanbul Furniture Fair,01/25/2022,2022,https://www.istanbulfurniturefair.com,DM,CANSİT OFİS MOBİLYALARI SANAYİ VE TİCARET LTD.ŞTİ.,424/B,4,www.cansit.com.tr,,+90 332 342 5751,,Büyük Kayacık Mh. 2 O.S.B İkipınar Sk. No:5 Selçuklu/ Konya / Selçuklu / KONYA / TÜRKİYE,,,,,
Istanbul Furniture Fair,01/25/2022,2022,https://www.istanbulfurniturefair.com,DM,CASA OTURMA GRUP MOB İML İTH İHR SAN VE TİC LTD ŞTİ,802/D,8,www.casa.com.tr,,+90 312 847 5080,,Çankırı Bulvarı No:103 / Akyurt / ANKARA / TÜRKİYE,,,,,
Istanbul Furniture Fair,01/25/2022,2022,https://www.istanbulfurniturefair.com,DM,CASTOR MOBİLYA VE AKSESUARLARI SANAYİ TİCARET LTD. ŞTİ.,156/A,1,www.castormobilya.com,,+90 543 225 6644,,Merkez Mahallesi Çınar Caddesi Sedir Sokak no: 1/1 Yenibosna / Bahçelievler / İSTANBUL / TÜRKİYE,,,,,
Istanbul Furniture Fair,01/25/2022,2022,https://www.istanbulfurniturefair.com,DM,CEMAL SANDALYE İML. İTH. SAN. VE TİC. LTD. ŞTİ.,1000,10,www.cemalsandalye.com,,+90 533 524 7548,,GÜZELBURÇ MAH. YUNUSEMRE CAD. 8/2 / antakya / HATAY / TÜRKİYE,,,,,
Istanbul Furniture Fair,01/25/2022,2022,https://www.istanbulfurniturefair.com,DM,CEMRE KOLTUK SAN. VE TİC.LTD.ŞTİ.,227,2,www.luxelife.com.tr,,+902247239300,,hamzabey o.s.b mahallesi 4.cadde no:1 İnegöl/Bursa / inegöl / BURSA / TÜRKİYE,,,,,
Istanbul Furniture Fair,01/25/2022,2022,https://www.istanbulfurniturefair.com,DM,CENAN AHŞAP İNŞAAT TAAHÜT VE TİCARET LTD.ŞTİ.,630,6,www.cenan.com,,+90 212 486 0099,,İOSB CEVRE SANAYİ SİTESİ 8.BLOK N0:15-17-19 BAŞAKŞEHİR-İKİTELLİ / İSTANBUL / İSTANBUL / TÜRKİYE,,,,,
Istanbul Furniture Fair,01/25/2022,2022,https://www.istanbulfurniturefair.com,DM,CERAMİCAL METAL MOBİLYA A.Ş.,906/A,9,,,+90 532 685 4300,,75. YIL OSB MAH. İSMAİL KANATLI BULV. NO: 12 / ODUNPAZARI / ESKİŞEHİR / TÜRKİYE,,,,,
Istanbul Furniture Fair,01/25/2022,2022,https://www.istanbulfurniturefair.com,DM,CEYHAT MOBİLYA TEKSTİL SANAYİ TİC.A.Ş.,1031,10,,,+90 549 250 2211,,Yunuseli Mah. Cevahir Sok. No: 2/1 / Osmangazi / BURSA / TÜRKİYE,,,,,
Istanbul Furniture Fair,01/25/2022,2022,https://www.istanbulfurniturefair.com,DM,CİHANSAN MOBİLYA HIRD. KANEPE YATAK DAY. TÜK. MAL. SAN. VE TİC. LTD. ŞTİ.,921,9,"www.papella.com.tr, https://www.cihansanahsap.com/",,+90 352 322 0536,,Organize sanayi bölgesi 23. Cad. No: 55 / Melikgazi / KAYSERİ / TÜRKİYE,,,,,
Istanbul Furniture Fair,01/25/2022,2022,https://www.istanbulfurniturefair.com,DM,CMA MAKİNE İML. İTH. İHRC. SAN. TİC. LTD. ŞTİ.,904,9,www.papelci.com,,+90 532 694 2518,,Adana Organize Sanayi Bölgesi Ordu Caddesi No. 19 / Sarıçam / ADANA / TÜRKİYE,,,,,
Istanbul Furniture Fair,01/25/2022,2022,https://www.istanbulfurniturefair.com,DM,COCO KOLTUK SANAYİ TİCARET LİMİTED ŞİRKETİ,712/B,7,,,+90 532 175 2399,,MOBİLYUM AVM A BLOK D:36/1/47 İNEGÖL BURSA / / BURSA / TÜRKİYE,,,,,
Istanbul Furniture Fair,01/25/2022,2022,https://www.istanbulfurniturefair.com,DM,COMFORT TİME  TİCARET PAZARLAMA İTH. VE İHR. LTD. ŞTİ.,F2,Fuaye/Foyer,www.comfort-time.com,,+90 342 329 4610,,5. osb 83533 nolu cad no:14 / ŞEHİTKAMİL / GAZİANTEP / TÜRKİYE,,,,,
Istanbul Furniture Fair,01/25/2022,2022,https://www.istanbulfurniturefair.com,DM,COŞANLAR EV GER. MOB. DAY. TÜK. MAL. TİC. PAZ. LTD. ŞTİ.,623/B,6,www.sarusmobilya.com.tr,,+90 322 453 5151,,Ceyhan Yolu Üzeri 15. Km Yakapınar Mah. No: 564/Z-01 / YÜREĞİR / ADANA / TÜRKİYE,,,,,
Istanbul Furniture Fair,01/25/2022,2022,https://www.istanbulfurniturefair.com,DM,ÇALA MASA SANDALYE KÖKSAL SERBEZ,1153/B,11,www.calamasasandalye.com,,+90 542 416 5537,,ORGANİZE SANAYİ BÖLGESİ 6. CAD. NO: 16 / MELİKGAZİ / KAYSERİ / TÜRKİYE,,,,,
Istanbul Furniture Fair,01/25/2022,2022,https://www.istanbulfurniturefair.com,DM,ÇALIŞKAN OFİS MOBİLYALARI A.Ş.,415,4,www.caliskanofis.com,,+90 532 527 9646,,modoko sanayi sitesi 3. cadde no: 9 Ümraniye çalışkan ofis / Ümraniye / İSTANBUL / TÜRKİYE,,,,,
Istanbul Furniture Fair,01/25/2022,2022,https://www.istanbulfurniturefair.com,DM,ÇANAKÇIOĞLU MOBİLYA ORMAN ÜRÜN SAN TİC LTD ŞTİ,224/B,2,https://www.asirmobilya.com.tr/,,+90 533 707 0072,,OSB 5.CAD NO:11 / MELİKGAZİ / KAYSERİ / TÜRKİYE,,,,,
Istanbul Furniture Fair,01/25/2022,2022,https://www.istanbulfurniturefair.com,DM,ÇELİKSOY METAL AHŞAP MOBİLYA LTD. ŞTİ.,1121/A,11,http://www.cece.com.tr/,,+90 530 827 2452,,ÇİĞİLTEPE MAH. 1546 SOKAK NO: 40 SİTELER / MAMAK / ANKARA / TÜRKİYE,,,,,
Istanbul Furniture Fair,01/25/2022,2022,https://www.istanbulfurniturefair.com,DM,ÇELMO MOBİLYA ÜRETİM PAZ. TİC. VE SAN. LTD. ŞTİ.,541,5,www.celmomobilya.com,,+90 224 713 3959,,yeniceköy mah. 648. sok no: 3 / İNEGÖL / BURSA / TÜRKİYE,,,,,
Istanbul Furniture Fair,01/25/2022,2022,https://www.istanbulfurniturefair.com,DM,ÇİSA MOBİLYA ORMAN ÜRÜNLERİ SANAYİ VE TİCARET LİMİTED ŞİRKETİ,1005,10,www.çisasalotti.com,,+90 532 454 9033,,MAHMUDİYE MAH. AĞAÇ İŞLERİ BÖL. ÇAVDAR SK. NO: 4 / İNEGÖL / BURSA / TÜRKİYE,,,,,
Istanbul Furniture Fair,01/25/2022,2022,https://www.istanbulfurniturefair.com,DM,ÇÖL BÜRO MOBİLYA AKRY NAK SAN TİC LTD ŞTİ,412/A,4,www.sitisofis.com.tr,,+90 352 697 4283,,Cumhuriyet Mah. Sedef Bulvarı No:51/A SÜKSÜN / İNCESU / KAYSERİ / TÜRKİYE,,,,,
Istanbul Furniture Fair,01/25/2022,2022,https://www.istanbulfurniturefair.com,DM,DAFNES MOBİLYA SAN VE TİCARET AŞ,203/A,2,,,+90 352 290 7191,,Karpuzsekisi Mah.i 47. cad. No: 21 / HACILAR / KAYSERİ / TÜRKİYE,,,,,
Istanbul Furniture Fair,01/25/2022,2022,https://www.istanbulfurniturefair.com,DM,DASELL MOBİLYA İNŞAAT SANAYİ VE TİCARET LTD.ŞTİ.,1214,12,,,+90 545 718 6055,,mesudiye mah.33 mobilya sok dasell mobilya / / BURSA / TÜRKİYE,,,,,
Istanbul Furniture Fair,01/25/2022,2022,https://www.istanbulfurniturefair.com,DM,DAWOOD ORMAN ÜRÜNLERİ MOBİLYA SAN.TİC. A.Ş.,1005/A,10,www.dawood.com.tr,,+90 224 715 5775,,Mahmudiye Mah. Gürbüz Sok. No :21 / İNEGÖL / BURSA / TÜRKİYE,,,,,
Istanbul Furniture Fair,01/25/2022,2022,https://www.istanbulfurniturefair.com,DM,DECORE MOBİLYA İBRAHİM ABAT,GEÇİŞ,1,,,+90 532 381 4904,,MAHMUDİYE MAH. AĞAÇ İŞLERİ BÖLÜMÜ 10. SOK. NO: 2 / İNEGÖL / BURSA / TÜRKİYE,,,,,
Istanbul Furniture Fair,01/25/2022,2022,https://www.istanbulfurniturefair.com,DM,DEKOR MOBİLYA TEKSTİL SAN. VE TİC. LTD. ŞTİ.,1201,12,www.arnisa.com.tr,,+90 248 252 8201,,Menderes mah 31061 sok No:99 / Merkez / BURDUR / TÜRKİYE,,,,,
Istanbul Furniture Fair,01/25/2022,2022,https://www.istanbulfurniturefair.com,DM,DEKOR-AY AYDIN YAPI - EMRE TAŞ,704/A,7,http://www.niberra.com/,,+90 530 946 8516,,HOCAKÖY MAH. 5666. SK. NO: 5 / İNEGÖL / BURSA / TÜRKİYE,,,,,
Istanbul Furniture Fair,01/25/2022,2022,https://www.istanbulfurniturefair.com,DM,DENGEMA SANDALYE ÇELİK EŞYA MOB. SAN. TİC. LTD. ŞT,925/B,9,www.dengema.com,,+90 352 321 2514,,ORGANİZE SANAYİ BÖLGESİ 10.CAD. NO:24 / MELİKGAZİ / KAYSERİ / TÜRKİYE,,,,,
Istanbul Furniture Fair,01/25/2022,2022,https://www.istanbulfurniturefair.com,DM,DENİZCİLER MOBİLYA ALİ RIZA YABAN,1413/B,14,,,+90 506 908 3872,,"Altınay Caddesi ,Dolantı Sokak , No:38 Siteler /Altındağ /Ankara / Altındağ / ANKARA / TÜRKİYE",,,,,
Istanbul Furniture Fair,01/25/2022,2022,https://www.istanbulfurniturefair.com,DM,DEPAR MOBİLYA SAN. VE TİC.A.Ş.,1014,10,www.nwwdmobilya.com,,+90 224 714 8577,,HAMZABEY OSB MAH. 1.CAD. NO 31 / İNEGÖL / BURSA / TÜRKİYE,,,,,
Istanbul Furniture Fair,01/25/2022,2022,https://www.istanbulfurniturefair.com,DM,DESEN SOFA - KENAN GEZİCİ,108,1,www.desensofa.com.tr,,+90 535 785 4698,,Mahmudiye Mahallesi İbrahim Senbel Sokak No: 26 İnegöl / Bursa / İnegöl / BURSA / TÜRKİYE,,,,,
Istanbul Furniture Fair,01/25/2022,2022,https://www.istanbulfurniturefair.com,DM,DEVRİN MOBİLYA KOLTUK SAN. VE TİC.LTD.ŞTİ.,601/B,6,,,+90 224 715 3726,,YENİCE MAHALLESİ HASAN KOYUNCU SOK. NO: 41 / İnegöl / BURSA / TÜRKİYE,,,,,
Istanbul Furniture Fair,01/25/2022,2022,https://www.istanbulfurniturefair.com,DM,DGN KOLTUK VE MOBİLYA SAN.TİC.LTD.ŞTİ.,514/A,5,www.dgnsofa.com,,+90 224 713 2934,,MAHMUDİYE MAH. 1. YUNUSEMRE CAD. NO: 39 İNEGÖL / BURSA / İNEGÖL / BURSA / TÜRKİYE,,,,,
Istanbul Furniture Fair,01/25/2022,2022,https://www.istanbulfurniturefair.com,DM,DİKO GARDEN,1015/A,10,dikogarden.com,,+90 224 411 2393,,MİNARELİÇAVUŞ BURSA OSB MAHALLESİ MOR CADDE NO:2 NİLÜFER/BURSA / NİLÜFER / BURSA / TÜRKİYE,,,,,
Istanbul Furniture Fair,01/25/2022,2022,https://www.istanbulfurniturefair.com,DM,DİRİLİŞ KOLTUK MOBİLYA İNŞAAT İTHALAT İHRACAT SAN. VE TİC.LTD.ŞTİ.,103,1,www.onix.com.tr,,+90 532 465 1679,,MAHMUDİYE MH. ŞEN SOK. NO: 15 / İNEGÖL / BURSA / TÜRKİYE,,,,,
Istanbul Furniture Fair,01/25/2022,2022,https://www.istanbulfurniturefair.com,DM,DİVA TÜRKMEN MOBİLYA SAN. VE TİC.LTD.ŞTİ.,,,https://www.divamobilya.com/,,+90 530 824 9523,,MERKEZ : Masko Mobilyacılar Çarşısı 1-A Blok No: 1-3-7 İKİTELLİ - İSTANBUL / Başakşehir / İSTANBUL / TÜRKİYE,,,,,
Istanbul Furniture Fair,01/25/2022,2022,https://www.istanbulfurniturefair.com,DM,DİZAYNO MOBİLYA SANAYİ E TİCARET A.Ş.,223,2,https://www.dizayno.com.tr,,+90 544 854 2066,,ORGANİZE SANAYİ BÖLGESİ 11. CAD. NO: 8 / MERKEZ / KARAMAN / TÜRKİYE,,,,,
Istanbul Furniture Fair,01/25/2022,2022,https://www.istanbulfurniturefair.com,DM,DMS DÜLEGÖZ MOBİLYA NAKLYAT İNŞ.TEKSTİL SAN.TİC.LTD.ŞTİ.,233,2,www.dmsmobilya.com,,+90 532 548 5715,,AKHİSAR MAH. BURSA KARAYOLU CAD. NO: 34/1 / İNEGÖL / BURSA / TÜRKİYE,,,,,
Istanbul Furniture Fair,01/25/2022,2022,https://www.istanbulfurniturefair.com,DM,DMS KOLTUK OTOMOTİV OTO KİRALAMA SAN.TİC.LTD.ŞTİ.,233,2,https://www.dmsmobilya.com/,,+90 530 441 6726,,AKHİSAR MAH. BURSA KARAYOLU CAD. NO: 34-1 / İNEGÖL / BURSA / TÜRKİYE,,,,,
Istanbul Furniture Fair,01/25/2022,2022,https://www.istanbulfurniturefair.com,DM,DOĞAN MOBİLYA AKSESUAR DAĞITIM İMALAT PAZ SAN LTD ŞTİ,305/A,3,www.maximo.com.tr,,+90 530 467 9385,,ORGANİZE SANAYİ BÖLGESİ 15.CADDE NO : 2 / MELİKGAZİ / KAYSERİ / TÜRKİYE,,,,,
Istanbul Furniture Fair,01/25/2022,2022,https://www.istanbulfurniturefair.com,DM,DOĞUŞ OKUL YAYINLARI TİC.LTD.ŞTİ.,436,4,www.dogusegitim.com,,+90 533 594 0774,,ŞABANOĞLU MAH.KIZILIRMAK CAD.NO:13 KUTLUKENT/TEKKEKÖY / TEKKEKÖY / SAMSUN / TÜRKİYE,,,,,
Istanbul Furniture Fair,01/25/2022,2022,https://www.istanbulfurniturefair.com,DM,DONAMİ MODÜLER MOBİLYA TEKSTİL ISI SİSTEMLERİ İNŞ. PLAS. SAN.TİC.LTD. ŞTİ.,612,6,,,+90 533 577 5750,,süleymaniye o.s.b. 2.cad. no: 20 / inegöl / BURSA / TÜRKİYE,,,,,
Istanbul Furniture Fair,01/25/2022,2022,https://www.istanbulfurniturefair.com,DM,DOVİ MODÜLER MOBİLYA İMAL. SAN. TİC. LTD. ŞTİ.,403/B,4,www.dovi.com.tr,,+90 358 513 9934,,KÜMBET HATUN MAHALLESİ ORGANİZE SANAYİ BÖLGESİ / MERZİFON / AMASYA / TÜRKİYE,,,,,
Istanbul Furniture Fair,01/25/2022,2022,https://www.istanbulfurniturefair.com,DM,DRS HÜRARSLAN MOBİLYA SAN.İTH.İHR.LTD.ŞTİ.,205/A,2,https://drshurarslan.com/,,+90 538 228 2144,,mesudiye mah. çiftlik sok. no: 13 / İnegöl / BURSA / TÜRKİYE,,,,,
Istanbul Furniture Fair,01/25/2022,2022,https://www.istanbulfurniturefair.com,DM,DUHA MOBİLYA AKSESUAR VE TEKSTİL SAN. TİC. LTD. ŞTİ.,544/B,5,www.duhahome.com,,+90 352 503 1263,,DUHA MOBİLYA ORGANİZE SANAYİ BÖLGESİ 26.CAD. NO: 8 / MELİKGAZİ / KAYSERİ / TÜRKİYE,,,,,
Istanbul Furniture Fair,01/25/2022,2022,https://www.istanbulfurniturefair.com,DM,DÜVENCİOĞLU MOBİLYA SANAYİ VE TİCARET LTD.ŞTİ.,403,4,,,+90 543 771 3666,,MERKEZ: Hıdırbali Mah. Sağırosman Sk. No:21/A Yenişehir/Bursa Tel: 0224 773 06 86 / YENİŞEHİR / BURSA / TÜRKİYE,,,,,
Istanbul Furniture Fair,01/25/2022,2022,https://www.istanbulfurniturefair.com,DM,EBRU SOFA - KENAN DEMİR,513,5,www.ebrusofa.com,,+90 544 445 0566,,MAHMUDİYE MAH. BİRGÜL SOK. NO: 6 İNEGÖL / BURSA / İNEGÖL / BURSA / TÜRKİYE,,,,,
Istanbul Furniture Fair,01/25/2022,2022,https://www.istanbulfurniturefair.com,DM,EBRULİ MOBİLYA GIDA VE İHT. MAD. SAN. TİC. LTD,1032/A,10,,,+90 352 322 2206 ext. 07,,ORG. SAN. BÖL. 31. CAD. NO: 11 / MELİKGAZİ / KAYSERİ / TÜRKİYE,,,,,
Istanbul Furniture Fair,01/25/2022,2022,https://www.istanbulfurniturefair.com,DM,EDİNA METAL MOBİLYA TEKS. İNŞ. SAN. VE TİC. LTD. ŞTİ.,501,5,,,+90 532 458 2076,,YENİDOĞAN MH.GİRNE BLV.NO:269 CEYHAN YOLU ÜZERİ 5.KM / YÜREĞİR / ADANA / TÜRKİYE,,,,,
Istanbul Furniture Fair,01/25/2022,2022,https://www.istanbulfurniturefair.com,DM,EGE SANDALYE SANAYİ İÇ VE DIŞ TİC. LTD. ŞTİ.,1014/B,10,www.egesandalye.com,,+90 533 235 9225,,ERTUĞRULGAZİ MAH. AKPINAR CAD. NO: 5 / İNEGÖL / BURSA / TÜRKİYE,,,,,
Istanbul Furniture Fair,01/25/2022,2022,https://www.istanbulfurniturefair.com,DM,EGELİ POLİSAJ MOBİLYA SAN. VE TİC. A.Ş.,944,9,www.bahcedecor.com.tr,,+90 232 799 0011,,"ITOB OSB. SOKAK NO: 10020, PARSEL NO:11-13, 35477, MENDERES / MENDERES / İZMİR / TÜRKİYE",,,,,
Istanbul Furniture Fair,01/25/2022,2022,https://www.istanbulfurniturefair.com,DM,EKART TEKSTİL SANAYİ VE TİCARET LTD. ŞTİ.,F2,Fuaye/Foyer,www.ekarttextile.com,,+90 224 261 2192,,DEMİRTAŞ DUMLUPINAR OSB MAH. FULYA SOK. NO.12 16110 / OSMANGAZİ / BURSA / TÜRKİYE,,,,,
Istanbul Furniture Fair,01/25/2022,2022,https://www.istanbulfurniturefair.com,DM,EKİCİ KOLTUK KANEPE MOBİLYA TEKS. NAKLİYAT GIDA İNŞA. VE TURZ. SAN. VE TİC. LTD. ŞTİ.,214,2,www.famy.com.tr,,+90 352 322 0926,,Kayseri OSB 33. Cad. No: 10 / Melikgazi / KAYSERİ / TÜRKİYE,,,,,
Istanbul Furniture Fair,01/25/2022,2022,https://www.istanbulfurniturefair.com,DM,EKİNLER MOBİLYA SAN. VE TİC.LTD.ŞTİ.,1133/B,11,www.ekinmobilya.com,,+90 554 350 2990,,SİNANBEY MAH. 28. METAL SOKAK NO:3 / İNEGÖL / BURSA / TÜRKİYE,,,,,
Istanbul Furniture Fair,01/25/2022,2022,https://www.istanbulfurniturefair.com,DM,EKOL MOBİLYA HAKAN DÖĞMECİ,536/A,5,www.ekolmobilya.net,,+90 224 711 7203,,MAHMUDİYE MAH. HİZMET SOK. NO: 21 / İNEGÖL / BURSA / TÜRKİYE,,,,,
Istanbul Furniture Fair,01/25/2022,2022,https://www.istanbulfurniturefair.com,DM,EKOLEV ÖMER ÇAĞAN,1212/A,12,http://www.ekolev.com.tr/,,+90 05 ext. 068591345,,Karacaağaç Mahallesi Yolüstü Mevkii Sokak No:81 Buca/İZMİR / BUCA / İZMİR / TÜRKİYE,,,,,
Istanbul Furniture Fair,01/25/2022,2022,https://www.istanbulfurniturefair.com,DM,EL FIRAT MOBİLYA - YASER SLIBI,925/A,9,,,+90 537 668 6485,,OYMAAGAC MAH. 5080. SOK. 6.BLOK NO: 7 B KOCASiNAN/ KAYSERi / / KAYSERİ / TÜRKİYE,,,,,
Istanbul Furniture Fair,01/25/2022,2022,https://www.istanbulfurniturefair.com,DM,ELİFNUR MOB. OR. ÜR. İNŞ. GIDA NAK. OTO. İTH. İHR. SAN. VE TİC. LTD. ŞTİ.,1142/C,11,www.ellnaz.com.tr,,+90 546 768 7488,,seyhan mahallesi 569/7 sok. no: 9 şirinyer / buca / İZMİR / TÜRKİYE,,,,,
Istanbul Furniture Fair,01/25/2022,2022,https://www.istanbulfurniturefair.com,DM,ELİGÜL BRONZ MOBİLYA SAN. TİC. LTD. ŞTİ.,1411/B,14,http://eligulbronz.com/,,+90 312 353 3953,,Karacakaya Caddesi No:89 Siteler / / ANKARA / TÜRKİYE,,,,,
Istanbul Furniture Fair,01/25/2022,2022,https://www.istanbulfurniturefair.com,DM,ELİSSE MOBİLYA İTH. İHR. SAN. VE TİC. A. Ş.,414/A,4,www.renowa.com,,+90 224 411 2434,,Minareliçavuş OSB Mah. N306. Sk No:1 Nilüfer/BURSA / NİLÜFER / BURSA / TÜRKİYE,,,,,
Istanbul Furniture Fair,01/25/2022,2022,https://www.istanbulfurniturefair.com,DM,ELİZAN İÇ VE DIŞ TİC LTD ŞTİ,213,2,www.elizanlife.com,,+90 352 321 4510,,OSB. 43 cad. no:34 / Melikgazi / KAYSERİ / TÜRKİYE,,,,,
Istanbul Furniture Fair,01/25/2022,2022,https://www.istanbulfurniturefair.com,DM,ELİZAN MOBİLYA SAN. TİC. LTD. ŞTİ.,213,2,www.elizanlife.com,,+90 352 321 4510,,OSB. 43 cad. no:34 / Melikgazi / KAYSERİ / TÜRKİYE,,,,,
Istanbul Furniture Fair,01/25/2022,2022,https://www.istanbulfurniturefair.com,DM,ELLDA KOLTUK TEKSTİL MOBİLYA SAN TİC LTD ŞTİ,507,5,www.elldamobilya.com,,+90 352 321 1155,,O.S.B 24. CAD. NO: 87 / HACILAR / KAYSERİ / TÜRKİYE,,,,,
Istanbul Furniture Fair,01/25/2022,2022,https://www.istanbulfurniturefair.com,DM,ELVE MOBİLYA DEKORASYON İNŞ. GIDA OTOMOTİV SAN TİC. LTD. ŞTİ.,712/A,7,www.elvemobilya.com.tr,,+90 532 607 9410,,Şerifali Mh.Emin Sokak No:22 Şerifali / Ümraniye / İSTANBUL / TÜRKİYE,,,,,
Istanbul Furniture Fair,01/25/2022,2022,https://www.istanbulfurniturefair.com,DM,EMPA MOBİLYA AKSESUAR SAN. VE TİC. LTD. ŞTİ.,1130,11,www.empamobilya.com.tr,,+90 544 452 0838,,KARUZSEKİSİ MAH OSB 24 CAD NO 84 / MOBİLYA / KAYSERİ / TÜRKİYE,,,,,
Istanbul Furniture Fair,01/25/2022,2022,https://www.istanbulfurniturefair.com,DM,ENİS KOLTUK MOBİLYA TEKS.SAN.VE TİC.LTD.ŞTİ.,514/B,5,www.byalialper.com,,+90 533 240 3631,,SÜLEYMANİYE MAH. BABACAN CAD. NO: 25 / İNEGÖL / BURSA / TÜRKİYE,,,,,
Istanbul Furniture Fair,01/25/2022,2022,https://www.istanbulfurniturefair.com,DM,ENMOBİ MOBİLYA İNŞAAT SAN. VE TİC.LTD.ŞTİ.,721/B,7,www.enmobi.com.tr,,+90 224 711 6160,,"Mesudiye Mahallesi, Yıldırım caddesi no: 45, Avarlar kavşağı Inegöl / Bursa / İNEGÖL / BURSA / TÜRKİYE",,,,,
Istanbul Furniture Fair,01/25/2022,2022,https://www.istanbulfurniturefair.com,DM,ENTE BİENA KOLTUK SAN.TİC. ALİ BİLEN,620,6,,,+90 534 418 4804,,MAHMUDİYE MAH. 29.MOBİLYA SK. NO:8 İNEGÖL/BURSA / İNEGÖL / BURSA / TÜRKİYE,,,,,
Istanbul Furniture Fair,01/25/2022,2022,https://www.istanbulfurniturefair.com,DM,ENZE AHŞAP MOBİLYA - MEHMET CAN ÖZEL,903,9,,,+90 542 369 7661,,AĞAÇİŞLERİ 14. MOBİLYA SOKAK NO: 44 / İNEGÖL / BURSA / TÜRKİYE,,,,,
Istanbul Furniture Fair,01/25/2022,2022,https://www.istanbulfurniturefair.com,DM,EPİKA MOBİLYA SANAYİ VE TİC.LTD.ŞTİ.,301,3,epika.com.tr,,+90 380 537 5380,,ÇERKEZ TAŞKÖPRÜ KÖYÜ E-5 MAH. NO:56 / MERKEZ / DÜZCE / TÜRKİYE,,,,,
Istanbul Furniture Fair,01/25/2022,2022,https://www.istanbulfurniturefair.com,DM,ERFA MOBİLYA SAN.VE TİC.A.Ş.,1031,10,,,+90 224 711 4094,,"Hamzabey OSB, 2. Cadde, No:9 / İnegöl / BURSA / TÜRKİYE",,,,,
Istanbul Furniture Fair,01/25/2022,2022,https://www.istanbulfurniturefair.com,DM,ERGÜL MOBİLYA EV TEKSTİLİ İNŞAAT SAN.VE TİC.A.Ş.,203/B,2,www.ergul.com.tr,,+90 352 322 2155,,ORGANİZE SANAYİ BÖLGESİ 24.CAD.NO:54 / MELİKGAZİ / KAYSERİ / TÜRKİYE,,,,,
Istanbul Furniture Fair,01/25/2022,2022,https://www.istanbulfurniturefair.com,DM,ERİKA MOBİLYA İNŞAAT TAAH. NAK. SAN. TİC. LTD. ŞTİ.,322,3,www.erika.com.tr,,+90 322 385 3347,,YÜREKLİ MAH. CEYHAN YOLU 13. KM. NO:45 / SARIÇAM / ADANA / TÜRKİYE,,,,,
Istanbul Furniture Fair,01/25/2022,2022,https://www.istanbulfurniturefair.com,DM,ERK OFİS BÜRO MOBİLYALARI İTH. İHR. SAN VE TİC. LTD.ŞTİ.,403/C,4,www.erkofis.com.tr,,+90 544 691 3836,,MİMARSİNAN ORGANİZE SANAYİ BÖLGESİ 15 CADDE NO:16 / MELİKGAZİ / KAYSERİ / TÜRKİYE,,,,,
Istanbul Furniture Fair,01/25/2022,2022,https://www.istanbulfurniturefair.com,DM,ERSA MOBİLYA SAN TİC AŞ,812/B,8,www.ersamobilya.com,,+90 312 267 0011,,Sincan 1.Organize Sanayi Bölgesi Oğuz Caddesi No:17 / Sİncan / ANKARA / TÜRKİYE,,,,,
Istanbul Furniture Fair,01/25/2022,2022,https://www.istanbulfurniturefair.com,DM,ERSA MOBİLYA SAN TİC AŞ,421/A,4,www.ersamobilya.com,,+90 312 267 0011,,Sincan 1.Organize Sanayi Bölgesi Oğuz Caddesi No:17 / Sincan / ANKARA / TÜRKİYE,,,,,
Istanbul Furniture Fair,01/25/2022,2022,https://www.istanbulfurniturefair.com,DM,ESKALA MOBİLYA SANAYİ VE TİCARET LTD.ŞTİ.,205/C,2,www.eskalamobilya.com,,+90 532 139 6683,,Mahmudiye Mah. 28.Mobilya Sok. No:8 / İnegöl / BURSA / TÜRKİYE,,,,,
Istanbul Furniture Fair,01/25/2022,2022,https://www.istanbulfurniturefair.com,DM,ESTETİK DECOR,821,8,www.estetikdecor.com,,+90 216 394 0306,,İSTANBUL DERİ ORGANİZE SANAYİ VAKUM CADDESİ NO: 4 / TUZLA / İSTANBUL / TÜRKİYE,,,,,
Istanbul Furniture Fair,01/25/2022,2022,https://www.istanbulfurniturefair.com,DM,EVADA TEKSTİL DIŞ TİC.LTD.ŞTİ,822/B,8,www.evistanbul.com,,+90 216 313 6000,,YUKARI DUDULLU MAH. KEYAP ÇARŞI SİTESİ E-1 BLOK NO:75 / ÜMRANİYE / İSTANBUL / TÜRKİYE,,,,,
Istanbul Furniture Fair,01/25/2022,2022,https://www.istanbulfurniturefair.com,DM,EVGER EV GEREÇLERİ SAN.VE TİC.A.Ş.,1122/A,11,https://evger.com.tr/,,+90 352 321 1900,,ORG.SAN.BÖL.24.CAD NO:03 Melikgazi/KAYSERİ / Melikgazi / KAYSERİ / TÜRKİYE,,,,,
Istanbul Furniture Fair,01/25/2022,2022,https://www.istanbulfurniturefair.com,DM,EVS GRUP MOBİLYA SAN. VE TİC. A.Ş.,829,8,www.homevs.com.tr,,+90 506 374 4664,,KARPUZSEKİSİ MAH. 43. CAD. NO:14 / HACILAR / KAYSERİ / TÜRKİYE,,,,,
Istanbul Furniture Fair,01/25/2022,2022,https://www.istanbulfurniturefair.com,DM,EVVEL MOBİLYA TEKSTİL İNŞAAT SAN.TİC.LTD.ŞTİ,226/A,2,,,+90 224 711 1940,,HAMZABEY ORGANİZE SANAYİ BÖLGESİ 4. CAD. NO: 13 / İNEGÖL / BURSA / TÜRKİYE,,,,,
Istanbul Furniture Fair,01/25/2022,2022,https://www.istanbulfurniturefair.com,DM,EWA HOME DİVANİ MOBİLYA SANAYİ VE TİCARET LTD.ŞTİ.,121,1,www.ewa.com.tr,,+90 224 718 5808,,Mahmudiye Mah. 16. Mobilya Sok. No: 5 İnegöl / BURSA / İnegöl / BURSA / TÜRKİYE,,,,,
Istanbul Furniture Fair,01/25/2022,2022,https://www.istanbulfurniturefair.com,DM,EWOS TASARIM MOBİLYA SAN.TİC.LTD.ŞTİ.,721/A,7,www.ewos.com.tr,,+90 224 713 5049,,Hamzabey Mobilya İhtisas OSB 1. Cad. No: 10 / İnegöl / BURSA / TÜRKİYE,,,,,
Istanbul Furniture Fair,01/25/2022,2022,https://www.istanbulfurniturefair.com,DM,FAMY İÇ VE DIŞ TİC.LTD.ŞTİ.,214,2,www.famy.com.tr,,+90 352 322 0926,,Kayseri OSB 33. Cad. No: 10 / Melikgazi / KAYSERİ / TÜRKİYE,,,,,
Istanbul Furniture Fair,01/25/2022,2022,https://www.istanbulfurniturefair.com,DM,FATİH YILDIZ ÇELİK EŞYA MAK MOB PAZ SAN TİC LTD ŞT,910,9,www.fatih-yildiz.com,,+90 352 322 2810,,osb 29. cad. no: 45 / melikgazi / KAYSERİ / TÜRKİYE,,,,,
Istanbul Furniture Fair,01/25/2022,2022,https://www.istanbulfurniturefair.com,DM,FENER MOBİLYA İSMAİL KAPLAN,235/A,2,,,+90 535 675 9144,,mahmudiye mahallesi meltem sokak no:8 Fener Mobilya / İnegöl / BURSA / TÜRKİYE,,,,,
Istanbul Furniture Fair,01/25/2022,2022,https://www.istanbulfurniturefair.com,DM,FİDANOĞLU MOBİLYA İML. PAZ. SAN. VE TİC. LTD. ŞTİ.,151,1,novak-home.com,,+90 224 714 1803,,SERDİVAN İSTİKLAL MAH. ÇARK SANAYİ EGEMEN SOK. NO:6 / ERENLER / SAKARYA / TÜRKİYE,,,,,
Istanbul Furniture Fair,01/25/2022,2022,https://www.istanbulfurniturefair.com,DM,FİDANVERDİ KOLTUK VE MBİLYA TEKSTİL TAŞIMCAILIK SAN. VE TİC.LTD.ŞTİ.,204,2,www.candess.com.tr,,05356230324,,HAMZABEY OSB. Mah. 6.CAD. Cad. No:NO:3 İnegöl/Bursa / İnegöl / BURSA / TÜRKİYE,,,,,
Istanbul Furniture Fair,01/25/2022,2022,https://www.istanbulfurniturefair.com,DM,FİKİR MOBİLYA EV TEKSTİLİ DAY TÜK MALL İNŞ TUR OTO SAN LTD ŞTİ,725,7,www.ardaskoltuk.com,,+90 312 350 6785,,YAPICI CADDESİ NO 16 SİTELER ANKARA / ALTINDAĞ / ANKARA / TÜRKİYE,,,,,
Istanbul Furniture Fair,01/25/2022,2022,https://www.istanbulfurniturefair.com,DM,FİNE FERMİNA DIŞ TİC LTD ŞTİ,324,3,http://www.ferminamobilya.com.tr/,,+90 352 322 0691,,O.S.B. 24. NO:86 / HACILAR / KAYSERİ / TÜRKİYE,,,,,
Istanbul Furniture Fair,01/25/2022,2022,https://www.istanbulfurniturefair.com,DM,FLEKSSİT BÜRO MOB.SAN.TİC.A.Ş.,433/A,4,www.flekssit.com.tr,,+90 352 321 1627,,ORGANİZE SANAYİ BÖLGESİ 8.CADDE NO:44 / MELİKGAZİ / KAYSERİ / TÜRKİYE,,,,,
Istanbul Furniture Fair,01/25/2022,2022,https://www.istanbulfurniturefair.com,DM,FLORA YATAK EV GEREÇLERİ MOBİLYA SAN TİC LTD ŞTİ,217,2,www.cardinya.com,,+90 352 321 4949,,O.S.B. 34 CAD. NO: 25 / MELİKGAZİ / KAYSERİ / TÜRKİYE,,,,,
Istanbul Furniture Fair,01/25/2022,2022,https://www.istanbulfurniturefair.com,DM,FSM SOFA DESIGN - MURAT KOÇ,1002,10,www.fsmsofa.com.tr,,+90 544 470 1683,,MAHMUDİYE MAH. 28.mob sok. No:34/2 İNEGÖL/BURSA / İNEGÖL / BURSA / TÜRKİYE,,,,,
Istanbul Furniture Fair,01/25/2022,2022,https://www.istanbulfurniturefair.com,DM,FUGA AĞAÇ İŞLEME SANAYİ A.Ş.,801/B,8,fugamobilya.com,,+90 850 222 3842,,Fabrika Köseler Mahallesi 32. Sokak N:14 / Dilovası / KOCAELİ / TÜRKİYE,,,,,
Istanbul Furniture Fair,01/25/2022,2022,https://www.istanbulfurniturefair.com,DM,FULOR MOBİLYA TEKSTİL KOZMATİK ÜR.İTH.İHR.SAN.TİC.LTD.ŞTİ.,1131/B,11,www.caploonba.com,,+90 232 864 2250,,ZAFER MAH. AKCAY CAD. NO: 142/E / GAZİEMİR / İZMİR / TÜRKİYE,,,,,
Istanbul Furniture Fair,01/25/2022,2022,https://www.istanbulfurniturefair.com,DM,GENÇ ARCHİ MOBİLYA SAN.VE TİC.LTD.ŞTİ.,820/A,8,www.archımobi.com,,+90 224 714 1491,,SÜLEYMANİYE OSB MAH. 2. CAD. NO: 11 / İNEGÖL / BURSA / TÜRKİYE,,,,,
Istanbul Furniture Fair,01/25/2022,2022,https://www.istanbulfurniturefair.com,DM,GKM MOBİLYA - İSMAİL GÖNÜL,1414/B,14,www.gonulkardeslermobilya.com,,+90 551 407 7345,,Önder mahallesi ereğli caddesi No: 96/B / ALTINDAĞ / ANKARA / TÜRKİYE,,,,,
Istanbul Furniture Fair,01/25/2022,2022,https://www.istanbulfurniturefair.com,DM,GLD METAL MOBİLYA SAN. VE TİC. LTD.ŞTİ.,1144/B,11,,,+90 352 352 6038,,KARPUZSEKİSİ MAH. 24.CAD.NO:73 / HACILAR / KAYSERİ / TÜRKİYE,,,,,
Istanbul Furniture Fair,01/25/2022,2022,https://www.istanbulfurniturefair.com,DM,GOLDSİT OFİS MOBİLYALARI SAN. VE TİC. A.Ş.,422/A,4,www.goldsit.com,,+90 224 484 227,,akçalar mh.9 cd. no:2A/1 NİLÜFER BURSA / NİLÜFER / BURSA / TÜRKİYE,,,,,
Istanbul Furniture Fair,01/25/2022,2022,https://www.istanbulfurniturefair.com,DM,GÖKÇESAN MOBİLYA ORMAN ÜRÜNLERİ TİC. LTD. ŞTİ.,912/B,9,www.gokcesan.com.tr,,+90 532 260 7911,,Güzelburç Mah. 12. Cadde No: 4/A Antakya / Hatay / antakya / HATAY / TÜRKİYE,,,,,
Istanbul Furniture Fair,01/25/2022,2022,https://www.istanbulfurniturefair.com,DM,GÖKKAYA KOLTUK MOB.SAN. VE TİC.LTD.ŞTİ.,234/A,2,www.vivaldimobilya.com.tr,,+90 224 712 0337,,Mahmudiye Mah. K.S.S. 26. Mob. Sok. No: 21 İnegöl / BURSA / İnegöl / BURSA / TÜRKİYE,,,,,
Istanbul Furniture Fair,01/25/2022,2022,https://www.istanbulfurniturefair.com,DM,GÖRSEL AKSESUAR MOB. İNŞ. MİM. SAN. TİC. LTD. ŞTİ.,1421/B,14,www.gorselantik.com,,+90 532 542 7299,,KARTALCIK CADDESİ NO: 88 SİTELER - ANKARA / ALTINDAĞ / ANKARA / TÜRKİYE,,,,,
Istanbul Furniture Fair,01/25/2022,2022,https://www.istanbulfurniturefair.com,DM,GÖZEL MOBİLYA-REMZİ GÖZEL,514,5,www.bervamobilya.com,,+90 543 662 9989,,Açıkdere Mah. Mobilyacılar Sitesi Cad. No:76 / Antakya / HATAY / TÜRKİYE,,,,,
Istanbul Furniture Fair,01/25/2022,2022,https://www.istanbulfurniturefair.com,DM,GUSTTİ MOBİLYA VE AKSESUARLARI SAN. TİC. LTD. ŞTİ.,F4,Fuaye/Foyer,www.gustti.com,,+90 532 736 5191,,Oğlananası Atatürk Mah. Kısıkkoy San Sit. 2. Cad. No: 89 / menderes / İZMİR / TÜRKİYE,,,,,
Istanbul Furniture Fair,01/25/2022,2022,https://www.istanbulfurniturefair.com,DM,GÜL GÖKKUŞAĞI MOBİLYA SAN.TİC.LTD.ŞTİ.,621/B,6,www.kapriss.com.tr,,+90 246 223 5242,,Vatan Mah. Deri ve Karma OSB 308. Cad. No:16 / Merkez / ISPARTA / TÜRKİYE,,,,,
Istanbul Furniture Fair,01/25/2022,2022,https://www.istanbulfurniturefair.com,DM,GÜLDİKER MOBİLYA SAN. VE  TİC. LTD. ŞTİ.,325,3,www.assara.com.tr,,+90 549 474 7003,,İncirlik Cumhuriyet Mahallesi Cumhuriyet Bulvarı No: 472 / Yüreğir / ADANA / TÜRKİYE,,,,,
Istanbul Furniture Fair,01/25/2022,2022,https://www.istanbulfurniturefair.com,DM,GÜLEÇLER RAMLY MOBİLYA KOLTUK SAN. VE TİC. LTD. ŞTİ.,105,1,guleclermobilya,,+90 532 616 0270,,MAHMUDİYE MAHALLESİ AĞAÇ İŞLERİ BÖLÜMÜ 12. MOBİLYA SOKAK NO: 3/E İNEGÖL/BURSA/TÜRKİYE / İNEGÖL / BURSA / TÜRKİYE,,,,,
Istanbul Furniture Fair,01/25/2022,2022,https://www.istanbulfurniturefair.com,DM,GÜLESER TEKSTİL SAN. VE TİC.A.Ş.,F1,Fuaye/Foyer,www.guleser.com,,+90 224 261 2525,,DOSAB A.O. SÖNMEZ CAD. NO: 11 / OSMANGAZİ / BURSA / TÜRKİYE,,,,,
Istanbul Furniture Fair,01/25/2022,2022,https://www.istanbulfurniturefair.com,DM,GÜMÜŞ EV MOBİLYA SAN. EV TİC.LTD.ŞTİ.,631/B,6,www.gumusev.com,,+90 224 714 8300,,Organize San. Bölgesi 2. Cad. No: 26 / İnegöl / BURSA / TÜRKİYE,,,,,
Istanbul Furniture Fair,01/25/2022,2022,https://www.istanbulfurniturefair.com,DM,GÜNDEMİR MOBİLYA ORM.ÜRÜN.SAN. VE TİC.LTD.ŞTİ.,731/A,7,www.newland.com.tr,,+90 224 713 2449,,İnegöl Mobilya İhtisas Organize Sanayi bölgesi 3. Cad. No: 33 / İnegöl / BURSA / TÜRKİYE,,,,,
Istanbul Furniture Fair,01/25/2022,2022,https://www.istanbulfurniturefair.com,DM,GÜNDOĞDU MOBİLYA SAN.TİC.LTD.ŞTİ.,107,1,www.gundogdumobilya.com.tr,,+90 533 689 1621,,HAMZABEY OSB. 13. CD. NO:3 / İNEGÖL / BURSA / TÜRKİYE,,,,,
Istanbul Furniture Fair,01/25/2022,2022,https://www.istanbulfurniturefair.com,DM,GÜNEŞ EV GER.YATAK METAL SAN TİC LTD ŞTİ,824,8,www.fano.com.tr,,+90 352 321 3555,,ORGANİZE SANAYİ BÖLGESİ 19.CAD. NO: 17 / MELİKGAZİ / KAYSERİ / TÜRKİYE,,,,,
Istanbul Furniture Fair,01/25/2022,2022,https://www.istanbulfurniturefair.com,DM,GÜNGÖR MADENİ EŞYA MOBİLYA SAN.VE TİC.A.Ş.,934,9,www.decosit.com.tr,,+90 236 214 0300,,MURADİYE ORGANİZE SANAYİ BÖLGESI 32. SOK. NO:8 45140 / YUNUSEMRE / MANİSA / TÜRKİYE,,,,,
Istanbul Furniture Fair,01/25/2022,2022,https://www.istanbulfurniturefair.com,DM,GÜNGÖRLER KOLTUK MİMARLIK MOBİLYA SANAYİ TİCARET LTD. ŞTİ.,621/A,6,www.curizon.com.tr,,+90 532 542 4682,,İnegol bursa karayolu 5. Km inegol / İnegol / BURSA / TÜRKİYE,,,,,
Istanbul Furniture Fair,01/25/2022,2022,https://www.istanbulfurniturefair.com,DM,GÜZELEVİM KOLTUK İNŞ.MOB.AKS.ORM.İTH.İHR.SAN.TİC.LTD.ŞTİ.,14A,14A,https://guzelevimkoltuk.com/,,+90 543 321 1213,,CUMHURİYET MAH 66. SOKAK NO:7-C İNEGÖL / BURSA / BURSA / TÜRKİYE,,,,,
Istanbul Furniture Fair,01/25/2022,2022,https://www.istanbulfurniturefair.com,DM,HACISALİHOĞULLARI DAY.TÜK.MAL.TEKS.SAN. VE TİC.LTD.ŞTİ.,701,7,www.kaas.com.tr,,+90 224 240 2001,,ESENTEPE AMH.SANAYİ CAD.NO:111 / NİLÜFER / BURSA / TÜRKİYE,,,,,
Istanbul Furniture Fair,01/25/2022,2022,https://www.istanbulfurniturefair.com,DM,HADCONS İNŞAAT VE TİCARET LTD.ŞTİ.,536/B,5,www.hazza.com.tr,,+90 224 710 0002,,HAMZABEY OSB 1.CAD. NO: 29 HAZZA CONCEPT / Bursa / BURSA / TÜRKİYE,,,,,
Istanbul Furniture Fair,01/25/2022,2022,https://www.istanbulfurniturefair.com,DM,HADRA MOBİLYA SAN VE TİC LTD ŞTİ,535/A,5,www.hadramobilya.com,,+90 352 322 1822,,Organize Sanayi Bölgesi 29. Cad. No: 61 Melikgazi / Kayseri / Melikgazi / KAYSERİ / TÜRKİYE,,,,,
Istanbul Furniture Fair,01/25/2022,2022,https://www.istanbulfurniturefair.com,DM,HAKAN LAKE MOBİLYA VE POLYESTER - HAKAN ÇAKAL,1434/B,14,www.klasikhakanlakemobilya.com,,+90 532 554 7772,,Tezcan Sokak No:38/9 SİTELER / ALTINDAĞ / ANKARA / TÜRKİYE,,,,,
Istanbul Furniture Fair,01/25/2022,2022,https://www.istanbulfurniturefair.com,DM,HAMM TASARIM MİMARLIK VE MÜTEAHHİTLİK TİC LTD ŞTİ,802/B,8,https://www.hamm.com.tr/,,+90 533 653 2151,,Yeşilce Mah. Aytekin Sk. No:18 Nalbantlar İş Hanı Kat:3 / Kağıthane / İSTANBUL / TÜRKİYE,,,,,
Istanbul Furniture Fair,01/25/2022,2022,https://www.istanbulfurniturefair.com,DM,HASELLER MOBİLYA SANAYİ TİC. LTD. ŞTİ.,144/B,1,,,+90 533 723 0157,,Mahmudiye Mah. 17. Mobilya Sk. No.: 47 MOBİANT MOBİLYA / İNEGÖL / BURSA / TÜRKİYE,,,,,
Istanbul Furniture Fair,01/25/2022,2022,https://www.istanbulfurniturefair.com,DM,HİLAL GENÇ ODASI MOBİLYA SANAYİ VE TİCARET LTD.ŞTİ.,1102/B,11,www.kirpikids.com.tr,,+90 535 702 2484,,MAHMUDİYE MH. 21.MOBİLYA SOKAK NO: 70/2 / İNEGÖL / BURSA / TÜRKİYE,,,,,
Istanbul Furniture Fair,01/25/2022,2022,https://www.istanbulfurniturefair.com,DM,HİLAL METAL VE ORM ÜRN. İNŞ. TUR. SAN.VE TİC. LTD. ŞTİ.,404,4,www.hilalmetal.com.tr,,+90 532 665 2699,,GÜZELHİSAR MAH. ÇANKIRI BULVARI 90/1 / AKYURT / ANKARA / TÜRKİYE,,,,,
Istanbul Furniture Fair,01/25/2022,2022,https://www.istanbulfurniturefair.com,DM,HOLYWOOD MOBİLYA İMALATI VE TİC. FATİH KURT,1052/A,10,,,+90 546 471 4741,,MAHMUDİYE MAH. TANDOĞAN CAD. AĞAÇ İŞLERİ SANAYİ 24. MOBİLYA SOK. NO: 2/A / İNEGÖL / BURSA / TÜRKİYE,,,,,
Istanbul Furniture Fair,01/25/2022,2022,https://www.istanbulfurniturefair.com,DM,HOMAGE KOLTUK MOBİLYA SAN. TİC. LTD. ŞTİ.,1212/B,12,www.homage.com.tr,,+90 533 513 3878,,Hamzabey OSB. 2.Cad. No:3 / İNEGÖL / BURSA / TÜRKİYE,,,,,
Istanbul Furniture Fair,01/25/2022,2022,https://www.istanbulfurniturefair.com,DM,HOROZ LOJİSTİK A.Ş. - GENEL MÜDÜRLÜK,F2,Fuaye/Foyer,www.horoz.com.tr,,+90 533 607 2068,,Mahmutbey Mah. Tasocağı Yolu 2538.Sok.Kısık Plaza Kat:1 No:6 / Bağcılar / İSTANBUL / TÜRKİYE,,,,,
Istanbul Furniture Fair,01/25/2022,2022,https://www.istanbulfurniturefair.com,DM,İCLAB MOBİLYA İMALAT SANAYİ TİC LTD ŞTİ,715,7,www.balhome.com,,+90 536 571 4829,,büyükbakkalköy mahallesi yakacık yolu sokak no:16 / MALTEPE / İSTANBUL / TÜRKİYE,,,,,
Istanbul Furniture Fair,01/25/2022,2022,https://www.istanbulfurniturefair.com,DM,İÇ ANADOLU KANEPE OTURMA GRUPLARI İNŞ.NAK. TURZ.VE PETROL ÜRÜNLERİ SAN.TİC.LTD.ŞTİ,505/A,5,www.daisymobilya.com.tr,,+90 352 322 0633,,KARPUZSEKİSİ MAH.22 CAD.NO:53 HACILAR/KAYSERİ / HACILAR / KAYSERİ / TÜRKİYE,,,,,
Istanbul Furniture Fair,01/25/2022,2022,https://www.istanbulfurniturefair.com,DM,İDEAL KOLTUK NALBURİYE MOBİLYA PAZARLAMA SAN. VE TİCARET LTD.ŞTİ.,404,4,www.idealhome.com.tr,,+90 538 200 4795,,Ideal home fabrıkası Hamzabey OSB Mah. 1. Cadde No:14 / BURSA / BURSA / TÜRKİYE,,,,,
Istanbul Furniture Fair,01/25/2022,2022,https://www.istanbulfurniturefair.com,DM,İKİZLER CONCEPT SAMET ÖZDEMİR,1211/C,12,,,+90 533 960 6485,,hamzabey osb 4.cad no:7 / İNEGÖL / BURSA / TÜRKİYE,,,,,
Istanbul Furniture Fair,01/25/2022,2022,https://www.istanbulfurniturefair.com,DM,İKİZLER ÇEYİZ - FATMA KESKİNOĞLU,1036,10,www.ikizlerceyiz.com,,+90 538 841 5861,,Mahmudiye Mah. Ağaç İşleri Sanayi 15. Mobilya sok. no: 3/H / İnegöl / BURSA / TÜRKİYE,,,,,
Istanbul Furniture Fair,01/25/2022,2022,https://www.istanbulfurniturefair.com,DM,İMSAN İNEGÖL MOBİLYA VE METAL SANAYİ TİCARET LİMİTED ŞİRKETİ,1001,10,www.balin.com.tr,,+90 224 714 9214,,Balin Sandalye OSB 1. cad. No: 11 / İnegöl / BURSA / TÜRKİYE,,,,,
Istanbul Furniture Fair,01/25/2022,2022,https://www.istanbulfurniturefair.com,DM,İNCİ KOLTUK NURETTİN İNCİ,1225/A,12,,,+90 542 522 9312,,mesudiye mahyıldırım caddesi no:39 bursa/inegöl / inegöl / BURSA / TÜRKİYE,,,,,
Istanbul Furniture Fair,01/25/2022,2022,https://www.istanbulfurniturefair.com,DM,İNDİVANİ İTHALAT İHRACAT SAN. VE TİC.LTD.ŞTİ.,810/A,8,www.indivani.com,,+90 224 715 9891,,HAMZABEY OSB MAH. 3. CAD. CAM STORE (MURAT CAM) SİT. NO: 15/1 / İnegöl / BURSA / TÜRKİYE,,,,,
Istanbul Furniture Fair,01/25/2022,2022,https://www.istanbulfurniturefair.com,DM,İNDOLE MOBİLYA SAN TİC LTD ŞTİ,203/A,2,https://indolemobilya.com/,,+90 535 046 8959,,Osb.30.cad No:11 Hacılar Kayseri / Hacılar / KAYSERİ / TÜRKİYE,,,,,
Istanbul Furniture Fair,01/25/2022,2022,https://www.istanbulfurniturefair.com,DM,İNEGÖL ALAN MOBİLYA SAN. V TİC.LTD.ŞTİ.,203,2,www.areamobilya.com,,+90 224 718 5285,,İNEGÖL BURSA KARAYOLU 6.KM AKINCILAR KÖYÜ GİRİŞİ NO:6 (MOBİLİYUM AVM YANI) / İNEGÖL / BURSA / TÜRKİYE,,,,,
Istanbul Furniture Fair,01/25/2022,2022,https://www.istanbulfurniturefair.com,DM,İNEGÖL ARI MOBİLYA İNŞ.PAZ.SAN. VE TİC.LTD.ŞTİ.,624/A,6,www.arimobilya.com.tr    www.arlife.com,,+05326504685,,İHTİSAS ORGANİZE SANAYİ BÖLGESİ 1. CAD. NO: 13 / İnegöl / BURSA / TÜRKİYE,,,,,
Istanbul Furniture Fair,01/25/2022,2022,https://www.istanbulfurniturefair.com,DM,İNEGÖL BERKFA KENAR BANDI MOBİLYA MALZEMELERİ İNŞAAT SAN. VE TİC.LTD.ŞTİ.,205/B,2,www.nclion.com.tr,,+90 227 718 5357,,Ağaç İşleri Sanayi Hizmet Sok. No:14 / İNEGÖL / BURSA / TÜRKİYE,,,,,
Istanbul Furniture Fair,01/25/2022,2022,https://www.istanbulfurniturefair.com,DM,İNEGÖL SANAT KOLTUK MOB.DAY.TÜK.MAD.SAN.TİC.LTD.ŞTİ.,223,2,,,+02247770779,,MOBİLYA AĞAÇ İŞLERİ İHTİSAS OSB. 1.CAD. NO: 10 (SANAT KOLTUK) / Bursa / BURSA / TÜRKİYE,,,,,
Istanbul Furniture Fair,01/25/2022,2022,https://www.istanbulfurniturefair.com,DM,İNEGÖL SEHPA - İBRAHİM ERŞAHİN,912/A,9,inegölsehpastory.com,,+90 536 529 2538,,Mahmudiye Mah. 6.Mobilya Sok. No: 14A / inegöl / BURSA / TÜRKİYE,,,,,
Istanbul Furniture Fair,01/25/2022,2022,https://www.istanbulfurniturefair.com,DM,İN-KA KAĞITÇILIK VE KOZMETİK SELÇUK BİLMİŞ,F4,Fuaye/Foyer,inkahijyen.com,,+90 532 349 8317,,Orhanbey mah. ressam Şefik Bursalı cad. Başak iş hanı no 26/22 / Osmangazi / BURSA / TÜRKİYE,,,,,
Istanbul Furniture Fair,01/25/2022,2022,https://www.istanbulfurniturefair.com,DM,İNKA NALBURİYE HIRD.MOB.MLZ.ORM.ÜRÜN.NAK.İNŞ.SAN. VE TİC.LTD.ŞTİ.,223,2,www.inkamobilyamalzemeleri.com,,+90 534 601 7065,,MAHMUDİYE MH. TANDOĞAN CD. 26. MOBİLYA SK. / İNEGÖL / BURSA / TÜRKİYE,,,,,
Istanbul Furniture Fair,01/25/2022,2022,https://www.istanbulfurniturefair.com,DM,İNMOB MOBİLYA KOLTUK NAK.İNŞ.SAN.TİC.LTD.ŞTİ.,226/B,2,www.nell.com.tr,,+90 224 718 5805,,HAMZABEY OSB. MAH. 4. CAD. NO: 9/1 / İnegöl / BURSA / TÜRKİYE,,,,,
Istanbul Furniture Fair,01/25/2022,2022,https://www.istanbulfurniturefair.com,DM,İNTERSİSTEM STOKLAMA VE DEKORASYON SAN.VE TİC. LTD. ŞTİ.,1042,10,www.intersystem.com.tr,,+90 232 436 2870,,Gürpınar Mah. 7004-6 Sok. NO:1 Pınarbaşı / BORNOVA / İZMİR / TÜRKİYE,,,,,
Istanbul Furniture Fair,01/25/2022,2022,https://www.istanbulfurniturefair.com,DM,İPAR DIŞ TİCARET LTD.ŞTİ.,235/B,2,,,+90 533 686 3006,,1.OSB 43. CAD. NO: 85 / MELİKGAZİ / KAYSERİ / TÜRKİYE,,,,,
Istanbul Furniture Fair,01/25/2022,2022,https://www.istanbulfurniturefair.com,DM,İPEK MOBİLYA İMALAT İTHALAT İHRACAT SAN.TİC.A.Ş.,,,,,+90 352 322 0050,,1. Organize Sanayi Bölgesi 43.Cad. No: 35 38100 / Melikgazi / KAYSERİ / TÜRKİYE,,,,,
Istanbul Furniture Fair,01/25/2022,2022,https://www.istanbulfurniturefair.com,DM,İPEKS TEKSTİL SAN. VE TİC. A.Ş.,F1,Fuaye/Foyer,https://www.ipeks.com/,,+90 224 261 0080,,"DOSAB MUSTAFA KARAER CADDESİ NO: 6, 16245 / OSMANGAZİ / BURSA / TÜRKİYE",,,,,
Istanbul Furniture Fair,01/25/2022,2022,https://www.istanbulfurniturefair.com,DM,İSİL MOBİLYA SANAYİ VE TİC. LTD. ŞTİ.,602,6,www.isilmobilya.com.tr,,+90 224 718 5363,,SÜLEYMANİYE MAH. GENÇLER SOK. NO:22 / İNEGÖL / BURSA / TÜRKİYE,,,,,
Istanbul Furniture Fair,01/25/2022,2022,https://www.istanbulfurniturefair.com,DM,İSTANBUL SANAT FERFORJE SAN.VE TİC.LTD ŞTİ.,901/B,9,www.istanbulsanatferforje.com,,+90 539 317 2971,,İKİTELLİ OSB MAH. MARMARA SAN. SİT. R BLOK NO: 8 / KÜÇÜKÇEKMECE / İSTANBUL / TÜRKİYE,,,,,
Istanbul Furniture Fair,01/25/2022,2022,https://www.istanbulfurniturefair.com,DM,İŞBİR SÜNGER SAN. A.Ş.,812/A,8,www.isbiryatak.com,,+90 312 398 0788,,"Balıkhisar Mah. Balıkhisar Köy içi Küme Evleri No:752/1,2,3 / Akyurt / ANKARA / TÜRKİYE",,,,,
Istanbul Furniture Fair,01/25/2022,2022,https://www.istanbulfurniturefair.com,DM,İZKOLT MOBİLYA TEKSTİL DEKOR İNŞ. TUR. SAN. İTH. İHR. TİC. LTD. ŞTİ.,1205,12,,,+90 232 251 0581,,168 sk no:4 -1 inönü mah. ayrancılar torbalı izmir / İzmir / İZMİR / TÜRKİYE,,,,,
Istanbul Furniture Fair,01/25/2022,2022,https://www.istanbulfurniturefair.com,DM,JNK PROJE MOBİLYA MİMARLIK İNŞ.SAN.VE TİC.LTD. ŞTİ.,721/A,7,www.jnkproje.com,,+90 533 500 9856,,MASKO MOBİLYACILAR SİTESİ 11 B BLOK NO:6 İKİTELLİ - BAŞAKŞEHİR JNK PROJE / BAŞAKŞEHİR / İSTANBUL / TÜRKİYE,,,,,
Istanbul Furniture Fair,01/25/2022,2022,https://www.istanbulfurniturefair.com,DM,KAÇAR TEKSTİL TURİZM YATIRIM İNŞ.VE TİC. İŞL. A.Ş.,F1,Fuaye/Foyer,www.kacartextile.com,,+90 224 241 4650,,"Bursa Organize Sanayi Bölgesi, Kırmızı Cad. No: 15 Nilüfer / BURSa / / BURSA / TÜRKİYE",,,,,
Istanbul Furniture Fair,01/25/2022,2022,https://www.istanbulfurniturefair.com,DM,KADİFETEKS MENS SAN. A.Ş.,621/A,6,www.kadifeteks.com,,+90 212 549 2630,,İkitelli Organize Sanayi Bölgesi Eski Turgut Özal Cad. No:40 34490 Başakşehir / İstanbul / BAŞAKŞEHİR / İSTANBUL / TÜRKİYE,,,,,
Istanbul Furniture Fair,01/25/2022,2022,https://www.istanbulfurniturefair.com,DM,KADİR ÇELİK GALAXY HOME,613/A,6,www.galaxyhome.com.tr,,+90 533 777 4552,,MAHMUDİYE MAH. ERTUĞRULGAZİ CAD. NO:119 / İNEGÖL / BURSA / TÜRKİYE,,,,,
Istanbul Furniture Fair,01/25/2022,2022,https://www.istanbulfurniturefair.com,DM,KARAKUŞLAR HALI TEKSTİL SANAYİ VE TİCARET A.Ş.,912/A,9,www.halica.com,,+90 850 466 0000,,Odunluk Mah. İzmir Yolu Cad. Carrefour Yanı No: 31 / Nilüfer / BURSA / TÜRKİYE,,,,,
Istanbul Furniture Fair,01/25/2022,2022,https://www.istanbulfurniturefair.com,DM,KAREL BÜRO OFİS KOLTUK VE EKİPMANLARI İMALATI - BAYRAM DURANEL,424/A,4,www.karelburo.com.tr,,0534 984 1291,,hacı yusuf mescid mahhallesi MAR-SAN sanayi sitesi özkafa sokak no:51 KAREL BÜRO / karatay / KONYA / TÜRKİYE,,,,,
Istanbul Furniture Fair,01/25/2022,2022,https://www.istanbulfurniturefair.com,DM,KARİDYA MOBİLYA SANAYİ VE TİCARET LİMİTED ŞİRKETİ,802/C,8,www.caridia.com.tr,,+90 224 246 6170,,Uludağ Organize Sanayi Bölgesi Kale Mahallesi Yılmaz Sk. No: 6 / Kestel / BURSA / TÜRKİYE,,,,,
Istanbul Furniture Fair,01/25/2022,2022,https://www.istanbulfurniturefair.com,DM,KARYOLACHİ EV TEKSTİL SAN. TİC VE LTD. ŞTİ.,502/B,5,www.karyolachi.com,,+90 224 715 3456,,MAHMUDİYE MAHALLESİ KALENDER CADDESİ NO:73 / İNEGÖL / BURSA / TÜRKİYE,,,,,
Istanbul Furniture Fair,01/25/2022,2022,https://www.istanbulfurniturefair.com,DM,KASELLA BÜRO SİSTEMLERİ SAN.VE TİC.LTD.ŞTİ.,431/A,4,www.casella.com.tr,,+90 212 683 2040,,Haraççı Merkez Mh. Haraççı Hadımköyyolu Cd. No: 11 Arnavutköy / İstanbul - Türkiye / Arnavutköy / İSTANBUL / TÜRKİYE,,,,,
Istanbul Furniture Fair,01/25/2022,2022,https://www.istanbulfurniturefair.com,DM,KAYMAZLILAR MOBİLYA SANAYİ VE PAZ.TİC.LTD.ŞTİ.,1422/B,14,myluxury.com.tr,,+90 537 855 3515,,ÖNDER MH.KARACAKAYA CD.184/ B / ALTINDAĞ / ANKARA / TÜRKİYE,,,,,
Istanbul Furniture Fair,01/25/2022,2022,https://www.istanbulfurniturefair.com,DM,KAYSERİ YATAK VE BAZA MOB. İNŞ SAN TİC LTD ŞTİ,814,8,www.kaybed.com,,+90 549 290 9081,,KARPUZSEKİSİ MAH. OSB. 18. CAD. NO: 48 / HACILAR / KAYSERİ / TÜRKİYE,,,,,
Istanbul Furniture Fair,01/25/2022,2022,https://www.istanbulfurniturefair.com,DM,KEÇELİOĞLU MOBİLYA DEK.İML.SAN. VE TİC.LTD.ŞTİ.,802/A,8,www.216furniture.com,,+90 216 313 0618,,ESENKENT MAH. EBUBEKİR CAD. KARTOPU SOKAK NO:22 DUDULLU / ÜMRANİYE / İSTANBUL / TÜRKİYE,,,,,
Istanbul Furniture Fair,01/25/2022,2022,https://www.istanbulfurniturefair.com,DM,KENAR MOBİLYA İNŞ. OTEL TURİZM İŞL. SAN. VE TİC.LTD.ŞTİ.,512/A,5,,,+90 224 711 2300,,MESUDİYE MAH. YILDIRIM CAD. AVARLAR KAVŞAĞI / İNEGÖL / BURSA / TÜRKİYE,,,,,
Istanbul Furniture Fair,01/25/2022,2022,https://www.istanbulfurniturefair.com,DM,KENDERLER ORMAN ÜRÜNLERİ MOBİLYA NAKLİYE SANAYİ VE TİC.LTD.ŞTİ.,612,6,,,+90 533 419 8460,,Mahmudiye Mah. Spor Sok. No: 13 İnegöl / BURSA / İnegöl / BURSA / TÜRKİYE,,,,,
Istanbul Furniture Fair,01/25/2022,2022,https://www.istanbulfurniturefair.com,DM,KEREM AHŞAP NALBURİYE MOBİLYA İNŞ.OTOM.SAN.TİC.LTD.ŞTİ.,601,6,www.orix.com.tr/,,+90 224 444 6978,,Yeniceköy Fatih Sultan Mehmet Blv. No: 23 16400 / İnegöl / BURSA / TÜRKİYE,,,,,
Istanbul Furniture Fair,01/25/2022,2022,https://www.istanbulfurniturefair.com,DM,KEYF AKSUSUAR AYDINLATMA TURZ SAN VE TİC LTD ŞTİ,911/B,9,,,+90 212 675 1793,,MASKO MOBİLYACILAR SİT. 17/B BLOK NO: 15 -17- 19 / BAŞAKŞEHİR / İSTANBUL / TÜRKİYE,,,,,
Istanbul Furniture Fair,01/25/2022,2022,https://www.istanbulfurniturefair.com,DM,KILAS MOBİLYA DAYANIKLI TÜKETİM MALLARI SAN.TİC.LTD.ŞTİ.,402,4,,,+90 539 862 9737,,AKHİSAR MAH. BURSA KARAYOLU CD.NO:18 / İNEGÖL / BURSA / TÜRKİYE,,,,,
Istanbul Furniture Fair,01/25/2022,2022,https://www.istanbulfurniturefair.com,DM,KIRTAŞLAR MOBİLYA KOLTUK SAN. VE TİC. LTD. ŞTİ.,633/B,6,,,+90 530 228 4779,,MAHMUDİYE MAH. ŞENCAN SOK. NO: 8 / İNEGÖL / BURSA / TÜRKİYE,,,,,
Istanbul Furniture Fair,01/25/2022,2022,https://www.istanbulfurniturefair.com,DM,KİTLE KOLTUK SOMYA MOB.ORM.ÜRÜN DAY.TÜK.MALLARI SAN.TİC.LTD.ŞTİ.,545/A,5,www.arnovasofa.com,,+90 544 713 2339,,MAHMUDİYE MAHALLESİ 15.MOBİLYA SOK.NO:5/1 / İNEGÖL / BURSA / TÜRKİYE,,,,,
Istanbul Furniture Fair,01/25/2022,2022,https://www.istanbulfurniturefair.com,DM,KOCADAĞLAR MOBİLYA SANAYİ VE TİCARET LTD. ŞTİ.,236,2,www.alpino.com.tr,,+90 274 457 5044,,Organize Sanayi Bölgesi O.S.B Bulvarı No: 1 / Gediz / KÜTAHYA / TÜRKİYE,,,,,
Istanbul Furniture Fair,01/25/2022,2022,https://www.istanbulfurniturefair.com,DM,KOÇAKLAR GIDA VE ORMAN ÜRÜNLERİ MOBİLYA SAN. TİC. LTD. ŞTİ.,14A,14A,www.kocakkoltuk.com,,+90 532 582 0935,,MAHMUDIYE MH. ERTUGRULGAZİ CD. NO:103 / INEGOL / BURSA / TÜRKİYE,,,,,
Istanbul Furniture Fair,01/25/2022,2022,https://www.istanbulfurniturefair.com,DM,KOMS MAĞAZACILIK VE DIŞ TİCARET A.Ş.,1013,10,http://www.korkmazmobilya.com/,,+90 222 236 1884,,75. Yıl Mah. İbrahim Şenlikçi Cad. Koms Mağazacılık ve Dış Ticaret Blok No:2 / Odunpazarı / ESKİŞEHİR / TÜRKİYE,,,,,
Istanbul Furniture Fair,01/25/2022,2022,https://www.istanbulfurniturefair.com,DM,KORKMAZ MOBİLYA VE ORMAN ÜRN. SAN. VE TİC. A.Ş.,1013,10,http://www.korkmazmobilya.com/?sayfa=besa,,+90 222 236 1884,,75. Yıl Mah. Organize Sanayi Bölgesi İbrahim Şenlikçi Cad. No:2 / Odunpazarı / ESKİŞEHİR / TÜRKİYE,,,,,
Istanbul Furniture Fair,01/25/2022,2022,https://www.istanbulfurniturefair.com,DM,KÖKER HALI KÖKER EL SANATLARI DOKUMA TEKSTİL  GIDA İNŞ. SAN VE TİC. A.Ş.,1122/B,11,,,+90 531 358 3506,,kayseri organize sanayi bölgesi 57. cad. no:11 / hacılar / KAYSERİ / TÜRKİYE,,,,,
Istanbul Furniture Fair,01/25/2022,2022,https://www.istanbulfurniturefair.com,DM,KÖPRÜCÜ TEKSTİL SAN. VE TİC.LTD.ŞTİ.,722/B,7,,,+90 533 575 9922,,NECİP FAZIL BULVARI KEYAP İŞ ÇARŞISI NO:44/440 Y.DUDULLU / ÜMRANİYE / İSTANBUL / TÜRKİYE,,,,,
Istanbul Furniture Fair,01/25/2022,2022,https://www.istanbulfurniturefair.com,DM,KUPA MOBİLYA SAN.TİC. A.Ş.,1112,11,www.kupagencodasi.com,,+90 533 156 0461,,Yeniceköy Mah. 644. Sk. No: 4 / İNEGÖL / BURSA / TÜRKİYE,,,,,
Istanbul Furniture Fair,01/25/2022,2022,https://www.istanbulfurniturefair.com,DM,KUTUCULAR ALÜMİNYUM DIŞ CEPHE GİYDİRME SİSTEMLERİ MOB.MUTF.PVC İNŞAAT SAN.TİC.LTD.ŞTİ.,613/B,6,www.mobila.com.tr,,+90 372 638 4200,,O.S.B. 2. CAD. 11. SOK. NO: 8 / ÇAYCUMA / ZONGULDAK / TÜRKİYE,,,,,
Istanbul Furniture Fair,01/25/2022,2022,https://www.istanbulfurniturefair.com,DM,LAREXDESIGN MOBİLYA VE AKSESUARLARI MÜJDAT DAĞTEKİN,1235,12,www.larexdesign.com.tr,,+90 533 015 3215,,"SÜLEYMANİYEOSB ORGANİZE SANAYİ BÖLGESİ, 5. CADDE NO : 11 İNEGÖL / BURSA Factory : Organized Industrial Zone, 5th Street, No: 11, İnegöl/BURSA / İNEGÖL / BURSA / TÜRKİYE",,,,,
Istanbul Furniture Fair,01/25/2022,2022,https://www.istanbulfurniturefair.com,DM,LAVİNYA MOBİLYA İNŞAAT TİC. VE SAN. LTD. ŞTİ.,303/B,3,www.lavinyamobilya.com.tr,,+90 326 221 7993,,Açıkdere mahallesi mobilyacılar sitesi cad.no:98 / MERKEZ / HATAY / TÜRKİYE,,,,,
Istanbul Furniture Fair,01/25/2022,2022,https://www.istanbulfurniturefair.com,DM,LAVİNYA MODERN KOLTUK İTH. İHR. SAN. TİC. LTD. ŞTİ.,303/B,3,www.lavinyamobilya.com.tr,,+90 326 221 7993,,Açıkdere mahallesi mobilyacılar sitesi cad.no:98 / MERKEZ / HATAY / TÜRKİYE,,,,,
Istanbul Furniture Fair,01/25/2022,2022,https://www.istanbulfurniturefair.com,DM,LAVİTA SOFA DESİGN - ERGÜN CEYLAN,523/B,5,http://www.lavitasofa.com,,+90 554 468 6369,,MAHMUDİYE MAH.17.MOBİLYA SK. NO: 3/E / İNEGÖL / BURSA / TÜRKİYE,,,,,
Istanbul Furniture Fair,01/25/2022,2022,https://www.istanbulfurniturefair.com,DM,LAVİVA KOLTUK MET.MAK.MOB.İNŞ.İTH.İHR. SAN VE TİC. LTD. ŞTİ.,537,5,,,+90 533 145 3748,,ORGANİZE SANAYİ BÖLGESİ 22.CADDE NO:26 / MELİKGAZİ / KAYSERİ / TÜRKİYE,,,,,
Istanbul Furniture Fair,01/25/2022,2022,https://www.istanbulfurniturefair.com,DM,LİDYA MOBİLYA VE ORMAN ÜRÜNLERİ SAN.TİC.LTD.ŞTİ.,1222/A,12,www.lidyamobilya.com,,+90 224 711 3169,,Yeniceköy Mh.Mobilya Cd.Dışbudak Mob.Apt.No:15-1-2 / İNEGÖL / BURSA / TÜRKİYE,,,,,
Istanbul Furniture Fair,01/25/2022,2022,https://www.istanbulfurniturefair.com,DM,LORİSWOOD MUTLU İLARSLAN,905,9,,,+90 531 732 5007,,MAHMUDİYE MAH. AĞAÇ İŞLERİ 25. MOBİLYA SOK. NO: 28 / İNEGÖL / BURSA / TÜRKİYE,,,,,
Istanbul Furniture Fair,01/25/2022,2022,https://www.istanbulfurniturefair.com,DM,LOUİS HOME FURNİTURE - MURAT KARADAYI,732/B,7,,,+90 537 851 6933,,MAHMUDİYE MAH.ÇAVDAR SOKAK NO:18/B / İNEGÖL / BURSA / TÜRKİYE,,,,,
Istanbul Furniture Fair,01/25/2022,2022,https://www.istanbulfurniturefair.com,DM,LTC ERAL MOBİLYA SAN. VE TİC. LTD. ŞTİ.,314,3,www.eral.com.tr,,+90 224 718 5696,,Mobiliyum Mobilya AVM 2. kat No:32 / İNEGÖL / BURSA / TÜRKİYE,,,,,
Istanbul Furniture Fair,01/25/2022,2022,https://www.istanbulfurniturefair.com,DM,LUXEV MOBİLYA SANAYİ VE TİCARET A.Ş.,142,1,www.luxev.com.tr,,+90 530 780 5908,,Hamzabey OSB Mahallesi 4.Cadde No:10 / İNEGÖL / BURSA / TÜRKİYE,,,,,
Istanbul Furniture Fair,01/25/2022,2022,https://www.istanbulfurniturefair.com,DM,LÜKS YALÇINLAR ÇELİK EŞYA MOB. DAY. TÜK. MAL. SAN TİC. AŞ,302,3,www.luksyalcinlar.com,,+90 352 321 2919,,KAYSERİ OSB MAH. 8.CADDE NO:43 / MELİKGAZİ / KAYSERİ / TÜRKİYE,,,,,
Istanbul Furniture Fair,01/25/2022,2022,https://www.istanbulfurniturefair.com,DM,LÜKSSAN MOBİLYA SAN VE TİC AŞ,502/A,5,www.lukssan.com,,+90 352 321 1012,,OSB. 16. CAD. NO: 34 / MELIKGAZİ / KAYSERİ / TÜRKİYE,,,,,
Istanbul Furniture Fair,01/25/2022,2022,https://www.istanbulfurniturefair.com,DM,MACİTLER MOBİLYA MİM. SAN. VE TİC. LTD. ŞTİ.,711,7,www.macitler.com.tr,,+90 524 956 975,,Madenler mah. fetih sok. no :7 / çekmeköy / İSTANBUL / TÜRKİYE,,,,,
Istanbul Furniture Fair,01/25/2022,2022,https://www.istanbulfurniturefair.com,DM,MAÇKA MOBİLYA SANAYİ VE TİCARET LTD.ŞTİ.,711/B,7,www.casettosofa.com,,+90 224 715 5561,,16. Mobilya Sok. No: 9/1 inegöl - Bursa / inegöl / BURSA / TÜRKİYE,,,,,
Istanbul Furniture Fair,01/25/2022,2022,https://www.istanbulfurniturefair.com,DM,MARCONİ MOBİLYA SAN.TİC.LTD.ŞTİ.,,,www.enbiyaalemdar.com,,+90 224 712 1329,,MAHMUDİYE MH. AĞAÇ İŞLERİ 12. MOBİLYA SK. NO 41 / İNEGÖL / BURSA / TÜRKİYE,,,,,
Istanbul Furniture Fair,01/25/2022,2022,https://www.istanbulfurniturefair.com,DM,MARSTEKS DÖŞEMELİK KUMAŞ DOKUMA TEKSTİL KONF. SAN. TİC. LTD. ŞTİ.,F1,Fuaye/Foyer,www.marsteks.com,,+90 224 261 5868,,Demirtaş Organize Sanayi Bölgesi Ali Osman Sönmez Cadde No:32 / OSMANGAZİ / BURSA / TÜRKİYE,,,,,
Istanbul Furniture Fair,01/25/2022,2022,https://www.istanbulfurniturefair.com,DM,MASACHİ,424/C,4,www.masachi.com,,+90 533 556 4753,,HASANAĞA ORGANİZE SANAYİ BÖLGESİ 11. CAD. NO.1 / NİLÜFER / BURSA / TÜRKİYE,,,,,
Istanbul Furniture Fair,01/25/2022,2022,https://www.istanbulfurniturefair.com,DM,MASTER VİP MOBİLYA İMALAT İNŞAAT İTHALAT İHRACAT SAN.TİC.LTD.ŞTİ.,1411/A,14,www.mastermobilya.com,,+90 312 348 4823,,KARPUZLU 2.CAD.NO:139 SİTELER / ALTINDAĞ / ANKARA / TÜRKİYE,,,,,
Istanbul Furniture Fair,01/25/2022,2022,https://www.istanbulfurniturefair.com,DM,MAVERA MOBİLYA SAN. TİC. LTD.ŞTİ.,1153/A,11,www.maveramobilya.com,,+90 535 817 5181,,osb 12. cad. no: 21 mavera mobilya / melikgazi / KAYSERİ / TÜRKİYE,,,,,
Istanbul Furniture Fair,01/25/2022,2022,https://www.istanbulfurniturefair.com,DM,MAXİMO MOBİLYA İÇ VE DIŞ TİC SAN LTD ŞTİ,305/A,3,www.maximo.com.tr,,+90 530 738 7261,,ORGANİZE SANAYİ BÖLGESİ 15.CADDE NO : 2 / MELİKGAZİ / KAYSERİ / TÜRKİYE,,,,,
Istanbul Furniture Fair,01/25/2022,2022,https://www.istanbulfurniturefair.com,DM,MAYA TEKSTİL SAN. VE TİC. LTD. ŞTİ.,816,8,www.mayatextile.com,,+90 216 561 2001,,Merve Mah. Necip Fazıl Cad. No:12 34791 Sancaktepe Istanbul Turkey / / İSTANBUL / TÜRKİYE,,,,,
Istanbul Furniture Fair,01/25/2022,2022,https://www.istanbulfurniturefair.com,DM,MAZZINI FURNITURE,622,6,www.mazzinifurniture.com,,+90 532 315 8727,,AKHİSAR MAH. 2. FATİH CAD. NO: 4/1 / İNEGÖL / BURSA / TÜRKİYE,,,,,
Istanbul Furniture Fair,01/25/2022,2022,https://www.istanbulfurniturefair.com,DM,MEDMO MOBİLYA DAYANIKLI TÜKETİM MALLARI SAN. VE TİC.LTD.ŞTİ.,823/B,8,www.medmo.com.tr,,+90 536 638 5725,,ERTUĞRULGAZİ MAH. YILDIRIM CAD. NO: 9 İNEGÖL / BURSA / İNEGÖL / BURSA / TÜRKİYE,,,,,
Istanbul Furniture Fair,01/25/2022,2022,https://www.istanbulfurniturefair.com,DM,MEGA YATAK MOBİLYA SAN. VE TİC. A.Ş.,803,8,https://myviscoo.com.tr/,,+90 232 253 1747,,Çapak Mah. 2570 Sk. No: 25 / TORBALI / İZMİR / TÜRKİYE,,,,,
Istanbul Furniture Fair,01/25/2022,2022,https://www.istanbulfurniturefair.com,DM,MERAN OTOMOTİV İNŞAAT MOBİLYA KIRT. ELEKTR. MADEN PETROL ENERJİ HİZM. SAN.VE TİC. A.Ş.,225,2,https://www.ocasso.com.tr,,+90 532 777 9775,,MOBİLYA AĞAÇ iŞLERİ iHTİSAS OSB 1. NO:32 / İNEGÖL / BURSA / TÜRKİYE,,,,,
Istanbul Furniture Fair,01/25/2022,2022,https://www.istanbulfurniturefair.com,DM,MERKÜR İTH. İHR. BOYA VE ENERJİ SAN. TİC. LTD.ŞTİ.,902,9,www.merkurgold.com,,+90 212 294 5418,,Orta Mahalle Maltepe Cad. Kuzey Sok. Öz İş Hanı No: 5 Kat: 2 Bayrampaşa / İSTANBUL / İstanbul / İSTANBUL / TÜRKİYE,,,,,
Istanbul Furniture Fair,01/25/2022,2022,https://www.istanbulfurniturefair.com,DM,MESSE HOME MOBİLYA İNŞAAT A.Ş.,1003,10,www.messehome.com,,+90 533 736 5422,,Hamzabey Osb 23. cad. No:6 / İnegöl / BURSA / TÜRKİYE,,,,,
Istanbul Furniture Fair,01/25/2022,2022,https://www.istanbulfurniturefair.com,DM,METİN AKPINAR RAYLI DOLAP İNŞ. TURİZM. İTH. İHR. SAN. TİC. LTD. ŞTİ.,723/D,7,www.aydolap.com,,+05322838573,,FERHATPAŞA MAHALLESİ FEVZİ ÇAKMAK CADDESİ NO:62 / ATAŞEHİR / İSTANBUL / TÜRKİYE,,,,,
Istanbul Furniture Fair,01/25/2022,2022,https://www.istanbulfurniturefair.com,DM,MİMSAN EV GEREÇLERİ SAN. VE TİC. LTD. ŞTİ.,217,2,www.lora.com.tr,,+90 444 8 812,,O.S.B. 34 CADDE NO :20 / MELİKGAZİ / KAYSERİ / TÜRKİYE,,,,,
Istanbul Furniture Fair,01/25/2022,2022,https://www.istanbulfurniturefair.com,DM,MİRAGE MOBİLYA MİM. DEK. SAN. TİC. LTD. ŞTİ.,714,7,www.miragemobilya.com,,+90 216 527 1600,,Modoko Mobilyacılar Sitesi 2. Cadde No: 258 / Ümraniye / İSTANBUL / TÜRKİYE,,,,,
Istanbul Furniture Fair,01/25/2022,2022,https://www.istanbulfurniturefair.com,DM,MİRANDA DEKORASYON MOBİLYA VE İNŞ. TİC. LTD. ŞTİ.,103,1,,,+90 532 353 0143,,FATİH MAH. 1191 SOKAK NO:4B / GAZİEMİR / İZMİR / TÜRKİYE,,,,,
Istanbul Furniture Fair,01/25/2022,2022,https://www.istanbulfurniturefair.com,DM,MİREKSİM MOBİLYA DIŞ TİCARET SAN. VE TİC. LTD. ŞTİ.,1033,10,www.mireksim.com,,+90 543 306 5452,,OYMAAĞAÇ MAH. 5078. SOK. NO:3C / KOCASİNAN / KAYSERİ / TÜRKİYE,,,,,
Istanbul Furniture Fair,01/25/2022,2022,https://www.istanbulfurniturefair.com,DM,MİTSAN MAKİNA İNŞAAT TİC.VE SAN.A.Ş.,828,8,www.mitsan.com.tr,,+90 546 672 3738,,OSB 21. CAD. NO: 8 KAYSERİ / MELİKGAZİ / KAYSERİ / TÜRKİYE,,,,,
Istanbul Furniture Fair,01/25/2022,2022,https://www.istanbulfurniturefair.com,DM,MOD TASARIM AŞ,413/A,4,www.modtasarim.com,,+90 212 549 6110,,"Genel Müdürlük - İkitelli Dersan Koop. Sanayi Sitesi S1 A Blok No:302 Başakşehir, İstanbul Ofiste Her Şey - Seyrantepe Huzur Mahallesi C#807;amlıklar Caddesi, No:1 Levent, İstanbul / Sarıyer / İSTANBUL / TÜRKİYE",,,,,
Istanbul Furniture Fair,01/25/2022,2022,https://www.istanbulfurniturefair.com,DM,MODAMS MOBİLYA VE TEKSTİL SAN VE TİC LTD ŞTİ,515/B,5,www.modamsmobilya.com.tr,,+90 352 321 1263,,ORGANİZE SANAYİ BÖLGESİ 14. CAD. NO: 35 / MELİKGAZİ / KAYSERİ / TÜRKİYE,,,,,
Istanbul Furniture Fair,01/25/2022,2022,https://www.istanbulfurniturefair.com,DM,MODASEL ÖZARSLANLAR MOBİLYA SELAHATTİN ARSLAN,215/B,2,www.modasel.com,,+90 224 718 5561,,MAHMUDİYE MAH. SEMİZ SOK. NO:4 / İNEGÖL / BURSA / TÜRKİYE,,,,,
Istanbul Furniture Fair,01/25/2022,2022,https://www.istanbulfurniturefair.com,DM,MODEL ORMAN ÜRÜN.MOB.DEK.TAAH.İTH.İHR.SAN. VE TİC.LTD.ŞTİ.,205,2,https://www.modelin.com.tr,,+90 326 221 5041,,Güzelburç Güzelbirlik Mah. Kapılar sok. No:13/C / ANTAKYA / HATAY / TÜRKİYE,,,,,
Istanbul Furniture Fair,01/25/2022,2022,https://www.istanbulfurniturefair.com,DM,MODEL TASARIM DEKORASYON PAZ.SAN.TİC.LTD.ŞTİ.,1006,10,https://www.modeltasarim.com.tr/index.php?dl=en,,+90 544 435 1126,,Küçük Sanayi Sitesi Ağaç İşleri Bölümü 25. Sok. No: 5G / İnegöl / BURSA / TÜRKİYE,,,,,
Istanbul Furniture Fair,01/25/2022,2022,https://www.istanbulfurniturefair.com,DM,MODELİN MOBİLYA DEKORASYON İTH. İHR. SAN. VE TİC .LTD. ŞTİ.,205,2,https://www.modelin.com.tr,,+90 326 221 5041,,AÇIKDERE MAH. MOBİLYACILAR SİT.CAD. NO:2 / ANTAKYA / HATAY / TÜRKİYE,,,,,
Istanbul Furniture Fair,01/25/2022,2022,https://www.istanbulfurniturefair.com,DM,MODERNO KOLTUK VE MOBİLYA SANAYİ TİCARET A.Ş.,1215,12,http://modernosofa.com/,,+90 549 663 3766,,hamzabey osb 1. cadde no :39 / inegöl / BURSA / TÜRKİYE,,,,,
Istanbul Furniture Fair,01/25/2022,2022,https://www.istanbulfurniturefair.com,DM,MODİS SOFA MOİLYA SAN. VE TİC. LTD. ŞTİ.,502/A,5,www.modisinteriors.com,,+90 532 349 8313,,HAMZABEY OSB 3.CADDE NO:8 / İNEGÖL / BURSA / TÜRKİYE,,,,,
Istanbul Furniture Fair,01/25/2022,2022,https://www.istanbulfurniturefair.com,DM,MOGNO,704,7,www.mogno.com.tr,,+90 531 630 1890,,NATO YOLU 18 MART CADDESİ NO: 19 YUKARI DUDULLU / ÜMRANİYE / İSTANBUL / TÜRKİYE,,,,,
Istanbul Furniture Fair,01/25/2022,2022,https://www.istanbulfurniturefair.com,DM,MOİS MOBİLYA ORMAN ÜRÜNLERİ İTH.İHR.SAN. VE TİC.LTD.ŞTİ.,1221/A,12,www.moismobilya.com,,+90 224 712 1315,,Yeniceköy Mah. Necip Fazıl Cad. 645. Sok. No:7 / İnegöl / BURSA / TÜRKİYE,,,,,
Istanbul Furniture Fair,01/25/2022,2022,https://www.istanbulfurniturefair.com,DM,MOON MOBİLYA DIŞ TİC LTD ŞTİ,535/A,5,www.yavuzyildiz.com.tr,,+90 352 322 1822,,Organize Sanayi Bölgesi 29. cad. No: 61 Melikgazi / Kayseri / Melikgazi / KAYSERİ / TÜRKİYE,,,,,
Istanbul Furniture Fair,01/25/2022,2022,https://www.istanbulfurniturefair.com,DM,MOYEKS MOB TEKS SAN İÇ VE DIŞ TİC LTD ŞTİ,502/A,5,www.moyeks.com,,+90 352 321 1012,,OSB 16. CAD. NO: 34 / MELIKGAZİ / KAYSERİ / TÜRKİYE,,,,,
Istanbul Furniture Fair,01/25/2022,2022,https://www.istanbulfurniturefair.com,DM,MOZZİ MOBİLYA DIŞ TİC LTD ŞTİ,524/B,5,www.mozzi.com.tr,,+90 531 261 6216,,ORG SAN BOLG. 22 CADDE NO 11 / HACILAR / KAYSERİ / TÜRKİYE,,,,,
Istanbul Furniture Fair,01/25/2022,2022,https://www.istanbulfurniturefair.com,DM,MR BOSS MOBİLYA KOLTUK İNŞAAT OTOMOTİV DEKORASYON PETROL SAN. VE TİC.LTD.ŞTİ.,1222/B,12,MRBOSS HOME STYLE,,+90 224 711 9811,,mahmudiye mah. ağaç işleri san. bölg.27. mobilya sok. no/30 / / BURSA / TÜRKİYE,,,,,
Istanbul Furniture Fair,01/25/2022,2022,https://www.istanbulfurniturefair.com,DM,MR CLASSIC - YUSUF ÖZRAZGAT,605/B,6,www.mrclassic.com.tr,,+90 224 777 0710,,CERRAH MAHALLESİ 3.SANAYİ CADDESİ NO:16/A / İNEGÖL / BURSA / TÜRKİYE,,,,,
Istanbul Furniture Fair,01/25/2022,2022,https://www.istanbulfurniturefair.com,DM,MRS ARWEN KOLTUK MOBİLYA SAN. VE TİC.LTD.ŞTİ.,522/B,5,,,+90 552 714 8486,,SÜLEYMANİYE MAH. BABACAN CAD. NO:25-C İNEGÖL/BURSA / İNEGÖL / BURSA / TÜRKİYE,,,,,
Istanbul Furniture Fair,01/25/2022,2022,https://www.istanbulfurniturefair.com,DM,MUCE İTHALAT İHRACAT SAN. VE TİC. LTD. ŞTİ.,827/A,8,www.sanatde.com.tr,,+90 352 503 1404,,OSB 33. CAD. NO :18 HACILAR KAYSERİ / HACILAR / KAYSERİ / TÜRKİYE,,,,,
Istanbul Furniture Fair,01/25/2022,2022,https://www.istanbulfurniturefair.com,DM,MURAT PLASTİK SANAYİ VE TİCARET LTD.ŞTİ.,F2,Fuaye/Foyer,www.murat-plastik.com,,+90 342 329 4610,,5. OSB 83533 NOLU CAD NO: 14 / ŞEHİTKAMİL / GAZİANTEP / TÜRKİYE,,,,,
Istanbul Furniture Fair,01/25/2022,2022,https://www.istanbulfurniturefair.com,DM,MUSVENUS,1104,11,musvenus.com,,+90 541 518 1610,,Mahbubeler Mah. Mahbubeler Sok. No:112 Bandırma/Balıkesir / Bandırma / BALIKESİR / TÜRKİYE,,,,,
Istanbul Furniture Fair,01/25/2022,2022,https://www.istanbulfurniturefair.com,DM,MUZAFFER MOBİLYA ORMAN ÜRN. TEKSTİL SAN. TİC. LTD. ŞTİ.,1223/A,12,www.muzaffermobilya.com,,+90 224 711 7799,,Mesudiye Mah. Yıldırım Cad. No: 49 / İNEGÖL / BURSA / TÜRKİYE,,,,,
Istanbul Furniture Fair,01/25/2022,2022,https://www.istanbulfurniturefair.com,DM,MUZAFFER PAZARLAMA MOBİLYA TEKSTİL SAN. VE TİC.LTD.ŞTİ.,1223/A,12,www.muzaffermobilya.com,,+90 224 711 7799,,Mesudiye mh. Yıldırım cd. no:49 İnegöl / BURSA / İNEGÖL / BURSA / TÜRKİYE,,,,,
Istanbul Furniture Fair,01/25/2022,2022,https://www.istanbulfurniturefair.com,DM,MVN MOBİLYA SAN. VE TİC. LTD. ŞTİ.,1221/D,12,https://www.movena.com.tr/,,+90 322 385 2829 ext.,,YÜREKLİ MAH. D-400 KARAYOLU NO:89 / SARICAM / ADANA / TÜRKİYE,,,,,
Istanbul Furniture Fair,01/25/2022,2022,https://www.istanbulfurniturefair.com,DM,MYHOME HALI SANAYİ VE TİC. A.Ş.,723/B,7,www.myhomehali.com,,+90 506 127 3000,,istanbul masko mobilyacılar sitesi 15a blok sokak no30 / ikitelli / İSTANBUL / TÜRKİYE,,,,,
Istanbul Furniture Fair,01/25/2022,2022,https://www.istanbulfurniturefair.com,DM,NACİ GÜNGÖR MOBİLYA İMALATI,614/C,6,nbois.com,,+90 224 718 5502,,Yenice mah. 1. çayır sok. no: 3 / inegöl / BURSA / TÜRKİYE,,,,,
Istanbul Furniture Fair,01/25/2022,2022,https://www.istanbulfurniturefair.com,DM,NAM INTERIORS DESİNG - ARİF ÇIPLAKTEPE,704/B,7,,,+90 538 873 1962,,mahmudiye mah. küçük ağaç işleri sanayi 28. sok. no: 13 / inegöl / BURSA / TÜRKİYE,,,,,
Istanbul Furniture Fair,01/25/2022,2022,https://www.istanbulfurniturefair.com,DM,NARİNLER  MOBİLYA TİC. SAN. A.Ş,212,2,www.slims.com.tr,,+90 352 322 1757,,OSB. 24. CAD. NO: 60 / MELİKGAZİ / KAYSERİ / TÜRKİYE,,,,,
Istanbul Furniture Fair,01/25/2022,2022,https://www.istanbulfurniturefair.com,DM,NERR OFİS MOBİLYALARI SAN. TİC. A.Ş.,412/B,4,https://www.nerr.design/,,+90 232 264 6377,,Yeşillik Cad. No.231/4 / Karabağlar / İZMİR / TÜRKİYE,,,,,
Istanbul Furniture Fair,01/25/2022,2022,https://www.istanbulfurniturefair.com,DM,NESLİ MOBİLYA KOLTUK ORMAN ÜRÜNLERİ SAN. TİC. LTD. ŞTİ.,222,2,www.nills.com.tr,,+90 224 718 5616,,Mahmudiye Mahallesi 27. Mobilya Sokak No:1 / İnegöl / BURSA / TÜRKİYE,,,,,
Istanbul Furniture Fair,01/25/2022,2022,https://www.istanbulfurniturefair.com,DM,NEWMOOD MOBİLYA SAN.TİC.LTD.ŞTİ.,201,2,www.newmood.com.tr,,+90 224 714 0267,,AKHİSAR MAH.LODOS SK. NO:4 İNEGÖL/BURSA MOBİLİYUM B ETAP NO:37 İNEGÖL/BURSA (SHOWROOM) / İNEGÖL / BURSA / TÜRKİYE,,,,,
Istanbul Furniture Fair,01/25/2022,2022,https://www.istanbulfurniturefair.com,DM,NEYSS MOBİLYA İNŞ.TEKS.TAŞ.SAN. VE TİC.LTD.ŞTİ.,130,1,www.neyssmobilya.com.tr,,+90 532 406 7705,,Mahmudiye Mah.14. mobilya sok. No: 46/1 / İNEGÖL / BURSA / TÜRKİYE,,,,,
Istanbul Furniture Fair,01/25/2022,2022,https://www.istanbulfurniturefair.com,DM,NİĞDELİLER İNŞ. TAŞ. GIDA MOBİLYA PETROL ÜRÜN. DOLUM SAN. TİC. LTD. ŞTİ.,224/A,2,www.lucentemobilya.com.tr,,+90 232 281 6364,,FATİH MAH. ÇAMLIK CAD.NO:10 SARNIÇ/ GAZİEMİR / İzmir / İZMİR / TÜRKİYE,,,,,
Istanbul Furniture Fair,01/25/2022,2022,https://www.istanbulfurniturefair.com,DM,NİRON GRUP SANAL MARKET İLETİŞİM YAZILIM GIDA BASIN YAYIN TURZ. SAN. VE DIŞ TİC. LTD. ŞTİ.,823/A,8,www.nironyatak.com,,+90 444 8 958,,"Fabrika: Atatürk Caddesi No:185 , Yazıbaşı / Torbalı / İZMİR / TÜRKİYE",,,,,
Istanbul Furniture Fair,01/25/2022,2022,https://www.istanbulfurniturefair.com,DM,NLUX MOBİLYA OTOMOTİV SAN. VE TİC.LTD.ŞTİ.,417/B,4,,,+90 534 085 3919,,SÜLEYMANİYE OSB MAH. 2. CAD. NO: 19 İNEGÖL / BURSA / İNEGÖL / BURSA / TÜRKİYE,,,,,
Istanbul Furniture Fair,01/25/2022,2022,https://www.istanbulfurniturefair.com,DM,NOAHS MOBİLYA SAN. TİC. LTD. ŞTİ.,426/B,4,https://www.noahsdesign.com/,,+90 532 762 681,,Dokuz Eylül Mah.692 sokak No:20/B / GAZİEMİR / İZMİR / TÜRKİYE,,,,,
Istanbul Furniture Fair,01/25/2022,2022,https://www.istanbulfurniturefair.com,DM,NOKTA KALIP MAK. SAN. TİC. LTD. ŞTİ.,435/B,4,www.noktakalip.com.tr,,+90 212 549 4504,,İKİTELLİ ORG. SAN. BÖL. DERSANKOOP SAN. SİT. S6C BLOK NO: 302 KAT: 3 / BAŞAKŞEHİR / İSTANBUL / TÜRKİYE,,,,,
Istanbul Furniture Fair,01/25/2022,2022,https://www.istanbulfurniturefair.com,DM,NORDE MOBİLYA A.Ş.,811,8,https://www.norde.com.tr,,+90 534 488 4906,,huzur mh. karadeniz cd. no:32/2A / Ümraniye / İSTANBUL / TÜRKİYE,,,,,
Istanbul Furniture Fair,01/25/2022,2022,https://www.istanbulfurniturefair.com,DM,NOTTİ HOME,714,7,NOTTİ HOME,,+90 552 529 2044,,AKHİSAR 282.SOKAK NO:11 16400 / İNEGÖL / BURSA / TÜRKİYE,,,,,
Istanbul Furniture Fair,01/25/2022,2022,https://www.istanbulfurniturefair.com,DM,NTARZ MOBİLYA AKSESUAR SANAYİ TİCARET LİMİTED ŞİRKETİ,104,1,www.ntarz.com,,+90 538 264 2022,,Cumhuriyet mahallesi 66.Sok No : 7/A / İnegöl / BURSA / TÜRKİYE,,,,,
Istanbul Furniture Fair,01/25/2022,2022,https://www.istanbulfurniturefair.com,DM,NURUS NURETTİN USTA PROJE DEK. MOB. AKS. ÜRT. İTH. İRH. NAK. A.Ş.,221/B,2,nurus.com,,+90 312 589 0000,,1.Organize Sanayi Bölgesi Oğuz Cad. No: 25 06935 Sincan / / ANKARA / TÜRKİYE,,,,,
Istanbul Furniture Fair,01/25/2022,2022,https://www.istanbulfurniturefair.com,DM,ODAM KOLTUK MOBİLYA İNŞ.TAAH.SAN. VE TİC.LTD.ŞTİ.,503,5,www.odam.com.tr,,+90 533 623 4933,,MAHMUDİYE MAH. 22.MOBİLYA SOK. NO: 1/A / İNEGÖL / BURSA / TÜRKİYE,,,,,
Istanbul Furniture Fair,01/25/2022,2022,https://www.istanbulfurniturefair.com,DM,OFİSBAZAAR BÜRO-MUTFAK-BANYO MOD.MOB. SAN. TİC. VE PAZ. LTD. ŞTİ.,940,9,,,+90 358 500 0025,,PİRİNÇCİ MAH. HABİBİ SOK. ŞİMŞEK APT. ALTI NO : 14/A / / AMASYA / TÜRKİYE,,,,,
Istanbul Furniture Fair,01/25/2022,2022,https://www.istanbulfurniturefair.com,DM,OKAN KOLTUK MOBİLYA VE DONANIMLARI SAN. VE TİCARET LTD.ŞTİ.,202/B,2,,,+90 555 860 1318,,alibey mahallesi alibeykoy ınegol yolu cd no 76 / inegöl / BURSA / TÜRKİYE,,,,,
Istanbul Furniture Fair,01/25/2022,2022,https://www.istanbulfurniturefair.com,DM,OKAN OTURMA GRUPLARI OKAN GÜLER,202/B,2,www.okankoltuk.com,,+90 555 860 1315,,Alibey Mh. Alibeyköy-İnegöl Yolu Cd. No:76 İnegöl / / BURSA / TÜRKİYE,,,,,
Istanbul Furniture Fair,01/25/2022,2022,https://www.istanbulfurniturefair.com,DM,OKUMUŞ AHŞAP TASARIM İNŞ. SAN.TİC. LTD. ŞTİ.,702,7,https://okumusmobilya.com/,,+90 535 934 9734,,ÖNDER MAH. YAPICI SOK. NO:10 ALTINDAĞ - ANKARA/TÜRKİYE / ALTINDAĞ / ANKARA / TÜRKİYE,,,,,
Istanbul Furniture Fair,01/25/2022,2022,https://www.istanbulfurniturefair.com,DM,ONESTO MOBİLYA VE MOBİLYA AKS. SAN.TİC.LTD.ŞTİ.,922,9,www.onesto.com.tr,,+90 224 713 3306,,Mahmudiye Mah. 29. Mobilya Sok. No: 16 / İnegöl / BURSA / TÜRKİYE,,,,,
Istanbul Furniture Fair,01/25/2022,2022,https://www.istanbulfurniturefair.com,DM,ORHANLAR MOBİLYA SAN.TİC.İTH.İHR.LTD.ŞTİ.,720,7,www.nuriorhan.com,,+90 532 284 4700,,MAHMUDİYE MAH. AĞAÇ İŞLERİ 23. MOBİLYA SOK. NO: 56 İNEGÖL / BURSA / İNEGÖL / BURSA / TÜRKİYE,,,,,
Istanbul Furniture Fair,01/25/2022,2022,https://www.istanbulfurniturefair.com,DM,ORİGAMİ MOBİLYA İNŞ.GID. EML.NAK.TUR.TAAH. SAN.TİC.LTD.ŞTİ.,822/A,8,www.origamimobilya.com,,+90 312 350 0303,,"Karacakaya Caddesi, No:107/B Siteler / Altındağ / ANKARA / TÜRKİYE",,,,,
Istanbul Furniture Fair,01/25/2022,2022,https://www.istanbulfurniturefair.com,DM,ORİON DERİ SAN. VE TİC. LTD. ŞTİ.,F3,Fuaye/Foyer,https://orionderi.com.tr/,,+90 212 221 5568,,Gürsel Mahallesi Özoğul Caddesi No:2 / Kağıthane / İSTANBUL / TÜRKİYE,,,,,
Istanbul Furniture Fair,01/25/2022,2022,https://www.istanbulfurniturefair.com,DM,ORPAK MOBİLYA İNŞAAT SAN. VE TİC. A.Ş.,1131/B,11,www.coploonba.com,,+90 232 864 2250,,ZAFER MAH. AKCAY CAD. NO: 142/E / GAZİEMİR / İZMİR / TÜRKİYE,,,,,
Istanbul Furniture Fair,01/25/2022,2022,https://www.istanbulfurniturefair.com,DM,OSMAN HÜRARSLAN MOB.SAN.İTH.İHR.LTD.ŞTİ.,235/C,2,https://webmail.osmanhurarslan.com/,,+90 538 695 2468,,MESUDİYE MAH. YILDIRIM CAD. NO: 55 / İNEGÖL / BURSA / TÜRKİYE,,,,,
Istanbul Furniture Fair,01/25/2022,2022,https://www.istanbulfurniturefair.com,DM,OSMANBEY ŞEMŞİYE TEKSTİL SAN.TİC.LTD.ŞTİ.,1144/E,11,https://tevallidesign.com.tr/,,+90 212 438 3434,,ORUÇREİS MAH. VADİ CAD. NO:104 GİYİMKENT / ESENLER / İSTANBUL / TÜRKİYE,,,,,
Istanbul Furniture Fair,01/25/2022,2022,https://www.istanbulfurniturefair.com,DM,OTTO MOBİLYA DEKORASYON TASARIM SAN. VE TİC. A.Ş.,1124,11,www.prettbaby.com.tr,,+90 222 236 8440,,Organize Sanayi Bölgesi 20. Cadde No : 2 / Merkez / ESKİŞEHİR / TÜRKİYE,,,,,
Istanbul Furniture Fair,01/25/2022,2022,https://www.istanbulfurniturefair.com,DM,OVALI MOBİLYA DEK. İNŞ. TAAH. TAŞ. İHT. İHR. SAN. TİC. LTD. ŞTİ.,413/B,4,https://www.burobig.com.tr/,,+90 539 563 7000,,Balıkhisar Mah. Turgutreis Cad. No: 3 / AKYURT / ANKARA / TÜRKİYE,,,,,
Istanbul Furniture Fair,01/25/2022,2022,https://www.istanbulfurniturefair.com,DM,ÖZ MIHÇI ÇELİK EŞYA MOB.DAY.TÜK.MAL.PAZ.İNŞ.NAK.SAN.TİC.LTD.ŞTİ.,925/B,9,www.dengema.com,,+90 352 321 2514,,ORGANİZE SANAYİ BÖLGESİ 10.CAD. NO:24 / MELİKGAZİ / KAYSERİ / TÜRKİYE,,,,,
Istanbul Furniture Fair,01/25/2022,2022,https://www.istanbulfurniturefair.com,DM,ÖZBAŞ KOLTUK - MEHMET ÖZBAŞ,723/A,7,ozbaskoltuk,,+90 532 483 5684,,karacakaya caddesi no:149 siteler ankara / altındağ / ANKARA / TÜRKİYE,,,,,
Istanbul Furniture Fair,01/25/2022,2022,https://www.istanbulfurniturefair.com,DM,ÖZGÜRÇELİK OFİS MOB İML SAN TİC LTD ŞTİ,423,4,https://marwood.com.tr/,,+90 342 513 0016,,Özgür Çelik Ofis Mobilyaları Doğrular Nizip OSB 5.Cad No:16 / Nizip / GAZİANTEP / TÜRKİYE,,,,,
Istanbul Furniture Fair,01/25/2022,2022,https://www.istanbulfurniturefair.com,DM,ÖZKUL MOBİLYA ORMAN ÜRÜNLERİ İTHALAT İHRACAT PAZARLAMA TURİZM DAHİLİ TİCARET LİMİTED ŞİRKETİ,902/A,9,www.ozkkulmobilya.com.tr,,+90 532 678 4960,,SAİM ÇIKRIKÇI CADDESİ NO:13 KISIKKÖY / MENDERES / İZMİR / TÜRKİYE,,,,,
Istanbul Furniture Fair,01/25/2022,2022,https://www.istanbulfurniturefair.com,DM,ÖZKUTLU MOBİLYA R.İRFAN ÖZKUTLU,501,5,www.artimaj.com / www.imajyatak.com,,+90 246 556 5152,,FACTORY(1): SÜLEYMAN DEMİREL ORGANİZE SANAYİ BÖLGESİ 112.CADDE NO:10 / GÖNEN / ISPARTA / TÜRKİYE,,,,,
Istanbul Furniture Fair,01/25/2022,2022,https://www.istanbulfurniturefair.com,DM,ÖZNİL MOBİLYA İNŞAAT GIDA SAN. TİC. LTD. ŞTİ.,401,4,www.oznil.com,,+90 224 718 5490,,MAHMUDİYE MAH. 24. MOB SOK. NO: 3 / İNEGÖL / BURSA / TÜRKİYE,,,,,
Istanbul Furniture Fair,01/25/2022,2022,https://www.istanbulfurniturefair.com,DM,ÖZPINAR TİCARET PAZARLAMA LTD. ŞTİ.,212,2,www.hevin.com.tr,,+90 322 394 5205,,ADANA HACI SABANCI ORG. SAN. BÖLG. İSMET ATLI CAD. NO:24 / SARIÇAM / ADANA / TÜRKİYE,,,,,
Istanbul Furniture Fair,01/25/2022,2022,https://www.istanbulfurniturefair.com,DM,ÖZTORUNLAR MOB. EKREM TORUN,102,1,www.sudecollection.com,,+90 532 560 1234,,Ertuğrulgazi Cad. no:70 / İnegöl / BURSA / TÜRKİYE,,,,,
Istanbul Furniture Fair,01/25/2022,2022,https://www.istanbulfurniturefair.com,DM,PALA SUNİ DERİ DERİCİLİK SAN TİC LTD ŞTİ,F1,Fuaye/Foyer,www.palasunideri.com,,+90 212 576 5905,,Yenidoğan Mah. Abdi İpekçi Cad. Çizmeci İş Merkezi NO: 87/5 / Bayrampaşa / İSTANBUL / TÜRKİYE,,,,,
Istanbul Furniture Fair,01/25/2022,2022,https://www.istanbulfurniturefair.com,DM,PALMERA MOBİLYA SAFİYE GÜNEL,1123/A,11,www.palmera.com.tr,,+90 352 290 7310,,Organize Sanayi Bölgesi 5. Cadde No:5 / Melikgazi / KAYSERİ / TÜRKİYE,,,,,
Istanbul Furniture Fair,01/25/2022,2022,https://www.istanbulfurniturefair.com,DM,PAPELART - METİN ÖZKARA,1005/B,10,www.papelart.com.tr,,+90 536 586 6907,,Cerrah Mah. 3.Sanayi Cad. No:5 / İnegöl / BURSA / TÜRKİYE,,,,,
Istanbul Furniture Fair,01/25/2022,2022,https://www.istanbulfurniturefair.com,DM,PARLAYAN KOÇ ÇELİK EŞYA İMALATI İBRAHİM KARAKOÇ,1053,10,www.parlayankoc.com,,+90 531 680 5555,,ESENTEPE MH. 2987 AK. GAMAS MOBİLYACILAR SANAYİ SİTESİ K BLOK NO:24-26 / SULTANGAZİ / İSTANBUL / TÜRKİYE,,,,,
Istanbul Furniture Fair,01/25/2022,2022,https://www.istanbulfurniturefair.com,DM,PAŞA KOLTUK MOBİLYA SANAYİ VE TİCARET LTD.ŞTİ.,912/B,9,www.pasakoltuk.com,,+90 224 711 7488,,SÜLEYMANİYE MAHALLESİ BABACAN CADDESİ C BLOK NO 25 CC MOBİLYA CENTER İNEGÖL / BURSA / İNEGÖL / BURSA / TÜRKİYE,,,,,
Istanbul Furniture Fair,01/25/2022,2022,https://www.istanbulfurniturefair.com,DM,PAYE MOBİLYA KOLTUK SAN. VE TİC LTD. ŞTİ.,521,5,www.pmclub.com.tr,,+90 507 705 4468,,Yeniceköy Mah. 644. Dk. No: 6 Yenice / İnegöl / BURSA / TÜRKİYE,,,,,
Istanbul Furniture Fair,01/25/2022,2022,https://www.istanbulfurniturefair.com,DM,PINAR ERARSLAN MOBİLYA KOLTUK PERAKENDE TİCARETİ,713/B,7,,,+90 544 775 5940,,MAHMUDİYE MH ERTUĞRULGAZİ CAD. NO: 86/7 / İNEGÖL / BURSA / TÜRKİYE,,,,,
Istanbul Furniture Fair,01/25/2022,2022,https://www.istanbulfurniturefair.com,DM,PIRLANTA BAHÇE MOB. PAZ. SAN. TİC. LTD. ŞTİ.,1112/A,11,www.alresgarden.com,,+90 552 542 3900,,Odabasi Mahallesi 9681 Sokak - Kepez / Turkey / ANTALYA / TÜRKİYE,,,,,
Istanbul Furniture Fair,01/25/2022,2022,https://www.istanbulfurniturefair.com,DM,PİANNO MOBİLYA ABDULLAH BOZTEPE,523,5,www.piannomobilya.com,,+90 532 477 7356,,MAHMUDİYE MAH. AĞAÇ İŞLERİ SANAYİ 29. MOBİLYA SOK. NO: 5 / İnegöl / BURSA / TÜRKİYE,,,,,
Istanbul Furniture Fair,01/25/2022,2022,https://www.istanbulfurniturefair.com,DM,PİANTA COLLECTİON MOBİLYA VE KOLTUK İMALAT İNŞAAT OTOMOTİV  SAN.TİC.LTD.ŞTİ.,1004,10,,,+90 541 504 3432,,Mahmudiye Mah. Özlem sol. no:28 / İnegöl / BURSA / TÜRKİYE,,,,,
Istanbul Furniture Fair,01/25/2022,2022,https://www.istanbulfurniturefair.com,DM,PİYANO GENÇ ODASI MOBİLYA SAN. VE TİC. LTD. ŞTİ.,1123/B,11,www.piyanomobilya.com,,+90 352 504 2300,,KARPUZSEKİSİ MH. 6070. SOKAK NO.8 / HACILAR / KAYSERİ / TÜRKİYE,,,,,
Istanbul Furniture Fair,01/25/2022,2022,https://www.istanbulfurniturefair.com,DM,POLİTEKS ELYAF SAN. VE TİC. LTD.ŞTİ.,901,9,www.polifelt.com,,+90 538 797 9304,,BAŞPINAR 2. OSB 83226 NOLU CAD. NO: 31 Ş.KAMİL - GAZİANTEP / ŞEHİTKAMİL / GAZİANTEP / TÜRKİYE,,,,,
Istanbul Furniture Fair,01/25/2022,2022,https://www.istanbulfurniturefair.com,DM,PRENSES İNŞAAT TAAH. MOB. TEKS. OTOM. GIDA İTH. İHR. SAN. VE TİC. LTD.ŞTİ.,1433/A,14,www.prensesmobilya.com,,+90 532 681 1224,,MASKO MOBILYA KENTİ 15 B BLOK NO 15 BAŞAKŞEHİR İSTANBUL / BAŞAKŞEHİR / İSTANBUL / TÜRKİYE,,,,,
Istanbul Furniture Fair,01/25/2022,2022,https://www.istanbulfurniturefair.com,DM,RACİ İÇ VE DIŞ TİCARET LTD. ŞTİ.,503/B,5,www.raci.com.tr,,+90 352 504 0000,,ANBAR MAH. 54. CAD. NO:15/C MELİKGAZİ KAYSERİ / TURKEY / KAYSERİ / TÜRKİYE,,,,,
Istanbul Furniture Fair,01/25/2022,2022,https://www.istanbulfurniturefair.com,DM,RAHAT KOLTUK YATAK İNŞ.NAK.OTO.KİRA.GIDA TURZ.SAN.VE TİC.LTD.ŞTİ.,213,2,www.rahathomedesign.com.,,+90 533 030 6216,,İnönü Mah. 139 Sok. No:7 Pancar / Torbalı / İZMİR / TÜRKİYE,,,,,
Istanbul Furniture Fair,01/25/2022,2022,https://www.istanbulfurniturefair.com,DM,RAPİDO MOBİLYA DEKORASYON TAH SAN VE TİC AŞ,431/B,4,www.rapido.com.tr,,+90 312 267 3737,,BAŞKENT O.S.B. 81.SOK. NO:5 MALIKÖY 06909 / SİNCAN / ANKARA / TÜRKİYE,,,,,
Istanbul Furniture Fair,01/25/2022,2022,https://www.istanbulfurniturefair.com,DM,RATTAN BAHÇE MOBİLYA SAN. TİC. LTD. ŞTİ.,1025/A,10,https://www.lucegarden.com/,,+90 462 262 6624,,ŞİNİK OSB MAH.1 NOLU CD. NO:42/2 İÇ KAPI NO:2 / AKÇAABAT / TRABZON / TÜRKİYE,,,,,
Istanbul Furniture Fair,01/25/2022,2022,https://www.istanbulfurniturefair.com,DM,RAUDİ PAZ.MOB.İÇ VE DIŞ TİC.LTD.ŞTİ.,923,9,http://www.raudi.com.tr,,+90 532 597 3333,,YENİCEKÖY MH. FATİH SULTAN MEHMET HAN BULVARI SÜSVEREN KUĞU NO: 94/2 İNEGÖL / BURSA / İNEGÖL / BURSA / TÜRKİYE,,,,,
Istanbul Furniture Fair,01/25/2022,2022,https://www.istanbulfurniturefair.com,DM,RECEP KAYA KOLTUK İMALATI VE TİCARETİ,624/B,6,www.stonekoltuk.com,,+90 532 387 3284,,MAHMUDİYE MAHALLESİ ÖZKAN SOK. NO:7 / İnegöl / BURSA / TÜRKİYE,,,,,
Istanbul Furniture Fair,01/25/2022,2022,https://www.istanbulfurniturefair.com,DM,REDLİNE İNOVASYON MOBİLYA VE TEKSTİL İML SAN TİC LTD ŞTİ,505/B,5,https://www.redlineinovasyon.com/,,+90 352 503 4901,,KARPUZSEKİS MAH. 34. CAD NO:2/B HACIALR KASYERİ REDLİNE MOBİLYA / Melikgazi / KAYSERİ / TÜRKİYE,,,,,
Istanbul Furniture Fair,01/25/2022,2022,https://www.istanbulfurniturefair.com,DM,REDOF BÜRO MOB TEKSTİL LOJ SAN TİC LTD ŞTİ,435/A,4,www.redof.com.tr,,+90 352 321 2843,,OSB 6. CADDE NO:34 / MELİKGAZİ / KAYSERİ / TÜRKİYE,,,,,
Istanbul Furniture Fair,01/25/2022,2022,https://www.istanbulfurniturefair.com,DM,RELAX KOLTUK NURCAN ŞAHİN,723/A,7,www.relaxlife.com.tr,,+90 224 718 6008,,O.S.B STARWOOD MOBİLYAKENT CUMHURİYET MAH. YILDIRIM BEYAZIT CAD. NO: 5 A-12 BLOK / İNEGÖL / BURSA / TÜRKİYE,,,,,
Istanbul Furniture Fair,01/25/2022,2022,https://www.istanbulfurniturefair.com,DM,REMAKS MOBİLYA AKSESUAR İMALATI İSMAİL ARSLAN,1124/C,11,,,+90 532 595 5312,,HÜRRİYET MH.ÇEVREYOLU BULVARI NO:15 / MENDERES / İZMİR / TÜRKİYE,,,,,
Istanbul Furniture Fair,01/25/2022,2022,https://www.istanbulfurniturefair.com,DM,RETTO MOBİLYA - CELAL KARTAL,922,9,www.rettomobilya.com.tr,,+90 533 277 3484,,önder mahallesi ereğli cad. no:42/a-b siteler altındağ ankara / altındağ / ANKARA / TÜRKİYE,,,,,
Istanbul Furniture Fair,01/25/2022,2022,https://www.istanbulfurniturefair.com,DM,REYNA SOFA MOBİLYA İTH. VE İHR. SAN.VE TİC.LTD.ŞTİ.,106,1,http://reynasofa.com/,,+90 507 440 8053,,OSMANİYE MH. ALTIEYLÜL CD. NO6/C / İnegöl / BURSA / TÜRKİYE,,,,,
Istanbul Furniture Fair,01/25/2022,2022,https://www.istanbulfurniturefair.com,DM,RİTAC MOBİLYA İMALAT SAN. VE TİC. LTD. ŞTİ.,1,1,www.ritac.com.tr,,+90 352 503 7902,,osb 2. cad. no:7 melikgazi / kayseri / MELİKGAZİ / KAYSERİ / TÜRKİYE,,,,,
Istanbul Furniture Fair,01/25/2022,2022,https://www.istanbulfurniturefair.com,DM,ROLL MOBİLYA SAN. VE TİC. LTD. ŞTİ.,154,1,www.rollmobilya.com,,+90 543 347 5712,,YENİCEKÖY MAH.FATİH SULTAN MEHMET HAN BULV. NO 23 / İNEGÖL / BURSA / TÜRKİYE,,,,,
Istanbul Furniture Fair,01/25/2022,2022,https://www.istanbulfurniturefair.com,DM,ROMEL KOLTUK KOLTUK DÖŞME İMALATI RASİM AKASYA,1232/A,12,www.romelkoltuk.com,,+90 507 795 7202,,MAHMUDİYE MAH. 7.MOBİLYA SOK. NO: 32/1 / / BURSA / TÜRKİYE,,,,,
Istanbul Furniture Fair,01/25/2022,2022,https://www.istanbulfurniturefair.com,DM,ROOM DESİGN MOBİLYA ORMA ÜRÜNLERİ İNŞ.TAAH.TEKSTİL TUR.OTOMOTİV SAN.TİC.LTD.ŞTİ.,156/B,1,http://www.wossew.com.tr/,,+90 549 110 1049,,YENİCEKÖY MAH. FATİH SULTAN MEHMETHAN BLV. NO: 38/2 İNEGÖL/BURSA / / BURSA / TÜRKİYE,,,,,
Istanbul Furniture Fair,01/25/2022,2022,https://www.istanbulfurniturefair.com,DM,ROTA - İKC MOBİLYA İLKAY COŞKUN,532/B,5,www.rotaikcmobilya.com,,+90 532 670 1619,,MAHMUDİYE MAH. 11. MOBİLYA SOK. NO: 3/E / İNEGÖL / BURSA / TÜRKİYE,,,,,
Istanbul Furniture Fair,01/25/2022,2022,https://www.istanbulfurniturefair.com,DM,ROTTA KOLTUK MOBİLYA SAN. VE TİC.LTD.ŞTİ.,1222/C,12,www.rottakoltuk.com,,+90 224 718 5333,,İ.K.S.S. AĞAÇ İŞLERİ BÖLÜMÜ 10. MOBİLYA SOKAK NO:8 / İNEGÖL / BURSA / TÜRKİYE,,,,,
Istanbul Furniture Fair,01/25/2022,2022,https://www.istanbulfurniturefair.com,DM,ROZET MOBİLYA DEK.İNŞ. SAN.VE TİC.LTD.ŞTİ.,1412/B,14,www.rozet.com.tr,,+90 532 472 3318,,önder mah ereğli cad siteler Altındağ - ANKARA / altındağ / ANKARA / TÜRKİYE,,,,,
Istanbul Furniture Fair,01/25/2022,2022,https://www.istanbulfurniturefair.com,DM,RUGAN iNŞAAT SAN. DIŞ TİC. LTD.ŞTİ.,533/A,5,www.ruganmobilya.com.tr,,+90 352 322 2116,,ORGANİZE SANAYİ BÖLGESİ 2. CAD. NO: 16 MELİKGAZİ /KAYSERİ / MELİKGAZİ / KAYSERİ / TÜRKİYE,,,,,
Istanbul Furniture Fair,01/25/2022,2022,https://www.istanbulfurniturefair.com,DM,SALİHOĞULLARI YATAK MODÜLER MOBİLYA TEKSTİL TARIM SAN. TİC. LTD. ŞTİ.,F3,Fuaye/Foyer,https://patiko.com.tr/,,+90 532 151 4390,,O.S.B KARPUZSEKİ MAH. 30. CAD. NO: 31 / HACILAR / KAYSERİ / TÜRKİYE,,,,,
Istanbul Furniture Fair,01/25/2022,2022,https://www.istanbulfurniturefair.com,DM,SALTANAT KANEPE KOLTUK MOBİLYA GIDA TEKS. İNŞ. İNŞ. OTOM. TUR. SAN. A.Ş.,221/A,2,www.saltanat.com.tr,,+90 533 740 0918,,Org. San. Böl. 24. Cad. Sonu No:165 Melikgazi / KAYSERİ / MELİKGAZİ / KAYSERİ / TÜRKİYE,,,,,
Istanbul Furniture Fair,01/25/2022,2022,https://www.istanbulfurniturefair.com,DM,SANAT MOBİLYA VE MOB.MLZ.ORM.ÜRÜN.İNŞ.TAŞ.GIDA DAY.TÜK.MAL.SAN. İÇ VE DIŞ TİC. LTD. ŞTİ.,223,2,http://sanatmobilya.com,,+90 541 725 8546,,İnegöl Mobilya Ağaç İşleri İhtisas O.S.B. 1. Cd. No.6 İnegöl/BURSA / İnegöl / BURSA / TÜRKİYE,,,,,
Istanbul Furniture Fair,01/25/2022,2022,https://www.istanbulfurniturefair.com,DM,SANTRA MOBİLYA KOL.TAŞ.SAN.TİC.LTD.ŞTİ.,523/A,5,www.santragroup.com,,+90 224 714 2204,,AKHİSAR MAH. LODOS SOK. NO:1 / İNEGÖL / BURSA / TÜRKİYE,,,,,
Istanbul Furniture Fair,01/25/2022,2022,https://www.istanbulfurniturefair.com,DM,SARDUNYA ORMAN ÜRÜNLERİ TAŞIMACILIK MOBİLYA SAN. VE TİC.LTD.ŞTİ.,702,7,www.sardunyafurniture.com,,+90 533 663 6997,,YENİ SANAYİ 15. SOK. NO: 19 / İNEGÖL / BURSA / TÜRKİYE,,,,,
Istanbul Furniture Fair,01/25/2022,2022,https://www.istanbulfurniturefair.com,DM,SAVAŞ PLASTİK SAN.TİC.A.Ş,935,9,www.tiliafurniture.com,,+90 212 422 3406,,Beysan Sanayi Sitesi Birlik Caddesi No:18 34524 / Beylikdüzü / İSTANBUL / TÜRKİYE,,,,,
Istanbul Furniture Fair,01/25/2022,2022,https://www.istanbulfurniturefair.com,DM,SEÇGİN ORMAN ÜRÜNLERİ SANAYİ VE TİCARET A.Ş.,802/A,6,www.sancrea.com,,+90 224 718 5447,,Hamzabey OSB. Mah. 4.Cad.No: 8 / İNEGÖL / BURSA / TÜRKİYE,,,,,
Istanbul Furniture Fair,01/25/2022,2022,https://www.istanbulfurniturefair.com,DM,SEÇKİN PANEL RES.MOB.İNŞ.TAAH.SAN. VE TİC.LTD.ŞTİ.,711/A,7,www.seckinmobilya.com.tr,,+90 224 718 5501,,MAHMUDİYE MAH.14.MOBİLYA SK.NO:48 / İNEGÖL / BURSA / TÜRKİYE,,,,,
Istanbul Furniture Fair,01/25/2022,2022,https://www.istanbulfurniturefair.com,DM,SEÇMELER MOBİLYA PAZ. SAN. VE TİC. LTD. ŞTİ.,1414/A,14,http://www.secme.com.tr,,+90 312 349 5487,,ÇİĞİLTEPE MAH. BOSTANCIK CAD. NO:9 MAMAK/ANKARA / MAMAK / ANKARA / TÜRKİYE,,,,,
Istanbul Furniture Fair,01/25/2022,2022,https://www.istanbulfurniturefair.com,DM,SEER MOBİLİ SERKAN ERASLAN,1221/C,12,www.seermobili.com,,+90 224 711 7113,,Ağaç işleri İpekyolu cad. no:7 / İnegöl / BURSA / TÜRKİYE,,,,,
Istanbul Furniture Fair,01/25/2022,2022,https://www.istanbulfurniturefair.com,DM,SEHA KOLTUK SAN.TİC.LTD.ŞTİ.,611,6,www.sehakoltuk.com,,+90 224 713 4030,,MESUDİYE MAHALLESİ YILDIRIM CADDESİ BURSA ANKARA YOLU ÜZERİ NO.41 / İNEGÖL / BURSA / TÜRKİYE,,,,,
Istanbul Furniture Fair,01/25/2022,2022,https://www.istanbulfurniturefair.com,DM,SEHPASAN MOBİLYA KOL.TAŞ.SAN.VE TİC.LTD.ŞTİ.,1021,10,ww.togohomestyle.com,,+90 224 718 5575,,YENİCEKÖY MAH. MOBİLYA CAD. NO: 31/1 / İNEGÖL / BURSA / TÜRKİYE,,,,,
Istanbul Furniture Fair,01/25/2022,2022,https://www.istanbulfurniturefair.com,DM,SEİZ DEBRİYAJ KALIP ELEKTRİK İNŞAAT SAN. VE TİC. LTD. ŞTİ.,1040,10,www.seiz.com.tr,,+90 312 394 1099,,İVEDİK OSB. 1472. CAD. NO: 64-69 PK. 06378 / YENİMAHALLE / ANKARA / TÜRKİYE,,,,,
Istanbul Furniture Fair,01/25/2022,2022,https://www.istanbulfurniturefair.com,DM,SEKİ KOLTUK MOBİLYA İNŞAAT VE SAN.TİC.LTD.ŞTİ.,232,2,www.cassemu.com,,+90 224 713 1000,,SÜLEYMANİYE MAH. BABACAN CAD. NO:25 CAD. / INEGOL / BURSA / TÜRKİYE,,,,,
Istanbul Furniture Fair,01/25/2022,2022,https://www.istanbulfurniturefair.com,DM,SELENGA PREMİUM MOB.SAN. VE TİC.LTD.ŞTİ.,134,1,www.selengapremium.com,,+90 224 715 8416,,MOBİLİYUM AVM A ETAP 1.KAT NO:20 / İNEGÖL / BURSA / TÜRKİYE,,,,,
Istanbul Furniture Fair,01/25/2022,2022,https://www.istanbulfurniturefair.com,DM,SELİMOĞLU KOLTUK VE MOB. SAN. İÇ VE DIŞ TİC. LTD. ŞTİ.,211,2,https://www.selimoglu.com,,+90 224 714 9080,,SÜLEYMANİYE MH. BABACAN CD. NO:17 / İNEGÖL / BURSA / TÜRKİYE,,,,,
Istanbul Furniture Fair,01/25/2022,2022,https://www.istanbulfurniturefair.com,DM,SELVİ MODÜLER MOBİLYA ÜRETİM VE PAZARLAMA SAN. VE TİC.LTD.ŞTİ.,131,1,,,+90 212 606 1008,,karayolları mahallesi 567 sokak no 23 / gaziosmanpaşa / İSTANBUL / TÜRKİYE,,,,,
Istanbul Furniture Fair,01/25/2022,2022,https://www.istanbulfurniturefair.com,DM,SERGİ KANEPE KOLTUK OTUR. GRUP. MOB. İNŞ. İTH. İHR. SAN. TİC. LTD. ŞTİ.,604/B,6,https://www.sergi.com.tr/,,+90 352 322 1247,,Organize Sanayi Bölgesi Karpuzsekisi Mah. 6072. Sok. / Melikgazi / KAYSERİ / TÜRKİYE,,,,,
Istanbul Furniture Fair,01/25/2022,2022,https://www.istanbulfurniturefair.com,DM,SES ÇELİK TEL YAY METAL SAN VE TİC LTD ŞTİ,1141,11,www.sescelikfurniture.com,,+90 532 352 0905,,Karpuzsekisi Mah. Osb 24 Cad. No 42 / Hacılar / KAYSERİ / TÜRKİYE,,,,,
Istanbul Furniture Fair,01/25/2022,2022,https://www.istanbulfurniturefair.com,DM,SEVYAT YATAK BAZA MOBİLYA EV TEKSTİLİ SAN.TİC.LTD.ŞTİ.,809,8,,,+90 352 321 2637,,KARPUZSEKİSİ MAH. 6061.SOK. NO: 2 HACILAR KAYSERI / HACILAR / KAYSERİ / TÜRKİYE,,,,,
Istanbul Furniture Fair,01/25/2022,2022,https://www.istanbulfurniturefair.com,DM,SİM MOBİLYA VE DEK. SAN. VE TİC. LTD. ŞTİ.,822/C,8,www.stellamobilya.com,,+90 216 484 5946,,Istanbul Tuzla Kimya Sanayicileri O.S.B. Kristal Cad. No:76 34953 / Tuzla / İSTANBUL / TÜRKİYE,,,,,
Istanbul Furniture Fair,01/25/2022,2022,https://www.istanbulfurniturefair.com,DM,SİMGE KOLTUK MOBİLYA NAK. SANAYİ TİC. LTD. ŞTİ.,533/B,5,www.simgemobilya.com,,+90 549 719 6378,,KARPUZSEKİSİ MAH.OSB 24 .CAD.NO: 74 HACILAR / KAYSERİ / HACILAR / KAYSERİ / TÜRKİYE,,,,,
Istanbul Furniture Fair,01/25/2022,2022,https://www.istanbulfurniturefair.com,DM,SİSTEM ÇELİK EŞYA MOBİLYA EV GEREÇLERİ SAN. TİC. LTD. ŞTİ.,1132/B,11,www.bensimo.com.tr,,+90 352 321 3031,,KAYSERİ O.S.B. 24. CADDE NO:23 / MELİKGAZİ / KAYSERİ / TÜRKİYE,,,,,
Istanbul Furniture Fair,01/25/2022,2022,https://www.istanbulfurniturefair.com,DM,SİT DİZAYN MOBİLYA SAN. TUR. VE TİC. LTD. ŞTİ.,801/A,8,https://www.sitdesign.com/,,+90 212 883 8010,,Fatih Mahallesi Boğaziçi Caddesi No:22A 34500 / Büyükçekmece / İSTANBUL / TÜRKİYE,,,,,
Istanbul Furniture Fair,01/25/2022,2022,https://www.istanbulfurniturefair.com,DM,SİTİL KOLTUK AĞAÇ ÜRÜNLERİ MOBİLYA TEKSTİL İNŞAAT TAŞIMACILIK SANAYİ VE TİCARET LİMİTED ŞİRKETİ,543/A,5,www.mylifesofa.com,,+90 536 878 7648,,organize sanayi bölgesi tayyare meydanı cad. no: 17 (ana cadde sonu) / inegöl / BURSA / TÜRKİYE,,,,,
Istanbul Furniture Fair,01/25/2022,2022,https://www.istanbulfurniturefair.com,DM,SN MOBİLYA SANAYİ VE TİC.LTD.ŞTİ.,1202,12,www.millhouse.com.tr,,+90 312 499 3181,,"Yağlıpınar Mahalles, No :375 / Gölbaşı / ANKARA / TÜRKİYE",,,,,
Istanbul Furniture Fair,01/25/2022,2022,https://www.istanbulfurniturefair.com,DM,SOMKAR MOBİLYA SAN. VE TİC. LTD. ŞTİ.,821,8,www.Serabed.com,,+90 232 253 3765,,Kazım Karabekir Mah. Bekir Saydam Cad. No:62/1 / Torbalı / İZMİR / TÜRKİYE,,,,,
Istanbul Furniture Fair,01/25/2022,2022,https://www.istanbulfurniturefair.com,DM,SOSYETE MOBİLYA İTH. İHR. GID. İNŞ. SAN. TİC. LTD. ŞTİ.,623,6,www.sosyetemobilya.com.tr,,+90 535 738 5236,,GÜZELBURÇ MAHALLESİ YENİ SANAYİ SİTESİ 14.CADDE 1. İNİŞ / ANTAKYA / HATAY / TÜRKİYE,,,,,
Istanbul Furniture Fair,01/25/2022,2022,https://www.istanbulfurniturefair.com,DM,SOYSERİN METAL TEKS.VE MODÜLER MOB.SAN.TİC.LTD.ŞTİ,1113,11,https://www.lajivert.com.tr/,,+90 352 322 1030,,Organize Sanayi Bölgesi 24. Cad. No: 36 / Melikgazi / KAYSERİ / TÜRKİYE,,,,,
Istanbul Furniture Fair,01/25/2022,2022,https://www.istanbulfurniturefair.com,DM,SPOR DEKORASYON MOBİLYA İNŞAAT TURİZM GIA OTOMOTİV İTH.İHR.SAN. VE TİC.LTD.ŞTİ.,1413/A,14,www.spormobilya.com.tr,,+90 312 348 7708,,KARPUZLU 2 CADDE NO:138/1 SİTELER / ALTINDAĞ / ANKARA / TÜRKİYE,,,,,
Istanbul Furniture Fair,01/25/2022,2022,https://www.istanbulfurniturefair.com,DM,STAR DEKOR SAN. VE DIŞ TİC. A.Ş.,705,7,luckyart.com.tr,,+90 212 245 8053,,İSTOÇ ÖKSÜZOĞLULLARI PLAZA E1 BLOK KAT:5 / BAĞCILAR / İSTANBUL / TÜRKİYE,,,,,
Istanbul Furniture Fair,01/25/2022,2022,https://www.istanbulfurniturefair.com,DM,Ş. K. M. MOBİLYA DEKORASYON TEKSTİL SAN.VE TİC. LTD. ŞTİ.,602,6,www.gabba.com.tr,,+90 224 714 8280,,İnegöl Mobilya Ağaç İşleri İhtisas O.S.B. 1. Cad. No:17 / İNEGÖL / BURSA / TÜRKİYE,,,,,
Istanbul Furniture Fair,01/25/2022,2022,https://www.istanbulfurniturefair.com,DM,ŞAHİNLER TEKSTİL ÜRÜN.SAN.VE TİC.A.Ş.,F1,Fuaye/Foyer,www.penchederi.com,,+90 212 771 3319,,Orgneral Nurettin Baransel Cad. No: 3 Hadımköy 34555 / Arnavutköy / İSTANBUL / TÜRKİYE,,,,,
Istanbul Furniture Fair,01/25/2022,2022,https://www.istanbulfurniturefair.com,DM,ŞEREF KOLTUK SEDAT YÜKSELTÜRK,724,7,http://www.serefconcept.com/,,+90 312 351 6474,,ÖNDER MAHALLESİ KARPUZLU 2. CD. NO: 106 SİTELER ALTINDAĞ ANKARA / ALTINDAĞ / ANKARA / TÜRKİYE,,,,,
Istanbul Furniture Fair,01/25/2022,2022,https://www.istanbulfurniturefair.com,DM,ŞİPTAR MOBİLYA İSMAİL ŞENTÜRK,623/A,6,www.siptarmobilya.com,,+90 224 711 4421,,ERTUĞRULGAZİ MAH. AKPINAR CAD. NO: 14 / İNEGÖL / BURSA / TÜRKİYE,,,,,
Istanbul Furniture Fair,01/25/2022,2022,https://www.istanbulfurniturefair.com,DM,ŞURA PAZARLAMA DURAN KOÇER,1225/B,12,,,+90 532 521 6097,,ÇINAR MAH.DURU CAD.NO:24 / AKYURT / ANKARA / TÜRKİYE,,,,,
Istanbul Furniture Fair,01/25/2022,2022,https://www.istanbulfurniturefair.com,DM,T EN ENERJİ DOĞALGAZ İNŞ. MALZ. MOB. METAL SAN. VE TİC. LTD. ŞTİ.,1150,11,www.bystol.com,,+90 533 216 2778,,Karpuzsekisi mh. O.S.B. 12. cd. no:77 Hacılar/KAYSERİ / Kayseri / KAYSERİ / TÜRKİYE,,,,,
Istanbul Furniture Fair,01/25/2022,2022,https://www.istanbulfurniturefair.com,DM,TACHMAHAL SANDALYE-MASA,913/B,9,www.tachmahal.com,,+90 532 173 9829,,körkün sanayi sitesi s.çakmakoğlu bulv.14 nolu cad. no:4 / oğuzeli / GAZİANTEP / TÜRKİYE,,,,,
Istanbul Furniture Fair,01/25/2022,2022,https://www.istanbulfurniturefair.com,DM,TAKDİR MOBİLYA VE PAZ. İNŞ. SAN. VE TİC. LTD.ŞTİ.,713/D,7,www.takdirmobilya.com,,+90 312 348 3463,,AKÇAKALE SOKAK NO:13/1 SİTELER-ALTINDAĞ/ANKARA / ALTINDAĞ / ANKARA / TÜRKİYE,,,,,
Istanbul Furniture Fair,01/25/2022,2022,https://www.istanbulfurniturefair.com,DM,TARIK CHAIR TARIK SELÇUK,1030,10,www.tariksandalye.com,,+90 224 718 5091,,CERRAH MAH. 1. ÇİMEN SOK. No: 4/1 İNEGÖL / BURSA / İNEGÖL / BURSA / TÜRKİYE,,,,,
Istanbul Furniture Fair,01/25/2022,2022,https://www.istanbulfurniturefair.com,DM,TARIKARACA MOBİLYA ÖZLEM KARACA,522/A,5,tarikkaraca.com,,+90 224 713 4363,,Ağaç İşleri Sanayi Sitesi 30. Mobilya Sk. No : 21 İnegöl / Bursa/ Türkiye / inegöl / BURSA / TÜRKİYE,,,,,
Istanbul Furniture Fair,01/25/2022,2022,https://www.istanbulfurniturefair.com,DM,TARLASAN PLASTİK SAN. VE TİC.LTD.ŞTİ.,930,9,www.tarlasan.com,,+90 352 322 1126,,OSB. Karpuzsekisi Mah. 26. Cad. Hacilar No: 14 / Kayseri / KAYSERİ / TÜRKİYE,,,,,
Istanbul Furniture Fair,01/25/2022,2022,https://www.istanbulfurniturefair.com,DM,TARTAN DESIGN,723/C,7,https://www.tartandesign.com.tr/,,+90 533 643 8863,,"Tartan Design İnönü caddesi, İrem apt. NO.14 A Sahrayı Cedid / Kadıköy / İSTANBUL / TÜRKİYE",,,,,
Istanbul Furniture Fair,01/25/2022,2022,https://www.istanbulfurniturefair.com,DM,TAŞCIOĞLU KOLTUK VE MOBİLYA SAN.TİC.LTD.ŞTİ.,405,4,www.anje.com.tr,,+90 532 667 5411,,Mahmudiye Mahallesi 24. Mobilya Sokak No:1 / İnegöl / BURSA / TÜRKİYE,,,,,
Istanbul Furniture Fair,01/25/2022,2022,https://www.istanbulfurniturefair.com,DM,TEKSAL TEKSTİL SANAYİ VE TİCARET AŞ,802/B,8,www.idas.com.tr,,+90 539 774 2458,,"Ferhatpaşa Mahallesi, Ender Sokak No:3 D:102, 34540 / Çatalca / İSTANBUL / TÜRKİYE",,,,,
Istanbul Furniture Fair,01/25/2022,2022,https://www.istanbulfurniturefair.com,DM,TEMİZSOY MOBİLYA VE DEKORASYON İML SAN TİC.LTD ŞTİ,324,3,http://www.ferminamobilya.com.tr/,,+90 533 482 4061,,O.S.B. 24. NO:86 / HACILAR / KAYSERİ / TÜRKİYE,,,,,
Istanbul Furniture Fair,01/25/2022,2022,https://www.istanbulfurniturefair.com,DM,TEVFİKOĞLU MOBİLYA HASAN DUDAKLI,906/B,9,www.cemaksfurniture.com,,+90 533 496 9052,,KUZEYTEPE MAH. UĞUR MUMCU CAD. NO: 94 ANTAKYA / HATAY / ANTAKYA / HATAY / TÜRKİYE,,,,,
Istanbul Furniture Fair,01/25/2022,2022,https://www.istanbulfurniturefair.com,DM,TİTİ MOBİLYA PLASTİK TEKSTİL TİCARET VE SANAYİ LTD. ŞTİ.,1103,11,www.titi.com.tr,,+90 224 718 6023,,Hamzabey Mobilya İhtisas Organize sanayi Bölgesi 4 . cadde no:3 / İnegöl / BURSA / TÜRKİYE,,,,,
Istanbul Furniture Fair,01/25/2022,2022,https://www.istanbulfurniturefair.com,DM,TUNAPOL İÇ VE DIŞ TİCARET PAZ İNŞ SAN LTD ŞTİ,902/B,9,www.tunapolsignature.com,,+90 312 351 4151,,KOPÇA CADDESİ NO:99 SİTELER / ALTINDAĞ / ANKARA / TÜRKİYE,,,,,
Istanbul Furniture Fair,01/25/2022,2022,https://www.istanbulfurniturefair.com,DM,TÜLPA MOBİLYA ÜRETİM İTH.İHR. SAN VE TİC. A.Ş.,1125,11,,,+90 312 985 0048,,Saray Mahallesi 676.cadde no:31/A / KAHRAMANKAZAN / ANKARA / TÜRKİYE,,,,,
Istanbul Furniture Fair,01/25/2022,2022,https://www.istanbulfurniturefair.com,DM,TÜRŞEMSAN ŞEMSİYE VE PLASTİK SAN TİC LTD ŞTİ,1144/A,11,,,+90 212 659 6159,,İSTOÇ TİCARET MERKEZİ 8.ADA 2427.SOK NO:161-163 / Bağcılar / İSTANBUL / TÜRKİYE,,,,,
Istanbul Furniture Fair,01/25/2022,2022,https://www.istanbulfurniturefair.com,DM,UG MOBİLYA SANAYİ LİMİTED ŞİRKETİ,924/B,9,www.tabahome.com.tr,,+90 544 545 1590,,CUMHURİYET MH. YILDIRIM BEYAZIT CD. STARWOOD MOBİLYA KENT SİTESİ C BLOK NO:5 / İNEGÖL / BURSA / TÜRKİYE,,,,,
Istanbul Furniture Fair,01/25/2022,2022,https://www.istanbulfurniturefair.com,DM,UĞUR ORMAN ÜR. MOB. MOT. ARAÇ. İNŞ. TAAH. NAK. SAN. İÇ VE DIŞ TİC. LTD. ŞTİ.,1011,10,,,+90 539 219 4008,,MAHMUDİYE MAHALLESİ 28. MOBİLYA SOK. NO: 3/1 İNEGÖL/ BURSA / İNEGÖL / BURSA / TÜRKİYE,,,,,
Istanbul Furniture Fair,01/25/2022,2022,https://www.istanbulfurniturefair.com,DM,UĞURLU EV DONANIMLARI SAN. TİC. LTD. ŞTİ.,1143/A,11,www.ugurlugencodasi.com,,+90 532 575 2344,,ORGANİZE SANAYİ BÖLGESİ 20.CADDE NO :11 38070 / MELİKGAZİ / KAYSERİ / TÜRKİYE,,,,,
Istanbul Furniture Fair,01/25/2022,2022,https://www.istanbulfurniturefair.com,DM,ULUTAŞ - SAN SANDALYE İMALATI VE SATIŞI HAMİT ULUTAŞ,1020,10,www.ulutassandalye.com,,0244 711 2615,,MAHMUDİYE MAH. 22. MOBİLYA SOK. NO: 9 / İNEGÖL / BURSA / TÜRKİYE,,,,,
Istanbul Furniture Fair,01/25/2022,2022,https://www.istanbulfurniturefair.com,DM,UNGAN MOBİLYA SAN. VE TİC. LTD. ŞTİ.,504/A,5,https://mstylefurniture.com/,,+90 535 222 1026,,süleymaniye osb mah.1. cad. no: 29 / inegöl / BURSA / TÜRKİYE,,,,,
Istanbul Furniture Fair,01/25/2022,2022,https://www.istanbulfurniturefair.com,DM,URAZLİFE KOLTUK İSMAİL AKCAN,215/A,2,www.urazlife.com,,+90 224 715 9770,,Mahmudiye Mah. 24. mobilya sok. no:2/b İnegöl / bursa / İnegöl / BURSA / TÜRKİYE,,,,,
Istanbul Furniture Fair,01/25/2022,2022,https://www.istanbulfurniturefair.com,DM,URAZLİFE KOLTUK MOBİLYA TEKS.SAN. VE TİC.LTD.ŞTİ.,215/A,2,www.urazlife.com,,+90 224 715 9770,,MAHMUDİYE MH. 24. MOBİLYA SOK. NO: 2/B İNEGÖL / BURSA / İNEGÖL / BURSA / TÜRKİYE,,,,,
Istanbul Furniture Fair,01/25/2022,2022,https://www.istanbulfurniturefair.com,DM,UYGUL MOBİLYA İNŞAAT SAN. VE TİC. A.Ş.,411/B,4,www.uygul.com,,+90 232 799 0222,,Ekremdemirtaş cad. No47 ITOB OSB / Menderes / İZMİR / TÜRKİYE,,,,,
Istanbul Furniture Fair,01/25/2022,2022,https://www.istanbulfurniturefair.com,DM,UYKU DÜNYASI MOBİLYA VE EV GEREÇLERİ İNŞ. SAN. VE TİC. LTD. ŞTİ.,819,8,www.uykudunyasi.com.tr,,+90 532 717 8413,,ORGANİZE SANAYİ BÖLGESİ 34. CAD. NO:2/H / MELİKGAZİ / KAYSERİ / TÜRKİYE,,,,,
Istanbul Furniture Fair,01/25/2022,2022,https://www.istanbulfurniturefair.com,DM,UZUNEFE MOBİLYA VE DIŞ TİC LTD ŞTİ,155,1,www.feyfurniture.com,,+90 532 057 5564,,KARPUZSEKİSİ MAH. 24. CAD. NO: 64 / HACILAR / KAYSERİ / TÜRKİYE,,,,,
Istanbul Furniture Fair,01/25/2022,2022,https://www.istanbulfurniturefair.com,DM,ÜNİTECİX MOBİLYA KENAN AKTAŞ,625/A,6,,,+90 530 033 1819,,Mahmudiye mah. 16. mobilya sok .no:1/D / / BURSA / TÜRKİYE,,,,,
Istanbul Furniture Fair,01/25/2022,2022,https://www.istanbulfurniturefair.com,DM,VALERNO MOBİLYA İTH İHR SAN TİC LTD ŞTİ,726,7,www.valernomobilya.com.tr,,+90 549 640 1998,,ÖNDER MAHALLESİ EREĞLİ CADDESİ NO:59/A SİTELER ALTINDAĞ / / ANKARA / TÜRKİYE,,,,,
Istanbul Furniture Fair,01/25/2022,2022,https://www.istanbulfurniturefair.com,DM,VANİTTİ MOBİLYA ORMAN ÜRÜN.SAN.TİC.LTD.ŞTİ.,602,6,www.vanitti.com,,+90 549 313 0082,,SÜLEYMANİYE OSB 2. CAD. NO: 11/A / İNEGÖL / BURSA / TÜRKİYE,,,,,
Istanbul Furniture Fair,01/25/2022,2022,https://www.istanbulfurniturefair.com,DM,VEDAT TUTUŞ,604/A,6,www.windy.com.tr,,+90 224 714 1814,,CERRAH MAH. 3. SANAYİ CAD. NO: 26 İNEGÖL / BURSA / İNEGÖL / BURSA / TÜRKİYE,,,,,
Istanbul Furniture Fair,01/25/2022,2022,https://www.istanbulfurniturefair.com,DM,VELİ FİDANVERDİ MOBİLYA İNŞ.SAN. VE TİC.LTD.ŞTİ.,204,2,www.candess.com.tr,,0535 623 0324,,HAMZABEY OSB. Mah. 6.CAD. Cad. No:NO:3 İnegöl/Bursa / İnegöl / BURSA / TÜRKİYE,,,,,
Istanbul Furniture Fair,01/25/2022,2022,https://www.istanbulfurniturefair.com,DM,VELSA TEKSTİL SANAYİ VE TİCARET LİMİTED ŞİRKETİ,F2,Fuaye/Foyer,www.velsatekstil.com,,+90 224 502 7959,,Demirtaş Dumlupınar Osb Mah. Menekşe Sk. No:12 / OSMANGAZİ / BURSA / TÜRKİYE,,,,,
Istanbul Furniture Fair,01/25/2022,2022,https://www.istanbulfurniturefair.com,DM,VENETTİ,1012,10,www.venetti.com.tr,,+90 222 236 2036,,Organize Sanayi Bölgesi 2003. cadde No:23 / / ESKİŞEHİR / TÜRKİYE,,,,,
Istanbul Furniture Fair,01/25/2022,2022,https://www.istanbulfurniturefair.com,DM,VENTİ MOBİLYA TEKSTİL İNŞAAT NAK. GIDA SAN. VE TİC. LTD. ŞTİ.,614/A,6,www.venti.com.tr,,+90 352 321 3840,,ORGANİZE SANAYİ BÖLGESİ 33.CADDE NO:29 / MELİKGAZİ / KAYSERİ / TÜRKİYE,,,,,
Istanbul Furniture Fair,01/25/2022,2022,https://www.istanbulfurniturefair.com,DM,VENÜS ULUSLARARASI PAZARLAMA LTD.ŞTİ.,14A,14A,www.lamedore.com.tr,,+90 533 644 3161,,Mahmutbey Mah. İstoç Z Blok ZE Plaza 51. Yol Sk. No:1 Kat:3 / Bağcılar / İSTANBUL / TÜRKİYE,,,,,
Istanbul Furniture Fair,01/25/2022,2022,https://www.istanbulfurniturefair.com,DM,VEYS MOBİLYA SANAYİ VE TİCARET LTD.ŞTİ.,615/A,6,www.veysmo.com,,+90 507 562 2378,,CUMHURİYET MAH. YILDIRIM BEYAZIT CAD. B BLOK NO: 5/3B / İNEGÖL / BURSA / TÜRKİYE,,,,,
Istanbul Furniture Fair,01/25/2022,2022,https://www.istanbulfurniturefair.com,DM,VİLİNZE MASA SANDALYE DIŞ TİC. SAN. TİC. LTD.ŞTİ.,936,9,www.vilinze.com,,+90 352 290 8855,,ORGANİZE SANAYİ BÖLGESİ 29. CADDE NO:47 HACILAR/ KAYSERİ /TÜRKİYE / Kayseri / KAYSERİ / TÜRKİYE,,,,,
Istanbul Furniture Fair,01/25/2022,2022,https://www.istanbulfurniturefair.com,DM,VİLİNZE MOBİLYA SANAYİ VE TİCARET LTD ŞTİ,936,9,www.vilinze.com,,+90 352 290 8855,,KARPUZSEKİSİ MH. 29. CD. NO:47 / Kayseri / KAYSERİ / TÜRKİYE,,,,,
Istanbul Furniture Fair,01/25/2022,2022,https://www.istanbulfurniturefair.com,DM,VİOLA OFİS MOBİLYALARI OTOMOTİV İNŞ. GIDA NAK. SAN. TİC. LTD. ŞTİ.,421/B,4,www.violaofis.com,,+90 312 444 3271,,ÇANKIRI YOLU 5.KM GÜZELHİSAR MAH. KÜMEEVLERİ SERPMELERİ NO;336 AKYURT / ANKARA / AKYURT / ANKARA / TÜRKİYE,,,,,
Istanbul Furniture Fair,01/25/2022,2022,https://www.istanbulfurniturefair.com,DM,VİSİVO MOBİLYA SANAYİ VE TİCARET LİMİTED ŞİRKETİ,GEÇİŞ,5,www.visivo.com.tr,,+90 543 568 2183,,FATİH MAH.1191 SK. NO:24 SARNIÇ / GAZİEMİR / İZMİR / TÜRKİYE,,,,,
Istanbul Furniture Fair,01/25/2022,2022,https://www.istanbulfurniturefair.com,DM,VİTA MOBİLYA TEKSTİL İNŞ. İTH. İHR. PAZ. SAN. VE TİC. A.Ş.,101,1,https://www.vitabianca.com.tr/,,+90 232 799 0316,,Ekrem Demirtaş Cad. No.15 İTOB OSB 35471 Tekeli / MENDERES / İZMİR / TÜRKİYE,,,,,
Istanbul Furniture Fair,01/25/2022,2022,https://www.istanbulfurniturefair.com,DM,VİVA MOBİLYA SAN. VE TİC. LTD. ŞTİ.,526/B,5,www.vivamobilya.com.tr,,+90 352 321 3399,,organize san. böl. 24.cad. no: 84 / melikgazi / KAYSERİ / TÜRKİYE,,,,,
Istanbul Furniture Fair,01/25/2022,2022,https://www.istanbulfurniturefair.com,DM,VİVENSE TEKNOLOJİ HİZMETLERİ VE TİC A.Ş.,1223/B,12,https://www.vivense.com/,,+90 532 406 9258,,Esentepe Mahallesi Büyükdere Cad. Astoria Sit. AVM No: 127/40 / Şişli / İSTANBUL / TÜRKİYE,,,,,
Istanbul Furniture Fair,01/25/2022,2022,https://www.istanbulfurniturefair.com,DM,VİZYON BÜRO MOB. İNŞ. VE TURZ. SAN. TİC. LTD. ŞTİ.,425,4,www.vizyonburo.com.tr,,+90 232 237 4759,,Yeşillik Cad. No:326 / Karabağlar / İZMİR / TÜRKİYE,,,,,
Istanbul Furniture Fair,01/25/2022,2022,https://www.istanbulfurniturefair.com,DM,VRL MOBİLYA SAN. TİC. LTD. ŞTİ.,527,5,www.vrlmobilya.com.tr,,+90 276 266 8888,,Organize Sanayi Bölgesi 103. CAD NO: 90 / Merkez / UŞAK / TÜRKİYE,,,,,
Istanbul Furniture Fair,01/25/2022,2022,https://www.istanbulfurniturefair.com,DM,WOOD OFİS MOBİLYALARI DEKORASYON AĞAÇ ÜRÜN. SAN.VE TİC.LTD.ŞTİ.,405,4,www.woodofis.com.tr,,+90 224 211 1530,,Yeniceköy Mahallesi Mobilya Caddesi Bursa İnegöl Karayolu 7.Km / inegöl / BURSA / TÜRKİYE,,,,,
Istanbul Furniture Fair,01/25/2022,2022,https://www.istanbulfurniturefair.com,DM,WOODİNE MOBİLYA VE DEKORASYON SAN.TİC.A.Ş.,1403,14,www.woodine.com.tr,,+90 532 236 0328,,ÖNDER MAHALLESİ EREĞLİ CADDESİ NO:65/1 SİTELER / ALTINDAĞ / ANKARA / TÜRKİYE,,,,,
Istanbul Furniture Fair,01/25/2022,2022,https://www.istanbulfurniturefair.com,DM,WOOX SOFA HÜSEYİN AVNİ DURSUN,543/B,5,,,+90 554 235 1980,,inegöl bursa karayolu MOBİLİMO mobilya merkezi / inegöl / BURSA / TÜRKİYE,,,,,
Istanbul Furniture Fair,01/25/2022,2022,https://www.istanbulfurniturefair.com,DM,WORLD AHŞAP MOBİLYA UĞUR KEKEÇ,522/A,5,www.kadenss.com,,+90 352 321 1549,,OSB KARPUZSEKİSİ MAH. 6064. SOK. NO:8/A / HACILAR / KAYSERİ / TÜRKİYE,,,,,
Istanbul Furniture Fair,01/25/2022,2022,https://www.istanbulfurniturefair.com,DM,YAHYAOĞULLARI MOBİLYA TAR.HAY.İNŞ.TUR.TAAH.LTD.ŞTİ.,1224/C,12,,,0531 594 9360,,CERRAH MAH.DENİZCİ TURGUT REİS CD.NO:1011 / İnegöl / BURSA / TÜRKİYE,,,,,
Istanbul Furniture Fair,01/25/2022,2022,https://www.istanbulfurniturefair.com,DM,YAVUZER EV BAHÇE DİZAYN ISITMA SİST.İMA.İNŞ.GIDA SAN.VE TİC.LTD.ŞTİ.,1004,10,www.zebgarden.com,,+90 533 515 6369,,RAHMİYE MAHALLESİ ÇUHANE CADDESİ BEYAZGÜL SOKAK NO:50/A KARTEPE KOCAELİ / KARTEPE / KOCAELİ / TÜRKİYE,,,,,
Istanbul Furniture Fair,01/25/2022,2022,https://www.istanbulfurniturefair.com,DM,YAVUZSAN MOBİLYA SAN. VE TİCARET LTD.ŞTİ.,546/B,5,www.luxenfurniture.com,,+90 224 718 5913,,AKHİSAR MAH. LODOS SOK. NO: 2 / İnegöl / BURSA / TÜRKİYE,,,,,
Istanbul Furniture Fair,01/25/2022,2022,https://www.istanbulfurniturefair.com,DM,YEKTA MOBİLYA SAN VE TİC LTD ŞTİ,1022,10,https://yektamoduler.com/,,+90 352 501 0848,,Karpuzsekisi Mah.. 24. Cad. No: 24 (Organize sanayi Bölgesi) / HACILAR / KAYSERİ / TÜRKİYE,,,,,
Istanbul Furniture Fair,01/25/2022,2022,https://www.istanbulfurniturefair.com,DM,YILDIRIM BÜRO MOBİLYALARI SAN. VE TİC.A.Ş.,1132,11,www.yilwer.com,,+90 530 400 4405,,Gökçeyurt Mahallesi Gökçeyurt Küme Evleri No:192 / Mamak / ANKARA / TÜRKİYE,,,,,
Istanbul Furniture Fair,01/25/2022,2022,https://www.istanbulfurniturefair.com,DM,YUSUF DİNÇ YÜCEL MOBİLYA SAN. VE TİC. LTD. ŞTİ.,951,9,www.yucelfurniture.com,,+90 537 572 3215,,Güzelburç Mah. Yeni Sanayi Sitesi 2.İniş 10.Cadde No : 23/A ANTAKYA / HATAY / ANTAKYA / HATAY / TÜRKİYE,,,,,
Istanbul Furniture Fair,01/25/2022,2022,https://www.istanbulfurniturefair.com,DM,ZAFER KOLTUK - ZAFER KOÇ,1231,12,www.zaferkoltuk.com,,+90 543 589 1725,,Mahmudiye Mahallesi 32. Mobilya Sokak no: 4 / inegöl / BURSA / TÜRKİYE,,,,,
Istanbul Furniture Fair,01/25/2022,2022,https://www.istanbulfurniturefair.com,DM,ZELL MOBİLYA - ADEM GÜNEY,1001,10,https://www.zellmobilya.com/,,+90 543 599 5512,,EMİRLER MAH. SANAYİ CD NO: 24/1 / TEPEBAŞI / ESKİŞEHİR / TÜRKİYE,,,,,
Istanbul Furniture Fair,01/25/2022,2022,https://www.istanbulfurniturefair.com,DM,ZELL MOBİLYA DEKORASYON TEKSTİL İNŞ. SAN. VE TİC. LTD. ŞTİ.,1001,10,https://www.zellmobilya.com/,,+90 543 599 5512,,KURTULUŞ MAH. ÜNALDI SK NO: 9 / ODUNPAZARI / ESKİŞEHİR / TÜRKİYE,,,,,
Istanbul Furniture Fair,01/25/2022,2022,https://www.istanbulfurniturefair.com,DM,ZETT DEKOR,832,8,www.zettdekor.com             www.homezetthome.com,,+90 224 371 6669,,GÜSAB Erol Akbaş Cad. No: 6 / Gürsu / BURSA / TÜRKİYE,,,,,
Istanbul Furniture Fair,01/25/2022,2022,https://www.istanbulfurniturefair.com,DM,ZEYTİN MOBİLYA NURİ ASKER,625/B,6,www.byzeytin.com.tr,,+90 533 726 7344,,Organize Sanayi Bölgesi 34. Cad. No: 8 / Melikgazi / KAYSERİ / TÜRKİYE,,,,,
Istanbul Furniture Fair,01/25/2022,2022,https://www.istanbulfurniturefair.com,DM,ZİMAS MOBİLYA SAN VE TİC LTD ŞTİ,504/B,5,www.zimasmobilya.com,,+90 532 578 4718,,Karpuzsekisi Mah. 20. cad. no: 36 / HACILAR / KAYSERİ / TÜRKİYE,,,,,
Istanbul Furniture Fair,01/25/2022,2022,https://www.istanbulfurniturefair.com,DM,ZİRVE TASARIM HÜLYA FİDAN,920,9,www.zirvetasarim24.com.tr,,+90 530 435 2424,,YUKARI DUDULLU MAH. KIBRIS CAD. ZÜMRÜT SOK. NO: 10 / ÜMRANİYE / İSTANBUL / TÜRKİYE,,,,,
Istanbul Furniture Fair,01/25/2022,2022,https://www.istanbulfurniturefair.com,DM,ZLİNA OKUL VE OFİS MOBİLYALARI İTHALAT İHRACAT SANAYİ TİCARET LİMİTED ŞİRKETİ,402,4,linaegitim.com.tr,,+90 507 532 8970,,FEVZİ ÇAKMAK MAHALLESİ 10726 SOKAK NO:7 KARATAY / KONYA KONSAN SANAYİ SİTESİ / KARATAY / KONYA / TÜRKİYE,,,,,
Istanbul Furniture Fair,01/25/2022,2022,https://www.istanbulfurniturefair.com,DM,ZÜCEM ZÜC. TEK. KOZ. KONF. DAY. TÜK. MAL. İNŞ. GIDA TUR. OTO SAN. VE TİC. LTD. ŞTİ.,1013,10,www.zemdizayn.com,,+90 507 298 4085,,Altıntaş mah kıbrıs cad no:8 / NAZİLLİ / AYDIN / TÜRKİYE,,,,,
Istanbul Furniture Fair,01/25/2022,2022,https://www.istanbulfurniturefair.com,DM,ZÜMER MOBİLYA İNŞAAT TEKSTİL TAŞIMACILIK SAN. VE TİC.LTD.ŞTİ.,515/A,5,https://www.zumerfurniture.com/,,+90 538 362 6419,,MAHMUDİYE MAH. SEMİZ SOK. NO:10 / İNEGÖL / BURSA / TÜRKİYE,,,,,
Istanbul Furniture Fair,01/25/2022,2022,https://www.istanbulfurniturefair.com,DM,1 DÜNYA YATAK SAN. TİC. LTD. ŞTİ.,,,,,,,,,,,,
Istanbul Furniture Fair,01/25/2022,2022,https://www.istanbulfurniturefair.com,DM,4 LİNE MOBİLİ PARK İMALAT TAAH. SAN. VE TİC. LTD. ŞTİ.,,,,,,,,,,,,
Istanbul Furniture Fair,01/25/2022,2022,https://www.istanbulfurniturefair.com,DM,ABBASLAR ÇELİK EŞYA MOBİLYA DAY TÜK MAL GIDA PET ÜR KAĞ YAT OTM  EV TEKS MAK İNŞ MAD TUR TİC LTD ŞTİ,,,,,,,,,,,,
Istanbul Furniture Fair,01/25/2022,2022,https://www.istanbulfurniturefair.com,DM,AH-MET MOBİLYA AYKUT YILMAZ,,,,,,,,,,,,
Istanbul Furniture Fair,01/25/2022,2022,https://www.istanbulfurniturefair.com,DM,AHSEN SANDALYE TEKSTİL SAN.TİC.A.Ş.,,,,,,,,,,,,
Istanbul Furniture Fair,01/25/2022,2022,https://www.istanbulfurniturefair.com,DM,AKTİF AHŞAP MASA SANDALYE - YUNUS YAVUZ,,,,,,,,,,,,
Istanbul Furniture Fair,01/25/2022,2022,https://www.istanbulfurniturefair.com,DM,ALBER MOBİLYA SAN.TİC.LTD.ŞTİ,,,,,,,,,,,,
Istanbul Furniture Fair,01/25/2022,2022,https://www.istanbulfurniturefair.com,DM,ALNİSA TEKSTİL SANAYİ VE TİCARET A.Ş.,,,,,,,,,,,,
Istanbul Furniture Fair,01/25/2022,2022,https://www.istanbulfurniturefair.com,DM,ANKARA DOĞUŞSAN METAL MOB. NAKLİYE İNŞ. İML. DIŞ TİC. LTD. ŞTİ.,,,,,,,,,,,,
Istanbul Furniture Fair,01/25/2022,2022,https://www.istanbulfurniturefair.com,DM,ARDEN KOLTUK SANAYİ VE TİCARET LTD.ŞTİ.,,,,,,,,,,,,
Istanbul Furniture Fair,01/25/2022,2022,https://www.istanbulfurniturefair.com,DM,ARİF YÜKSEL MOBİLYA DEK. TASARIM MİM.İMALAT SAN. VE TİC. LTD. ŞTİ.,,,,,,,,,,,,
Istanbul Furniture Fair,01/25/2022,2022,https://www.istanbulfurniturefair.com,DM,ART TEK MİMARLIK DEKORASYON MÜH. SAN. VE TİC. A.Ş.,,,,,,,,,,,,
Istanbul Furniture Fair,01/25/2022,2022,https://www.istanbulfurniturefair.com,DM,ARZU MAMMEDOV MOBİLYA DEKORASYON A.S,,,,,,,,,,,,
Istanbul Furniture Fair,01/25/2022,2022,https://www.istanbulfurniturefair.com,DM,ASEW MOBİLYA - EBRU ŞANLI YILDIRIM,,,,,,,,,,,,
Istanbul Furniture Fair,01/25/2022,2022,https://www.istanbulfurniturefair.com,DM,ATİ CONCEPT MUHAMMET DOĞAN YİĞİT,,,,,,,,,,,,
Istanbul Furniture Fair,01/25/2022,2022,https://www.istanbulfurniturefair.com,DM,AYDINHAN MOBİLYA SANAYİ TİC. LTD. ŞTİ.,,,,,,,,,,,,
Istanbul Furniture Fair,01/25/2022,2022,https://www.istanbulfurniturefair.com,DM,AYFATEKS PLASTİK SAN. VE TİC. LTD. ŞTİ.,,,,,,,,,,,,
Istanbul Furniture Fair,01/25/2022,2022,https://www.istanbulfurniturefair.com,DM,AYMOKE KOLTUK İNŞAAT MOB. DEK. SAN VE TİC. LTD. ŞTİ.,,,,,,,,,,,,
Istanbul Furniture Fair,01/25/2022,2022,https://www.istanbulfurniturefair.com,DM,AYRÜYAM DAY. TÜK. MALL. AKAR. NAK. OTOM. TUR. HAY. TİC. VE SAN. LTD. ŞTİ.,,,,,,,,,,,,
Istanbul Furniture Fair,01/25/2022,2022,https://www.istanbulfurniturefair.com,DM,AYTEKS YATAK KAPİTONE TEKS MOB MET NAK İNŞ TURZ SAN TİC LTD ŞTİ,,,,,,,,,,,,
Istanbul Furniture Fair,01/25/2022,2022,https://www.istanbulfurniturefair.com,DM,BADER MOBİLYA VE EV GEREÇLERİ SAN. VE TİC.LTD.ŞTİ.,,,,,,,,,,,,
Istanbul Furniture Fair,01/25/2022,2022,https://www.istanbulfurniturefair.com,DM,BAĞ GÜL DURU METAL MOBİLYA VİDA CİVATA SAN. VE TİC. LTD. ŞTİ.,,,,,,,,,,,,
Istanbul Furniture Fair,01/25/2022,2022,https://www.istanbulfurniturefair.com,DM,BASSİ DESİNG MOBİLYA MİMARLIK KİMYA İNŞ. İÇ VE DIŞ TİC. SAN. LTD.ŞTİ.,,,,,,,,,,,,
Istanbul Furniture Fair,01/25/2022,2022,https://www.istanbulfurniturefair.com,DM,BAŞTERZİLER TİCARET A.Ş.,,,,,,,,,,,,
Istanbul Furniture Fair,01/25/2022,2022,https://www.istanbulfurniturefair.com,DM,BELMONTE SOFA CEMALETTİN KIZILARSLAN,,,,,,,,,,,,
Istanbul Furniture Fair,01/25/2022,2022,https://www.istanbulfurniturefair.com,DM,BERAAT AKSESUAR MOBİLYA İML. ORM. ÜRN. PAZ. İNŞ. NAK. İHT. İHR. SAN. TİC. LTD. ŞTİ.,,,,,,,,,,,,
Istanbul Furniture Fair,01/25/2022,2022,https://www.istanbulfurniturefair.com,DM,BERRE MOBİLYA TEKSTİL SAN. VE TİC. LTD. ŞTİ.,,,,,,,,,,,,
Istanbul Furniture Fair,01/25/2022,2022,https://www.istanbulfurniturefair.com,DM,BG GROUP - BG TEKSTİL VE MOBİLYA SAN.TİC.LTD.ŞTİ.,,,,,,,,,,,,
Istanbul Furniture Fair,01/25/2022,2022,https://www.istanbulfurniturefair.com,DM,BİÇER KARDEŞLER MOB.İNŞ.TUR NAK.GIDA SN.VE TİC.LTD.ŞTİ.,,,,,,,,,,,,
Istanbul Furniture Fair,01/25/2022,2022,https://www.istanbulfurniturefair.com,DM,BİMOBİ MOBİLYA - BURHAN DEMİR,,,,,,,,,,,,
Istanbul Furniture Fair,01/25/2022,2022,https://www.istanbulfurniturefair.com,DM,BİMOBİ MOBİLYA İTHALAT İHRACAT SAN. VE TİC.LTD.ŞTİ.,,,,,,,,,,,,
Istanbul Furniture Fair,01/25/2022,2022,https://www.istanbulfurniturefair.com,DM,BORA İPLİK SAN. VE TİC.LTD.ŞTİ.,,,,,,,,,,,,
Istanbul Furniture Fair,01/25/2022,2022,https://www.istanbulfurniturefair.com,DM,BRAWWA KOLTUK MOBİLYA SANAYİ VE TİCARET LİMİTED ŞİRKETİ,,,,,,,,,,,,
Istanbul Furniture Fair,01/25/2022,2022,https://www.istanbulfurniturefair.com,DM,BUSE DEKORASYON MİMARLIK İNŞ. EML.SAN. TİC.LTD.,,,,,,,,,,,,
Istanbul Furniture Fair,01/25/2022,2022,https://www.istanbulfurniturefair.com,DM,BÜYÜKSARAY TURİSTİK EŞYA SAN. VE TİC. LTD. ŞTİ.,,,,,,,,,,,,
Istanbul Furniture Fair,01/25/2022,2022,https://www.istanbulfurniturefair.com,DM,BYL TEKSTİL İNŞ.İTH.İHR.SAN. VE TİC.LTD.ŞTİ.,,,,,,,,,,,,
Istanbul Furniture Fair,01/25/2022,2022,https://www.istanbulfurniturefair.com,DM,CAP TASARIM DEKORASYON DANIŞMANLIK SAN. VE TİC. LTD. ŞTİ.,,,,,,,,,,,,
Istanbul Furniture Fair,01/25/2022,2022,https://www.istanbulfurniturefair.com,DM,CEMRE AHŞAP ÜRÜNLERİ - CİHANGİR TAHİRLER,,,,,,,,,,,,
Istanbul Furniture Fair,01/25/2022,2022,https://www.istanbulfurniturefair.com,DM,CENGİZ GRUP MOBİLYA İNŞ. SAN. VE TİC. LTD. ŞTİ.,,,,,,,,,,,,
Istanbul Furniture Fair,01/25/2022,2022,https://www.istanbulfurniturefair.com,DM,ÇETİN BORU SANAYİİ VE TİCARET A.Ş,,,,,,,,,,,,
Istanbul Furniture Fair,01/25/2022,2022,https://www.istanbulfurniturefair.com,DM,ÇİN-PA İÇ VE DIŞ TİCARET LTD.ŞTİ.,,,,,,,,,,,,
Istanbul Furniture Fair,01/25/2022,2022,https://www.istanbulfurniturefair.com,DM,ÇOBANOĞLU YAY YATAK TEKSTİL MOB SAN VE TİC LTD ŞTİ(ORG.ŞUBESİ),,,,,,,,,,,,
Istanbul Furniture Fair,01/25/2022,2022,https://www.istanbulfurniturefair.com,DM,DAMASKO DOKUMA SANAYİ VE TİCARET A.Ş.,,,,,,,,,,,,
Istanbul Furniture Fair,01/25/2022,2022,https://www.istanbulfurniturefair.com,DM,DECOYAT DIŞ TİC. LTD.ŞTİ.,,,,,,,,,,,,
Istanbul Furniture Fair,01/25/2022,2022,https://www.istanbulfurniturefair.com,DM,DEKOYAT YATAK EV TEKS. VE MOB. SAN. TİC. LTD. ŞTİ.,,,,,,,,,,,,
Istanbul Furniture Fair,01/25/2022,2022,https://www.istanbulfurniturefair.com,DM,DEZZA ÖRME TEKSTİL SAN. VE TİC.LTD.ŞTİ.,,,,,,,,,,,,
Istanbul Furniture Fair,01/25/2022,2022,https://www.istanbulfurniturefair.com,DM,DİDVANİ KOLTUK - RECEP BAKAN,,,,,,,,,,,,
Istanbul Furniture Fair,01/25/2022,2022,https://www.istanbulfurniturefair.com,DM,DİKOMET MÜHENDİSLİK MAKİNA METAL OTOMOTİV DERİ TEKSTİL İNŞAAT SAN. VE DIŞ TİCARET A.Ş.,,,,,,,,,,,,
Istanbul Furniture Fair,01/25/2022,2022,https://www.istanbulfurniturefair.com,DM,DİLARA KOÇ,,,,,,,,,,,,
Istanbul Furniture Fair,01/25/2022,2022,https://www.istanbulfurniturefair.com,DM,DİVAS MOBİLYA ORM.ÜRÜN.OTO.İNŞ.SAN.VE TİC.LTD.ŞTİ.,,,,,,,,,,,,
Istanbul Furniture Fair,01/25/2022,2022,https://www.istanbulfurniturefair.com,DM,DO ME MOBİLYA ORM.ÜRÜN.İNŞ.SAN.TİC.LTD.ŞTİ.,,,,,,,,,,,,
Istanbul Furniture Fair,01/25/2022,2022,https://www.istanbulfurniturefair.com,DM,DÖRT EKSEN AHŞAP SAN. VE TİC.LTD.ŞTİ.,,,,,,,,,,,,
Istanbul Furniture Fair,01/25/2022,2022,https://www.istanbulfurniturefair.com,DM,DURU SEFA KOLTUK MOB.İNŞ.TEKS.SAN.VE TİC.LTD.ŞTİ.,,,,,,,,,,,,
Istanbul Furniture Fair,01/25/2022,2022,https://www.istanbulfurniturefair.com,DM,E.B.C. SANDALYE - HÜSEYİN KÜÇÜK,,,,,,,,,,,,
Istanbul Furniture Fair,01/25/2022,2022,https://www.istanbulfurniturefair.com,DM,EKİNCİ MOBİLYA SAN.VE TİC. LTD.ŞTİ,,,,,,,,,,,,
Istanbul Furniture Fair,01/25/2022,2022,https://www.istanbulfurniturefair.com,DM,ELİF OTURMA GRUP KAN MOB EV TEK SAN.TİC.LTD.ŞTİ.,,,,,,,,,,,,
Istanbul Furniture Fair,01/25/2022,2022,https://www.istanbulfurniturefair.com,DM,ELMAS METAL TEKSTİL SUNİ DERİ MOB.ELEKTROSTATİK BOYA İTH. İHR. SAN. TİC.-TURGUT ÇELEBİ,,,,,,,,,,,,
Istanbul Furniture Fair,01/25/2022,2022,https://www.istanbulfurniturefair.com,DM,ELSA POLYESTER MALZ. ELYAF VE EV TEKSTİLİ SAN.TİC.LTD.ŞTİ.,,,,,,,,,,,,
Istanbul Furniture Fair,01/25/2022,2022,https://www.istanbulfurniturefair.com,DM,ENTİ MOBİLYA KOLTUK NALBURİYE İNŞ.İTH. VE İHR.SAN.TİC.LTD.ŞTİ.,,,,,,,,,,,,
Istanbul Furniture Fair,01/25/2022,2022,https://www.istanbulfurniturefair.com,DM,ERAY MOBİLYA - ERAY İNCEBAY,,,,,,,,,,,,
Istanbul Furniture Fair,01/25/2022,2022,https://www.istanbulfurniturefair.com,DM,ERİNÖZ BAHÇE MOB. TEKSTİ. BEYAZ EŞYA OTOMOTİV VE ELEKTROSTATİK BOYA SAN. TİC. A.Ş.,,,,,,,,,,,,
Istanbul Furniture Fair,01/25/2022,2022,https://www.istanbulfurniturefair.com,DM,ERMASA MOBİLYA DEKORASYON SAN TİC AŞ,,,,,,,,,,,,
Istanbul Furniture Fair,01/25/2022,2022,https://www.istanbulfurniturefair.com,DM,ES ÇELİK EŞYA SAN. VE DIŞ TİCARET LTD.ŞTİ,,,,,,,,,,,,
Istanbul Furniture Fair,01/25/2022,2022,https://www.istanbulfurniturefair.com,DM,ESİLA MOBİLYA ORMAN ÜRÜNLERİ TEKSTİL İNŞ.SAN. VE TİC.LTD.ŞTİ.,,,,,,,,,,,,
Istanbul Furniture Fair,01/25/2022,2022,https://www.istanbulfurniturefair.com,DM,EVİPEK KUMAŞ TEKSTİL SAN. VE DIŞ TİC. LTD. ŞTİ.,,,,,,,,,,,,
Istanbul Furniture Fair,01/25/2022,2022,https://www.istanbulfurniturefair.com,DM,EVİSSA MOBİLYA SAN.TİC.A.Ş,,,,,,,,,,,,
Istanbul Furniture Fair,01/25/2022,2022,https://www.istanbulfurniturefair.com,DM,EVLİNE SEMBOL MOBİLYA DAY. TÜK. MAL. SAN. TİC. LTD. ŞTİ.,,,,,,,,,,,,
Istanbul Furniture Fair,01/25/2022,2022,https://www.istanbulfurniturefair.com,DM,FABELLA MOBİLYA LTD.ŞTİ.,,,,,,,,,,,,
Istanbul Furniture Fair,01/25/2022,2022,https://www.istanbulfurniturefair.com,DM,FALEZ MOBİLYA AKSESUAR BERRİN ALPASLAN,,,,,,,,,,,,
Istanbul Furniture Fair,01/25/2022,2022,https://www.istanbulfurniturefair.com,DM,FİBA KOLTUK MOBİLYA TEKSTİL ORMAN ÜRÜN.SAN.TİC.LTD.ŞTİ.,,,,,,,,,,,,
Istanbul Furniture Fair,01/25/2022,2022,https://www.istanbulfurniturefair.com,DM,FORMET METAL VE CAM SAN. A.Ş.,,,,,,,,,,,,
Istanbul Furniture Fair,01/25/2022,2022,https://www.istanbulfurniturefair.com,DM,FTN FUTON PAZARLAMA A.Ş.,,,,,,,,,,,,
Istanbul Furniture Fair,01/25/2022,2022,https://www.istanbulfurniturefair.com,DM,FURNİKA DIŞ TİCARET LTD ŞTİ,,,,,,,,,,,,
Istanbul Furniture Fair,01/25/2022,2022,https://www.istanbulfurniturefair.com,DM,GİYSAN SANDALYE MOBİLYA TAŞIMACILIK İNŞ.TAAH. SAN.VE TİC.LTD.ŞTİ.,,,,,,,,,,,,
Istanbul Furniture Fair,01/25/2022,2022,https://www.istanbulfurniturefair.com,DM,GİYSAN SANDALYE MOBİLYA TAŞIMACILIK İNŞ.TAAH. SAN.VE TİC.LTD.ŞTİ.,,,,,,,,,,,,
Istanbul Furniture Fair,01/25/2022,2022,https://www.istanbulfurniturefair.com,DM,GLOBUS AHŞAP VE MOBİLYA DEKORASYON ÜRÜNLERİ İNŞ. İTH. İHR. LOJİSTİK SAN. VE TİC. LTD. ŞTİ.,,,,,,,,,,,,
Istanbul Furniture Fair,01/25/2022,2022,https://www.istanbulfurniturefair.com,DM,GÜLER MÖBLE DÖŞEME İNŞAAT TURİZM TEKSTİL SAN. VE TİC.LTD.ŞTİ.,,,,,,,,,,,,
Istanbul Furniture Fair,01/25/2022,2022,https://www.istanbulfurniturefair.com,DM,GÜNEL MOBİLYA İÇ VE DIŞ TİC. LTD. ŞTİ.,,,,,,,,,,,,
Istanbul Furniture Fair,01/25/2022,2022,https://www.istanbulfurniturefair.com,DM,GÜRBÜZ ORMAN ÜRÜNLERİ SAN.TİC. LTD.ŞTİ.,,,,,,,,,,,,
Istanbul Furniture Fair,01/25/2022,2022,https://www.istanbulfurniturefair.com,DM,GÜRSAN MOB. İNŞ. GIDA SAN. TİC. LTD. ŞTİ.,,,,,,,,,,,,
Istanbul Furniture Fair,01/25/2022,2022,https://www.istanbulfurniturefair.com,DM,HALİS DOKUMA BİLGİSAYAR MAKİNA TEKSTİL MOBİLYA TUR.ORG.GIDA SAN. VE TİC.LTD.ŞTİ.,,,,,,,,,,,,
Istanbul Furniture Fair,01/25/2022,2022,https://www.istanbulfurniturefair.com,DM,HANEDAN DECOYAT YATAK BAZA TEKSTİL VE MOB. SAN. TİC. LTD. ŞTİ.,,,,,,,,,,,,
Istanbul Furniture Fair,01/25/2022,2022,https://www.istanbulfurniturefair.com,DM,HAPPY YATAK DIŞ TİC. LTD.ŞTİ.,,,,,,,,,,,,
Istanbul Furniture Fair,01/25/2022,2022,https://www.istanbulfurniturefair.com,DM,HELENA KONF.SEDEFLI TAVLA VE MOB.IML.SAN.TIC.LTD.STI.,,,,,,,,,,,,
Istanbul Furniture Fair,01/25/2022,2022,https://www.istanbulfurniturefair.com,DM,HİDROMEKANİK MAKİNE SANAYİ TİCARET A.Ş,,,,,,,,,,,,
Istanbul Furniture Fair,01/25/2022,2022,https://www.istanbulfurniturefair.com,DM,HİLSA MOBİLYA SANAYİ VE TİCARET LTD.ŞTİ.,,,,,,,,,,,,
Istanbul Furniture Fair,01/25/2022,2022,https://www.istanbulfurniturefair.com,DM,İNEGÖL ADA KOLTUK SAN. VE TİC.LTD.ŞTİ.,,,,,,,,,,,,
Istanbul Furniture Fair,01/25/2022,2022,https://www.istanbulfurniturefair.com,DM,İNEGÖL ÇELİK KARDEŞLER DAYANIKLI TÜKETİM MALLARI MOBİLYA SAN. VE TİC.LTD.ŞTİ.,,,,,,,,,,,,
Istanbul Furniture Fair,01/25/2022,2022,https://www.istanbulfurniturefair.com,DM,İNEGÖL GİRİŞİM MOBİLYA TEKSTİL İNŞAAT SAN. VE TİCARET LTD.ŞTİ.,,,,,,,,,,,,
Istanbul Furniture Fair,01/25/2022,2022,https://www.istanbulfurniturefair.com,DM,İNFAM MOBİLYA SANAYİ VE TİCARET LTD.ŞTİ.,,,,,,,,,,,,
Istanbul Furniture Fair,01/25/2022,2022,https://www.istanbulfurniturefair.com,DM,İNKLAS MOBİLYA KOLTUK DEKORASYON İNŞ.SAN.TİC.LTD.ŞTİ.,,,,,,,,,,,,
Istanbul Furniture Fair,01/25/2022,2022,https://www.istanbulfurniturefair.com,DM,İNMODA MOBİLYA KOLTUK DEKORASYON SAN. VE TİC.LTD.ŞTİ.,,,,,,,,,,,,
Istanbul Furniture Fair,01/25/2022,2022,https://www.istanbulfurniturefair.com,DM,İNNO YATAK İÇ VE DIŞ TİC.LTD.ŞTİ.,,,,,,,,,,,,
Istanbul Furniture Fair,01/25/2022,2022,https://www.istanbulfurniturefair.com,DM,İPEK VİZYON EL DOKUMA HALI PAZARLAMA TİC.LTD.ŞTİ.,,,,,,,,,,,,
Istanbul Furniture Fair,01/25/2022,2022,https://www.istanbulfurniturefair.com,DM,İRONSAN METAL VE AHŞAP SANAYİ TİCARET LTD.ŞTİ.,,,,,,,,,,,,
Istanbul Furniture Fair,01/25/2022,2022,https://www.istanbulfurniturefair.com,DM,İSKEMLE AĞAÇ ÜRÜNLERİ MOBİLYA TEKSTİL İNŞ. TAŞIMACILIK SAN. VE TİC. LTD. ŞTİ.,,,,,,,,,,,,
Istanbul Furniture Fair,01/25/2022,2022,https://www.istanbulfurniturefair.com,DM,JADİDTEX TEKSTİL SAN. VE TİC. LTD. ŞTİ.,,,,,,,,,,,,
Istanbul Furniture Fair,01/25/2022,2022,https://www.istanbulfurniturefair.com,DM,KAPAN MOBİLYA SANAYİ VE TİCARET LTD. ŞTİ.,,,,,,,,,,,,
Istanbul Furniture Fair,01/25/2022,2022,https://www.istanbulfurniturefair.com,DM,KAPRİS MOBİLYA DEKORASYON TEKSTİL GIDA TAŞ. SAN. VE DIŞ TİC. LTD. ŞTİ.,,,,,,,,,,,,
Istanbul Furniture Fair,01/25/2022,2022,https://www.istanbulfurniturefair.com,DM,KARABİBER MOBİLYA SAN. İTH. İHRC. TİC. LTD. ŞTİ.,,,,,,,,,,,,
Istanbul Furniture Fair,01/25/2022,2022,https://www.istanbulfurniturefair.com,DM,KOCSAN AHŞAP PROFİL MOB. VE İNŞ. SAN.TİC.LTD.ŞTİ.,,,,,,,,,,,,
Istanbul Furniture Fair,01/25/2022,2022,https://www.istanbulfurniturefair.com,DM,KOMPOSAN OFİS AKSAMLARI SANAYİ VE TİCARET LİMİTED ŞİRKETİ,,,,,,,,,,,,
Istanbul Furniture Fair,01/25/2022,2022,https://www.istanbulfurniturefair.com,DM,KONFULL BÜRO MOBİL. MEHMET BAŞBALÇIK,,,,,,,,,,,,
Istanbul Furniture Fair,01/25/2022,2022,https://www.istanbulfurniturefair.com,DM,KOYUNLU MOBİLYA - AHMET YÜCEL,,,,,,,,,,,,
Istanbul Furniture Fair,01/25/2022,2022,https://www.istanbulfurniturefair.com,DM,KRDPLAST MOBİLYA PLASTİK ORMAN ÜRÜNLERİ METAL VE ÜRÜN.KİMYA ÇEVRE PR.ARIT.MAK.MÜH.İNŞ.MÜT.OTOM.SAN.TİC.LTD.ŞTİ.,,,,,,,,,,,,
Istanbul Furniture Fair,01/25/2022,2022,https://www.istanbulfurniturefair.com,DM,KÜMSA KARDEŞLER ÜNALDI MOB. OTUR. GRP. İNŞ. TAAH. DAY. PAZ. SAN. TİC. LTD. ŞTİ.,,,,,,,,,,,,
Istanbul Furniture Fair,01/25/2022,2022,https://www.istanbulfurniturefair.com,DM,KZY MOBİLYA SAN. VE TİC. LTD. ŞTİ.,,,,,,,,,,,,
Istanbul Furniture Fair,01/25/2022,2022,https://www.istanbulfurniturefair.com,DM,LADİN MOBİLYA KANEPE İNŞ. TEK. TU. GID. MD. SAN. TİC. LTD. ŞTİ.,,,,,,,,,,,,
Istanbul Furniture Fair,01/25/2022,2022,https://www.istanbulfurniturefair.com,DM,LİSSYA MOBİLYA - MEMET NURİ İSLAM,,,,,,,,,,,,
Istanbul Furniture Fair,01/25/2022,2022,https://www.istanbulfurniturefair.com,DM,LİTANİ KOLTUK,,,,,,,,,,,,
Istanbul Furniture Fair,01/25/2022,2022,https://www.istanbulfurniturefair.com,DM,M.H. MOBİLYA İMALAT İNŞ. TAAH. PAZ. LTD. ŞTİ.,,,,,,,,,,,,
Istanbul Furniture Fair,01/25/2022,2022,https://www.istanbulfurniturefair.com,DM,MARKAZYA ELEKTRONİK TEKS ALIM SATIM PAZ.REK.DAN. YAY. SAN. VE TİC. LTD. ŞTİ.,,,,,,,,,,,,
Istanbul Furniture Fair,01/25/2022,2022,https://www.istanbulfurniturefair.com,DM,MELTEM MODÜLER MOBİLYA KOLTUK SAN.VE TİC.A.Ş.,,,,,,,,,,,,
Istanbul Furniture Fair,01/25/2022,2022,https://www.istanbulfurniturefair.com,DM,MERTTAŞ MOBİLYA SAN. TİC. A.Ş.,,,,,,,,,,,,
Istanbul Furniture Fair,01/25/2022,2022,https://www.istanbulfurniturefair.com,DM,MEŞE MOBİLYA KANEPE İMALAT İTH. İHR. SAN. VE TİC. A.Ş.,,,,,,,,,,,,
Istanbul Furniture Fair,01/25/2022,2022,https://www.istanbulfurniturefair.com,DM,METAL EV KAPLAMA NALBURİYE VE METAL MOB. KİMYA SAN.TİC.LTD.ŞTİ.,,,,,,,,,,,,
Istanbul Furniture Fair,01/25/2022,2022,https://www.istanbulfurniturefair.com,DM,METAPOL METAL SAN VE TİC LTD ŞTİ,,,,,,,,,,,,
Istanbul Furniture Fair,01/25/2022,2022,https://www.istanbulfurniturefair.com,DM,METEBRONZ MOB. AKS. VE AK. SAN. VE TİC. A.Ş.,,,,,,,,,,,,
Istanbul Furniture Fair,01/25/2022,2022,https://www.istanbulfurniturefair.com,DM,MİNA MODÜLER MOBİLYA İNŞAAT TEKSTİL SAN. VE TİC.LTD.ŞTİ.,,,,,,,,,,,,
Istanbul Furniture Fair,01/25/2022,2022,https://www.istanbulfurniturefair.com,DM,MİS PLASTİK İTH.İHR.MOB.İML.TEKS.TURZ.TAŞ.TARIM VE HAYV.İNŞ.TAAH.SAN.VE TİC.LTD.ŞTİ.,,,,,,,,,,,,
Istanbul Furniture Fair,01/25/2022,2022,https://www.istanbulfurniturefair.com,DM,MK KARAKÖSE MOBİLYA SAN. VE TİC. LTD.ŞTİ.,,,,,,,,,,,,
Istanbul Furniture Fair,01/25/2022,2022,https://www.istanbulfurniturefair.com,DM,MNC MASA SANDALYE AKSESUAR - CELALETTİN BAYRAM,,,,,,,,,,,,
Istanbul Furniture Fair,01/25/2022,2022,https://www.istanbulfurniturefair.com,DM,MODA GRUP KOLTUK MOB. TEKS. İTH. İHR. SAN. VE TİC. LTD. ŞTİ.,,,,,,,,,,,,
Istanbul Furniture Fair,01/25/2022,2022,https://www.istanbulfurniturefair.com,DM,MODAŞ YATAK - SAİM YILMAZ,,,,,,,,,,,,
Istanbul Furniture Fair,01/25/2022,2022,https://www.istanbulfurniturefair.com,DM,MODOKO S.S. İSTANBUL MOBİLYA ANADOLU YAKASI DOĞRAMA VE MOBİLYACILAR SİTESİ İŞLETME KOOPARATİFİ,,,,,,,,,,,,
Istanbul Furniture Fair,01/25/2022,2022,https://www.istanbulfurniturefair.com,DM,MODOKO S.S. İSTANBUL MOBİLYA ANADOLU YAKASI DOĞRAMA VE MOBİLYACILAR SİTESİ İŞLETME KOOPARATİFİ,,,,,,,,,,,,
Istanbul Furniture Fair,01/25/2022,2022,https://www.istanbulfurniturefair.com,DM,MONİESTA MOBİLYA SAN İÇ VE DIŞ TİCARET LTD ŞTİ,,,,,,,,,,,,
Istanbul Furniture Fair,01/25/2022,2022,https://www.istanbulfurniturefair.com,DM,MORENO KONSEPT MOB. SAN. TİC. LTD. ŞTİ.,,,,,,,,,,,,
Istanbul Furniture Fair,01/25/2022,2022,https://www.istanbulfurniturefair.com,DM,NEON EV GEREÇLERİ NAK MOB İNŞ GIDA SAN TİC AŞ,,,,,,,,,,,,
Istanbul Furniture Fair,01/25/2022,2022,https://www.istanbulfurniturefair.com,DM,NEST COLLECTION ERDAL TÜRKMEN VE ORT.,,,,,,,,,,,,
Istanbul Furniture Fair,01/25/2022,2022,https://www.istanbulfurniturefair.com,DM,NEWMOOD İÇ VE DIŞ TİC.LTD.ŞTİ.,,,,,,,,,,,,
Istanbul Furniture Fair,01/25/2022,2022,https://www.istanbulfurniturefair.com,DM,NİL MOBİLYA YATAK KANEPE TEKSTİL GIDA SAN. VE TİC. A.Ş.,,,,,,,,,,,,
Istanbul Furniture Fair,01/25/2022,2022,https://www.istanbulfurniturefair.com,DM,NOTT MOBİLYA METAL İNŞAAT TEKSTİL SANAYİ TİCARET A.Ş.,,,,,,,,,,,,
Istanbul Furniture Fair,01/25/2022,2022,https://www.istanbulfurniturefair.com,DM,NURHAS MOBİLYA SAN. VE TİC. A.Ş.,,,,,,,,,,,,
Istanbul Furniture Fair,01/25/2022,2022,https://www.istanbulfurniturefair.com,DM,NURUS NURETTİN USTA PROJE DEK. MOB. AKS. ÜRT. İTH. İRH. NAK. A.Ş.,,,,,,,,,,,,
Istanbul Furniture Fair,01/25/2022,2022,https://www.istanbulfurniturefair.com,DM,NÜKTE MOBİLYA SAN. VE TİC.LTD.ŞTİ.,,,,,,,,,,,,
Istanbul Furniture Fair,01/25/2022,2022,https://www.istanbulfurniturefair.com,DM,OYAK METAL SANAYİİ VE TİC A.Ş.,,,,,,,,,,,,
Istanbul Furniture Fair,01/25/2022,2022,https://www.istanbulfurniturefair.com,DM,ÖZ FIRAT KOLTUK MOBİLYA DAY.TÜK.MAL.MOB.SAN.TİC.LTD.ŞTİ.,,,,,,,,,,,,
Istanbul Furniture Fair,01/25/2022,2022,https://www.istanbulfurniturefair.com,DM,ÖZTUNÇ HALI TEKSTİL OTO ALIM SAT.VE DAY.TÜK.MAL.SAN.VE TİC.LTD.ŞTİ.,,,,,,,,,,,,
Istanbul Furniture Fair,01/25/2022,2022,https://www.istanbulfurniturefair.com,DM,ÖZVERLER RESİM ÇERÇEVE SAN VE TİC LTD ŞTİ,,,,,,,,,,,,
Istanbul Furniture Fair,01/25/2022,2022,https://www.istanbulfurniturefair.com,DM,PANELKON KONFERANS VE OFİS KOL.SİS.SAN.TİC.LTD.ŞTİ,,,,,,,,,,,,
Istanbul Furniture Fair,01/25/2022,2022,https://www.istanbulfurniturefair.com,DM,PİNİMOB MOBİLYA VE AYDINLATMA LTD.ŞTİ.,,,,,,,,,,,,
Istanbul Furniture Fair,01/25/2022,2022,https://www.istanbulfurniturefair.com,DM,RADO MOBİLYA SAN TİC LTD ŞTİ,,,,,,,,,,,,
Istanbul Furniture Fair,01/25/2022,2022,https://www.istanbulfurniturefair.com,DM,RETTO MOBİLYA DEKORASYON İNŞ.OTO.SAN.TİC.LTD.ŞTİ.,,,,,,,,,,,,
Istanbul Furniture Fair,01/25/2022,2022,https://www.istanbulfurniturefair.com,DM,RİVİSTA MOBİLYA MUSTAFA ÜNLÜYOL,,,,,,,,,,,,
Istanbul Furniture Fair,01/25/2022,2022,https://www.istanbulfurniturefair.com,DM,ROSES MODER FURNİTURE İSMAİL TUZCU,,,,,,,,,,,,
Istanbul Furniture Fair,01/25/2022,2022,https://www.istanbulfurniturefair.com,DM,S.S. MOBİLYA KENT İNEGÖL TOPLU İŞYERİ YAPI KOOPERATİFİ,,,,,,,,,,,,
Istanbul Furniture Fair,01/25/2022,2022,https://www.istanbulfurniturefair.com,DM,SAFA İNTERNATİONAL TRADE GIDA İNŞAAT SANAYİ VE TİCARET LTD.ŞTİ.,,,,,,,,,,,,
Istanbul Furniture Fair,01/25/2022,2022,https://www.istanbulfurniturefair.com,DM,SAĞIROĞLU KERESTE SAN VE TİC AŞ,,,,,,,,,,,,
Istanbul Furniture Fair,01/25/2022,2022,https://www.istanbulfurniturefair.com,DM,SAKALAR MOBİLYA KOLTUK ORMAN ÜRÜN. İNŞ. MALZ. NAK. SAN. TİC. LTD. ŞTİ.,,,,,,,,,,,,
Istanbul Furniture Fair,01/25/2022,2022,https://www.istanbulfurniturefair.com,DM,SARUZZİ MOBİLYA DEKORASYON A.Ş.,,,,,,,,,,,,
Istanbul Furniture Fair,01/25/2022,2022,https://www.istanbulfurniturefair.com,DM,SEBA MENSUCAT SANAYİ VE TİCARET A.Ş.,,,,,,,,,,,,
Istanbul Furniture Fair,01/25/2022,2022,https://www.istanbulfurniturefair.com,DM,SERHAT ALAN İTHALAT İHRACAT TİCARET LTD.ŞTİ.,,,,,,,,,,,,
Istanbul Furniture Fair,01/25/2022,2022,https://www.istanbulfurniturefair.com,DM,SERMİR CEPHE SİSTEMLERİ REKLAM SAN.TİC.LTD.ŞTİ.,,,,,,,,,,,,
Istanbul Furniture Fair,01/25/2022,2022,https://www.istanbulfurniturefair.com,DM,SİMETRİ OFİS MOBİLYA SİSTEMLERİ SAN. VE TİC. LTD. ŞTİ.,,,,,,,,,,,,
Istanbul Furniture Fair,01/25/2022,2022,https://www.istanbulfurniturefair.com,DM,SİNA GRUP MOBİLYA SAN. TİC. A.Ş.,,,,,,,,,,,,
Istanbul Furniture Fair,01/25/2022,2022,https://www.istanbulfurniturefair.com,DM,SOFALİNE MOBİLYA DEKORASYON İNŞA. SAN. VE TİC. LTD. ŞTİ.,,,,,,,,,,,,
Istanbul Furniture Fair,01/25/2022,2022,https://www.istanbulfurniturefair.com,DM,STARMOBİ MOBİLYA SAN. TİC. LTD. ŞTİ.,,,,,,,,,,,,
Istanbul Furniture Fair,01/25/2022,2022,https://www.istanbulfurniturefair.com,DM,ŞEŞKALAR MOBİLYA İNŞAAT MİMARLIK SAN. VE TİC.LTD.ŞTİ.,,,,,,,,,,,,
Istanbul Furniture Fair,01/25/2022,2022,https://www.istanbulfurniturefair.com,DM,TAMADA MOBİLYA SAN. VE TİC. LTD.ŞTİ.,,,,,,,,,,,,
Istanbul Furniture Fair,01/25/2022,2022,https://www.istanbulfurniturefair.com,DM,TARZ OFİS MOBİLYALARI - ÖZGÜL SÜZEN,,,,,,,,,,,,
Istanbul Furniture Fair,01/25/2022,2022,https://www.istanbulfurniturefair.com,DM,TD TECH DESIGN MOB SAN VE TİC AŞ,,,,,,,,,,,,
Istanbul Furniture Fair,01/25/2022,2022,https://www.istanbulfurniturefair.com,DM,TEKPLAS PLASTİK DAY. TÜK. MAL. İTH. İHR. SAN. VE TİC. LTD. ŞTİ.,,,,,,,,,,,,
Istanbul Furniture Fair,01/25/2022,2022,https://www.istanbulfurniturefair.com,DM,TERAZZİ MOBİLYA SAN. VE TİC. A.Ş.,,,,,,,,,,,,
Istanbul Furniture Fair,01/25/2022,2022,https://www.istanbulfurniturefair.com,DM,TUNÇ MOBİLYA TURHAN TUNÇ,,,,,,,,,,,,
Istanbul Furniture Fair,01/25/2022,2022,https://www.istanbulfurniturefair.com,DM,ÜÇYILDIZ TURİZM SAN.TİC.LTD.ŞTİ.,,,,,,,,,,,,
Istanbul Furniture Fair,01/25/2022,2022,https://www.istanbulfurniturefair.com,DM,ÜSTÜNEL MOBİLYA ÇELİK EŞYA MUSTAFA BAYKAN,,,,,,,,,,,,
Istanbul Furniture Fair,01/25/2022,2022,https://www.istanbulfurniturefair.com,DM,VAHDETTİN MOBİLYA DAYANIKLI TÜK.MAL.HALI VE TEKSTİL İTH.İHR.LTD.ŞTİ.,,,,,,,,,,,,
Istanbul Furniture Fair,01/25/2022,2022,https://www.istanbulfurniturefair.com,DM,VENA HOME - MURAT TAHİR ÖZÇÖMLEKÇİ MUSTAFA TAŞDEMİR ORT.,,,,,,,,,,,,
Istanbul Furniture Fair,01/25/2022,2022,https://www.istanbulfurniturefair.com,DM,VEZZONİ MOBİLYA TEKSTİL NAK. İTH. İHR. SAN.TİC. LTD. ŞTİ.,,,,,,,,,,,,
Istanbul Furniture Fair,01/25/2022,2022,https://www.istanbulfurniturefair.com,DM,VOLA YATAK SAN. VE TİC. LTD. ŞTİ.,,,,,,,,,,,,
Istanbul Furniture Fair,01/25/2022,2022,https://www.istanbulfurniturefair.com,DM,VULTRA MOBİLYA ORMAN ÜRÜN.SAN. VE TİC.LTD.ŞTİ.,,,,,,,,,,,,
Istanbul Furniture Fair,01/25/2022,2022,https://www.istanbulfurniturefair.com,DM,WOOD GARDEN MOBİLYA İMALAT VE TİCARET AŞ,,,,,,,,,,,,
Istanbul Furniture Fair,01/25/2022,2022,https://www.istanbulfurniturefair.com,DM,YEKDA DIŞ TİCARET MOBİLYA SAN. TİC. LTD. ŞTİ.,,,,,,,,,,,,
Istanbul Furniture Fair,01/25/2022,2022,https://www.istanbulfurniturefair.com,DM,YILDIZ ÇELİK  BÜRO MOBİLYALARI - MUHAMMET YALÇIN,,,,,,,,,,,,
Istanbul Furniture Fair,01/25/2022,2022,https://www.istanbulfurniturefair.com,DM,ZELALL MOBİLYA SAN. VE TİC. LTD. ŞTİ.,,,,,,,,,,,,
Istanbul Furniture Fair,01/25/2022,2022,https://www.istanbulfurniturefair.com,DM,ZİVELLA MOBİLYA İNŞ SAN TİC LTD ŞTİ,,,,,,,,,,,,
