ShowName,ShowDate,ShowYear,ShowWebsite,SubmittedBy,ExhibitorName,BoothNumber,HallLocation,Website,Email,Phone,Fax,Address,Country,Categories,Manufacturers,Brands,Description
Harrogate Christmas & Gift,01/16/2022,2022,https://www.harrogatefair.com/,DM,The Milford Collection,A2,A,www.milfordcollection.com,david@milfordcollection.com,01686 629 919,,Unit G Vastre Industrial Estate Newtown Powys SY16 1DZ 01686 629 919,,,,ANIMO GLASS | ,"Seasonal scented pine cones in attractive organza bag, Animo Glass in Christmas Designs, mouth blown recycled glass gifts and hand painted ceramic tiles."
Harrogate Christmas & Gift,01/16/2022,2022,https://www.harrogatefair.com/,DM,Ascalon Design Ltd.,M12,M,www.ascalon.co.uk,sales@ascalon.co.uk,01432 340 929,,704 Chapel Road Rotherwas Ind. Estate Hereford Herefordshire HR2 6LD 01432 340 929,,,,,"Established, traditional quality led decorations featuring hedgerow mice, robins, berry red, aurora and gold, and leading collections of wreaths/garlands, candle rings and tree decorations."
Harrogate Christmas & Gift,01/16/2022,2022,https://www.harrogatefair.com/,DM,The English Soap Company,A40,A,www.theenglishsoapcompany.com,oliver@theenglishsoapcompany.com,01435 813412,,Silveroaks Farm Hawkhurst Lane Waldron East Sussex TN21 0RS 01435 813412      ,,,,,
Harrogate Christmas & Gift,01/16/2022,2022,https://www.harrogatefair.com/,DM,Floralsilk Ltd.,B2,B,www.floralsilk.co.uk,sales@floralsilk.co.uk,01778 425 205,01778 420 457,Meadow Drove Bourne Lincolnshire PE10 0BQ 01778 425 205 01778 420 457     ,,,,,"The Fabulous Floralsilk 2020 collection has arrived.  Come see our traditional and contemporary themed ranges of tree trim, wreaths, garlands, foliage, flowers and trees."
Harrogate Christmas & Gift,01/16/2022,2022,https://www.harrogatefair.com/,DM,Festive Productions Ltd.,C1,C,www.festive.co.uk,jonathan.hughes@festive.co.uk,01633 627300,01633 627301,Otters Brook Ty Coch Way Cwmbran Gwent NP44 7EZ Wales 01633 627300 01633 627301   ,,,,Duracell Batteries | ,"Festive is one of the UK's leading suppliers of seasonal decorations, lighting trees and tinsel. Visit us in Hall C."
Harrogate Christmas & Gift,01/16/2022,2022,https://www.harrogatefair.com/,DM,DCUK,C21,C,www.dcuk.com,craig@dcuk.com,01803 866316,,Devoncraft UK Ltd Diptford Totnes Devon TQ9 7NG 01803 866316    ,,,,DCUK | ,"The Original Wooden Duck Company's ducks and feathered friends are lovingly carved from sustainable bamboo and hand-painted, making every bird a true individual."
Harrogate Christmas & Gift,01/16/2022,2022,https://www.harrogatefair.com/,DM,Gibson Plus Ltd,C10,C,www.gibsonplus.co.uk,susan@gibsonplus.co.uk,028 91818801,,158 Movilla Road Newtownards County Down BT23 8RL Northern Ireland 028 91818801,,,,,
Harrogate Christmas & Gift,01/16/2022,2022,https://www.harrogatefair.com/,DM,Hogewoning,B1,B,www.hogewoning.com,daan@hogewoning.com,+31 71 402 85 01,+31 71403 20 55,P.O. box 265 Rijnsburg 2230 AG The Netherlands +31 71 402 85 01 +31 71403 20 55   ,,,,Hogewoning Christmas | Hogewoning Essentials | House of Nature | Natural Pine Collection | ,
Harrogate Christmas & Gift,01/16/2022,2022,https://www.harrogatefair.com/,DM,Gisela Graham Ltd.,"M14,",M,www.giselagraham.co.uk,sales@giselagraham.co.uk,020 7708 4956,020 7703 9859,12 Colworth Grove Browning Street London SE17 1LR 020 7708 4956 020 7703 9859      ,,,,Gisela Graham London | ,For 2020 Europe's leading designer Christmas company unveils 16 new co-ordinated themes; market-leading Easter ranges; unscary Halloween; hundreds of new Everyday gifts.
Harrogate Christmas & Gift,01/16/2022,2022,https://www.harrogatefair.com/,DM,Suki Gifts International Ltd.,A36,A,www.sukigifts.com,happytohelp@sukigifts.com,01733 842 431,01733 304 340,Stirling House Stirling Way Bretton Peterborough Cambridgeshire PE3 8YD United Kingdom 01733 842 431 01733 304 340,,,,,Suki Gifts is a plush and giftware manufacturer best known for our gorgeous soft toys ranges and  Personalised Girl and Boy Christmas Ornament programmes.
Harrogate Christmas & Gift,01/16/2022,2022,https://www.harrogatefair.com/,DM,Trend Mania Ltd.,Q36,Q,www.trendmania.co.uk,info@trendmania.co.uk,01617230108,,78 Chorley new road Bolton Lancashire BL1 4BY 01617230108   ,,,,,"Established since 1989. Innovative, quirky clearance products supplying and purchasing products from around the world."
Harrogate Christmas & Gift,01/16/2022,2022,https://www.harrogatefair.com/,DM,Sagedecor,M6,M,www.sagedecor.com,sales@sagedecor.com,01298 813 001,01298 813 015,Williams (HS) Ltd. Sage House Bowden Hey Road Chapel-en-le-Frith High Peak SK23 0QZ United Kingdom 01298 813 001 01298 813 015   ,,,,Sagedecor | Williams (HS) | ,"Innovative collections of artificial flowers and Christmas decorations. Original designs, prompt delivery and reliable service. Created and curated in the High Peak since 1968."
Harrogate Christmas & Gift,01/16/2022,2022,https://www.harrogatefair.com/,DM,Jeno Floral Imports,A16,A,www.jenofloral.com,john@jenofloral.com,0754 0801 362,,Mutual Mills Aspinal Street Heywood Lancashire OL10 4HP 0754 0801 362,,,,,"Importers of Christmas artificial Pine wreaths, garlands, bouquets and everyday flowers."
Harrogate Christmas & Gift,01/16/2022,2022,https://www.harrogatefair.com/,DM,HELLMANN - VERSAND GmbH,B25,B,www.hellmann-versand.de,vertrieb@hellmann-versand.de,0049 9131 324410,,Kriegenbrunner Str. 50 Erlangen Bavaria 91056 Germany 0049 9131 324410,,,,,
Harrogate Christmas & Gift,01/16/2022,2022,https://www.harrogatefair.com/,DM,Smart Garden Products Ltd.,Q1,Q,www.sgpuk.com,sales@sgpuk.com,01235 424 100,01235 533 148,2 Pentagon South Barton Lane Abingdon Oxon OX14 3PZ England 01235 424 100 01235 533 148     ,,,,Eureka Lighting | Smart Garden | Three Kings | ,"A festive range of decor for home and garden, complemented by  decorative lighting for use indoors and outdoors, at Christmas and all year round."
Harrogate Christmas & Gift,01/16/2022,2022,https://www.harrogatefair.com/,DM,Sparkle and Light Ltd. - Christmas 3D Glasses,C4,C,www.christmasglasses.co.uk,info@christmasglasses.co.uk,01344 299 628,01344 299 628,3 Onslow Ascot Berkshire SL5 7UL England 01344 299 628 01344 299 628,,,,,"Magical Christmas 3D Glasses! Transforms Christmas fairy lights (actually any point of light) into Snowmen, Reindeer, Santa and Gingerbread men."
Harrogate Christmas & Gift,01/16/2022,2022,https://www.harrogatefair.com/,DM,Lesser & Pavey Ltd.,A6,A,www.leonardo.co.uk,sales@leonardo.co.uk,01322 279 225,,Leonardo House Fawkes Avenue Dartford Trade Park Dartford Kent DA1 1JQ 01322 279 225   ,,,,The Leonardo Collection | The Macneil Studio | ,"Established in 1971, we're a leading UK trade supplier of giftware & homeware with our brand �The Leonardo Collection"" renowned worldwide. Our ranges include aroma lamps, wax melt & oil warmers, fragrance gifts, home decor, tableware, kitchenware, figurines, ornaments and occasions - Christmas, Mother�s Day, birthdays, wedding and baby gifts."
Harrogate Christmas & Gift,01/16/2022,2022,https://www.harrogatefair.com/,DM,Walton & Co Ltd.,A35,A,www.waltonsofyorkshire.co.uk,sales@waltonsofyorkshire.co.uk,01423 326 332,,Castle Mills Bar Lane Roecliffe York North Yorkshire YO51 9LS UK 01423 326 332    ,,,,Walton Baby | Walton Lifestyle | ,"Creators of beautiful table linens, cushions & throws, rugs, toys and hanging decorations for Christmas. Plus new 2020 Spring Summer Collections for indoor/outdoor living."
Harrogate Christmas & Gift,01/16/2022,2022,https://www.harrogatefair.com/,DM,National Tree Company / Norfolk Leisure,B15,B,www.norfolkleisure.com,debbie@norfolkleisure.co.uk,01553 811717,,Garage Lane Setchey Kings Lynn Norfolk PE33 0AX 01553 811717     ,,,,National Tree Company | ,"Norfolk Leisure is the exclusive distributor in the UK and Ireland for National Tree Company, a leading brand in artificial Christmas Trees, wreaths, and garlands. A wide range of shapes styles and sizes based on the look and feel of real trees, both lit and unlit with exceptional unrivalled quality."
Harrogate Christmas & Gift,01/16/2022,2022,https://www.harrogatefair.com/,DM,Heaven Sends,C37,C,www.heavensends.com,sales@heavensends.com,0121 351 7457,0121 313 3234,One Maybrook Business Park Maybrook Road Minworth Sutton Coldfield West Midlands B76 1AL 0121 351 7457 0121 313 3234    ,,,,,"Heaven Sends has fast become one the UK's leading wholesaler of fabulously quirky gifts, stylish home accessories and seasonal decorations!"
Harrogate Christmas & Gift,01/16/2022,2022,https://www.harrogatefair.com/,DM,RSW International Ltd.,B14,B,www.rswinternational.co.uk,lashworth@rswint.co.uk,+44,,Unit 4 Cown Top Business Park Cown Top Lane Rochdale Lancashire OL11 2PU +44 (0)1706 764460,,,,Harvey & Mason | RSW International | ,"Our Christmas designs encompass the joy of the season, with a wide range to suit every home and budget."
Harrogate Christmas & Gift,01/16/2022,2022,https://www.harrogatefair.com/,DM,N. Smith & Co Ltd.,Q20,Q,www.nsmithbox.co.uk,sales@nsmithbox.co.uk,0121 5571891,,Hainge Road Oldbury West Midlands B69 2NZ 0121 5571891,,,,,
Harrogate Christmas & Gift,01/16/2022,2022,https://www.harrogatefair.com/,DM,Premier Halloween,H2,H,,sales@premierdec.com,020 8624 5555,020 8624 5678,Premier Halloween Premier House Braintree Road Ruislip Middlesex HA4 0EJ 020 8624 5555 020 8624 5678,,,,,The buyers one stop Halloween shop. It is the BEST RANGE in the Halloween UK and Irish market. Come and see us in Hall
Harrogate Christmas & Gift,01/16/2022,2022,https://www.harrogatefair.com/,DM,Sincere UK Ltd.,A18,A,www.sincerefloral.co.uk,sincereukltd@aol.com,01200 422 488,,Unit 6 Deanfield Way Link 59 Business Park Clitheroe Lancashire BB7 1QU 01200 422 488,,,,Sincere Floral | ,"Christmas Grave Pots, Wreaths, Garlands and Picks. New 2022 ranges of Flowering Trees with interchangeable branches, Everyday Grave Pots and beautiful Flowering Bouquets."
Harrogate Christmas & Gift,01/16/2022,2022,https://www.harrogatefair.com/,DM,Global Journey Ltd.,A34,A,www.global-journey.com,isamuels@global-journey.com,0161 872 0333,,Unit 3 Boston Court Salford Quays Manchester M50 2GN 0161 872 0333,,,,Christmas Hand Sanitisers | Christmas Jigsaws | Christmas Wish Pearls | ,
Harrogate Christmas & Gift,01/16/2022,2022,https://www.harrogatefair.com/,DM,Florelle Import Co.,A29,A,www.florelle.co.uk,sales@florelle.co.uk,01484 353 000,,Albany Works Albany Road Kirkheaton Huddersfield West Yorkshire HD5 9UL 01484 353 000  ,,,,,"For over 30 years Florelle has been a leading importer of artificial flowers, potted arrangements, trees and Christmas decorations; supplying to UK, Ireland, Europe."
Harrogate Christmas & Gift,01/16/2022,2022,https://www.harrogatefair.com/,DM,Vivid Arts Ltd.,QS1,,www.vividarts.co.uk,sales@vividarts.co.uk,01244 659 911,01244 670 860,Viscount House River Lane Saltney Chester CH4 8RH 01244 659 911 01244 670 860,,,,Petpals | Real Life | ,"VIVID ARTS : award winning, market leading ornaments and decoration for indoor and outdoor. MANY NEW PRODUCTS TO BE LAUNCHED AT THE SHOW!!"
Harrogate Christmas & Gift,01/16/2022,2022,https://www.harrogatefair.com/,DM,PolarX Ornament & Gift,B13,B,www.polarxornaments.co.uk,charlotte@pxornaments.com,07581 216 362,,SPX Brands UK PVT Ltd Unit 3 Plant Lane Business Park Burntwood Staffordshire WS14 0JS UNITED KINGDOM 07581 216 362 / 0154 322 4111 ,,,,PolarX Ornaments | ,"PolarX specialises in unique Christmas decorations, stockings and table toppers, that can be personalised by hand or by a laser printer or vinyls, Visit"
Harrogate Christmas & Gift,01/16/2022,2022,https://www.harrogatefair.com/,DM,Konstsmide (UK) Ltd.,M22,M,www.konstsmide.co.uk,sales@konstsmide.co.uk,01246 852 140,01246 854 297,Hardwick View Road Holmewood Industrial Estate Holmewood Chesterfield Derbyshire S42 5SA 01246 852 140 01246 854 297    ,,,,Konstsmide | ,"Europe's largest Christmas lighting specialist, exhibiting a quality range of branded party and decoration lighting with many unique designs."
Harrogate Christmas & Gift,01/16/2022,2022,https://www.harrogatefair.com/,DM,Bollywood Christmas,C25,C,www.bollywoodchristmas.co.uk,enquiries@bollywoodchristmas.co.uk,01453 842 493,,J.C. Household Ltd Station Road Charfield Wotton-Under-Edge Gloucestershire GL12 8SR 01453 842 493 ,,,,Bollywood Christmas | ,"Handmade Christmas Decorations from India. From Hand Painted Christmas Baubles, to Hand Blown Glass from Artisans near Agra."
Harrogate Christmas & Gift,01/16/2022,2022,https://www.harrogatefair.com/,DM,Fountasia International Ltd.,QS2,,www.fountasia.com,info@fountasia.com,01892 838 888,,"Unit 1, Orchard Business Park Badsell Road FIVE OAK GREEN Kent TN12 6QU 01892 838 888",,,,,"Fountasia home and garden products are colourful, fun and quirky. See the new range of interesting and innovative design led gifts on stand QS02."
Harrogate Christmas & Gift,01/16/2022,2022,https://www.harrogatefair.com/,DM,Keel Toys Ltd.,A37,A,www.keeltoys.com,steve.cox@keeltoys.com,01233 506 363,,Ashford Business Park Barrey Road Ashford Kent TN24 0SG United Kingdom 01233 506 363   ,,,,Animotsu | Pippins | ,"New Recycled/Sustainable options for 2020 enhance the leading soft toy range available in the UK. Bespoke toys, project managed from design to delivery."
Harrogate Christmas & Gift,01/16/2022,2022,https://www.harrogatefair.com/,DM,Luxa London,M26,M,www.luxalondon.com,info@luxalondon.com,020 7585 0055,,Unit 137 Battersea Business Centre 99-109 Lavender Hill London SW11 5QL 020 7585 0055,,,,,Two dozen new products continue the Luxa effort to make your place of work a tad more interesting and inviting.  It's quite a show.
Harrogate Christmas & Gift,01/16/2022,2022,https://www.harrogatefair.com/,DM,Weiste,M28,M,www.weiste.com,info@weiste.fi,00 358 9 351 800,00 358 9 345 4339,Kalle Weisteen Katu 4 00720 Helsinki Finland 00 358 9 351 800 00 358 9 345 4339,,,,Christmas Legend | Villa Weiste | ,Your Christmas Decorations - first-class quality and design by the leading Scandinavian manufacturer Weiste in Finland already 90 years.  Scandinavian home decor and
Harrogate Christmas & Gift,01/16/2022,2022,https://www.harrogatefair.com/,DM,C K Supplies Ltd.,Q78,Q,www.ckwholesale.co.uk,alicia@ckwholesale.co.uk,01204 575 166,,CK WHOLESALE (SUPPLIES) LTD Unit 6 & 10 Farnworth Industrial Estate Emlyn Street Farnworth BL4 7EB 01204 575 166,,,,,British made and imported household goods complimented with 50 to 100 clearance lines per month all delivered to your door when you need it.
Harrogate Christmas & Gift,01/16/2022,2022,https://www.harrogatefair.com/,DM,Terra Rossa,TBA,A,www.terra-rossa.com,info@terra-rossa.com,020 8661 9695,,10 Burnell Road Sutton Surrey SM1 4EE 020 8661 9695   ,,,,Rashi & Dibis | Terra Rossa | ,"Winner of 68 Great Taste Awards over the past 15 year's including Arabian olive oils, hampers, dipping kits, herb mixes, sweets, sauces, fresh dips"
Harrogate Christmas & Gift,01/16/2022,2022,https://www.harrogatefair.com/,DM,Davies Products (Liverpool) Ltd.,B5,B,www.daviesproducts.co.uk,sales@daviesproducts.co.uk,0151 922 4246,0151 944 1901,Alsol House Laburnum Place Litherland Road Bootle Liverpool L20 3NE 0151 922 4246 0151 944 1901,,,,DAVIES PRODUCTS EST. 1947 | SCREAM MACHINE | ,"See the launch of our fabulous 2020 ranges of Christmas, Halloween, Easter and floral decor. Hundreds of new items, amazing prices and unrivalled service."
Harrogate Christmas & Gift,01/16/2022,2022,https://www.harrogatefair.com/,DM,NOMA,"A9,",A,www.noma.co.uk,sales@leisuregrow.com;,01462 744 500,,Dewmead Farm New Inn Road Hinxworth Hertfordshire SG7 5HG 01462 744 500     ,,,,LeisureGrow | NOMA Garden Art | NOMA Lighting | Petface | ,"NOMA - Lighting specialists since 1939. 2020 sees NOMA reach 81 years old, the oldest Christmas lighting company in the UK. Trees mix cutting"
Harrogate Christmas & Gift,01/16/2022,2022,https://www.harrogatefair.com/,DM,BALTUS CANDLES,D1,D,,stephenmorrin43@gmail.com;,07767 266458,,4 Annerley Road Annan Dumfriesshire DG12 6HE 07767 266458,,,,AROMA FROM NATURE | BALTUS CANDLES | CANDLE QUEEN | ,"An exciting range of Candles, Gift Sets, Reed Diffusers, Glassware plus an Indulgent range of Aromabotanical products filled with essential oils and pure extracts"
Harrogate Christmas & Gift,01/16/2022,2022,https://www.harrogatefair.com/,DM,Portfolio Home,A39,A,www.portfoliohome.com,info@portfoliohome.com,0161 3202121,,"Vithal House Parkway Denton, Manchester Lancashire M34 3SG 0161 3202121      ",,,,,Portfolio Home is one the UK's leading home textiles suppliers with a wide range of award-winning designs. We have the finest range of traditional
Harrogate Christmas & Gift,01/16/2022,2022,https://www.harrogatefair.com/,DM,Heyland & Whittle,C6,C,www.heylandandwhittle.co.uk,sales@heylandandwhittle.co.uk,01293 525 825,,Heyland & Whittle Ltd 1 Crompton Way Crawley West Sussex RH10 9QR UK 01293 525 825,,,,,
Harrogate Christmas & Gift,01/16/2022,2022,https://www.harrogatefair.com/,DM,History & Heraldry Limited,B6,B,www.historyheraldry.com,sales@historyheraldry.com,01709730700,,2 Denby Way Hellaby ROTHERHAM South Yorkshire S66 8HR United Kingdom 01709730700   ,,,,Heart & Home | ,The go-to company for all your impulse-buy and fragranced gift needs. Known for our best-selling festive lines - add us to your must-see list.
Harrogate Christmas & Gift,01/16/2022,2022,https://www.harrogatefair.com/,DM,Giftware Trading,A30,A,www.giftwaretrading.co.uk,info@giftwaretradingco.co.uk,0117 972 0506,,"Unit 1, Crown Road Industrial Estate Crown Road Warmley Bristol South Gloucestershire BS30 8JJ 0117 972 0506",,,,,Please visit Giftware Trading to view their new collection for 2020.
Harrogate Christmas & Gift,01/16/2022,2022,https://www.harrogatefair.com/,DM,Arora Design Ltd.,D2,D,www.arora-design.co.uk,debbie@arora-design.co.uk,01386 861666,,Arora Design Ltd Unit 20 Craycombe Farm Fladbury Worcestershire WR10 2QZ 01386 861666,,,,More Than Words | Said With Sentiment | Ultimate Gift For Man | ,"Arora Design supply distinctly different giftware designed and created in the UK by talented British artists. Unique designs, quality products, which are competitively priced."
Harrogate Christmas & Gift,01/16/2022,2022,https://www.harrogatefair.com/,DM,Christmas in January,A1,A,www.toysnplaythings.co.uk,malcolm@lemapublishing.co.uk,01442 289 930,,Naishville 1 Churchgates The Wilderness Berkhamstead Herts HP4 2UB 01442 289 930,,,,,Christmas in January is the only b2b title read by buyers of Christmas Decorations and related products. Now in its 31st year of publication.
Harrogate Christmas & Gift,01/16/2022,2022,https://www.harrogatefair.com/,DM,Langley Candles,C11,C,www.langleycandles.co.uk,hello@langleycandles.co.uk,07515 661160,,1 Langley Close Diseworth Derby Derbyshire DE74 2AH 07515 661160,,,,,
Harrogate Christmas & Gift,01/16/2022,2022,https://www.harrogatefair.com/,DM,Fair to Trade Ltd.,C7,C,www.fairtotrade.com,melanie@fairtotrade.com,0118 983 5767,,Unit 3 Amners Farm Burghfield Reading Berkshire RG30 3UE 0118 983 5767  ,,,,Fair to Trade | ,"Handmade, quality, affordable Fair Trade Christmas and Easter decorations expertly crafted in fun, traditional or bespoke designs. A member of BAFTS."
Harrogate Christmas & Gift,01/16/2022,2022,https://www.harrogatefair.com/,DM,Richard Lang & Son Ltd.,A4,A,www.richardlang.co.uk,keith@richardlang.co.uk,01332 226891,,1 Little Chester Park Alfreton Road Derby Derbyshire DE21 4AA UK 01332 226891   ,,,,,
Harrogate Christmas & Gift,01/16/2022,2022,https://www.harrogatefair.com/,DM,Stands Out Ltd.,Q19,Q,www.stands-out.co.uk,james@stands-out.co.uk,01492 548 591,,Stands Out Ltd Mochdre Business Park Blackmarsh Road Mochdre Conwy LL28 5HA United Kingdom 01492 548 591,,,,I Saw This and Thought of You | Jinglebell Jewellery | Pop-watch | ,"Stands Out designs, manufactures and distributes, fun, colourful, pocket money gifts, displayed on bespoke wooden display units to the UK's top attractions and retailers."
Harrogate Christmas & Gift,01/16/2022,2022,https://www.harrogatefair.com/,DM,Missus Christmas,C14,C,www.hellolangleycandles.co.uk,ironsdavid922@yahoo.com,07956 233090,,7 Ghyll Beck Drive Otley West Yorkshire LS21 3NF 07956 233090,,,,,
Harrogate Christmas & Gift,01/16/2022,2022,https://www.harrogatefair.com/,DM,Christmas Inspirations B.V.,B8,B,www.christmasinspirations.nl,info@christmasinspirations.nl,0031 251730051,,Christmas Inspirations Havenstraat 1 Beverwijk Noord-Holland 1948NP The Netherlands 0031 251730051,,,,Christmas Inspirations | Disney | Kurt Adler | ,
Harrogate Christmas & Gift,01/16/2022,2022,https://www.harrogatefair.com/,DM,Shatchi,C2,C,www.shatchi.co.uk,SALES@SHATCHI.CO.UK,01462432600,,20 WALLACE WAY HITCHIN Hertfordshire SG4 0SE United Kingdom 01462432600,,,,Shatchi | ,Shatchi is dedicated to manufacturing quality products from Standard to Naturally Decorated and LED/Fibre Optic Christmas Trees with proven demand at a competitive price.
Harrogate Christmas & Gift,01/16/2022,2022,https://www.harrogatefair.com/,DM,Hamac Trading Co,M2,M,www.hamactradingdisplays.com,philip@hamactrading.com,028 2583 1201,028 2583 1202,"Unit 2, 29 Church Road Glenwherry Ballymena County Antrim BT42 3EQ 028 2583 1201 028 2583 1202  ",,,,Hamac Christmas Display Creations | Life-size Christmas Display Creations | ,"Reindeer, Snowmen, Nutcrackers, Polar Bears, Toy Soldiers, and of course Santa Claus... Hamac Trading offer the largest selection of life-size, high-quality, fibreglass Display Creations."
Harrogate Christmas & Gift,01/16/2022,2022,https://www.harrogatefair.com/,DM,Playwrite Group Plc,C17,C,www.playwritegroup.com,sales@playwritegroup.com,020 7683 1288,,110 Station Road East Oxted RH8 0QA 020 7683 1288,,,,APPROVED BY SANTA | ,"Leading supplier of SANTA'S GROTTO GIFTS, Christmas wrapped if required, priced from 50p to £5. Also attractive range of Christmas toys, gifts and novelties."
Harrogate Christmas & Gift,01/16/2022,2022,https://www.harrogatefair.com/,DM,Teal International Limited,A3,A,www.thesatchvillegiftcompany.co.uk,info@thesatchvillegiftcompany.co.uk,01664 898490,,Pera Business Park Nottingham Road Melton Mowbray Leicestershire LE13 0PB 01664 898490    ,,,,The Satchville Gift Company | ,The Satchville Gift Company offers a beautiful and stylish range of contemporary seasonal gifts and accessories for home and garden.
Harrogate Christmas & Gift,01/16/2022,2022,https://www.harrogatefair.com/,DM,Lemax Europe BV,A25,A,,info@lemaxeurope.com,0031 71 332 1910,,Veenderveld 57 PO Box 7 Roelofarendsven 2370AA The Netherlands 0031 71 332 1910,,,,,
Harrogate Christmas & Gift,01/16/2022,2022,https://www.harrogatefair.com/,DM,Primus (A Perry Ltd.),TBA,A,www.primus.co.uk,sales@primus.co.uk,01384 414069,,Doulton Road Cradley Heath West Midlands B64 5QW 01384 414069     ,,,,Perry | Primus | ,"Specialising in handcrafted gifts for the home and garden and launching a new Christmas range, Primus provides unique and individual products to our customers."
Harrogate Christmas & Gift,01/16/2022,2022,https://www.harrogatefair.com/,DM,Woodlodge Products,"M24,",M,www.woodlodge.co.uk,pots@woodlodge.co.uk,01666 501000,,Babdown Airfield Tetbury Gloucestershire GL8 8YB United Kingdom 01666 501000    ,,,,Snowlodge | ,"Woodlodge is the proud to introduce their brand new Christmas range, Snowlodge. This exciting offering consists of over 1,400 festive products, including popular product lines such as stars, wreaths, baubles, ornaments, figurines, lighting and festive plushes, all of which will meet Woodlodge�s exacting standards and high levels of quality assurance."
Harrogate Christmas & Gift,01/16/2022,2022,https://www.harrogatefair.com/,DM,Puleo Asia Ltd.,C22,C,www.puleointl.com,info@puleoasia.com,852 2311 0677,,"Unit 8, 2nd Floor, Tower 1 Harbour Centre 1 Hok Cheung Street Hung Hom Kowloon Hong Kong 852 2311 0677",,,,PULEO | ,"Puleo offers creative and innovative artificial Christmas trees, wreaths and garlands (Pre-lit/Un-lit). Original designs representing high quality for excellent prices."
Harrogate Christmas & Gift,01/16/2022,2022,https://www.harrogatefair.com/,DM,Wikholmform,B7,B,www.wikholmform.se,richard@casagrande.co.uk,01752 816181,,Casa Grande Ltd Carew Wharf Marine Drive Torpoint Cornwall PL11 2RF 01752 816181,,,,,
Harrogate Christmas & Gift,01/16/2022,2022,https://www.harrogatefair.com/,DM,Premier Decorations Ltd.,H1,H,www.premierdec.com,sales@premierdec.com,020 8624 5555,,Premier House Braintree Road Ruislip Middlesex HA4 0EJ UK 020 8624 5555      ,,,,ACCENTS BY PREMIER | PREMIER | THE TREE COMPANY BY PREMIER | ,"Be first to view the Premier 2020 Christmas, Halloween and Garden, Gift & Home collections. Can you afford to miss us? All your Christmas,"
Harrogate Christmas & Gift,01/16/2022,2022,https://www.harrogatefair.com/,DM,Holly and Ivy,B18,B,,miles@glenart.co.za,0027 722522211,,10 Eagle Road Imbonini Park Ballito Kwazulu-Natel 4381 0027 722522211,,,,,
Harrogate Christmas & Gift,01/16/2022,2022,https://www.harrogatefair.com/,DM,Straits Trading Company Ltd.,C41,C,www.straitstrading.com,sales@straitstrading.com,01254 300 260,01254 238 922,The Straits Trading Company Ltd East Wing Offices Junction 7 Business Park Accrington BB5 5JW 01254 300 260 01254 238 922,,,,,Straits are engaged in the importation and distribution of home accessories. We provide stylish good quality products that compliment the style of any home.
Harrogate Christmas & Gift,01/16/2022,2022,https://www.harrogatefair.com/,DM,Kaemingk BV,M1,M,www.kaemingk.com,info@kaemingk.com,00 31 5434 98800,,Broekstraat 13 7122 MN Aalten Netherlands 00 31 5434 98800   ,,,,Decoris | Everlands | Lumineo | ,Bringing happiness to your home each season is what we present you. Innovation and versatility define our company reflecting in original & inspiring ranges.
Harrogate Christmas & Gift,01/16/2022,2022,https://www.harrogatefair.com/,DM,Snowtime,D19,D,www.transcon.co.uk,sales@transcon.co.uk,01253 207799,,Trans-Continental Group Ltd. Amy Johnson Way Blackpool Lancashire FY4 2RP 01253 207799,,,,Energiser: Battery Lights | Raymond Briggs: Father Christmas | Raymond Briggs: The Snowman & The Snowdog | ,"For the UK's largest range of Artificial Trees, Indoor and Outdoor lights, LED Fibre Optic Trees, Garlands, Wreaths, Decorations and Home Decor, visit SnowTime."
Harrogate Christmas & Gift,01/16/2022,2022,https://www.harrogatefair.com/,DM,Archipelago,C9,C,www.archipelago.eu.com,info@archipelago.eu.com,01937 588 704,,Priory Farm Wighill Park Tadcaster North Yorkshire LS24 8BL 01937 588 704,,,,,Archipelago brings something different to Christmas. Many items are designed in the UK and individually hand carved.  Give your customers something special this
Harrogate Christmas & Gift,01/16/2022,2022,https://www.harrogatefair.com/,DM,Padgett Brothers AtoZ,A5,A,www.padgettatoz.co.uk,info@padgettatoz.co.uk,01226 381 188,,Unit 1 Warneford Avenue Ossett West Yorkshire WF5 9NJ 01226 381 188,,,,Funtime | ,We are major toy and nursery importers and distributors. One of our specialities is supplying wrapped Christmas presents for Santas grottos across the country.
Harrogate Christmas & Gift,01/16/2022,2022,https://www.harrogatefair.com/,DM,Anglo American Distributors Ltd.,C3,C,www.angloamericanonline.co.uk,info@aadistributors.co.uk,01270 668828,,20 Lochleven Road Crewe Cheshire CW2 6RX 01270 668828,,,,Adams Accessories USA | Drymate Tree Mats USA | Magic Mounts USA | ,UK's Christmas decorating accessories specialist with all products now only made in the USA.
Harrogate Christmas & Gift,01/16/2022,2022,https://www.harrogatefair.com/,DM,Bailey & Brooke,C24,C,www.bailey-brooke.com,bryn@alliedimports.com,00353 1880 9150,,Unit 804 Northwest Business park Ballycoolin Dublin Dublin 15 Ireland 00353 1880 9150,,,,Bailey & Brooke | ,"New to the UK market Bailey & Brooke Gift Boxed Christmas Decorations, Candles and Jewellery"
Harrogate Christmas & Gift,01/16/2022,2022,https://www.harrogatefair.com/,DM,FDL Festive Decoration & Lighting Ltd.,M27,M,www.fdl.li,fdl@fdl.li,0161 474 7772,0161 474 7882,Holland House 2 Tollbar Street Stockport Cheshire SK1 3EW 0161 474 7772 0161 474 7882,,,,Candled | FireLamp | Movin Flame | ,F.D.L. are Importers & Distributors to the Wholesale Retail & Commercial Sectors. F.D.L. products include a comprehensive range of indoor & outdoor lighting.
Harrogate Christmas & Gift,01/16/2022,2022,https://www.harrogatefair.com/,DM,Sifcon International Plc,B3,B,www.silplc.com,sales@silplc.com,01992 718 033,01992 760 021,New Ford Road Britannia Road Ind. Estate Waltham Cross Herts EN8 7PG 01992 718 033 01992 760 021,,,,SIL | ,"SIL is the leading supplier of gifts and interior accessories to retailers of all sizes, and prides itself on offering choice, flexibility and value."
