ShowName,ShowDate,ShowYear,ShowWebsite,SubmittedBy,ExhibitorName,BoothNumber,HallLocation,Website,Email,Phone,Fax,Address,Country,Categories,Manufacturers,Brands,Description
iberinform,02/28/2022,2022,https://www.iberinform.es/informacion-de-empresas/directorio-cnae/310/fabricacion-de-muebles,DM,Antonio Garcia Gb Grup,,,http://www.gbgrup.net,,,,"Poligono Coll Estret Nave, 2. 25180, Alcarras (lleida). España., Alcarras",Lleida,,,,
iberinform,02/28/2022,2022,https://www.iberinform.es/informacion-de-empresas/directorio-cnae/310/fabricacion-de-muebles,DM,Anepol System,,,http://www.anepol.net,,,,"Calle Aragon Esquina A Calle Cataluña Plgno In, S/n. 03640, Monovar (alicante). España., Monovar",Alicante,,,,
iberinform,02/28/2022,2022,https://www.iberinform.es/informacion-de-empresas/directorio-cnae/310/fabricacion-de-muebles,DM,Amiced 2014,,,,,,,"Calle Concepcion, 7, 2º. 30510, Yecla (murcia). España., Yecla",Murcia,,,,
iberinform,02/28/2022,2022,https://www.iberinform.es/informacion-de-empresas/directorio-cnae/310/fabricacion-de-muebles,DM,Almohadas Retaco,,,http://www.almohadasretaco.es/,,,,"Avenida Francisc Parc, 8, 6 Plind. 30840, Alhama De Murcia (murcia). España., Alhama De Murcia",Murcia,,,,
iberinform,02/28/2022,2022,https://www.iberinform.es/informacion-de-empresas/directorio-cnae/310/fabricacion-de-muebles,DM,Alvaflex,,,http://www.alvaflex.com/,,,,"Carretera Alcacer A Picasent S N, S/n. 46220, Picassent (valencia). España., Picassent",Valencia,,,,
iberinform,02/28/2022,2022,https://www.iberinform.es/informacion-de-empresas/directorio-cnae/310/fabricacion-de-muebles,DM,Amaro Descanso,,,,,,,"Poligono Miguel Servet Nave, 2. 50008, Zaragoza (zaragoza). España., Zaragoza",Zaragoza,,,,
iberinform,02/28/2022,2022,https://www.iberinform.es/informacion-de-empresas/directorio-cnae/310/fabricacion-de-muebles,DM,Ada Descanso Y Confort,,,,,,,"Avenida Benalmadena, 43, Puerta 111. 29620, Torremolinos (malaga). España., Torremolinos",Malaga,,,,
iberinform,02/28/2022,2022,https://www.iberinform.es/informacion-de-empresas/directorio-cnae/310/fabricacion-de-muebles,DM,Alcazara,,,,,,,"Calle Veintitres De Abril, 26, Polig El Pilar. 50014, Zaragoza (zaragoza). España., Zaragoza",Zaragoza,,,,
iberinform,02/28/2022,2022,https://www.iberinform.es/informacion-de-empresas/directorio-cnae/310/fabricacion-de-muebles,DM,Almohadas Plax,,,http://www.plax.es,,,,"Calle Obispo Miro, 20. 46880, Bocairent (valencia). España., Bocairent",Valencia,,,,
iberinform,02/28/2022,2022,https://www.iberinform.es/informacion-de-empresas/directorio-cnae/310/fabricacion-de-muebles,DM,Splendor,,,http://www.colchonsplendor.com,,,,"Avenida Conde Duque, 26, Plind La Postura. 28340, Valdemoro (madrid). España., Valdemoro",Madrid,,,,
iberinform,02/28/2022,2022,https://www.iberinform.es/informacion-de-empresas/directorio-cnae/310/fabricacion-de-muebles,DM,Arteflek,,,,,,,"Calle Rebata, 4. 45216, Carranque (toledo). España., Carranque",Toledo,,,,
iberinform,02/28/2022,2022,https://www.iberinform.es/informacion-de-empresas/directorio-cnae/310/fabricacion-de-muebles,DM,Arval System,,,http://www.arvalsystem.com,,,,"Calle Isla Cabrera, 28. 46026, Valencia (valencia). España., Valencia",Valencia,,,,
iberinform,02/28/2022,2022,https://www.iberinform.es/informacion-de-empresas/directorio-cnae/310/fabricacion-de-muebles,DM,Futon Line,,,http://www.futonline.com/,,,,"Calle Parla, 4, Polig Ind Ventorro Del Cano. 28925, Alcorcon (madrid). España., Alcorcon",Madrid,,,,
iberinform,02/28/2022,2022,https://www.iberinform.es/informacion-de-empresas/directorio-cnae/310/fabricacion-de-muebles,DM,Disma,,,,,,,"Calle Via Portugal 20, 17, 19 Bajos. 07500, Manacor (illes Balears). España., Manacor",Illes Balears,,,,
iberinform,02/28/2022,2022,https://www.iberinform.es/informacion-de-empresas/directorio-cnae/310/fabricacion-de-muebles,DM,Aristokratik,,,,,,,"Calle Aguabajo, 4, Bajo B. 41400, Ecija (sevilla). España., Ecija",Sevilla,,,,
iberinform,02/28/2022,2022,https://www.iberinform.es/informacion-de-empresas/directorio-cnae/310/fabricacion-de-muebles,DM,Bed S,,,,,,,"Calle Mas De Gaminde, 17, Bj. 35006, Palmas De Gran Canaria (las) (las Palmas). España., Palmas De Gran Canaria (las)",Las Palmas,,,,
iberinform,02/28/2022,2022,https://www.iberinform.es/informacion-de-empresas/directorio-cnae/310/fabricacion-de-muebles,DM,Bs Buensueño-solber,,,http://www.buensueno.es,,,,"Calle Le A Parcela, S/n, Plind El Semolilla. 30640, Abanilla (murcia). España., Abanilla",Murcia,,,,
iberinform,02/28/2022,2022,https://www.iberinform.es/informacion-de-empresas/directorio-cnae/310/fabricacion-de-muebles,DM,Besa Buen Colchon,,,,,,,"Avenida Sequia Reial Del Xuquer, 4. 46460, Silla (valencia). España., Silla",Valencia,,,,
iberinform,02/28/2022,2022,https://www.iberinform.es/informacion-de-empresas/directorio-cnae/310/fabricacion-de-muebles,DM,Bio Vital Sort,,,,,,,"Calle Industria, 8, P I La Rosa 1. 18330, Chauchina (granada). España., Chauchina",Granada,,,,
iberinform,02/28/2022,2022,https://www.iberinform.es/informacion-de-empresas/directorio-cnae/310/fabricacion-de-muebles,DM,Mismo Que Razon Social,,,http://www.biocolchon.com,,,,"Avenida Paz, 214. 30510, Yecla (murcia). España., Yecla",Murcia,,,,
iberinform,02/28/2022,2022,https://www.iberinform.es/informacion-de-empresas/directorio-cnae/310/fabricacion-de-muebles,DM,Beoart,,,,,,,"Paseo Tarajal, S/n, Local 339 B Ccial C. 38640, Arona (santa Cruz De Tenerife). España., Arona",Santa Cruz De Tenerife,,,,
iberinform,02/28/2022,2022,https://www.iberinform.es/informacion-de-empresas/directorio-cnae/310/fabricacion-de-muebles,DM,Aspol,,,http://www.colchonesasapol.com,,,,"Calle 4, S/n, Pol. Ind. Sanciabrao Das Viñas. 32901, San Cibrao Das Viñas (ourense). España., San Cibrao Das Viñas",Ourense,,,,
iberinform,02/28/2022,2022,https://www.iberinform.es/informacion-de-empresas/directorio-cnae/310/fabricacion-de-muebles,DM,Bedline,,,http://www.bedline.es,,,,"Carretera Ajalvir, S/n, Km 2 200 Calle Argelia. 28806, Alcala De Henares (madrid). España., Alcala De Henares",Madrid,,,,
iberinform,02/28/2022,2022,https://www.iberinform.es/informacion-de-empresas/directorio-cnae/310/fabricacion-de-muebles,DM,Bedroom,,,,,,,"Calle Valencia, 15, 3 6. 46960, Aldaia (valencia). España., Aldaia",Valencia,,,,
iberinform,02/28/2022,2022,https://www.iberinform.es/informacion-de-empresas/directorio-cnae/310/fabricacion-de-muebles,DM,Ayr Salud Descanso,,,,,,,"Calle Ramon Y Cajal, 19, 1. 41920, San Juan De Aznalfarache (sevilla). España., San Juan De Aznalfarache",Sevilla,,,,
iberinform,02/28/2022,2022,https://www.iberinform.es/informacion-de-empresas/directorio-cnae/310/fabricacion-de-muebles,DM,Balimu Gestion De Comercio,,,,,,,"Calle P I Oeste C/ Costa Rica, S/n, Parcela C Costa Rica. 30820, Alcantarilla (murcia). España., Alcantarilla",Murcia,,,,
iberinform,02/28/2022,2022,https://www.iberinform.es/informacion-de-empresas/directorio-cnae/310/fabricacion-de-muebles,DM,Astral Descanso,,,,,,,"Calle Informatica, 35. 19200, Azuqueca De Henares (guadalajara). España., Azuqueca De Henares",Guadalajara,,,,
iberinform,02/28/2022,2022,https://www.iberinform.es/informacion-de-empresas/directorio-cnae/310/fabricacion-de-muebles,DM,Biorest,,,http://biorestsystem.com/,,,,"Plaza Lealtad, 3, Planta 5ª. 28014, Madrid (madrid). España., Madrid",Madrid,,,,
iberinform,02/28/2022,2022,https://www.iberinform.es/informacion-de-empresas/directorio-cnae/310/fabricacion-de-muebles,DM,Bioenergy Dreams,,,https://www.bioenergydreams.es/,,,,"Calle Capa Negra, 6, Bl 5 4ª A. 28522, Rivas Vaciamadrid (madrid). España., Rivas Vaciamadrid",Madrid,,,,
iberinform,02/28/2022,2022,https://www.iberinform.es/informacion-de-empresas/directorio-cnae/310/fabricacion-de-muebles,DM,Biodess Burgos,,,,,,,"Calle Montes Obarenes, S/n, Plgno Villalonquejar. 09001, Burgos (burgos). España., Burgos",Burgos,,,,
iberinform,02/28/2022,2022,https://www.iberinform.es/informacion-de-empresas/directorio-cnae/310/fabricacion-de-muebles,DM,Colchon Laxy,,,,,,,"Carretera Zaragoza, 16, - Recajo. 26160, Agoncillo (la Rioja). España., Agoncillo",La Rioja,,,,
iberinform,02/28/2022,2022,https://www.iberinform.es/informacion-de-empresas/directorio-cnae/310/fabricacion-de-muebles,DM,Bostezos Espumas,,,,,,,"Calle Mueble, 56. 46469, Beniparrell (valencia). España., Beniparrell",Valencia,,,,
iberinform,02/28/2022,2022,https://www.iberinform.es/informacion-de-empresas/directorio-cnae/310/fabricacion-de-muebles,DM,Bogar Dos Mil Seis,,,,,,,"Calle Folch I Torres, 7, Bajos. 25008, Lleida (lleida). España., Lleida",Lleida,,,,
iberinform,02/28/2022,2022,https://www.iberinform.es/informacion-de-empresas/directorio-cnae/310/fabricacion-de-muebles,DM,La Premier,,,http://www.la-premier.es/,,,,"Calle Dels Fusters, 8, 9 - 10 - 11 Poligono Indust. 46290, Alcasser (valencia). España., Alcasser",Valencia,,,,
iberinform,02/28/2022,2022,https://www.iberinform.es/informacion-de-empresas/directorio-cnae/310/fabricacion-de-muebles,DM,Cesar Bauset,,,,,,,"Calle Duque De Gaeta, 53, 1º Bajo. 46022, Valencia (valencia). España., Valencia",Valencia,,,,
iberinform,02/28/2022,2022,https://www.iberinform.es/informacion-de-empresas/directorio-cnae/310/fabricacion-de-muebles,DM,C I Salud Relax Y Descanso,,,,,,,"Calle Batalla Del Salado, 34, Escalera Izquierda 1º B. 28045, Madrid (madrid). España., Madrid",Madrid,,,,
iberinform,02/28/2022,2022,https://www.iberinform.es/informacion-de-empresas/directorio-cnae/310/fabricacion-de-muebles,DM,Cedisa Asturias,,,http://www.cedisa-asturias.es,,,,"Avenida Valentin Masip, 5, Bj. 33013, Oviedo (asturias). España., Oviedo",Asturias,,,,
iberinform,02/28/2022,2022,https://www.iberinform.es/informacion-de-empresas/directorio-cnae/310/fabricacion-de-muebles,DM,Ceache Goma Espuma,,,https://ceacheweb.com/,,,,"Avenida Tio Pepe, 27. 11407, Jerez De La Frontera (cadiz). España., Jerez De La Frontera",Cadiz,,,,
iberinform,02/28/2022,2022,https://www.iberinform.es/informacion-de-empresas/directorio-cnae/310/fabricacion-de-muebles,DM,Casadouro Del Descanso,,,http://www.casadouro.com,,,,"Lugar De Espasande, 84, Parroquia De Luou. 15886, Teo (coruña (a)). España., Teo",Coruña (a),,,,
iberinform,02/28/2022,2022,https://www.iberinform.es/informacion-de-empresas/directorio-cnae/310/fabricacion-de-muebles,DM,Carriches Colchonerias,,,https://www.carrichescolchonerias.es/es/,,,,"Calle Albacete, 22. 28903, Getafe (madrid). España., Getafe",Madrid,,,,
iberinform,02/28/2022,2022,https://www.iberinform.es/informacion-de-empresas/directorio-cnae/310/fabricacion-de-muebles,DM,Capsula R. E. M. Internacional,,,,,,,"Calle Cine, 34, Local 40. 28024, Madrid (madrid). España., Madrid",Madrid,,,,
iberinform,02/28/2022,2022,https://www.iberinform.es/informacion-de-empresas/directorio-cnae/310/fabricacion-de-muebles,DM,El Rincon Del Abuelo,,,,,,,"Rambla General Del Franco, 15. 38006, Santa Cruz De Tenerife (santa Cruz De Tenerife). España., Santa Cruz De Tenerife",Santa Cruz De Tenerife,,,,
iberinform,02/28/2022,2022,https://www.iberinform.es/informacion-de-empresas/directorio-cnae/310/fabricacion-de-muebles,DM,Canapes Colchones Y Dormitorios,,,,,,,"Avenida Industria, 72, Nave. 28970, Humanes De Madrid (madrid). España., Humanes De Madrid",Madrid,,,,
iberinform,02/28/2022,2022,https://www.iberinform.es/informacion-de-empresas/directorio-cnae/310/fabricacion-de-muebles,DM,Canap Descanso,,,,,,,"Paseo Misionero Luis Fontes Servet, 14, Esc 2 4 C. 30007, Murcia (murcia). España., Murcia",Murcia,,,,
iberinform,02/28/2022,2022,https://www.iberinform.es/informacion-de-empresas/directorio-cnae/310/fabricacion-de-muebles,DM,Cliniconfort Salud,,,,,,,"Calle Ciudad Dario, 45, Plind La Creu. 46250, Alcudia (l) (valencia). España., Alcudia (l)",Valencia,,,,
iberinform,02/28/2022,2022,https://www.iberinform.es/informacion-de-empresas/directorio-cnae/310/fabricacion-de-muebles,DM,Colchon Hr,,,,,,,Murcia,Murcia,,,,
iberinform,02/28/2022,2022,https://www.iberinform.es/informacion-de-empresas/directorio-cnae/310/fabricacion-de-muebles,DM,Colchon Lince,,,,,,,Beniparrell,Valencia,,,,
iberinform,02/28/2022,2022,https://www.iberinform.es/informacion-de-empresas/directorio-cnae/310/fabricacion-de-muebles,DM,Colchon Dupen,,,,,,,Alginet,Valencia,,,,
iberinform,02/28/2022,2022,https://www.iberinform.es/informacion-de-empresas/directorio-cnae/310/fabricacion-de-muebles,DM,Colchon C R Rafael Martinez Martinez,,,,,,,Llosa De Ranes (la),Valencia,,,,
iberinform,02/28/2022,2022,https://www.iberinform.es/informacion-de-empresas/directorio-cnae/310/fabricacion-de-muebles,DM,Colchon Star,,,,,,,Vinalesa,Valencia,,,,
iberinform,02/28/2022,2022,https://www.iberinform.es/informacion-de-empresas/directorio-cnae/310/fabricacion-de-muebles,DM,Colchon Elaxtil Iberica,,,,,,,Murcia,Murcia,,,,
iberinform,02/28/2022,2022,https://www.iberinform.es/informacion-de-empresas/directorio-cnae/310/fabricacion-de-muebles,DM,Colchon De Cuna Dulces Sueños,,,,,,,Molina De Segura,Murcia,,,,
iberinform,02/28/2022,2022,https://www.iberinform.es/informacion-de-empresas/directorio-cnae/310/fabricacion-de-muebles,DM,Colchon Comodon,,,,,,,Mula,Murcia,,,,
iberinform,02/28/2022,2022,https://www.iberinform.es/informacion-de-empresas/directorio-cnae/310/fabricacion-de-muebles,DM,Colchollo,,,,,,,Bilbao,Bizkaia,,,,
iberinform,02/28/2022,2022,https://www.iberinform.es/informacion-de-empresas/directorio-cnae/310/fabricacion-de-muebles,DM,Codiconfort,,,,,,,Bollullos De La Mitacion,Sevilla,,,,
iberinform,02/28/2022,2022,https://www.iberinform.es/informacion-de-empresas/directorio-cnae/310/fabricacion-de-muebles,DM,Colchoneria Moderna,,,,,,,Granada,Granada,,,,
iberinform,02/28/2022,2022,https://www.iberinform.es/informacion-de-empresas/directorio-cnae/310/fabricacion-de-muebles,DM,Colchoneria Tordera,,,,,,,Tordera,Barcelona,,,,
iberinform,02/28/2022,2022,https://www.iberinform.es/informacion-de-empresas/directorio-cnae/310/fabricacion-de-muebles,DM,Codecol,,,,,,,Elche,Alicante,,,,
iberinform,02/28/2022,2022,https://www.iberinform.es/informacion-de-empresas/directorio-cnae/310/fabricacion-de-muebles,DM,Colchoneria Marco,,,,,,,Vigo,Pontevedra,,,,
iberinform,02/28/2022,2022,https://www.iberinform.es/informacion-de-empresas/directorio-cnae/310/fabricacion-de-muebles,DM,Colchonera Valenciana,,,,,,,Beniparrell,Valencia,,,,
iberinform,02/28/2022,2022,https://www.iberinform.es/informacion-de-empresas/directorio-cnae/310/fabricacion-de-muebles,DM,Colchones La Cigueña,,,,,,,Murcia,Murcia,,,,
iberinform,02/28/2022,2022,https://www.iberinform.es/informacion-de-empresas/directorio-cnae/310/fabricacion-de-muebles,DM,Colchones Euroconfort,,,,,,,Beniparrell,Valencia,,,,
iberinform,02/28/2022,2022,https://www.iberinform.es/informacion-de-empresas/directorio-cnae/310/fabricacion-de-muebles,DM,Colchones Europa,,,,,,,Yecla,Murcia,,,,
iberinform,02/28/2022,2022,https://www.iberinform.es/informacion-de-empresas/directorio-cnae/310/fabricacion-de-muebles,DM,Colchones Gasteiz,,,,,,,Alegria-dulantzi,Araba,,,,
iberinform,02/28/2022,2022,https://www.iberinform.es/informacion-de-empresas/directorio-cnae/310/fabricacion-de-muebles,DM,Colchones Elasticos Y Complementos,,,,,,,Rafelbuñol,Valencia,,,,
iberinform,02/28/2022,2022,https://www.iberinform.es/informacion-de-empresas/directorio-cnae/310/fabricacion-de-muebles,DM,Colchones Colmu,,,,,,,Albal,Valencia,,,,
iberinform,02/28/2022,2022,https://www.iberinform.es/informacion-de-empresas/directorio-cnae/310/fabricacion-de-muebles,DM,Colchones Delax,,,,,,,Alcudia (l),Valencia,,,,
iberinform,02/28/2022,2022,https://www.iberinform.es/informacion-de-empresas/directorio-cnae/310/fabricacion-de-muebles,DM,Colchones Java,,,,,,,Dos Hermanas,Sevilla,,,,
iberinform,02/28/2022,2022,https://www.iberinform.es/informacion-de-empresas/directorio-cnae/310/fabricacion-de-muebles,DM,Colchonerias Artea Textil,,,,,,,Amorebieta Etxano,Bizkaia,,,,
iberinform,02/28/2022,2022,https://www.iberinform.es/informacion-de-empresas/directorio-cnae/310/fabricacion-de-muebles,DM,Colchoneria-tapiceria Arteta,,,,,,,Bilbao,Bizkaia,,,,
iberinform,02/28/2022,2022,https://www.iberinform.es/informacion-de-empresas/directorio-cnae/310/fabricacion-de-muebles,DM,Colchones Multiconfort,,,,,,,Illescas,Toledo,,,,
iberinform,02/28/2022,2022,https://www.iberinform.es/informacion-de-empresas/directorio-cnae/310/fabricacion-de-muebles,DM,Colchones Micol,,,,,,,Ubeda,Jaen,,,,
iberinform,02/28/2022,2022,https://www.iberinform.es/informacion-de-empresas/directorio-cnae/310/fabricacion-de-muebles,DM,Colchones La Nuit,,,,,,,Mollina,Malaga,,,,
iberinform,02/28/2022,2022,https://www.iberinform.es/informacion-de-empresas/directorio-cnae/310/fabricacion-de-muebles,DM,Colchones Mivis,,,,,,,Algemesi,Valencia,,,,
iberinform,02/28/2022,2022,https://www.iberinform.es/informacion-de-empresas/directorio-cnae/310/fabricacion-de-muebles,DM,Colchones Marzo,,,,,,,Zuera,Zaragoza,,,,
iberinform,02/28/2022,2022,https://www.iberinform.es/informacion-de-empresas/directorio-cnae/310/fabricacion-de-muebles,DM,Comodamente,,,,,,,Ecija,Sevilla,,,,
iberinform,02/28/2022,2022,https://www.iberinform.es/informacion-de-empresas/directorio-cnae/310/fabricacion-de-muebles,DM,Colchones Rupe,,,,,,,Alcala De Guadaira,Sevilla,,,,
iberinform,02/28/2022,2022,https://www.iberinform.es/informacion-de-empresas/directorio-cnae/310/fabricacion-de-muebles,DM,Comercial Del Muelle Y El Colchon,,,,,,,Humanes De Madrid,Madrid,,,,
iberinform,02/28/2022,2022,https://www.iberinform.es/informacion-de-empresas/directorio-cnae/310/fabricacion-de-muebles,DM,Colchones Sin Fin,,,,,,,Epila,Zaragoza,,,,
iberinform,02/28/2022,2022,https://www.iberinform.es/informacion-de-empresas/directorio-cnae/310/fabricacion-de-muebles,DM,Colchones Somicat,,,,,,,Hospitalet De Llobregat (l),Barcelona,,,,
iberinform,02/28/2022,2022,https://www.iberinform.es/informacion-de-empresas/directorio-cnae/310/fabricacion-de-muebles,DM,Colchones Sport,,,,,,,Barrax,Albacete,,,,
iberinform,02/28/2022,2022,https://www.iberinform.es/informacion-de-empresas/directorio-cnae/310/fabricacion-de-muebles,DM,Colchonmur,,,,,,,Murcia,Murcia,,,,
iberinform,02/28/2022,2022,https://www.iberinform.es/informacion-de-empresas/directorio-cnae/310/fabricacion-de-muebles,DM,Colchones Y Complementos Aspol,,,,,,,San Cibrao Das Viñas,Ourense,,,,
iberinform,02/28/2022,2022,https://www.iberinform.es/informacion-de-empresas/directorio-cnae/310/fabricacion-de-muebles,DM,Colterxy,,,,,,,Bergondo,Coruña (a),,,,
iberinform,02/28/2022,2022,https://www.iberinform.es/informacion-de-empresas/directorio-cnae/310/fabricacion-de-muebles,DM,Colchones Pemor,,,,,,,San Juan De Aznalfarache,Sevilla,,,,
iberinform,02/28/2022,2022,https://www.iberinform.es/informacion-de-empresas/directorio-cnae/310/fabricacion-de-muebles,DM,Colchones Rama,,,,,,,Yecla,Murcia,,,,
iberinform,02/28/2022,2022,https://www.iberinform.es/informacion-de-empresas/directorio-cnae/310/fabricacion-de-muebles,DM,Confortabilidad En Casas Y Hospitales,,,,,,,Jerez De La Frontera,Cadiz,,,,
iberinform,02/28/2022,2022,https://www.iberinform.es/informacion-de-empresas/directorio-cnae/310/fabricacion-de-muebles,DM,Comotex Sistemas Del Descanso,,,,,,,Naquera,Valencia,,,,
iberinform,02/28/2022,2022,https://www.iberinform.es/informacion-de-empresas/directorio-cnae/310/fabricacion-de-muebles,DM,Comodon Descanso,,,,,,,Yecla,Murcia,,,,
iberinform,02/28/2022,2022,https://www.iberinform.es/informacion-de-empresas/directorio-cnae/310/fabricacion-de-muebles,DM,Confordes,,,,,,,Zaragoza,Zaragoza,,,,
iberinform,02/28/2022,2022,https://www.iberinform.es/informacion-de-empresas/directorio-cnae/310/fabricacion-de-muebles,DM,D'camas Fabricantes,,,,,,,Molina De Segura,Murcia,,,,
iberinform,02/28/2022,2022,https://www.iberinform.es/informacion-de-empresas/directorio-cnae/310/fabricacion-de-muebles,DM,Cuna Movil,,,,,,,Real De Gandia,Valencia,,,,
iberinform,02/28/2022,2022,https://www.iberinform.es/informacion-de-empresas/directorio-cnae/310/fabricacion-de-muebles,DM,Creaciones Infantiles La Cigueña,,,,,,,Molina De Segura,Murcia,,,,
iberinform,02/28/2022,2022,https://www.iberinform.es/informacion-de-empresas/directorio-cnae/310/fabricacion-de-muebles,DM,Creaciones Gredos,,,,,,,Serrada (la),Avila,,,,
iberinform,02/28/2022,2022,https://www.iberinform.es/informacion-de-empresas/directorio-cnae/310/fabricacion-de-muebles,DM,Cooperativa Industrial La Union,,,,,,,Salamanca,Salamanca,,,,
iberinform,02/28/2022,2022,https://www.iberinform.es/informacion-de-empresas/directorio-cnae/310/fabricacion-de-muebles,DM,Creacion Y Fabricacion De Colchones Yecla,,,,,,,Yecla,Murcia,,,,
iberinform,02/28/2022,2022,https://www.iberinform.es/informacion-de-empresas/directorio-cnae/310/fabricacion-de-muebles,DM,D Nuvola Descanso,,,,,,,Guarroman,Jaen,,,,
iberinform,02/28/2022,2022,https://www.iberinform.es/informacion-de-empresas/directorio-cnae/310/fabricacion-de-muebles,DM,Cuore Solid Surface,,,,,,,Valencia,Valencia,,,,
iberinform,02/28/2022,2022,https://www.iberinform.es/informacion-de-empresas/directorio-cnae/310/fabricacion-de-muebles,DM,Convertibles Y Mecanismos,,,,,,,Murcia,Murcia,,,,
iberinform,02/28/2022,2022,https://www.iberinform.es/informacion-de-empresas/directorio-cnae/310/fabricacion-de-muebles,DM,Convertibles Smart,,,,,,,Vigo,Pontevedra,,,,
iberinform,02/28/2022,2022,https://www.iberinform.es/informacion-de-empresas/directorio-cnae/310/fabricacion-de-muebles,DM,Descanfra,,,,,,,Villanueva Del Ariscal,Sevilla,,,,
iberinform,02/28/2022,2022,https://www.iberinform.es/informacion-de-empresas/directorio-cnae/310/fabricacion-de-muebles,DM,Deco Tena,,,,,,,Zumaia,Gipuzkoa,,,,
iberinform,02/28/2022,2022,https://www.iberinform.es/informacion-de-empresas/directorio-cnae/310/fabricacion-de-muebles,DM,Descans Del Valles,,,,,,,Granollers,Barcelona,,,,
iberinform,02/28/2022,2022,https://www.iberinform.es/informacion-de-empresas/directorio-cnae/310/fabricacion-de-muebles,DM,D'colchon,,,,,,,Villa Del Rio,Cordoba,,,,
iberinform,02/28/2022,2022,https://www.iberinform.es/informacion-de-empresas/directorio-cnae/310/fabricacion-de-muebles,DM,D'ensueño Triana,,,,,,,Palmas De Gran Canaria (las),Las Palmas,,,,
iberinform,02/28/2022,2022,https://www.iberinform.es/informacion-de-empresas/directorio-cnae/310/fabricacion-de-muebles,DM,Dimaflex,,,,,,,Valls,Tarragona,,,,
iberinform,02/28/2022,2022,https://www.iberinform.es/informacion-de-empresas/directorio-cnae/310/fabricacion-de-muebles,DM,Despertar Colchones,,,,,,,Yecla,Murcia,,,,
iberinform,02/28/2022,2022,https://www.iberinform.es/informacion-de-empresas/directorio-cnae/310/fabricacion-de-muebles,DM,Diez Marques,,,,,,,Alberic,Valencia,,,,
iberinform,02/28/2022,2022,https://www.iberinform.es/informacion-de-empresas/directorio-cnae/310/fabricacion-de-muebles,DM,Descanzza,,,,,,,Ecija,Sevilla,,,,
iberinform,02/28/2022,2022,https://www.iberinform.es/informacion-de-empresas/directorio-cnae/310/fabricacion-de-muebles,DM,Diana Sueña,,,,,,,Mascaraque,Toledo,,,,
iberinform,02/28/2022,2022,https://www.iberinform.es/informacion-de-empresas/directorio-cnae/310/fabricacion-de-muebles,DM,Descanso Vip,,,,,,,Pozuelo De Calatrava,Ciudad Real,,,,
iberinform,02/28/2022,2022,https://www.iberinform.es/informacion-de-empresas/directorio-cnae/310/fabricacion-de-muebles,DM,Dicon Descanso,,,,,,,Arrubal,La Rioja,,,,
iberinform,02/28/2022,2022,https://www.iberinform.es/informacion-de-empresas/directorio-cnae/310/fabricacion-de-muebles,DM,Descanso Salamanca,,,,,,,Salamanca,Salamanca,,,,
iberinform,02/28/2022,2022,https://www.iberinform.es/informacion-de-empresas/directorio-cnae/310/fabricacion-de-muebles,DM,Descanso Delta,,,,,,,Leganes,Madrid,,,,
iberinform,02/28/2022,2022,https://www.iberinform.es/informacion-de-empresas/directorio-cnae/310/fabricacion-de-muebles,DM,Distribuciones Alberygue,,,,,,,Sevilla,Sevilla,,,,
iberinform,02/28/2022,2022,https://www.iberinform.es/informacion-de-empresas/directorio-cnae/310/fabricacion-de-muebles,DM,Disma Matalassos,,,,,,,Manacor,Illes Balears,,,,
iberinform,02/28/2022,2022,https://www.iberinform.es/informacion-de-empresas/directorio-cnae/310/fabricacion-de-muebles,DM,Descanso Del Sur,,,,,,,Lucena,Cordoba,,,,
iberinform,02/28/2022,2022,https://www.iberinform.es/informacion-de-empresas/directorio-cnae/310/fabricacion-de-muebles,DM,Distribuciones Cabezas,,,,,,,Santa Fe,Granada,,,,
iberinform,02/28/2022,2022,https://www.iberinform.es/informacion-de-empresas/directorio-cnae/310/fabricacion-de-muebles,DM,Dinamo Sistemas De Descanso Y Confort,,,,,,,Brenes,Sevilla,,,,
iberinform,02/28/2022,2022,https://www.iberinform.es/informacion-de-empresas/directorio-cnae/310/fabricacion-de-muebles,DM,Dinoc,,,,,,,San Cibrao Das Viñas,Ourense,,,,
iberinform,02/28/2022,2022,https://www.iberinform.es/informacion-de-empresas/directorio-cnae/310/fabricacion-de-muebles,DM,Don Almohadon,,,,,,,Aielo De Malferit,Valencia,,,,
iberinform,02/28/2022,2022,https://www.iberinform.es/informacion-de-empresas/directorio-cnae/310/fabricacion-de-muebles,DM,Distribuciones Unico Repa,,,,,,,Mollet Del Valles,Barcelona,,,,
iberinform,02/28/2022,2022,https://www.iberinform.es/informacion-de-empresas/directorio-cnae/310/fabricacion-de-muebles,DM,Distribuidora Lopez Maldonado,,,,,,,Alhama De Murcia,Murcia,,,,
iberinform,02/28/2022,2022,https://www.iberinform.es/informacion-de-empresas/directorio-cnae/310/fabricacion-de-muebles,DM,Eagleflex Europe,,,,,,,Vigo,Pontevedra,,,,
iberinform,02/28/2022,2022,https://www.iberinform.es/informacion-de-empresas/directorio-cnae/310/fabricacion-de-muebles,DM,Ecus Sleep,,,,,,,Yecla,Murcia,,,,
iberinform,02/28/2022,2022,https://www.iberinform.es/informacion-de-empresas/directorio-cnae/310/fabricacion-de-muebles,DM,Dolce Confort,,,,,,,Humanes De Madrid,Madrid,,,,
iberinform,02/28/2022,2022,https://www.iberinform.es/informacion-de-empresas/directorio-cnae/310/fabricacion-de-muebles,DM,Docel,,,,,,,Alcantarilla,Murcia,,,,
iberinform,02/28/2022,2022,https://www.iberinform.es/informacion-de-empresas/directorio-cnae/310/fabricacion-de-muebles,DM,Dupen Import,,,,,,,Benifaio,Valencia,,,,
iberinform,02/28/2022,2022,https://www.iberinform.es/informacion-de-empresas/directorio-cnae/310/fabricacion-de-muebles,DM,Dormibase,,,,,,,Ceuti,Murcia,,,,
iberinform,02/28/2022,2022,https://www.iberinform.es/informacion-de-empresas/directorio-cnae/310/fabricacion-de-muebles,DM,Donoso Y Garcia,,,,,,,Cornella De Llobregat,Barcelona,,,,
iberinform,02/28/2022,2022,https://www.iberinform.es/informacion-de-empresas/directorio-cnae/310/fabricacion-de-muebles,DM,Dormi Nature 2005,,,,,,,Griñon,Madrid,,,,
iberinform,02/28/2022,2022,https://www.iberinform.es/informacion-de-empresas/directorio-cnae/310/fabricacion-de-muebles,DM,Dream Agency Of Tony & Romy,,,,,,,Alicante,Alicante,,,,
iberinform,02/28/2022,2022,https://www.iberinform.es/informacion-de-empresas/directorio-cnae/310/fabricacion-de-muebles,DM,Dormisystem,,,,,,,Humanes De Madrid,Madrid,,,,
iberinform,02/28/2022,2022,https://www.iberinform.es/informacion-de-empresas/directorio-cnae/310/fabricacion-de-muebles,DM,Dorminova Industrias,,,,,,,Fuenlabrada,Madrid,,,,
iberinform,02/28/2022,2022,https://www.iberinform.es/informacion-de-empresas/directorio-cnae/310/fabricacion-de-muebles,DM,Donchi S Foam,,,,,,,Arona,Santa Cruz De Tenerife,,,,
iberinform,02/28/2022,2022,https://www.iberinform.es/informacion-de-empresas/directorio-cnae/310/fabricacion-de-muebles,DM,Espumacor,,,,,,,Villa Del Rio,Cordoba,,,,
iberinform,02/28/2022,2022,https://www.iberinform.es/informacion-de-empresas/directorio-cnae/310/fabricacion-de-muebles,DM,Escumes Dogar,,,,,,,Terrassa,Barcelona,,,,
iberinform,02/28/2022,2022,https://www.iberinform.es/informacion-de-empresas/directorio-cnae/310/fabricacion-de-muebles,DM,Equipos Edycel Internacional,,,,,,,Lugo,Lugo,,,,
iberinform,02/28/2022,2022,https://www.iberinform.es/informacion-de-empresas/directorio-cnae/310/fabricacion-de-muebles,DM,Equipaments Per Al Descans,,,,,,,Lleida,Lleida,,,,
iberinform,02/28/2022,2022,https://www.iberinform.es/informacion-de-empresas/directorio-cnae/310/fabricacion-de-muebles,DM,Espirales Biconicos,,,,,,,Sevilla,Sevilla,,,,
iberinform,02/28/2022,2022,https://www.iberinform.es/informacion-de-empresas/directorio-cnae/310/fabricacion-de-muebles,DM,Enaltir Valencia 2010,,,,,,,Valencia,Valencia,,,,
iberinform,02/28/2022,2022,https://www.iberinform.es/informacion-de-empresas/directorio-cnae/310/fabricacion-de-muebles,DM,Espomasa Poliuretanos,,,,,,,Toques,Coruña (a),,,,
iberinform,02/28/2022,2022,https://www.iberinform.es/informacion-de-empresas/directorio-cnae/310/fabricacion-de-muebles,DM,Ergonomia Y Confort,,,,,,,Sant Fruitos De Bages,Barcelona,,,,
iberinform,02/28/2022,2022,https://www.iberinform.es/informacion-de-empresas/directorio-cnae/310/fabricacion-de-muebles,DM,Emporio Internacional 2007,,,,,,,Lloret De Mar,Girona,,,,
iberinform,02/28/2022,2022,https://www.iberinform.es/informacion-de-empresas/directorio-cnae/310/fabricacion-de-muebles,DM,Eko Descanso,,,,,,,Petrer,Alicante,,,,
iberinform,02/28/2022,2022,https://www.iberinform.es/informacion-de-empresas/directorio-cnae/310/fabricacion-de-muebles,DM,El Colmenar,,,,,,,Ceuti,Murcia,,,,
iberinform,02/28/2022,2022,https://www.iberinform.es/informacion-de-empresas/directorio-cnae/310/fabricacion-de-muebles,DM,Eighty Confort,,,,,,,Montealegre Del Castillo,Albacete,,,,
iberinform,02/28/2022,2022,https://www.iberinform.es/informacion-de-empresas/directorio-cnae/310/fabricacion-de-muebles,DM,Espumas Jumilla,,,,,,,Jumilla,Murcia,,,,
iberinform,02/28/2022,2022,https://www.iberinform.es/informacion-de-empresas/directorio-cnae/310/fabricacion-de-muebles,DM,Espumas Palencia,,,,,,,Villalobon,Palencia,,,,
iberinform,02/28/2022,2022,https://www.iberinform.es/informacion-de-empresas/directorio-cnae/310/fabricacion-de-muebles,DM,Espuman De Tomelloso,,,,,,,Tomelloso,Ciudad Real,,,,
iberinform,02/28/2022,2022,https://www.iberinform.es/informacion-de-empresas/directorio-cnae/310/fabricacion-de-muebles,DM,Fabrick Descansa,,,,,,,Humanes De Madrid,Madrid,,,,
iberinform,02/28/2022,2022,https://www.iberinform.es/informacion-de-empresas/directorio-cnae/310/fabricacion-de-muebles,DM,Excursiones Confordes,,,,,,,Albacete,Albacete,,,,
iberinform,02/28/2022,2022,https://www.iberinform.es/informacion-de-empresas/directorio-cnae/310/fabricacion-de-muebles,DM,Espumas Pol Franc Epe,,,,,,,Castelldefels,Barcelona,,,,
iberinform,02/28/2022,2022,https://www.iberinform.es/informacion-de-empresas/directorio-cnae/310/fabricacion-de-muebles,DM,Euro Home Textiles,,,,,,,Alfafar,Valencia,,,,
iberinform,02/28/2022,2022,https://www.iberinform.es/informacion-de-empresas/directorio-cnae/310/fabricacion-de-muebles,DM,Essenzia Dormire,,,,,,,Yecla,Murcia,,,,
iberinform,02/28/2022,2022,https://www.iberinform.es/informacion-de-empresas/directorio-cnae/310/fabricacion-de-muebles,DM,Europa Sur Descanso,,,,,,,Carrion De Los Cespedes,Sevilla,,,,
iberinform,02/28/2022,2022,https://www.iberinform.es/informacion-de-empresas/directorio-cnae/310/fabricacion-de-muebles,DM,Europe Stock Out,,,,,,,Madrid,Madrid,,,,
iberinform,02/28/2022,2022,https://www.iberinform.es/informacion-de-empresas/directorio-cnae/310/fabricacion-de-muebles,DM,Foam & Mattress,,,,,,,Villa Del Rio,Cordoba,,,,
iberinform,02/28/2022,2022,https://www.iberinform.es/informacion-de-empresas/directorio-cnae/310/fabricacion-de-muebles,DM,Flex Equipos De Descanso,,,,,,,Getafe,Madrid,,,,
iberinform,02/28/2022,2022,https://www.iberinform.es/informacion-de-empresas/directorio-cnae/310/fabricacion-de-muebles,DM,Fiber Plumas,,,,,,,Alcasser,Valencia,,,,
iberinform,02/28/2022,2022,https://www.iberinform.es/informacion-de-empresas/directorio-cnae/310/fabricacion-de-muebles,DM,Fibex Descanso,,,,,,,Coruña (a),Coruña (a),,,,
iberinform,02/28/2022,2022,https://www.iberinform.es/informacion-de-empresas/directorio-cnae/310/fabricacion-de-muebles,DM,Fercol Descanso,,,,,,,Laguardia,Araba,,,,
iberinform,02/28/2022,2022,https://www.iberinform.es/informacion-de-empresas/directorio-cnae/310/fabricacion-de-muebles,DM,Famiman,,,,,,,Talavera De La Reina,Toledo,,,,
iberinform,02/28/2022,2022,https://www.iberinform.es/informacion-de-empresas/directorio-cnae/310/fabricacion-de-muebles,DM,Faura Hosteleria Textil Y Descanso,,,,,,,Salou,Tarragona,,,,
iberinform,02/28/2022,2022,https://www.iberinform.es/informacion-de-empresas/directorio-cnae/310/fabricacion-de-muebles,DM,Fabricolchon,,,,,,,Eliana (l),Valencia,,,,
iberinform,02/28/2022,2022,https://www.iberinform.es/informacion-de-empresas/directorio-cnae/310/fabricacion-de-muebles,DM,Gomarco Descanso,,,,,,,Yecla,Murcia,,,,
iberinform,02/28/2022,2022,https://www.iberinform.es/informacion-de-empresas/directorio-cnae/310/fabricacion-de-muebles,DM,Golatex Transformados,,,,,,,Yecla,Murcia,,,,
iberinform,02/28/2022,2022,https://www.iberinform.es/informacion-de-empresas/directorio-cnae/310/fabricacion-de-muebles,DM,Gomaespuma Del Sureste,,,,,,,Jumilla,Murcia,,,,
iberinform,02/28/2022,2022,https://www.iberinform.es/informacion-de-empresas/directorio-cnae/310/fabricacion-de-muebles,DM,Global Somnium,,,,,,,Villalpando,Zamora,,,,
iberinform,02/28/2022,2022,https://www.iberinform.es/informacion-de-empresas/directorio-cnae/310/fabricacion-de-muebles,DM,Global Sommeil,,,,,,,Valladolid,Valladolid,,,,
iberinform,02/28/2022,2022,https://www.iberinform.es/informacion-de-empresas/directorio-cnae/310/fabricacion-de-muebles,DM,Garme Colchones,,,,,,,Beniparrell,Valencia,,,,
iberinform,02/28/2022,2022,https://www.iberinform.es/informacion-de-empresas/directorio-cnae/310/fabricacion-de-muebles,DM,Global Baby,,,,,,,Molina De Segura,Murcia,,,,
iberinform,02/28/2022,2022,https://www.iberinform.es/informacion-de-empresas/directorio-cnae/310/fabricacion-de-muebles,DM,Gnautic Grimaldi,,,,,,,Palma De Mallorca,Illes Balears,,,,
iberinform,02/28/2022,2022,https://www.iberinform.es/informacion-de-empresas/directorio-cnae/310/fabricacion-de-muebles,DM,Gaor Service 09,,,,,,,Sant Adria De Besos,Barcelona,,,,
iberinform,02/28/2022,2022,https://www.iberinform.es/informacion-de-empresas/directorio-cnae/310/fabricacion-de-muebles,DM,Futurocol Iberica,,,,,,,Pinseque,Zaragoza,,,,
iberinform,02/28/2022,2022,https://www.iberinform.es/informacion-de-empresas/directorio-cnae/310/fabricacion-de-muebles,DM,Futurlatex Levante,,,,,,,Alberic,Valencia,,,,
iberinform,02/28/2022,2022,https://www.iberinform.es/informacion-de-empresas/directorio-cnae/310/fabricacion-de-muebles,DM,Grupo Afisan Iberica,,,,,,,Albacete,Albacete,,,,
iberinform,02/28/2022,2022,https://www.iberinform.es/informacion-de-empresas/directorio-cnae/310/fabricacion-de-muebles,DM,Grupo Descanso 2012,,,,,,,Sedavi,Valencia,,,,
iberinform,02/28/2022,2022,https://www.iberinform.es/informacion-de-empresas/directorio-cnae/310/fabricacion-de-muebles,DM,Grupo Cartagonox,,,,,,,Laguardia,Araba,,,,
iberinform,02/28/2022,2022,https://www.iberinform.es/informacion-de-empresas/directorio-cnae/310/fabricacion-de-muebles,DM,Gran Fort Es Diferente,,,,,,,Brieva De Cameros,La Rioja,,,,
iberinform,02/28/2022,2022,https://www.iberinform.es/informacion-de-empresas/directorio-cnae/310/fabricacion-de-muebles,DM,Hermanos Brandariz,,,,,,,Cambre,Coruña (a),,,,
iberinform,02/28/2022,2022,https://www.iberinform.es/informacion-de-empresas/directorio-cnae/310/fabricacion-de-muebles,DM,Habitat Actual,,,,,,,Valencia,Valencia,,,,
iberinform,02/28/2022,2022,https://www.iberinform.es/informacion-de-empresas/directorio-cnae/310/fabricacion-de-muebles,DM,Guadalbases,,,,,,,Bujalance,Cordoba,,,,
iberinform,02/28/2022,2022,https://www.iberinform.es/informacion-de-empresas/directorio-cnae/310/fabricacion-de-muebles,DM,Haiku,,,,,,,Oiartzun,Gipuzkoa,,,,
iberinform,02/28/2022,2022,https://www.iberinform.es/informacion-de-empresas/directorio-cnae/310/fabricacion-de-muebles,DM,Herederos De Gregorio Perez,,,,,,,Alaquas,Valencia,,,,
iberinform,02/28/2022,2022,https://www.iberinform.es/informacion-de-empresas/directorio-cnae/310/fabricacion-de-muebles,DM,Healthcare Foam,,,,,,,Quartell,Valencia,,,,
iberinform,02/28/2022,2022,https://www.iberinform.es/informacion-de-empresas/directorio-cnae/310/fabricacion-de-muebles,DM,Haltzakoper,,,,,,,Valle De Mena,Burgos,,,,
iberinform,02/28/2022,2022,https://www.iberinform.es/informacion-de-empresas/directorio-cnae/310/fabricacion-de-muebles,DM,Grupopikolin,,,,,,,Zaragoza,Zaragoza,,,,
iberinform,02/28/2022,2022,https://www.iberinform.es/informacion-de-empresas/directorio-cnae/310/fabricacion-de-muebles,DM,Grupo Pharmarest,,,,,,,Campello (el),Alicante,,,,
iberinform,02/28/2022,2022,https://www.iberinform.es/informacion-de-empresas/directorio-cnae/310/fabricacion-de-muebles,DM,Grupo Granalastic,,,,,,,Peligros,Granada,,,,
iberinform,02/28/2022,2022,https://www.iberinform.es/informacion-de-empresas/directorio-cnae/310/fabricacion-de-muebles,DM,Iberair Confort,,,,,,,Murcia,Murcia,,,,
iberinform,02/28/2022,2022,https://www.iberinform.es/informacion-de-empresas/directorio-cnae/310/fabricacion-de-muebles,DM,Hopucol,,,,,,,Blanes,Girona,,,,
iberinform,02/28/2022,2022,https://www.iberinform.es/informacion-de-empresas/directorio-cnae/310/fabricacion-de-muebles,DM,Hogar Y Descanso Nuria,,,,,,,Oviedo,Asturias,,,,
iberinform,02/28/2022,2022,https://www.iberinform.es/informacion-de-empresas/directorio-cnae/310/fabricacion-de-muebles,DM,Hilding Anders Holdings Spain,,,,,,,Carlet,Valencia,,,,
iberinform,02/28/2022,2022,https://www.iberinform.es/informacion-de-empresas/directorio-cnae/310/fabricacion-de-muebles,DM,Hilding Anders Spain,,,,,,,Carlet,Valencia,,,,
iberinform,02/28/2022,2022,https://www.iberinform.es/informacion-de-empresas/directorio-cnae/310/fabricacion-de-muebles,DM,Industrias Dupen,,,,,,,Alginet,Valencia,,,,
iberinform,02/28/2022,2022,https://www.iberinform.es/informacion-de-empresas/directorio-cnae/310/fabricacion-de-muebles,DM,Industrias Del Descanso Kissen,,,,,,,Abaran,Murcia,,,,
iberinform,02/28/2022,2022,https://www.iberinform.es/informacion-de-empresas/directorio-cnae/310/fabricacion-de-muebles,DM,Industrias Artzubia,,,,,,,Zestoa,Gipuzkoa,,,,
iberinform,02/28/2022,2022,https://www.iberinform.es/informacion-de-empresas/directorio-cnae/310/fabricacion-de-muebles,DM,Indegonar,,,,,,,Palencia,Palencia,,,,
iberinform,02/28/2022,2022,https://www.iberinform.es/informacion-de-empresas/directorio-cnae/310/fabricacion-de-muebles,DM,Industria De La Madera Amparo Andres,,,,,,,Aldaia,Valencia,,,,
iberinform,02/28/2022,2022,https://www.iberinform.es/informacion-de-empresas/directorio-cnae/310/fabricacion-de-muebles,DM,Industria Tecnologica Del Descanso,,,,,,,Beniparrell,Valencia,,,,
iberinform,02/28/2022,2022,https://www.iberinform.es/informacion-de-empresas/directorio-cnae/310/fabricacion-de-muebles,DM,Indumarcres,,,,,,,Manises,Valencia,,,,
iberinform,02/28/2022,2022,https://www.iberinform.es/informacion-de-empresas/directorio-cnae/310/fabricacion-de-muebles,DM,Industrias Artesanas Del Descanso,,,,,,,Medrano,La Rioja,,,,
iberinform,02/28/2022,2022,https://www.iberinform.es/informacion-de-empresas/directorio-cnae/310/fabricacion-de-muebles,DM,Indeform,,,,,,,Picanya,Valencia,,,,
iberinform,02/28/2022,2022,https://www.iberinform.es/informacion-de-empresas/directorio-cnae/310/fabricacion-de-muebles,DM,Indecol,,,,,,,Silla,Valencia,,,,
iberinform,02/28/2022,2022,https://www.iberinform.es/informacion-de-empresas/directorio-cnae/310/fabricacion-de-muebles,DM,Incapol,,,,,,,Telde,Las Palmas,,,,
iberinform,02/28/2022,2022,https://www.iberinform.es/informacion-de-empresas/directorio-cnae/310/fabricacion-de-muebles,DM,Industrias Relax,,,,,,,Muela (la),Zaragoza,,,,
iberinform,02/28/2022,2022,https://www.iberinform.es/informacion-de-empresas/directorio-cnae/310/fabricacion-de-muebles,DM,Industrias Masalcu,,,,,,,San Mateo De Gallego,Zaragoza,,,,
iberinform,02/28/2022,2022,https://www.iberinform.es/informacion-de-empresas/directorio-cnae/310/fabricacion-de-muebles,DM,Industrias Garme,,,,,,,Beniparrell,Valencia,,,,
iberinform,02/28/2022,2022,https://www.iberinform.es/informacion-de-empresas/directorio-cnae/310/fabricacion-de-muebles,DM,Industrias Hidraulicas Pardo,,,,,,,Muela (la),Zaragoza,,,,
iberinform,02/28/2022,2022,https://www.iberinform.es/informacion-de-empresas/directorio-cnae/310/fabricacion-de-muebles,DM,Joisa Descanso,,,,,,,Ecija,Sevilla,,,,
iberinform,02/28/2022,2022,https://www.iberinform.es/informacion-de-empresas/directorio-cnae/310/fabricacion-de-muebles,DM,Jimenez Sistemas De Descanso,,,,,,,Logroño,La Rioja,,,,
iberinform,02/28/2022,2022,https://www.iberinform.es/informacion-de-empresas/directorio-cnae/310/fabricacion-de-muebles,DM,Inocencia Descanso,,,,,,,Salinas,Alicante,,,,
iberinform,02/28/2022,2022,https://www.iberinform.es/informacion-de-empresas/directorio-cnae/310/fabricacion-de-muebles,DM,J Mejias Ferrero,,,,,,,Manzanares,Ciudad Real,,,,
iberinform,02/28/2022,2022,https://www.iberinform.es/informacion-de-empresas/directorio-cnae/310/fabricacion-de-muebles,DM,Jivicol,,,,,,,Lucena,Cordoba,,,,
iberinform,02/28/2022,2022,https://www.iberinform.es/informacion-de-empresas/directorio-cnae/310/fabricacion-de-muebles,DM,J3 Design At Rest,,,,,,,Villa Del Rio,Cordoba,,,,
iberinform,02/28/2022,2022,https://www.iberinform.es/informacion-de-empresas/directorio-cnae/310/fabricacion-de-muebles,DM,Ivorimatex,,,,,,,Vallada,Valencia,,,,
iberinform,02/28/2022,2022,https://www.iberinform.es/informacion-de-empresas/directorio-cnae/310/fabricacion-de-muebles,DM,Iserma Descanso,,,,,,,Cadrete,Zaragoza,,,,
iberinform,02/28/2022,2022,https://www.iberinform.es/informacion-de-empresas/directorio-cnae/310/fabricacion-de-muebles,DM,Ingenieria Del Colchon,,,,,,,Malaga,Malaga,,,,
iberinform,02/28/2022,2022,https://www.iberinform.es/informacion-de-empresas/directorio-cnae/310/fabricacion-de-muebles,DM,Indutespo Industrial,,,,,,,Candelaria,Santa Cruz De Tenerife,,,,
iberinform,02/28/2022,2022,https://www.iberinform.es/informacion-de-empresas/directorio-cnae/310/fabricacion-de-muebles,DM,Kenko Europa,,,,,,,Pobla De Claramunt (la),Barcelona,,,,
iberinform,02/28/2022,2022,https://www.iberinform.es/informacion-de-empresas/directorio-cnae/310/fabricacion-de-muebles,DM,Koala Pur,,,,,,,Lleida,Lleida,,,,
iberinform,02/28/2022,2022,https://www.iberinform.es/informacion-de-empresas/directorio-cnae/310/fabricacion-de-muebles,DM,Industrias Tobia,,,,,,,Logroño,La Rioja,,,,
iberinform,02/28/2022,2022,https://www.iberinform.es/informacion-de-empresas/directorio-cnae/310/fabricacion-de-muebles,DM,Koala Rest Iberica,,,,,,,Madrid,Madrid,,,,
iberinform,02/28/2022,2022,https://www.iberinform.es/informacion-de-empresas/directorio-cnae/310/fabricacion-de-muebles,DM,Kamasana Relax,,,,,,,Ontinyent,Valencia,,,,
iberinform,02/28/2022,2022,https://www.iberinform.es/informacion-de-empresas/directorio-cnae/310/fabricacion-de-muebles,DM,Luxor Natura,,,,,,,Cubas De La Sagra,Madrid,,,,
iberinform,02/28/2022,2022,https://www.iberinform.es/informacion-de-empresas/directorio-cnae/310/fabricacion-de-muebles,DM,Living Mattress,,,,,,,Huecas,Toledo,,,,
iberinform,02/28/2022,2022,https://www.iberinform.es/informacion-de-empresas/directorio-cnae/310/fabricacion-de-muebles,DM,Lowell 2021,,,,,,,Mula,Murcia,,,,
iberinform,02/28/2022,2022,https://www.iberinform.es/informacion-de-empresas/directorio-cnae/310/fabricacion-de-muebles,DM,Levi Confort,,,,,,,Yecla,Murcia,,,,
iberinform,02/28/2022,2022,https://www.iberinform.es/informacion-de-empresas/directorio-cnae/310/fabricacion-de-muebles,DM,Luis Soriano,,,,,,,Viladecavalls,Barcelona,,,,
iberinform,02/28/2022,2022,https://www.iberinform.es/informacion-de-empresas/directorio-cnae/310/fabricacion-de-muebles,DM,Leunak,,,,,,,Alegria-dulantzi,Araba,,,,
iberinform,02/28/2022,2022,https://www.iberinform.es/informacion-de-empresas/directorio-cnae/310/fabricacion-de-muebles,DM,Liron Descanso,,,,,,,Vilaboa,Pontevedra,,,,
iberinform,02/28/2022,2022,https://www.iberinform.es/informacion-de-empresas/directorio-cnae/310/fabricacion-de-muebles,DM,Los Sueños De Lucia,,,,,,,Archena,Murcia,,,,
iberinform,02/28/2022,2022,https://www.iberinform.es/informacion-de-empresas/directorio-cnae/310/fabricacion-de-muebles,DM,Latexco España,,,,,,,Almunia De Doña Godina (la),Zaragoza,,,,
iberinform,02/28/2022,2022,https://www.iberinform.es/informacion-de-empresas/directorio-cnae/310/fabricacion-de-muebles,DM,Lamflex Comfort,,,,,,,Cubas De La Sagra,Madrid,,,,
iberinform,02/28/2022,2022,https://www.iberinform.es/informacion-de-empresas/directorio-cnae/310/fabricacion-de-muebles,DM,Korflex Relax,,,,,,,Sant Andreu De La Barca,Barcelona,,,,
iberinform,02/28/2022,2022,https://www.iberinform.es/informacion-de-empresas/directorio-cnae/310/fabricacion-de-muebles,DM,Madesga Promociones,,,,,,,Vigo,Pontevedra,,,,
iberinform,02/28/2022,2022,https://www.iberinform.es/informacion-de-empresas/directorio-cnae/310/fabricacion-de-muebles,DM,M & M Descans,,,,,,,Rubi,Barcelona,,,,
iberinform,02/28/2022,2022,https://www.iberinform.es/informacion-de-empresas/directorio-cnae/310/fabricacion-de-muebles,DM,M R Descanso,,,,,,,Albolote,Granada,,,,
iberinform,02/28/2022,2022,https://www.iberinform.es/informacion-de-empresas/directorio-cnae/310/fabricacion-de-muebles,DM,Luyflex,,,,,,,Ulldecona,Tarragona,,,,
iberinform,02/28/2022,2022,https://www.iberinform.es/informacion-de-empresas/directorio-cnae/310/fabricacion-de-muebles,DM,Medical System Proyect,,,,,,,Coslada,Madrid,,,,
iberinform,02/28/2022,2022,https://www.iberinform.es/informacion-de-empresas/directorio-cnae/310/fabricacion-de-muebles,DM,Martiniano Martin,,,,,,,Fresneda De Cuellar,Segovia,,,,
iberinform,02/28/2022,2022,https://www.iberinform.es/informacion-de-empresas/directorio-cnae/310/fabricacion-de-muebles,DM,Materiales Y Manufactura Del Colchon,,,,,,,Ripollet,Barcelona,,,,
iberinform,02/28/2022,2022,https://www.iberinform.es/informacion-de-empresas/directorio-cnae/310/fabricacion-de-muebles,DM,Martinez & Mendez Sistemas De Descanso,,,,,,,Emperador,Valencia,,,,
iberinform,02/28/2022,2022,https://www.iberinform.es/informacion-de-empresas/directorio-cnae/310/fabricacion-de-muebles,DM,Matalas Yecla,,,,,,,Yecla,Murcia,,,,
iberinform,02/28/2022,2022,https://www.iberinform.es/informacion-de-empresas/directorio-cnae/310/fabricacion-de-muebles,DM,Mascolchones Vigo,,,,,,,Vigo,Pontevedra,,,,
iberinform,02/28/2022,2022,https://www.iberinform.es/informacion-de-empresas/directorio-cnae/310/fabricacion-de-muebles,DM,Mecanismos Cama Sofa,,,,,,,Malaga,Malaga,,,,
iberinform,02/28/2022,2022,https://www.iberinform.es/informacion-de-empresas/directorio-cnae/310/fabricacion-de-muebles,DM,Matiner Grup Disseny I Decoracio,,,,,,,Torredembarra,Tarragona,,,,
iberinform,02/28/2022,2022,https://www.iberinform.es/informacion-de-empresas/directorio-cnae/310/fabricacion-de-muebles,DM,Marly Descanso,,,,,,,Murcia,Murcia,,,,
iberinform,02/28/2022,2022,https://www.iberinform.es/informacion-de-empresas/directorio-cnae/310/fabricacion-de-muebles,DM,Moreno Repiso,,,,,,,Almendralejo,Badajoz,,,,
iberinform,02/28/2022,2022,https://www.iberinform.es/informacion-de-empresas/directorio-cnae/310/fabricacion-de-muebles,DM,Maestros Del Descanso Sport,,,,,,,Barrax,Albacete,,,,
iberinform,02/28/2022,2022,https://www.iberinform.es/informacion-de-empresas/directorio-cnae/310/fabricacion-de-muebles,DM,Mlily Spain,,,,,,,Alberic,Valencia,,,,
iberinform,02/28/2022,2022,https://www.iberinform.es/informacion-de-empresas/directorio-cnae/310/fabricacion-de-muebles,DM,Metacolchon,,,,,,,Chinchilla De Monte Aragon,Albacete,,,,
iberinform,02/28/2022,2022,https://www.iberinform.es/informacion-de-empresas/directorio-cnae/310/fabricacion-de-muebles,DM,Monnaco Center,,,,,,,Ontinyent,Valencia,,,,
iberinform,02/28/2022,2022,https://www.iberinform.es/informacion-de-empresas/directorio-cnae/310/fabricacion-de-muebles,DM,Mereon Solutions International,,,,,,,Valencia,Valencia,,,,
iberinform,02/28/2022,2022,https://www.iberinform.es/informacion-de-empresas/directorio-cnae/310/fabricacion-de-muebles,DM,Musa Descanso,,,,,,,Sant Andreu De La Barca,Barcelona,,,,
iberinform,02/28/2022,2022,https://www.iberinform.es/informacion-de-empresas/directorio-cnae/310/fabricacion-de-muebles,DM,Mula Confort,,,,,,,Mula,Murcia,,,,
iberinform,02/28/2022,2022,https://www.iberinform.es/informacion-de-empresas/directorio-cnae/310/fabricacion-de-muebles,DM,Muelle Sprin,,,,,,,Alaquas,Valencia,,,,
iberinform,02/28/2022,2022,https://www.iberinform.es/informacion-de-empresas/directorio-cnae/310/fabricacion-de-muebles,DM,Murcia Confort,,,,,,,Murcia,Murcia,,,,
iberinform,02/28/2022,2022,https://www.iberinform.es/informacion-de-empresas/directorio-cnae/310/fabricacion-de-muebles,DM,Multidescanso,,,,,,,Alcorcon,Madrid,,,,
iberinform,02/28/2022,2022,https://www.iberinform.es/informacion-de-empresas/directorio-cnae/310/fabricacion-de-muebles,DM,Moviflex 2000,,,,,,,Gijon,Asturias,,,,
iberinform,02/28/2022,2022,https://www.iberinform.es/informacion-de-empresas/directorio-cnae/310/fabricacion-de-muebles,DM,Mundodescanso Alicante,,,,,,,Alicante,Alicante,,,,
iberinform,02/28/2022,2022,https://www.iberinform.es/informacion-de-empresas/directorio-cnae/310/fabricacion-de-muebles,DM,Nuevas Creaciones D'ydea,,,,,,,Totana,Murcia,,,,
iberinform,02/28/2022,2022,https://www.iberinform.es/informacion-de-empresas/directorio-cnae/310/fabricacion-de-muebles,DM,Novocolchon Descanso,,,,,,,Marchena,Sevilla,,,,
iberinform,02/28/2022,2022,https://www.iberinform.es/informacion-de-empresas/directorio-cnae/310/fabricacion-de-muebles,DM,Norsur Descanso,,,,,,,Sevilla,Sevilla,,,,
iberinform,02/28/2022,2022,https://www.iberinform.es/informacion-de-empresas/directorio-cnae/310/fabricacion-de-muebles,DM,Nipponflex Europa,,,,,,,Porriño (o),Pontevedra,,,,
iberinform,02/28/2022,2022,https://www.iberinform.es/informacion-de-empresas/directorio-cnae/310/fabricacion-de-muebles,DM,Noi Mobiliario Europeo,,,,,,,Orihuela,Alicante,,,,
iberinform,02/28/2022,2022,https://www.iberinform.es/informacion-de-empresas/directorio-cnae/310/fabricacion-de-muebles,DM,Naturalia By Poligon,,,,,,,Ugena,Toledo,,,,
iberinform,02/28/2022,2022,https://www.iberinform.es/informacion-de-empresas/directorio-cnae/310/fabricacion-de-muebles,DM,New World Sprin Company,,,,,,,Ulldecona,Tarragona,,,,
iberinform,02/28/2022,2022,https://www.iberinform.es/informacion-de-empresas/directorio-cnae/310/fabricacion-de-muebles,DM,My Baby Mattress,,,,,,,Yecla,Murcia,,,,
iberinform,02/28/2022,2022,https://www.iberinform.es/informacion-de-empresas/directorio-cnae/310/fabricacion-de-muebles,DM,Parques Y Mobiliario Urbano De Galicia,,,,,,,Rabade,Lugo,,,,
iberinform,02/28/2022,2022,https://www.iberinform.es/informacion-de-empresas/directorio-cnae/310/fabricacion-de-muebles,DM,Padiflex,,,,,,,Coria Del Rio,Sevilla,,,,
iberinform,02/28/2022,2022,https://www.iberinform.es/informacion-de-empresas/directorio-cnae/310/fabricacion-de-muebles,DM,Palux,,,,,,,Soria,Soria,,,,
iberinform,02/28/2022,2022,https://www.iberinform.es/informacion-de-empresas/directorio-cnae/310/fabricacion-de-muebles,DM,Oba Interiorismos,,,,,,,Sant Boi De Llobregat,Barcelona,,,,
iberinform,02/28/2022,2022,https://www.iberinform.es/informacion-de-empresas/directorio-cnae/310/fabricacion-de-muebles,DM,Ourense Franquicia,,,,,,,Ourense,Ourense,,,,
iberinform,02/28/2022,2022,https://www.iberinform.es/informacion-de-empresas/directorio-cnae/310/fabricacion-de-muebles,DM,Origen Del Sueño,,,,,,,Cijuela,Granada,,,,
iberinform,02/28/2022,2022,https://www.iberinform.es/informacion-de-empresas/directorio-cnae/310/fabricacion-de-muebles,DM,Otium Pur,,,,,,,Ecija,Sevilla,,,,
iberinform,02/28/2022,2022,https://www.iberinform.es/informacion-de-empresas/directorio-cnae/310/fabricacion-de-muebles,DM,Olduga 2019,,,,,,,Benifaio,Valencia,,,,
iberinform,02/28/2022,2022,https://www.iberinform.es/informacion-de-empresas/directorio-cnae/310/fabricacion-de-muebles,DM,Nusid Espumas Agricolas,,,,,,,Alcasser,Valencia,,,,
iberinform,02/28/2022,2022,https://www.iberinform.es/informacion-de-empresas/directorio-cnae/310/fabricacion-de-muebles,DM,Nupex Sistemas De Descanso,,,,,,,Prado Del Rey,Cadiz,,,,
iberinform,02/28/2022,2022,https://www.iberinform.es/informacion-de-empresas/directorio-cnae/310/fabricacion-de-muebles,DM,Polidescanso,,,,,,,Picassent,Valencia,,,,
iberinform,02/28/2022,2022,https://www.iberinform.es/informacion-de-empresas/directorio-cnae/310/fabricacion-de-muebles,DM,Policor Palencia,,,,,,,Palencia,Palencia,,,,
iberinform,02/28/2022,2022,https://www.iberinform.es/informacion-de-empresas/directorio-cnae/310/fabricacion-de-muebles,DM,Pirelo,,,,,,,Mos,Pontevedra,,,,
iberinform,02/28/2022,2022,https://www.iberinform.es/informacion-de-empresas/directorio-cnae/310/fabricacion-de-muebles,DM,Pikolin,,,,,,,Zaragoza,Zaragoza,,,,
iberinform,02/28/2022,2022,https://www.iberinform.es/informacion-de-empresas/directorio-cnae/310/fabricacion-de-muebles,DM,Piqueras Benito,,,,,,,Caudete,Albacete,,,,
iberinform,02/28/2022,2022,https://www.iberinform.es/informacion-de-empresas/directorio-cnae/310/fabricacion-de-muebles,DM,Raymoplex,,,,,,,Mollina,Malaga,,,,
iberinform,02/28/2022,2022,https://www.iberinform.es/informacion-de-empresas/directorio-cnae/310/fabricacion-de-muebles,DM,Racrisan,,,,,,,Ferrol,Coruña (a),,,,
iberinform,02/28/2022,2022,https://www.iberinform.es/informacion-de-empresas/directorio-cnae/310/fabricacion-de-muebles,DM,Productos Metalurgicos Del Colchon,,,,,,,Albal,Valencia,,,,
iberinform,02/28/2022,2022,https://www.iberinform.es/informacion-de-empresas/directorio-cnae/310/fabricacion-de-muebles,DM,Pribucol,,,,,,,San Fernando De Henares,Madrid,,,,
iberinform,02/28/2022,2022,https://www.iberinform.es/informacion-de-empresas/directorio-cnae/310/fabricacion-de-muebles,DM,Promogar Astur,,,,,,,Oviedo,Asturias,,,,
iberinform,02/28/2022,2022,https://www.iberinform.es/informacion-de-empresas/directorio-cnae/310/fabricacion-de-muebles,DM,Randor Colchones Y Muebles,,,,,,,Massalaves,Valencia,,,,
iberinform,02/28/2022,2022,https://www.iberinform.es/informacion-de-empresas/directorio-cnae/310/fabricacion-de-muebles,DM,Proa Mil Espumas Flexibles,,,,,,,Hospitalet De Llobregat (l),Barcelona,,,,
iberinform,02/28/2022,2022,https://www.iberinform.es/informacion-de-empresas/directorio-cnae/310/fabricacion-de-muebles,DM,Puntolatex,,,,,,,Ourense,Ourense,,,,
iberinform,02/28/2022,2022,https://www.iberinform.es/informacion-de-empresas/directorio-cnae/310/fabricacion-de-muebles,DM,Pribañez,,,,,,,Mungia,Bizkaia,,,,
iberinform,02/28/2022,2022,https://www.iberinform.es/informacion-de-empresas/directorio-cnae/310/fabricacion-de-muebles,DM,Poltisoc,,,,,,,Villa Del Rio,Cordoba,,,,
iberinform,02/28/2022,2022,https://www.iberinform.es/informacion-de-empresas/directorio-cnae/310/fabricacion-de-muebles,DM,Poligon,,,,,,,Madrid,Madrid,,,,
iberinform,02/28/2022,2022,https://www.iberinform.es/informacion-de-empresas/directorio-cnae/310/fabricacion-de-muebles,DM,Restalia,,,,,,,Valladolid,Valladolid,,,,
iberinform,02/28/2022,2022,https://www.iberinform.es/informacion-de-empresas/directorio-cnae/310/fabricacion-de-muebles,DM,Ribera Flexible Del Colchon,,,,,,,Carlet,Valencia,,,,
iberinform,02/28/2022,2022,https://www.iberinform.es/informacion-de-empresas/directorio-cnae/310/fabricacion-de-muebles,DM,Resilience Y Equipos De Descanso,,,,,,,Valencia,Valencia,,,,
iberinform,02/28/2022,2022,https://www.iberinform.es/informacion-de-empresas/directorio-cnae/310/fabricacion-de-muebles,DM,Poliuretanos Turia,,,,,,,Beniparrell,Valencia,,,,
iberinform,02/28/2022,2022,https://www.iberinform.es/informacion-de-empresas/directorio-cnae/310/fabricacion-de-muebles,DM,Sefre Descanso,,,,,,,Orihuela,Alicante,,,,
iberinform,02/28/2022,2022,https://www.iberinform.es/informacion-de-empresas/directorio-cnae/310/fabricacion-de-muebles,DM,Sanmartinez,,,,,,,Murcia,Murcia,,,,
iberinform,02/28/2022,2022,https://www.iberinform.es/informacion-de-empresas/directorio-cnae/310/fabricacion-de-muebles,DM,Sabicol De La Dueña,,,,,,,Ossa De Montiel,Albacete,,,,
iberinform,02/28/2022,2022,https://www.iberinform.es/informacion-de-empresas/directorio-cnae/310/fabricacion-de-muebles,DM,Rieles Valencianos,,,,,,,Picanya,Valencia,,,,
iberinform,02/28/2022,2022,https://www.iberinform.es/informacion-de-empresas/directorio-cnae/310/fabricacion-de-muebles,DM,Rojas Hermanos,,,,,,,Lardero,La Rioja,,,,
iberinform,02/28/2022,2022,https://www.iberinform.es/informacion-de-empresas/directorio-cnae/310/fabricacion-de-muebles,DM,Royalflex,,,,,,,Sevilla,Sevilla,,,,
iberinform,02/28/2022,2022,https://www.iberinform.es/informacion-de-empresas/directorio-cnae/310/fabricacion-de-muebles,DM,Rutitador,,,,,,,Silla,Valencia,,,,
iberinform,02/28/2022,2022,https://www.iberinform.es/informacion-de-empresas/directorio-cnae/310/fabricacion-de-muebles,DM,Sarape Inversiones,,,,,,,Molina De Segura,Murcia,,,,
iberinform,02/28/2022,2022,https://www.iberinform.es/informacion-de-empresas/directorio-cnae/310/fabricacion-de-muebles,DM,Ricard Roca,,,,,,,Altorricon,Huesca,,,,
iberinform,02/28/2022,2022,https://www.iberinform.es/informacion-de-empresas/directorio-cnae/310/fabricacion-de-muebles,DM,Silk Descanso,,,,,,,Manzanera,Teruel,,,,
iberinform,02/28/2022,2022,https://www.iberinform.es/informacion-de-empresas/directorio-cnae/310/fabricacion-de-muebles,DM,Sensi Mattres,,,,,,,Salamanca,Salamanca,,,,
iberinform,02/28/2022,2022,https://www.iberinform.es/informacion-de-empresas/directorio-cnae/310/fabricacion-de-muebles,DM,Sensoflex,,,,,,,Bormujos,Sevilla,,,,
iberinform,02/28/2022,2022,https://www.iberinform.es/informacion-de-empresas/directorio-cnae/310/fabricacion-de-muebles,DM,Silis,,,,,,,Fuenlabrada,Madrid,,,,
iberinform,02/28/2022,2022,https://www.iberinform.es/informacion-de-empresas/directorio-cnae/310/fabricacion-de-muebles,DM,Selene Room,,,,,,,Jumilla,Murcia,,,,
iberinform,02/28/2022,2022,https://www.iberinform.es/informacion-de-empresas/directorio-cnae/310/fabricacion-de-muebles,DM,Shaula Confort,,,,,,,Yecla,Murcia,,,,
iberinform,02/28/2022,2022,https://www.iberinform.es/informacion-de-empresas/directorio-cnae/310/fabricacion-de-muebles,DM,Solodescanso,,,,,,,Griñon,Madrid,,,,
iberinform,02/28/2022,2022,https://www.iberinform.es/informacion-de-empresas/directorio-cnae/310/fabricacion-de-muebles,DM,Sleep8-spain,,,,,,,Barcelona,Barcelona,,,,
iberinform,02/28/2022,2022,https://www.iberinform.es/informacion-de-empresas/directorio-cnae/310/fabricacion-de-muebles,DM,Sistemas De Descanso Naturconfort,,,,,,,Aldaia,Valencia,,,,
iberinform,02/28/2022,2022,https://www.iberinform.es/informacion-de-empresas/directorio-cnae/310/fabricacion-de-muebles,DM,Sistemas De Descanso Patric Dreams,,,,,,,Elche,Alicante,,,,
iberinform,02/28/2022,2022,https://www.iberinform.es/informacion-de-empresas/directorio-cnae/310/fabricacion-de-muebles,DM,Solingen Bss,,,,,,,Casarrubios Del Monte,Toledo,,,,
iberinform,02/28/2022,2022,https://www.iberinform.es/informacion-de-empresas/directorio-cnae/310/fabricacion-de-muebles,DM,Smattex,,,,,,,Miramar,Valencia,,,,
iberinform,02/28/2022,2022,https://www.iberinform.es/informacion-de-empresas/directorio-cnae/310/fabricacion-de-muebles,DM,Soldecans 2016,,,,,,,Redovan,Alicante,,,,
iberinform,02/28/2022,2022,https://www.iberinform.es/informacion-de-empresas/directorio-cnae/310/fabricacion-de-muebles,DM,Sleepinbed,,,,,,,Fuenlabrada,Madrid,,,,
iberinform,02/28/2022,2022,https://www.iberinform.es/informacion-de-empresas/directorio-cnae/310/fabricacion-de-muebles,DM,Sistemas De Descanso Mogar,,,,,,,Belalcazar,Cordoba,,,,
iberinform,02/28/2022,2022,https://www.iberinform.es/informacion-de-empresas/directorio-cnae/310/fabricacion-de-muebles,DM,Sistemas De Descanso Integral,,,,,,,Logroño,La Rioja,,,,
iberinform,02/28/2022,2022,https://www.iberinform.es/informacion-de-empresas/directorio-cnae/310/fabricacion-de-muebles,DM,Sistemas De Descanso Centro Hogar,,,,,,,Gernika Lumo,Bizkaia,,,,
iberinform,02/28/2022,2022,https://www.iberinform.es/informacion-de-empresas/directorio-cnae/310/fabricacion-de-muebles,DM,Sistemas De Descanso Coyco,,,,,,,Massamagrell,Valencia,,,,
iberinform,02/28/2022,2022,https://www.iberinform.es/informacion-de-empresas/directorio-cnae/310/fabricacion-de-muebles,DM,Somieres Del Noroeste,,,,,,,Caldas De Reis,Pontevedra,,,,
iberinform,02/28/2022,2022,https://www.iberinform.es/informacion-de-empresas/directorio-cnae/310/fabricacion-de-muebles,DM,Somieres Electricos Atalaya,,,,,,,Blanca,Murcia,,,,
iberinform,02/28/2022,2022,https://www.iberinform.es/informacion-de-empresas/directorio-cnae/310/fabricacion-de-muebles,DM,Soltex European,,,,,,,Bellvis,Lleida,,,,
iberinform,02/28/2022,2022,https://www.iberinform.es/informacion-de-empresas/directorio-cnae/310/fabricacion-de-muebles,DM,Somycol Sistemas De Descanso,,,,,,,San Vicente Del Raspeig,Alicante,,,,
iberinform,02/28/2022,2022,https://www.iberinform.es/informacion-de-empresas/directorio-cnae/310/fabricacion-de-muebles,DM,Somycol,,,,,,,San Vicente Del Raspeig,Alicante,,,,
iberinform,02/28/2022,2022,https://www.iberinform.es/informacion-de-empresas/directorio-cnae/310/fabricacion-de-muebles,DM,Somnus Colchones Y Descanso,,,,,,,Alaquas,Valencia,,,,
iberinform,02/28/2022,2022,https://www.iberinform.es/informacion-de-empresas/directorio-cnae/310/fabricacion-de-muebles,DM,Somimancha,,,,,,,Puerto Lapice,Ciudad Real,,,,
iberinform,02/28/2022,2022,https://www.iberinform.es/informacion-de-empresas/directorio-cnae/310/fabricacion-de-muebles,DM,Somma Confort,,,,,,,Cuarte De Huerva,Zaragoza,,,,
iberinform,02/28/2022,2022,https://www.iberinform.es/informacion-de-empresas/directorio-cnae/310/fabricacion-de-muebles,DM,Somnidescans 2018,,,,,,,Aspe,Alicante,,,,
iberinform,02/28/2022,2022,https://www.iberinform.es/informacion-de-empresas/directorio-cnae/310/fabricacion-de-muebles,DM,Somieres Y Colchones Jover,,,,,,,Teruel,Teruel,,,,
iberinform,02/28/2022,2022,https://www.iberinform.es/informacion-de-empresas/directorio-cnae/310/fabricacion-de-muebles,DM,Somnika Beds,,,,,,,Rubi,Barcelona,,,,
iberinform,02/28/2022,2022,https://www.iberinform.es/informacion-de-empresas/directorio-cnae/310/fabricacion-de-muebles,DM,Somieres Mira,,,,,,,Cadrete,Zaragoza,,,,
iberinform,02/28/2022,2022,https://www.iberinform.es/informacion-de-empresas/directorio-cnae/310/fabricacion-de-muebles,DM,Somieres Martinez,,,,,,,Mos,Pontevedra,,,,
iberinform,02/28/2022,2022,https://www.iberinform.es/informacion-de-empresas/directorio-cnae/310/fabricacion-de-muebles,DM,Suc De J Estany,,,,,,,Manresa,Barcelona,,,,
iberinform,02/28/2022,2022,https://www.iberinform.es/informacion-de-empresas/directorio-cnae/310/fabricacion-de-muebles,DM,Stylbed Colchon De Ultima Generacion,,,,,,,Santa Fe,Granada,,,,
iberinform,02/28/2022,2022,https://www.iberinform.es/informacion-de-empresas/directorio-cnae/310/fabricacion-de-muebles,DM,Spumadrid,,,,,,,Mejorada Del Campo,Madrid,,,,
iberinform,02/28/2022,2022,https://www.iberinform.es/informacion-de-empresas/directorio-cnae/310/fabricacion-de-muebles,DM,Spain Natural Sleep,,,,,,,Madrid,Madrid,,,,
iberinform,02/28/2022,2022,https://www.iberinform.es/informacion-de-empresas/directorio-cnae/310/fabricacion-de-muebles,DM,Spacio Repos,,,,,,,Leganes,Madrid,,,,
iberinform,02/28/2022,2022,https://www.iberinform.es/informacion-de-empresas/directorio-cnae/310/fabricacion-de-muebles,DM,Tempur Sealy Iberica,,,,,,,Majadahonda,Madrid,,,,
iberinform,02/28/2022,2022,https://www.iberinform.es/informacion-de-empresas/directorio-cnae/310/fabricacion-de-muebles,DM,Tecnolit Sleep System,,,,,,,Humanes De Madrid,Madrid,,,,
iberinform,02/28/2022,2022,https://www.iberinform.es/informacion-de-empresas/directorio-cnae/310/fabricacion-de-muebles,DM,Talltres Osona,,,,,,,Manlleu,Barcelona,,,,
iberinform,02/28/2022,2022,https://www.iberinform.es/informacion-de-empresas/directorio-cnae/310/fabricacion-de-muebles,DM,Tapizados Carreras,,,,,,,Ajalvir,Madrid,,,,
iberinform,02/28/2022,2022,https://www.iberinform.es/informacion-de-empresas/directorio-cnae/310/fabricacion-de-muebles,DM,Tapizados A Puche,,,,,,,Yecla,Murcia,,,,
iberinform,02/28/2022,2022,https://www.iberinform.es/informacion-de-empresas/directorio-cnae/310/fabricacion-de-muebles,DM,Tecnicas Del Descanso,,,,,,,Maria De Huerva,Zaragoza,,,,
iberinform,02/28/2022,2022,https://www.iberinform.es/informacion-de-empresas/directorio-cnae/310/fabricacion-de-muebles,DM,Tecama-jobs,,,,,,,Alcasser,Valencia,,,,
iberinform,02/28/2022,2022,https://www.iberinform.es/informacion-de-empresas/directorio-cnae/310/fabricacion-de-muebles,DM,Tapizados Alero,,,,,,,Valencia,Valencia,,,,
iberinform,02/28/2022,2022,https://www.iberinform.es/informacion-de-empresas/directorio-cnae/310/fabricacion-de-muebles,DM,Tactopluma 2012,,,,,,,Barcelona,Barcelona,,,,
iberinform,02/28/2022,2022,https://www.iberinform.es/informacion-de-empresas/directorio-cnae/310/fabricacion-de-muebles,DM,Syo Descanso,,,,,,,Vigo,Pontevedra,,,,
iberinform,02/28/2022,2022,https://www.iberinform.es/informacion-de-empresas/directorio-cnae/310/fabricacion-de-muebles,DM,Suitex Equipos De Descanso,,,,,,,Alcala De Guadaira,Sevilla,,,,
iberinform,02/28/2022,2022,https://www.iberinform.es/informacion-de-empresas/directorio-cnae/310/fabricacion-de-muebles,DM,Sueños Magister,,,,,,,Casarrubios Del Monte,Toledo,,,,
iberinform,02/28/2022,2022,https://www.iberinform.es/informacion-de-empresas/directorio-cnae/310/fabricacion-de-muebles,DM,The Rest's Pharmacy,,,,,,,Petrer,Alicante,,,,
iberinform,02/28/2022,2022,https://www.iberinform.es/informacion-de-empresas/directorio-cnae/310/fabricacion-de-muebles,DM,Teycol Descanso,,,,,,,Humanes De Madrid,Madrid,,,,
iberinform,02/28/2022,2022,https://www.iberinform.es/informacion-de-empresas/directorio-cnae/310/fabricacion-de-muebles,DM,Tespolatex,,,,,,,Villa Del Rio,Cordoba,,,,
iberinform,02/28/2022,2022,https://www.iberinform.es/informacion-de-empresas/directorio-cnae/310/fabricacion-de-muebles,DM,Viscoform,,,,,,,Pobla Del Duc (la),Valencia,,,,
iberinform,02/28/2022,2022,https://www.iberinform.es/informacion-de-empresas/directorio-cnae/310/fabricacion-de-muebles,DM,Tutto Riposo,,,,,,,Vigo,Pontevedra,,,,
iberinform,02/28/2022,2022,https://www.iberinform.es/informacion-de-empresas/directorio-cnae/310/fabricacion-de-muebles,DM,Tuexa Export,,,,,,,Tuejar,Valencia,,,,
iberinform,02/28/2022,2022,https://www.iberinform.es/informacion-de-empresas/directorio-cnae/310/fabricacion-de-muebles,DM,Ultraconfort,,,,,,,Vilaboa,Pontevedra,,,,
iberinform,02/28/2022,2022,https://www.iberinform.es/informacion-de-empresas/directorio-cnae/310/fabricacion-de-muebles,DM,Transformados Goesma,,,,,,,Fuenlabrada,Madrid,,,,
iberinform,02/28/2022,2022,https://www.iberinform.es/informacion-de-empresas/directorio-cnae/310/fabricacion-de-muebles,DM,Victoria Descanso,,,,,,,Yecla,Murcia,,,,
iberinform,02/28/2022,2022,https://www.iberinform.es/informacion-de-empresas/directorio-cnae/310/fabricacion-de-muebles,DM,Tresillos Tres & Dos,,,,,,,Humanes De Madrid,Madrid,,,,
iberinform,02/28/2022,2022,https://www.iberinform.es/informacion-de-empresas/directorio-cnae/310/fabricacion-de-muebles,DM,Vilupol Espumes,,,,,,,Alberic,Valencia,,,,
iberinform,02/28/2022,2022,https://www.iberinform.es/informacion-de-empresas/directorio-cnae/310/fabricacion-de-muebles,DM,Toende,,,,,,,Vilafranca Del Penedes,Barcelona,,,,
iberinform,02/28/2022,2022,https://www.iberinform.es/informacion-de-empresas/directorio-cnae/310/fabricacion-de-muebles,DM,Vitalia Empresas Y Formacion,,,,,,,Grove (o),Pontevedra,,,,
iberinform,02/28/2022,2022,https://www.iberinform.es/informacion-de-empresas/directorio-cnae/310/fabricacion-de-muebles,DM,Tiendas Ahorro Colchon,,,,,,,Fuenlabrada,Madrid,,,,
iberinform,02/28/2022,2022,https://www.iberinform.es/informacion-de-empresas/directorio-cnae/310/fabricacion-de-muebles,DM,Tiendas Hipercolchon,,,,,,,Castellon De La Plana,Castellon,,,,
iberinform,02/28/2022,2022,https://www.iberinform.es/informacion-de-empresas/directorio-cnae/310/fabricacion-de-muebles,DM,Yoar Sistemas De Descanso,,,,,,,Berrioplano,Navarra,,,,
iberinform,02/28/2022,2022,https://www.iberinform.es/informacion-de-empresas/directorio-cnae/310/fabricacion-de-muebles,DM,Vitality Beds,,,,,,,Burjassot,Valencia,,,,
iberinform,02/28/2022,2022,https://www.iberinform.es/informacion-de-empresas/directorio-cnae/310/fabricacion-de-muebles,DM,Vitalflex Europa,,,,,,,Vigo,Pontevedra,,,,
iberinform,02/28/2022,2022,https://www.iberinform.es/informacion-de-empresas/directorio-cnae/310/fabricacion-de-muebles,DM,Zaraconfort,,,,,,,Zaragoza,Zaragoza,,,,
