ShowName,ShowDate,ShowYear,ShowWebsite,SubmittedBy,ExhibitorName,BoothNumber,HallLocation,Website,Email,Phone,Fax,Address,Country,Categories,Manufacturers,Brands,Description
Ambiente,01/28/2022,2022,https://christmasworld.messefrankfurt.com,DM,Accentra GmbH &amp; Co. KG,D10,8.0,www.accentra.de,adammer@accentra.de,,,91572 Bechhofen Rudolf-Diesel-Str. 7,Germany,Christmas & Seasonal decoration | Candles & Fragrances,,,"What distinguishes an attractive range of products ? It offers quality, appeals to a wide range of consumers and has permanent..."
Ambiente,01/28/2022,2022,https://christmasworld.messefrankfurt.com,DM,ADAMLIGHTS AS,C80,9.0,www.adam.ee,,,,11314 Tallinn Järvevana tee 9,Estonia,Visual Merchandising & Light,,,"For more than 20 years, we have been designing and decorating public spaces and buildings with Nordic quality lighting solutions..."
Ambiente,01/28/2022,2022,https://christmasworld.messefrankfurt.com,DM,ADPAL Adam Szczepaniak,C57,8.0,,,,,63-720 Kozmin Wlkp. ul. Przemyslowa 1,Poland,,,,Adpal is one of the largest company in Poland dealing with candle production. Having regard to the environment protection...
Ambiente,01/28/2022,2022,https://christmasworld.messefrankfurt.com,DM,Advantech Handicrafts,A99,12.1,,,,,"110051 New Delhi p-15 Gali no.1,Shanker Nagar Extn.",India,,,,Advantech Handicrafts is based in India manufacturing Christmas Seasonal Decorations of Mango Wood & Aluminium. Having...
Ambiente,01/28/2022,2022,https://christmasworld.messefrankfurt.com,DM,AEC Offshore Trading Pvt Ltd,A96,12.1,www.aecoffshore.com,,,,"562117 Ramanagara, Karnataka Plot NO. R-5, R-6, 2nd Stage",India,,,,
Ambiente,01/28/2022,2022,https://christmasworld.messefrankfurt.com,DM,Alamgir Papier Machie House,D98,12.1,,,,,110014 New Delhi 6/3 Jangpura-B Ground Floor,India,,,,
Ambiente,01/28/2022,2022,https://christmasworld.messefrankfurt.com,DM,ALFAGR for Technical Industries Co.,E74,9.0,,carmen.siri@alfaglass.net,+20 100 2338871,,"12566 6th of October City, Giza #127 Extension of 3rd Industrial Zone",Egypt,Christmas & Seasonal decoration | Florists' requisites & Garden decoration,,,"Alfagr for Technical Industries Co. is a producer and exporter of decorative hand made, mouth blown glass articles such as flower..."
Ambiente,01/28/2022,2022,https://christmasworld.messefrankfurt.com,DM,Allayi GmbH,A14,11.0,,felix.keller@allayi.ch,0041 (0)79 151 91 39,,4144 Arlesheim Altenmatteweg 13,Switzerland,Christmas & Seasonal decoration,,,"Welcome to Allayi Ltd.We are a Swiss family business, which specializes in trading exquisite glass products from Egypt. As a wholesaler..."
Ambiente,01/28/2022,2022,https://christmasworld.messefrankfurt.com,DM,Alliy International,E86,12.1,www.alliyinternational.com,,,,"110094 Delhi H.NO-1, ST. No-1, Old Mustafabad",India,,,,"WE ARE THE MANUFACTURER AND EXPORTER OF CHRISTMAS ORNAMENTS & HOME DECOR FROM INDIA
	HIGH QUALITY PRODUCT

	COMPETITIVE..."
Ambiente,01/28/2022,2022,https://christmasworld.messefrankfurt.com,DM,A.L. Paper House LLP,C90,12.1,www.alpaperhouse.com,,,,"302029 Jaipur Near Tempo Stand, Shikarpura Road,",India,,,,"India's Largest Manufacturer and Exporter of Handmade Paper and Paper Products, like Paper Star, Giftwraps, Boxes, Bag..."
Ambiente,01/28/2022,2022,https://christmasworld.messefrankfurt.com,DM,Ambiente Europe B.V.,B50,11.0,www.ambiente.eu,,,,5835 DS Beugen Laan de Wijze 19,Netherlands,,,,"Ambiente Europe BV

	Development and production of high-quality, harmonious table decorations and home accessories
	
		Napkins..."
Ambiente,01/28/2022,2022,https://christmasworld.messefrankfurt.com,DM,AM-Design Floristik GmbH,B19,12.0,www.am-design-gmbh.de,,,,71665 Vaihingen an der Enz Tafingerstr. 9,Germany,,,,"AM-Design - your partner:

	
		for home accessories
	
		LED Lights
	
		for small furniture


	We are looking forward to your..."
Ambiente,01/28/2022,2022,https://christmasworld.messefrankfurt.com,DM,"Quanzhou Fengze Amy Industrial Co., Ltd.",A85,12.1,,atommy89@amy-industry.com,0086 592 5214355,,"362000 Quanzhou Tiyu Sstreet, Cheng dong, Fengze",China,Christmas & Seasonal decoration,,,
Ambiente,01/28/2022,2022,https://christmasworld.messefrankfurt.com,DM,Ancona Maria &amp; Filatov Andrey,G92,8.0,www.chichic.de,,,,70178 Stuttgart Augustenstr. 10A,Germany,,,,"Production, distribution and import-export of home accessories made of oak, glass, metal, Easter and Christmas balls.

	The Chic..."
Ambiente,01/28/2022,2022,https://christmasworld.messefrankfurt.com,DM,ANGRO B.V.,A14,12.0,www.angro.nl,,,,5482 TJ Schijndel Edisonweg 1 c,Netherlands,,,,Angro is a successful family business founded in 1995. We are a developing and manufacturing trading company that helps...
Ambiente,01/28/2022,2022,https://christmasworld.messefrankfurt.com,DM,ANIMA Sarl,A59,9.0,www.anima-peluches.com,,,,67150 Hipsheim 24 rue des Alisiers,France,,,,"Hansatronic : even more lifelike !

	Thanks to a highly effective electronic control system, these hyper-realistic Hansa..."
Ambiente,01/28/2022,2022,https://christmasworld.messefrankfurt.com,DM,Antique House,D80,12.1,,mail@antiquehouse.in,0091 8077362982,,"244001 Moradabad, Uttar Pradesh Near Manokamna Mandir, Barwalan",India,Christmas & Seasonal decoration | Florists' requisites & Garden decoration,,,Antique House...We design new products and invent new finishes every year..We have in house manufacturing unit including...
Ambiente,01/28/2022,2022,https://christmasworld.messefrankfurt.com,DM,Anva Handelsges.m.b.H.,D93,12.0,www.anva-gmbh.de,,,,81673 München Hohenburgstr. 17,Germany,,,,"Unser Unternehmen gibt es seit 25 Jahren (seit 1994 als ANVA Handelsges. mbH)
	 

	Wir vertreiben die 3 ältesten und traditionsreichsten..."
Ambiente,01/28/2022,2022,https://christmasworld.messefrankfurt.com,DM,Apotheker Hermann Zwetz R&auml;uchermittelherstellung GmbH,A60,12.0,www.knox.de,,,,01723 Mohorn Am Tharandter Wald 12,Germany,,,,"Apotheker Hermann Zwetz
	Räuchermittelherstellung GmbH
	
	Our company proudly looks back on its long tradition of craftsmanship..."
Ambiente,01/28/2022,2022,https://christmasworld.messefrankfurt.com,DM,Art Fondue,D83,12.1,www.artfondue.com,,,,"201307 Noida A-101, Sector-63",India,,,,Art Fondue is a Manufacturing & Export Company of Handicraft Products from India Establidshed since 1996. Rendering good...
Ambiente,01/28/2022,2022,https://christmasworld.messefrankfurt.com,DM,Aryan Worldwide,C86,12.1,www.aryanworldwide.com,,,,"110062 New Delhi 530, Bandh Road, Deoli Near",India,,,,
Ambiente,01/28/2022,2022,https://christmasworld.messefrankfurt.com,DM,A.S.E.I Agir Soigner Eduquer Ins&eacute;re Centre Caramantis,C96,9.0,www.centrecaramantis.asei.asso.fr,,,,31520 Ramonville St. Agne 4 avenue de l'Europe,France,,,,"ARY France, 50 years of History

	ARY France was created in 1970 after 3 entrepreneurs : André, René and Yves met with very..."
Ambiente,01/28/2022,2022,https://christmasworld.messefrankfurt.com,DM,A.S. Exclusiv R&uuml;diger Rom,A67,8.0,www.heissklebepistole.de,,,,50674 Köln Gabelsbergerstr. 31,Germany,,,,Das Unternehmen  Gegründet:1985 Branche: Herstellung und Vertrieb von Klebstoffauftragsgeräten und Schmelzklebstoffe Über...
Ambiente,01/28/2022,2022,https://christmasworld.messefrankfurt.com,DM,ATB CREATION,D74,9.0,www.atbcreation.fr,commercial@atbcreation.fr,+33 2 32 35 76 43,,"27930 Gauville-la-Campagne Rue de Branville, Zone Commerciale 905",France,Christmas & Seasonal decoration | Visual Merchandising & Light,,,"ATB Création is a French company specialized in production, rent & sale of animated figures decorating shop windows as well..."
Ambiente,01/28/2022,2022,https://christmasworld.messefrankfurt.com,DM,Eleni Athanasiadou,A24,12.0,,,,,63069 Offenbach Carl von Ossietzky Weg 8,Germany,,,,
Ambiente,01/28/2022,2022,https://christmasworld.messefrankfurt.com,DM,AVA Papier NV,A73,8.0,www.ava.be,,,,9140 Temse Kapelanielaan 6,Belgium,Christmas & Seasonal decoration,,,"AVA, your table dressing specialist

	AVA is the specialist par excellence when it comes to developing and producing table..."
Ambiente,01/28/2022,2022,https://christmasworld.messefrankfurt.com,DM,Baden-GmbH,B50,12.0,www.baden-collection.de,,,,27383 Scheeßel Westerveseder Landstr. 13,Germany,,,,Baden GmbH - Import
Ambiente,01/28/2022,2022,https://christmasworld.messefrankfurt.com,DM,EURL BAUBELS,D27,11.0,www.baubels.com,,,,44100 Nantes Rue Maurice Terrien 32,France,,,,
Ambiente,01/28/2022,2022,https://christmasworld.messefrankfurt.com,DM,Bayernwald KG,D52,12.0,www.bayernwald.com,markus.kiekbusch@bayernwald.com,09901-18 159,,94491 Hengersberg Schwanenkirchner Str. 28,Germany,Christmas & Seasonal decoration,,,"Since 1923, Bayernwald has been dedicated to produce fruit wines, mulled wines and juices. In addition to the love of fruit..."
Ambiente,01/28/2022,2022,https://christmasworld.messefrankfurt.com,DM,Beauty Service International GmbH,E15,8.0,www.bs-int.de,,,,58313 Herdecke Mühlenstr. 7,Germany,,,,"Beauty Service International, a cosmetics distribution company based in Germany.

	Product range included full assortment..."
Ambiente,01/28/2022,2022,https://christmasworld.messefrankfurt.com,DM,Belenes Puig S.L.,C40,12.0,www.belenespuig.com,sales@belenespuig.com,0034937713805,,"08635 Sant Esteve de Sesrovires C/ Ricardo de la Cierva, 43",Spain,Christmas & Seasonal decoration,,,"Belenes Puig S.L. is a company created in 1933 by Jose Puig Llobera. Today, the company has already entered the third generation..."
Ambiente,01/28/2022,2022,https://christmasworld.messefrankfurt.com,DM,Belief Handicrafts,D86,12.1,www.belief-handicrafts.com,sartaj@belief-handicrafts.com,+91 7838698162,,201102 Ghaziabad UP B-20 Sector B-2 Tronica City,India,Christmas & Seasonal decoration,,,Belief Handicrafts is a company of the people who are perfect craftsmen and genuine manufactures and supplier of all the handicrafts...
Ambiente,01/28/2022,2022,https://christmasworld.messefrankfurt.com,DM,Bell&acute; Arte Thomas Gr&ouml;ner,B54,12.0,www.bell-arte.eu,info@bell-arte.eu,0714380680,,74369 Löchgau Besigheimer Str. 1,Germany,Christmas & Seasonal decoration,,,"Sehr geehrte Kundin,
	sehr geehrter Kunde,
	
	herzlich willkommen.
	Entdecken Sie mit unseren ""elements of lifestyle"" die..."
Ambiente,01/28/2022,2022,https://christmasworld.messefrankfurt.com,DM,Bertoni s.r.l.,C27,12.0,,loris.bertoni@bertonipresepi.it,+39 059 250 449,,41122 Modena Via Don Milani 44,Italy,Christmas & Seasonal decoration,,,"Since 1950 Bertoni's company, produce Christmas cribs, Nativity huts and accessories. We care quality, assortments and great..."
Ambiente,01/28/2022,2022,https://christmasworld.messefrankfurt.com,DM,Bethlehem Star Olive Wood Factory,E78,12.0,www.olivewoodfactory.net,,,,90915 Bethlehem Bethlehem Old Caritas Hospital Street 02-2764656,Palestine,,,,Bethlehem Star Olive Wood Factory isspecialized in hand carved olive wood ornaments and religious items and is one of the largest...
Ambiente,01/28/2022,2022,https://christmasworld.messefrankfurt.com,DM,Bettin Handelsgesellschaft mbH &amp; Co. KG,E61,8.0,www.bettin.com,,,,15834 Rangsdorf Birkenweg 5,Germany,,,,
Ambiente,01/28/2022,2022,https://christmasworld.messefrankfurt.com,DM,BigDecor,A76,9.0,https://bigdecor.ru/,,,,117556 Moscow Simferopolsky bulvar 3,Russia,,,,"BigDecor is a Russian manufacturer of decorations for the professional decoration of shopping centers, cities, streets, parks..."
Ambiente,01/28/2022,2022,https://christmasworld.messefrankfurt.com,DM,BKG Overseas,E99,12.1,www.bkgoverseasglass.com,,,,"283203 Firozabad (U.P.) BKG House Himanyupur, Behind C.L.",India,,,,"BKG Overseas” is a leading Manufacturer, Supplier & Exporter of Glass Handicrafts, Marble/Stone/Slate/Alabaster Handicrafts..."
Ambiente,01/28/2022,2022,https://christmasworld.messefrankfurt.com,DM,Blachere Illumination S.A.S.,A90,9.0,www.blachere-illumination.com,b.nguyen@blachere-illumination.com,0490747323,,"84400 Apt LES Bourguignons, 315 Av. des",France,Visual Merchandising & Light,,,We think that illuminations bring light to much more than urban areas and living spaces:We believe in their power to amaze...
Ambiente,01/28/2022,2022,https://christmasworld.messefrankfurt.com,DM,Blaschek Import GmbH,B47,12.0,www.blaschek.at,,,,2640 Gloggnitz Neusiedlerstraße 44,Austria,,,,
Ambiente,01/28/2022,2022,https://christmasworld.messefrankfurt.com,DM,B Living BV Blyco Textile Group Hakbijl glass,F70,8.0,,b.koehorst@b-living.eu,,,7554 NB Hengelo Platinastraat 100,Netherlands,Christmas & Seasonal decoration | Florists' requisites & Garden decoration,,,"B Living, one of the largest in home accessories and home decoration. Among other things, we offer unique glassware and trendy..."
Ambiente,01/28/2022,2022,https://christmasworld.messefrankfurt.com,DM,Chr. Bollweg e.K.,C71,12.0,www.formano.de,,,,33397 Rietberg Markenstr. 130,Germany,Christmas & Seasonal decoration,,,Behind the specialist retail brand formano stands the long established company Chr. Bollweg e.K. from Rietberg in Westphalia...
Ambiente,01/28/2022,2022,https://christmasworld.messefrankfurt.com,DM,BOLTZE GRUPPE GmbH,H80,8.0,www.boltze.com,verkauf@boltze.de,+49 (0)40 328079-0,,22145 Braak Alte Landstr. 42,Germany,Christmas & Seasonal decoration,,,With love and passion - BOLTZE for successful retailingBOLTZE has been known as a reliable and competent importer for home...
Ambiente,01/28/2022,2022,https://christmasworld.messefrankfurt.com,DM,Breitner GmbH Kunstgewerbe,B25,12.0,www.breitner-kunstgewerbe.de,kkaeppel@breitner-kunstgewerbe.de,+4984412094,,85276 Pfaffenhofen a.d.Ilm Raiffeisenstr. 30,Germany,Christmas & Seasonal decoration,,,The company Breitner GmbH Arts and Crafts was founded in 1976. The assortment focuses on the import of Christmas and Easter...
Ambiente,01/28/2022,2022,https://christmasworld.messefrankfurt.com,DM,Briefing Home Collections,B95,11.0,www.briefinghome.ch,fischer@briefinghome.ch,+41 21 624 12 50,,1400 Yverdon-les-Bains Rue du Levant 4b,Switzerland,Christmas & Seasonal decoration,,,Briefing - Home Collections was founded in 1997 in Switzerland. We are a design and wholesale company specialising in interior...
Ambiente,01/28/2022,2022,https://christmasworld.messefrankfurt.com,DM,V.O.F. Gerrit Brinkman Bloemen- en Plantenhandel,F35,8.0,www.brinkman-nordman.nl,,,,7345 AL Wenum Zwolseweg 388,Netherlands,,,,"New 2020: Quicktreestand® own design and system Christmas tree standard for drilled trees, Christmas tree popup skirt® FOR-FESTIVE..."
Ambiente,01/28/2022,2022,https://christmasworld.messefrankfurt.com,DM,Bukowski Design AB,D68,12.0,www.bukowski.se,,,,142 50 Skogas Speditionsvägen 34,Sweden,Christmas & Seasonal decoration,,,"Welcome and thank you for visiting!We are a family-run company that designs, produces, and distributes various sorts of teddy..."
Ambiente,01/28/2022,2022,https://christmasworld.messefrankfurt.com,DM,Canpol Bis Sp. z o.o.,A91,8.0,www.canpolbis.pl,,,,85-738 Bydgoszcz Karola Szajnochy 14,Poland,Visual Merchandising & Light | Candles & Fragrances,,,"Canpol Bis is a Polish manufacturer of candlesticks, an importer of lighting decorations and lampshades.We have a wide collection..."
Ambiente,01/28/2022,2022,https://christmasworld.messefrankfurt.com,DM,"Casa Bonita, Inhaber Hidir Sertkaya",A84,12.0,www.casa-bonita.eu,,,,28279 Bremen Anna-Seghers-Str. 86,Germany,,,,Die Kunst der Farb- und Formgestaltung.Fusing ist das Verschmelzen von Glas verschiedener Farben und Formen.Dabei entstehen...
Ambiente,01/28/2022,2022,https://christmasworld.messefrankfurt.com,DM,C&amp;C Handels- und Organisationsgesellschaft mbH,B99,12.1,,,,,44625 Herne Allensteiner Weg 20,Germany,,,,
Ambiente,01/28/2022,2022,https://christmasworld.messefrankfurt.com,DM,Cepewa GmbH,E31,12.0,www.cepewa.de,,,,61184 Karben Max-Planck-Str. 10a,Germany,,,,
Ambiente,01/28/2022,2022,https://christmasworld.messefrankfurt.com,DM,Cereria Introna SRL,A60,8.0,www.cereriaintrona.it,vincenzo.introna@cereriaintrona.it,,,70032 Bitonto BA S.P. 231 - KM.3,Italy,,,,"The Introna Wax company has been working in the world of wax since 1840, our company is being led by the brothers Vincenzo..."
Ambiente,01/28/2022,2022,https://christmasworld.messefrankfurt.com,DM,CHE Regali GmbH,D69,12.0,www.suedtirolart.com,info@cheregali.com,0039 0471 796900,,39040 Lajen Gewerbezone Pontives 14,Italy,Christmas & Seasonal decoration,,,"Established for 25 years, we continue the wood carving tradition and produce with enthusiasm further.

	We produce our..."
Ambiente,01/28/2022,2022,https://christmasworld.messefrankfurt.com,DM,I.I. Chirita Ruslan,A26,12.0,,garduridinlemn1@gmail.com,,,3541 Orhei Maria Cibotaru 4,Moldova,Christmas & Seasonal decoration | Florists' requisites & Garden decoration,,,"I.I """"Chirita Ruslan"" is an enterprise which produce a large assortment of wood products for local market, such as: wooden..."
Ambiente,01/28/2022,2022,https://christmasworld.messefrankfurt.com,DM,"Mr. Christmas, Inc.",A76,12.0,,,,,10010 New York 41 Madison Ave 2104,United States,,,,"For over 85 years, Mr. Christmas has been an industry leader in creating, designing and marketing innovative mechanical..."
Ambiente,01/28/2022,2022,https://christmasworld.messefrankfurt.com,DM,Christmas Company LLC,D27,9.0,,,,,"02160 Kyiv Bud. 7-A of. 301, pr. Sobornosti",Ukraine,,,,
Ambiente,01/28/2022,2022,https://christmasworld.messefrankfurt.com,DM,Christmas Inspirations B.V.,C21,12.0,www.christmasinspirations.nl,michel@christmasinspirations.nl,,,1948 NP Beverwijk Havenstraat 1,Netherlands,Christmas & Seasonal decoration,,,Christmas Inspirations was founded in 2008 as the exclusive B2B supplier of the Kurt S. Adler brand in Europe. Our products...
Ambiente,01/28/2022,2022,https://christmasworld.messefrankfurt.com,DM,Cidex A/S,C45,8.0,www.cidex.dk,ll@cidex.dk,+45 44681111,,2765 Smørum Hassellunden 12,Denmark,Candles & Fragrances,,,"The story of Cidex In 1993, Cidex made its first rustic candles in rented premises in Farum, Denmark. Things developed quickly..."
Ambiente,01/28/2022,2022,https://christmasworld.messefrankfurt.com,DM,CLAREX Jasik Magdalena,D31,9.0,www.clarex.pl,CLAREX@CHOINKISZTUCZNE.COM,,,"42-350 Koziegłowy Ul. Szkolna 5, Stara Huta",Poland,Christmas & Seasonal decoration | Florists' requisites & Garden decoration,,,"CLAREXClarex company was established in 2015. Currently, it covers an area of ​​700 m2. It has a large machine park with 30..."
Ambiente,01/28/2022,2022,https://christmasworld.messefrankfurt.com,DM,Clayrton&acute;s SAS,C76,8.0,www.clayrtons.com,,,,"59100 Roubaix Cedex 1 41, rue Saint Antoine",France,,,,"Clayrton’s is a designer, manufacturer, distributor of wrapping paper, packaging and accessories for florists, as well..."
Ambiente,01/28/2022,2022,https://christmasworld.messefrankfurt.com,DM,Coen Bakker Deco BV,E41,12.0,www.coenbakker.nl,,,,1738 DK Waarland Smeetsweg 4,Netherlands,Christmas & Seasonal decoration | Visual Merchandising & Light,,,
Ambiente,01/28/2022,2022,https://christmasworld.messefrankfurt.com,DM,CONCORD Import- und Exportgesellschaft m.b.H.,C50,12.0,www.concord-gmbh.com,natalie.bauer@concord-gmbh.com,0208 53700,,45478 Mülheim an der Ruhr Gewerbeallee 6-8,Germany,Christmas & Seasonal decoration,,,Die Concord Import- und Exportgesellschaft mbH wurde 1984 in Mülheim an der Ruhr als Familienbetrieb mit dem Hauptzweck des...
Ambiente,01/28/2022,2022,https://christmasworld.messefrankfurt.com,DM,Creation Group A/S,A56,9.0,www.creationgroup.eu,,,,4100 Ringsted Fluebaeksvej 190,Denmark,,,,Création Group has for 50 years been a world leader in manufacturing of animatronic Christmas figures for display purposes...
Ambiente,01/28/2022,2022,https://christmasworld.messefrankfurt.com,DM,Creative International Exports,C85,12.1,,,,,"247121 Town Behat, Uttar Pradesh Opposite Corporation Bank, near Bus",India,,,,
Ambiente,01/28/2022,2022,https://christmasworld.messefrankfurt.com,DM,"Yancheng Creative Trading Group Co., Ltd.",C81,12.1,https://www.yiquanglassware.cn,gudian@yiquanglassware.com,86-0515-68559886,,"224000 Yancheng, Jiangsu Room no.5008-5013 ,North building of Yancheng International Investment Venture Center  No.5 Renmin south road,",China,Christmas & Seasonal decoration,,,"Yancheng Creative Trading Group Co., Ltd. is a professional manufacturer and exporter starting since 1996.  In 2019,output..."
Ambiente,01/28/2022,2022,https://christmasworld.messefrankfurt.com,DM,Crottendorfer R&auml;ucherkerzen GmbH,D39,12.0,www.crottendorfer-raeucherkerzen.de,r.schollbach@crottendorfer.de,037344 7234,,09474 Crottendorf Am Gewerbegebiet 11,Germany,Christmas & Seasonal decoration,,,History of the company Crottendorfer Räucherkerzen GmbH 1936 Company founded by Freya Graupner in Crottendorf Production...
Ambiente,01/28/2022,2022,https://christmasworld.messefrankfurt.com,DM,CRYSTAL WORLD EXIM,C93,12.1,,,,,"201010 Ghaziabad Neelpadam Kunj, Vaishali, Sector-1 C-302",India,,,,
Ambiente,01/28/2022,2022,https://christmasworld.messefrankfurt.com,DM,C.V. Cristal di Vittorio Valerio &amp; C.,C50,8.0,,,,,81030 Orta di Atella CE Via Giacinto Facchetti SNC,Italy,Christmas & Seasonal decoration | Candles & Fragrances,,,Welcome to the world of CV CRISTAL CV CRISTAL is on the worldwide market since 20 years. Our production is based on the decoration...
Ambiente,01/28/2022,2022,https://christmasworld.messefrankfurt.com,DM,DAGMARA Sp. z o.o.,A55,11.0,www.dagmara.pl,,,,38200 Jaslo Wyspianskiego Str. 22,Poland,Christmas & Seasonal decoration,,,"The company Dagmara is an experienced and talented specialist in the production of glass, 100% hand-decorated Christmas..."
Ambiente,01/28/2022,2022,https://christmasworld.messefrankfurt.com,DM,Decostar B.V.,J50,8.0,www.decostar.nl,info@decostar.nl,+31 (0)55 540 30 24,,7333 NZ Apeldoorn Nagelpoelweg 35,Netherlands,Christmas & Seasonal decoration | Visual Merchandising & Light | Florists' requisites & Garden decoration,,,"DecostarSuccessful business deals. Solid collaboration. Strong in service.Since 2002, we have been providing our international..."
Ambiente,01/28/2022,2022,https://christmasworld.messefrankfurt.com,DM,DecoTrend GmbH,D33,12.0,www.decotrend-gmbh.de,,,,92637 Weiden Zur Drehscheibe 5,Germany,,,,
Ambiente,01/28/2022,2022,https://christmasworld.messefrankfurt.com,DM,DEIN Interdecor S.A.,J20,8.0,www.deininterdecor.com,,,,"08210 Barbera del Valles Passatge Arrahona, 4 - Nave 6",Spain,,,,
Ambiente,01/28/2022,2022,https://christmasworld.messefrankfurt.com,DM,"Dekokraft, Inc.",A98B,12.1,www.dekokraft.com,,,,"1600 Pasig City No. 615 Lot 2C Jenny's Ave., cor. F.",Philippines,Christmas & Seasonal decoration,,,
Ambiente,01/28/2022,2022,https://christmasworld.messefrankfurt.com,DM,Deluxehomeart ApS,C80,8.0,www.deluxehomeart.com,,,,6000 Kolding Niels Bohrs Vej 12A th 12a th,Denmark,,,,
Ambiente,01/28/2022,2022,https://christmasworld.messefrankfurt.com,DM,Design Impex,D94,12.1,www.castironfactory.com,designimpex1@gmail.com,+91-591-3550934,,"244001 Moradabad Shamsi House, Tavela Street, Near 116",India,Christmas & Seasonal decoration,,,"We are the well-known Manufacturer & Exporter of Iron, Aluminium, Steel and Brass Handicraft products since 2003 by the name..."
Ambiente,01/28/2022,2022,https://christmasworld.messefrankfurt.com,DM,DEUR oHG,E60,12.0,,,,,39047 St.Christina Str. Chemun 38,Italy,Christmas & Seasonal decoration,,,The name of the Demetz – DEUR family is synonymous with the arts and crafts since generations. With its high-quality products...
Ambiente,01/28/2022,2022,https://christmasworld.messefrankfurt.com,DM,Devchakra Export Pvt. Ltd.,D81A,12.1,www.devchakraexports.com,,,,44600 Kathmandu Chandragiri 117,Nepal,,,,
Ambiente,01/28/2022,2022,https://christmasworld.messefrankfurt.com,DM,"DhG, d.o.o.",G90,8.0,www.designhomegroup.eu,info@dhgsoo.eu,,,6000 KOoper SERMIN 75 L,Slovenia,Christmas & Seasonal decoration,,,"DHG – Design Home Group – is a robust firm, built around a team of experts who have worked in this sector for over two..."
Ambiente,01/28/2022,2022,https://christmasworld.messefrankfurt.com,DM,Dijk Droogbloemen B.V. - Dijk Natural Collections,H54,8.0,www.dijknaturalcollections.nl,,,,7741 LD Coevorden Grutto 7,Netherlands,,,,With more than 25 years of experience Dijk Natural Collections is a reliable and innovative company in the market of inspiring...
Ambiente,01/28/2022,2022,https://christmasworld.messefrankfurt.com,DM,D+J International GmbH,H83,12.1,,djhomedanny@gmail.com,,,50169 Kerpen Hauptstr. 124,Germany,Christmas & Seasonal decoration | Candles & Fragrances,,,
Ambiente,01/28/2022,2022,https://christmasworld.messefrankfurt.com,DM,DPI GmbH,C10,11.0,www.dpi-online.de,,,,50321 Brühl Sürther Str. 174,Germany,Florists' requisites & Garden decoration,,,"Floral Fascination Make the most of artificial flowers and living accessories from DPI! We use high-quality materials, professional..."
Ambiente,01/28/2022,2022,https://christmasworld.messefrankfurt.com,DM,Dragimex Handels - AG,F40,8.0,www.dragimex.de,,,,22851 Norderstedt Hans-Böckler-Ring 25,Germany,Christmas & Seasonal decoration | Ribbons & Wrapping,,,
Ambiente,01/28/2022,2022,https://christmasworld.messefrankfurt.com,DM,Due Esse Christmas srl,B28,12.0,www.dueessechristmas.it,,,,"74015 Martina Franca Via Mottola Zona Industriale km. 2,200",Italy,Christmas & Seasonal decoration,,,"Style, colours, special features, effect are the result of taste and ability to choose.These elements characterize the vaste..."
Ambiente,01/28/2022,2022,https://christmasworld.messefrankfurt.com,DM,Duif&#39;s Florist Articels B.V.,H60,8.0,www.duif.nl,,,,1432 DK Aalsmeer Japanlaan 18,Netherlands,,,,"Since 1956, Duif International is an importer and wholesaler specialized in home, garden and seasonal decoration products..."
Ambiente,01/28/2022,2022,https://christmasworld.messefrankfurt.com,DM,DWM Deutsche Weihnachtssterne Manufaktur e. K.,A50,12.0,www.dwm-sterne.com,,,,97708 Bad Bocklet Amselweg 17,Germany,,,,
Ambiente,01/28/2022,2022,https://christmasworld.messefrankfurt.com,DM,Earthbags Export Pvt Ltd,E91,12.1,www.earthbags.com,,,,"700098 Kolkata Shilpangan, Unit 204, Block LB1",India,,,,"About Us

	
		In house Capacity- 3.6 Million Jute & Cotton Bags per year
	
		Socially and C-TPAT Compliant Unit
	
		Factory..."
Ambiente,01/28/2022,2022,https://christmasworld.messefrankfurt.com,DM,Eco Jute Pvt. Ltd.,B90,12.1,www.ecojuteindia.com,info@ecojuteindia.com,+91 33 22901540,,"700071 Kolkata 6 Little Russel Street, 6th Floor, Suite # 6, Kankaria Estate",India,Christmas & Seasonal decoration | Ribbons & Wrapping,,,Eco Jute Pvt Ltd. specializes in Manufacturing and Export of all kinds of Eco-Friendly Jute & Canvas bags and related Made...
Ambiente,01/28/2022,2022,https://christmasworld.messefrankfurt.com,DM,SRL ECO SAIDING,A70,9.0,,,,,"077190 Bucuresti, Voluntari Bulevardul Voluntari, Voluntari 111",Romania,Visual Merchandising & Light | Florists' requisites & Garden decoration,,,"Manufacturer of Christmas Trees in Republic of Moldova 

manufacturing of different type of decorations
artificial trees..."
Ambiente,01/28/2022,2022,https://christmasworld.messefrankfurt.com,DM,Edelman B.V.,J64,8.0,www.edelman.nl,,,,2811 PB Reeuwijk Schinkeldijk 56,Netherlands,Christmas & Seasonal decoration | Visual Merchandising & Light | Florists' requisites & Garden decoration,,,
Ambiente,01/28/2022,2022,https://christmasworld.messefrankfurt.com,DM,EDG s.r.l.,B30,11.0,www.edg.it,,,,30036 S. Maria di Sala Via Grandi 12,Italy,Christmas & Seasonal decoration | Florists' requisites & Garden decoration,,,"Our story began 40 years ago. During this time, EDG has been growing up with more decorative items, glassware and ceramics..."
Ambiente,01/28/2022,2022,https://christmasworld.messefrankfurt.com,DM,EFFECI SRL,A95,8.0,www.effeci-it.com,,,,20080 Ozzero Via Galvani Snc,Italy,Ribbons & Wrapping,,,
Ambiente,01/28/2022,2022,https://christmasworld.messefrankfurt.com,DM,Eglo Leuchten GmbH,D20,9.0,www.eglo.com,,,,6136 Pill Heiligkreuz 22,Austria,,,,
Ambiente,01/28/2022,2022,https://christmasworld.messefrankfurt.com,DM,Elegance Gifts &amp; Novelties Inc.,F99,12.1,,elegan2@ms31.hinet.net,+886 2-87920992,,"11494 Taipei 5F, No. 35, Lane 21, Sec. 6, Minquan E. Rd., Neihu Dist.",Taiwan,Christmas & Seasonal decoration,,,"Established in 1988, Taipei. We offer Christmas ornaments, home decor and gifts for global market. Factories in China and Taiwan..."
Ambiente,01/28/2022,2022,https://christmasworld.messefrankfurt.com,DM,Emerald Eternal Green B.V.,D90,8.0,www.eeg.nl,,,,5657 ES Eindhoven Jan Hilgersweg 14,Netherlands,Florists' requisites & Garden decoration,,,About usWe make the world a happier and more colourful place with artificial flowers and plants that look just like the real...
Ambiente,01/28/2022,2022,https://christmasworld.messefrankfurt.com,DM,Equinox Overseas,E95,12.1,www.equinoxoverseas.net,,,,"110048 New Delhi Greater Kailash, Part - 1 S 396",India,,,,Equinox Overseas was established in the year 1999 by its Proprietor Mr Pradeep Sethia who had a passion to create and offer...
Ambiente,01/28/2022,2022,https://christmasworld.messefrankfurt.com,DM,Erbolinea S.r.l.,E40,8.0,www.erbolinea.it,,,,71016 San Severo (FG) Via Checchia Rispoli 319/A,Italy,,,,
Ambiente,01/28/2022,2022,https://christmasworld.messefrankfurt.com,DM,Essert-Illuminationen Andreas Essert e.K.,C93,9.0,www.essert.de,andreas@essert.de,+4993719474201,,63928 Eichenbühl Etterweg 39,Germany,Visual Merchandising & Light,,,Professional LED-Illumination for the Christmas and Winter Season - Technical Planning - Production - TradeESSERT-Illuminationen...
Ambiente,01/28/2022,2022,https://christmasworld.messefrankfurt.com,DM,"Zhejiang  Eternal Home Decoration Co. , Ltd",H80,12.1,www.etdec.com,Sales1@etdec.com,86-579-85265277,,321000 Jinhua City Tai Er Mei Industry Park,China,Candles & Fragrances,,,"Zhejiang Eternal Home Decoration Co., Ltd. is located in jinhua of Zhejiang Province in China. We have a well trained R&D..."
Ambiente,01/28/2022,2022,https://christmasworld.messefrankfurt.com,DM,Euromarchi S.r.l.,E60,9.0,www.euromarchi.it,,,,55022 Bagni di Lucca (Lucca) via Letizia 45/c,Italy,,,,
Ambiente,01/28/2022,2022,https://christmasworld.messefrankfurt.com,DM,EuroSand GmbH,E31,8.0,www.eurosand.de,,,,92637 Weiden i.d. OPf. Pressather Str. 95,Germany,,,,The EuroSand GmbH is a creative company which quickly succeeded in establishing itself as market leader of its segment...
Ambiente,01/28/2022,2022,https://christmasworld.messefrankfurt.com,DM,Everest Fashion,A95,12.1,www.everestfashion.com,,,,"44600 Kathmandu Khumaltar Height, Lalitpur-15",Nepal,Christmas & Seasonal decoration,,,Everest Fashion is Manufacturer and exporter industry in Nepal. We make different type of woolen/felt decorative product...
Ambiente,01/28/2022,2022,https://christmasworld.messefrankfurt.com,DM,"Xiamen Ever Fly Industry and Trade Co., Ltd",A85,12.1,,atommy89@amy-industry.com,0086 592 5214355,,"361000 Xiamen Room 901, No.3, XiXi Shan Wei Road, Software Park, phase III, Jimei District",China,Christmas & Seasonal decoration,,,"Xiamen Ever Fly Industry & Trade Co., Ltd."
Ambiente,01/28/2022,2022,https://christmasworld.messefrankfurt.com,DM,Evergreen Home Decoration B.V.,A80,12.1,www.evergreen-deco.nl,,,,2548 ZT Den Haag Ko van Dijkplein 53,Netherlands,Christmas & Seasonal decoration,,,
Ambiente,01/28/2022,2022,https://christmasworld.messefrankfurt.com,DM,Exner GmbH,C30,8.0,www.exner-collection.de,,,,45659 Recklinghausen Am Stadion 63,Germany,,,,We are a reliable partner of the specialist retail trade for garden and home accessories. Our comprehensive range of around...
Ambiente,01/28/2022,2022,https://christmasworld.messefrankfurt.com,DM,Exotica Cor Mulder GmbH,B10,11.0,www.cormulder.com,,,,71665 Vaihingen an der Enz Reutwiesenstr. 45,Germany,Christmas & Seasonal decoration,,,Cor Mulder
Ambiente,01/28/2022,2022,https://christmasworld.messefrankfurt.com,DM,Fardan Srls,D79,12.0,,,,,41124 Modena MO Via Pietro Giardini 474/m,Italy,,,,
Ambiente,01/28/2022,2022,https://christmasworld.messefrankfurt.com,DM,Fem Poland SP. Z O.O.,C51,8.0,www.femcandles.com,,,,39-230 Brzostek Ul. 20 Czerwca 16,Poland,,,,"WHERE
	FEM was established near 50 years ago by Mr.Fernando Falsini in the heart of Tuscany, in Capraia Fiorentina (FI..."
Ambiente,01/28/2022,2022,https://christmasworld.messefrankfurt.com,DM,F-H-S International GmbH &amp; Co. KG,B51,9.0,www.fhs-international.de,,,,41238 Mönchengladbach An der Eickesmühle 34,Germany,Christmas & Seasonal decoration | Visual Merchandising & Light,,,"The company F-H-S International GmbH & Co. KG stands for professional service, innovative products and market leading articles..."
Ambiente,01/28/2022,2022,https://christmasworld.messefrankfurt.com,DM,Fiebiger Floristik GmbH Import-Export Gro&szlig;handel,F60,8.0,www.fiebiger.de,,,,86399 Bobingen Hoechster Str. 5,Germany,Florists' requisites & Garden decoration,,,YOUR IMPORTER FOR FLORISTRY AND DECORATIVE ITEMSAre you looking for exclusive artifical flowers and decorative items for the specialized...
Ambiente,01/28/2022,2022,https://christmasworld.messefrankfurt.com,DM,Filadil Exports,G85,12.1,www.filadil.com,,,,"110020 New Delhi D - 8/3, Okhla Industrial Area",India,,,,"From an humble beginning in 1993, today FILADIL has grown in both in stature and its standing in the market. The range..."
Ambiente,01/28/2022,2022,https://christmasworld.messefrankfurt.com,DM,Firma Decorations S.r.l.,E86,9.0,www.firmadecorations.com,,,,10151 Torino Via G.B. Feroggio 58,Italy,,,,
Ambiente,01/28/2022,2022,https://christmasworld.messefrankfurt.com,DM,Five Oaks International GmbH,A42,12.0,www.five-oaks-int.eu,info@five-oaks-int.eu,02821-793277,,47533 Kleve Weberstr. 16,Germany,Christmas & Seasonal decoration | Florists' requisites & Garden decoration,,,Five Oaks ist ein kleines Unternehmen in Kleve am Niederrhein – spezialisiert auf den Vertriebhochwertiger Dekorations- und...
Ambiente,01/28/2022,2022,https://christmasworld.messefrankfurt.com,DM,Fjord H&uuml;tten GmbH,A42,9.0,www.fjord-huetten.de,,,,25926 Bramstedtlund Bramstedtlunder Straße 7,Germany,Christmas & Seasonal decoration,,,Buy or rent market huts - with Fjord Hütten You are searching for attractive market huts to bring your market or event up...
Ambiente,01/28/2022,2022,https://christmasworld.messefrankfurt.com,DM,FLATYZ UAB,A35,8.0,www.flatyz.com,,,,52303 Kaunas Lygybés g. 21-86,Lithuania,,,,"FLATYZ UAB -produces decorative candles and creates innovative products for worldwide market

	Other assets:Know-how and patents..."
Ambiente,01/28/2022,2022,https://christmasworld.messefrankfurt.com,DM,Flor &amp; Decor Import GmbH,G60,8.0,www.florhh.de,,,,22869 Schenefeld Osterbrooksweg 61,Germany,Christmas & Seasonal decoration | Florists' requisites & Garden decoration,,,
Ambiente,01/28/2022,2022,https://christmasworld.messefrankfurt.com,DM,Fofin S.r.l.,A15,8.0,,,,,80035 Nola Cis Isola 1 Lotti 112,Italy,,,,
Ambiente,01/28/2022,2022,https://christmasworld.messefrankfurt.com,DM,FOP Kostelna Lesya,D65,8.0,www.limaso-shop.com,info@limaso.com.ua,+380676742021,,"81500 Horodok, Lviv region Pidhirya 90",Ukraine,Christmas & Seasonal decoration,,,Limaso company was founded in 2004 as shipping and logistics enterprise. In 2010 it started also working with textiles and since...
Ambiente,01/28/2022,2022,https://christmasworld.messefrankfurt.com,DM,Formes Berlin Nick R&uuml;besamen Henrike Mayer GbR,A76,11.0,www.formes-berlin.de,info@formes-berlin.com,0049 30 61626922,,10999 Berlin Oranienstr. 183,Germany,Christmas & Seasonal decoration,,,"We at formes Berlin design and produce gift articles made of especially high-quality materials, such as foldable wood, felt..."
Ambiente,01/28/2022,2022,https://christmasworld.messefrankfurt.com,DM,Form&acute;it Technologie Sarl,D71,12.0,www.formit-technologie.com,,,,68520 Burnhaupt-le-Haut 10 Rue du Ballon d'Alsace,France,,,,
Ambiente,01/28/2022,2022,https://christmasworld.messefrankfurt.com,DM,FOTODIASTASI - FDS ILLUMINATION,C50,9.0,www.fotodiastasi.com,,,,57011 Gefira - Thessaloniki 14th Km PEO Thessalonikis - Athinon,Greece,Christmas & Seasonal decoration | Visual Merchandising & Light | Florists' requisites & Garden decoration,,,
Ambiente,01/28/2022,2022,https://christmasworld.messefrankfurt.com,DM,France Ribbons SAS,A54,8.0,www.france-ribbons.com,commercial.export@france-ribbons.com,+33 3 29 30 87 32,,88220 Uzemain 1 Rue du Coney,France,Visual Merchandising & Light | Ribbons & Wrapping,,,"Born from the merger of Ammann-Sander and Toda, France Ribbons is a French company specialised in the manufacturing of packaging..."
Ambiente,01/28/2022,2022,https://christmasworld.messefrankfurt.com,DM,Heinr. Freese GmbH,D45,8.0,www.heinr-freese.de,,,,23714 Malente Lütjenburger Str. 107,Germany,,,,"Unsere Inspiration kommt direkt aus der Praxis. Wir wissen, nur wenn Preis, Qualität, Größe, Farbe und Verpackungseinheit..."
Ambiente,01/28/2022,2022,https://christmasworld.messefrankfurt.com,DM,Freude am Genuss GmbH,C45,12.0,www.gewuerz-glueck.com,info@gewuerz-glueck.com,+49 931 32095327,,97355 Wiesenbronn Hauptstraße 21,Germany,Christmas & Seasonal decoration,,,"About love, spices and being happyThe hundredth blind date and again he or she was quite nice, but for a second meeting it was not enough..."
Ambiente,01/28/2022,2022,https://christmasworld.messefrankfurt.com,DM,FW-Glas GmbH,D96,8.0,www.fwglas.com,,,,95233 Helmbrechts Feldweg 7,Germany,,,,
Ambiente,01/28/2022,2022,https://christmasworld.messefrankfurt.com,DM,Ganeshi Lal Jwala Prasad,E84,12.1,www.gljp-exports.com,,,,"244001 Moradabad Ganeshi Lal House, Katghar",India,,,,"Established in the year 1869, we are a five generation old firm, originally into manufacturing and sale of hand crafted..."
Ambiente,01/28/2022,2022,https://christmasworld.messefrankfurt.com,DM,Ganges Jute Private Ltd. The House of Ganges,E81,12.1,,,,,700071 Kolkata 33 A Jawaharlal Nehru Road,India,,,,
Ambiente,01/28/2022,2022,https://christmasworld.messefrankfurt.com,DM,Gasch GmbH,A41,8.0,www.gasch-baender.de,,,,42327 Wuppertal Deutscher Ring 85,Germany,,,,
Ambiente,01/28/2022,2022,https://christmasworld.messefrankfurt.com,DM,Gasper GmbH,B40,11.0,www.gasper.de,,,,51149 Köln Ettore-Bugatti Straße 51,Germany,,,,"""Immediately take on new market challenges""

	With this company philosophy, GASPER GmbH in Cologne can look back on over..."
Ambiente,01/28/2022,2022,https://christmasworld.messefrankfurt.com,DM,G-bork II ApS,A58,11.0,www.g-bork.dk,,,,5700 Svendborg Strandvej 34,Denmark,Christmas & Seasonal decoration,,,G-Bork ApS is a small danish company. We specialize in unique and different decorations to stand and hanging. All with a humorous...
Ambiente,01/28/2022,2022,https://christmasworld.messefrankfurt.com,DM,Kunstgewerbe Gehlmann e.K.,D30,11.0,www.kunstgewerbe-gehlmann.de,,,,48734 Reken Raiffeisenstr. 11,Germany,Christmas & Seasonal decoration,,,"Über uns
	
	Seit 1978 führen wir als Familie das Unternehmen Kunstgewerbe Gehlmann sehr erfolgreich. Persönliches Engagement..."
Ambiente,01/28/2022,2022,https://christmasworld.messefrankfurt.com,DM,&quot;Geliu sala&quot; UAB,J30,8.0,www.floristika.lt,greta@geliusala.com,,,53273 Teleiciu k. Zilviciu 16E,Lithuania,Florists' requisites & Garden decoration,,,"UAB ""Gėlių Sala""  is a wholesale company for artificial flowers and florist supplies started its activities in 1999.​During..."
Ambiente,01/28/2022,2022,https://christmasworld.messefrankfurt.com,DM,UAB Geralda,A64,8.0,www.geralda-candles.com,,,,97353 Kartena Kretingos St 43,Lithuania,,,,"Geralda manufactures candles and delivers its wholesale customers superior inventory turns in this FMCG product group.

	We..."
Ambiente,01/28/2022,2022,https://christmasworld.messefrankfurt.com,DM,Gift Company Geschenke Vertriebs GmbH,C95,11.0,www.gift-company.com,ml@gift-company.com,,,20251 Hamburg Christoph-Probst-Weg 3,Germany,Christmas & Seasonal decoration,,,"GIFTCOMPANY, based in Hamburg, is a company that stands for the colorful mix of creative and traditional design products..."
Ambiente,01/28/2022,2022,https://christmasworld.messefrankfurt.com,DM,GILDE HANDWERK Macrander GmbH &amp; Co. KG,C80,12.0,www.gildehandwerk.com,,,,46395 Bocholt Dingdener Str. 199,Germany,,,,"Welcome to the world of gifts and living from GILDE HANDWERK.
	For 60 years now, we have been specialized in the development..."
Ambiente,01/28/2022,2022,https://christmasworld.messefrankfurt.com,DM,GIMILOGULLARI Pazarlama Sanayi ve Ticaret A.S.,J40,8.0,www.gimilogullari.com,,,,"35640 Izmir 10038 Sok. No:12 AOSB, Cigli",Turkey,,,,
Ambiente,01/28/2022,2022,https://christmasworld.messefrankfurt.com,DM,Erzgebirgische Volkskunst Richard Gl&auml;sser GmbH,E80,12.0,www.glaesser-seiffen.de,,,,09548 Kurort Seiffen Hauptstr. 80,Germany,,,,"Herstellung und Verkauf von traditionellem erzgebirgischen Weihnachtsschmuck aus Holz aus dem Erzgebirge, wie:
	Pyramiden..."
Ambiente,01/28/2022,2022,https://christmasworld.messefrankfurt.com,DM,"Glasbl&auml;serei Th&uuml;ringer Weihnacht, Inh. Helmut Bartholmes",C44,12.0,www.glas-bartholmes.de,,,,98724 Neuhaus am Rennweg / OT Limbach Neumannsgrunder Str. 1,Germany,Christmas & Seasonal decoration,,,Manufacturer of handmade Christmas tree ornaments made of glass.
Ambiente,01/28/2022,2022,https://christmasworld.messefrankfurt.com,DM,Zaklad Szkiel Ozdobnych &acute;Glaspol&acute; Ireneusz Rychlewski,A19,9.0,www.glaspol.com.pl,slawek@glaspol.com.pl,0048343634476,,42-200 Czestochowa Al. Wojska Polskiego 96 A,Poland,Christmas & Seasonal decoration,,,"Welcome to the world of Glaspol where we offer over 3,000 different and unique glass-blown Christmas tree ornaments! Each..."
Ambiente,01/28/2022,2022,https://christmasworld.messefrankfurt.com,DM,Glassware Art Studio s.c.,B64,9.0,www.glasswareartstudio.com,,,,42-290 Blachownia Ul. Wojska Polskiego 9,Poland,,,,
Ambiente,01/28/2022,2022,https://christmasworld.messefrankfurt.com,DM,GlitterLab sp. z o.o. sp. kom.,E51,9.0,www.glitterlab.com,wanda@glitterlab.com,,,42-202 Czestochowa Zyzna 13 Lok. 4,Poland,Christmas & Seasonal decoration,,,"At GlitterLab, we specialize in the design and production of hand-blown glass ornaments.  We bring an innovative and edgy..."
Ambiente,01/28/2022,2022,https://christmasworld.messefrankfurt.com,DM,Global Dried Flowers,A91,12.1,,,,,"700017 Kolkata 31 Shakespeare Sarani, Suite # 301A",India,,,,Global Dried Flowers ; Engaged in exports of Dried Flowers and Pot Pourries from India since 1994. We offer high quality...
Ambiente,01/28/2022,2022,https://christmasworld.messefrankfurt.com,DM,Globall Concept SA,C10,9.0,www.globallconcept.com,ann.sikivie@globallconcept.com,+32(0) 67 55 02 04,,1400 Nivelles Rue Buisson aux Loups 7,Belgium,Visual Merchandising & Light,,,"Globall Concept, creators of festive decorations.We offer hundreds of original products for shopping malls, shopping districts..."
Ambiente,01/28/2022,2022,https://christmasworld.messefrankfurt.com,DM,Gloster Limited,A98,12.1,www.glosterjute.cm,,,,"700001 Kolkata 21, Strand Road",India,,,,
Ambiente,01/28/2022,2022,https://christmasworld.messefrankfurt.com,DM,GMC Limited Company Sp. z o.o.,C30,11.0,www.gmc.com.pl,,,,28-200 Staszow ul. Kosciuszki 2,Poland,Christmas & Seasonal decoration | Candles & Fragrances,,,GMC Sp. z o.o. is a Polish company.It was established in 1995.We produce hand-decorated Christmas ornaments made of glass.We...
Ambiente,01/28/2022,2022,https://christmasworld.messefrankfurt.com,DM,Goods by Goedegebuure BV,F20,8.0,www.goods-by.nl,daisy@goods-by.nl,+31 6 5130 4554,,1430 BL Aalsmeer Postbus 1483,Netherlands,Christmas & Seasonal decoration | Florists' requisites & Garden decoration,,,Goods by Goedegebuure is an importer of original and contemporary home accessories. Specialist in clocks and dried flowers...
Ambiente,01/28/2022,2022,https://christmasworld.messefrankfurt.com,DM,Goldbach Geschenkartikel GmbH,B40,12.0,www.goldbach-geschenkartikel.de,,,,59846 Sundern (Sauerland) Am Lindhövel 23,Germany,Christmas & Seasonal decoration,,,"The company GOLDBACH Geschenkartikel GmbH in Sundern/Sauerland, Germany consists since 1959.
	
		annaully about 2.000 new..."
Ambiente,01/28/2022,2022,https://christmasworld.messefrankfurt.com,DM,GOLDINA Loy GmbH &amp; Co. KG,C90,8.0,www.goldina.de,,,,86899 Landsberg am Lech Justus-von-Liebig-Str. 13,Germany,,,,"Goldina Loy Gmbh + Co. KG is innovatve traditional company situated in Landsberg am Lech.
	Own production plant including..."
Ambiente,01/28/2022,2022,https://christmasworld.messefrankfurt.com,DM,Good old friends GmbH,C71,11.0,www.good-old-friends.com,,,,53721 Siegburg Am Turm 13,Germany,Christmas & Seasonal decoration,,,"Good old friends - the design handcrafter. The core of the brand is the product, which is designed with attention to detail..."
Ambiente,01/28/2022,2022,https://christmasworld.messefrankfurt.com,DM,Goodwill M &amp; G BV,C70,11.0,www.goodwill.be,welcome@goodwill.be,,,2550 Kontich Veldkant 6,Belgium,Christmas & Seasonal decoration,,,An established company of 35 years’ experience with a showroom of 1200 m2 presenting a vast and varied range of seasonal...
Ambiente,01/28/2022,2022,https://christmasworld.messefrankfurt.com,DM,"G &amp; P Crear Labels 2020, S.L.",A66,8.0,www.gpcrear.com,,,,08850 Gava Lleida 13,Spain,,,,"GP&CREAR is a dynamic and fast-moving company, specializing in the manufacture of self-adhesive labels, cardboard tags..."
Ambiente,01/28/2022,2022,https://christmasworld.messefrankfurt.com,DM,GRAFUS UAB,D92,8.0,www.candlefamily.eu,martynasnicius@gmail.com,,,85328 Akmenes r. sav. Bausko g. 12-5,Lithuania,Candles & Fragrances,,,"We are the producers of natural palm and soy wax, scented and odorless candles, home scents and car scents. We started..."
Ambiente,01/28/2022,2022,https://christmasworld.messefrankfurt.com,DM,Graupner Holzminiaturen Inh.: Kordula Graupner,D95,12.0,www.holzminiaturen.de,,,,09474 Crottendorf Annaberger Str. 183,Germany,Christmas & Seasonal decoration,,,"Design and old traditions in a unique union - Miniatures from Crottendorf in the Erzgebirge mountains

	As a small craft..."
Ambiente,01/28/2022,2022,https://christmasworld.messefrankfurt.com,DM,Graziani S.r.l.,C41,8.0,www.graziani.net,liuni@graziani.net,+39 0586 421 421,,57127 Livorno Via Don Angeli 2,Italy,Candles & Fragrances,,,Graziani is a family business that has been making candles since 1805. When Abramo Graziani founded the company he couldn't...
Ambiente,01/28/2022,2022,https://christmasworld.messefrankfurt.com,DM,Greiner-Perth Glaskunst Inh. Detlef Greiner-Perth,A50,12.0,www.greiner-perth.de,,,,78239 Rielasingen Schnaidholzstraße 10,Germany,,,,
Ambiente,01/28/2022,2022,https://christmasworld.messefrankfurt.com,DM,Creation Gross Inhaber Markus Gross,B45,12.0,www.creation-gross.de,info@creation-gross.de,0682592547110,,66557 Illingen Eseiterstraße 13,Germany,Christmas & Seasonal decoration,,,Das Unternehmen Creation Gross wurde 1994 von dem Wirtschaftsingenieur Markus Groß gegründet.Anfänglich wurde mit kleineren...
Ambiente,01/28/2022,2022,https://christmasworld.messefrankfurt.com,DM,Wohnmanufactur Gr&uuml;nberger S.r.o.,B70,11.0,www.wohnmanufactur.com,,,,33023 Nyrany/Pilsen Úherce 60,Czech Republic,Christmas & Seasonal decoration,,,
Ambiente,01/28/2022,2022,https://christmasworld.messefrankfurt.com,DM,Gubo Schmuck GmbH,A90,12.0,www.gubonet.de,,,,87600 Kaufbeuren Am Riederloh 7,Germany,Christmas & Seasonal decoration,,,"Fashionjewellery production since 1953 in germany. Handmade christmas brooches with christmas trees, angel, stars also earrings..."
Ambiente,01/28/2022,2022,https://christmasworld.messefrankfurt.com,DM,Van der Gucht Pottery and Bamboo NV,G11,8.0,www.vdg.be,,,,9140 Temse Eurolaan 4,Belgium,,,,
Ambiente,01/28/2022,2022,https://christmasworld.messefrankfurt.com,DM,H&auml;dicke GmbH &amp; Co. KG,C57,12.0,,,,,58675 Hemer An der Schleuse 14,Germany,,,,About 30 years ago we were one of the first companies to start the production of scented candles. By constantly working...
Ambiente,01/28/2022,2022,https://christmasworld.messefrankfurt.com,DM,Hanco Handels Ges.m.b.H.,D28,12.0,www.hanco.at,,,,1040 Wien Lambrechtgasse 16/3,Austria,Christmas & Seasonal decoration,,,
Ambiente,01/28/2022,2022,https://christmasworld.messefrankfurt.com,DM,HanSen Ovis GmbH,A70,8.0,www.hansen.at,seha@hansen.at,06217 20210,,5164 Seeham Kälberpoint 49,Austria,Candles & Fragrances,,,We are a wholesale company in the district Salzburg with a focus on our brand Ovis sheep milk products (Latin ovis = the sheep...
Ambiente,01/28/2022,2022,https://christmasworld.messefrankfurt.com,DM,Harvesttime AB,D31,11.0,www.harvesttime.se,,,,411 02 Göteborg Folkungagatan 7,Sweden,Christmas & Seasonal decoration,,,"Gothenburg based designfirm Harvesttime AB was founded in spring 2000 by Anders Bjarne, who also started Nääsgränsgården..."
Ambiente,01/28/2022,2022,https://christmasworld.messefrankfurt.com,DM,HATS Handelsgesellschaft mbH,E70,12.0,www.hatshats.de,g.howitz@hatshats.de,0337851823999,,14974 Ludwigsfelde Unter den Eichen 4,Germany,Christmas & Seasonal decoration,,,"HATS Handelsgesellschaft mbH is an international wholesale company for fashion accessories.

	HATS is aimed at resellers..."
Ambiente,01/28/2022,2022,https://christmasworld.messefrankfurt.com,DM,"Haushalt-International, Im- und Export GmbH",B70,12.0,https://www.haushalt-international.de,,,,26135 Oldenburg Gerhard-Stalling-Straße 9-11,Germany,Christmas & Seasonal decoration | Visual Merchandising & Light | Florists' requisites & Garden decoration,,,In the area of household and seasonal goods Haushalt International Im- and Export GmbH is one of the leading importers...
Ambiente,01/28/2022,2022,https://christmasworld.messefrankfurt.com,DM,Heembloemex Deco B.V.,E50,8.0,www.hbxdeco.com,,,,2231 BZ Rijnsburg Laan van Verhof 43,Netherlands,,,,"At HBX, we like to show off with feathers, baskets, wreaths, branches and vases. We select unique decoration and home accessories..."
Ambiente,01/28/2022,2022,https://christmasworld.messefrankfurt.com,DM,"Xiamen Helichuang Import and Export Co. , Ltd.",C99,12.1,,jeffli@vip.163.com,0086 592 5572282,,"3610006 Xiamen Unit 505, 5th Floor, No. 265, Lingxiaxi Road Huli District",China,Christmas & Seasonal decoration,,,
Ambiente,01/28/2022,2022,https://christmasworld.messefrankfurt.com,DM,HELLMANN-VERSAND GmbH,A98,12.0,,,,,91056 Erlangen Kriegenbrunner Strasse 50,Germany,Christmas & Seasonal decoration | Candles & Fragrances,,,"We are a German company based in Bavaria, employing about 25 people in the head quarter, with a nearly 10000 m² warehouse..."
Ambiente,01/28/2022,2022,https://christmasworld.messefrankfurt.com,DM,Hemsson BV,D55,11.0,www.hemsson.nl,,,,7609 RX Almelo Pastoor Ossestraat 61,Netherlands,Florists' requisites & Garden decoration,,,"Hemsson BV is established in 2006, when we started with the Fairybell® collection.Beside Fairybell® which still remains a solid..."
Ambiente,01/28/2022,2022,https://christmasworld.messefrankfurt.com,DM,HIT Trading B.V.,D60,12.0,www.hit-trading.com,,,,8218 NK Lelystad Larserpoortweg 10,Netherlands,Visual Merchandising & Light,,,"HIT Trading has existed for over 100 years, so we have a good market knowledge and extensive experience in buying in the Far..."
Ambiente,01/28/2022,2022,https://christmasworld.messefrankfurt.com,DM,Hoff-Interieur GmbH &amp; Co. KG,B88,12.0,www.hoff-interieur.de,ludwig@hoff-interieur.de,0911 930600,,90427 Nürnberg Wetzlarer Str. 26,Germany,Christmas & Seasonal decoration,,,
Ambiente,01/28/2022,2022,https://christmasworld.messefrankfurt.com,DM,Hogewoning B.V.,H50,8.0,www.hogewoning.com,John@hogewoning.com,0031 (0)6 212 80 164,,2231 NT Rijnsburg Vinkenweg 50,Netherlands,Florists' requisites & Garden decoration,,,Wholesaler of home accessories. Importer of home decorations. Supplier for the mass market. A family company.Hogewoning has...
Ambiente,01/28/2022,2022,https://christmasworld.messefrankfurt.com,DM,PE Holik Yuliia,E76,12.0,www.bellezza.glass,annagolik2606@gmail.com,,,65096 Odessa Academic Korolova st. 75/1,Ukraine,Christmas & Seasonal decoration,,,"""BellezzaGlass"" is art workshop founded 2010 in Odessa, Ukraine.  We are creating unique Christmas tree decorations and ornaments..."
Ambiente,01/28/2022,2022,https://christmasworld.messefrankfurt.com,DM,"Holy Jordan Water - Olive Wood World Co., Ltd.",E36,12.0,www.hjw.co.il,,,,4955602 Petah-Tikva 2 Weitzman Street,Israel,,,,"Holy Jordan Water – Olive wood world Co., Ltd.
	
	 …is a leading specialist, manufacturer and worldwide distributor, well..."
Ambiente,01/28/2022,2022,https://christmasworld.messefrankfurt.com,DM,House of Rustic ApS,A50,8.0,www.houseofrustic.com,,,,6000 Kolding Birkemose Allé 39,Denmark,Candles & Fragrances,,,"We are a Danish owned producer of high quality candles. 
More than that - we are a truly passionate team that takes every..."
Ambiente,01/28/2022,2022,https://christmasworld.messefrankfurt.com,DM,H &amp; R GmbH,A81,8.0,www.the-wire-man.com,,,,58636 Iserlohn Osemundstr. 4,Germany,Florists' requisites & Garden decoration,,,H&R – the wire man. We have been a family business for decades.Our products have been developed steadily in our effort to adapt...
Ambiente,01/28/2022,2022,https://christmasworld.messefrankfurt.com,DM,"Taizhou Huangyan Xuyin Import &amp; Export Co.,LTD.",H90,12.1,www.chinaxuyin.com,,,,318020 Taizhou Junyue Huating,China,,,,"Taizhou Huangyan Xuyin Import & Export Co.,Ltd. was established in August 2008. We are dedicated in Festival gifts and Decoration..."
Ambiente,01/28/2022,2022,https://christmasworld.messefrankfurt.com,DM,Quanzhou Loujiang Huitai Art Products Factory,B94,12.1,,HT7138@QZHUITAI.COM,,,"Quanzhou City Xaxi Village, Heshi Town",China,Christmas & Seasonal decoration,,,
Ambiente,01/28/2022,2022,https://christmasworld.messefrankfurt.com,DM,Hundt Handels GmbH,D49,12.0,www.zierrat-berlin.de,,,,16761 Hennigsdorf Voltastraße 2,Germany,Christmas & Seasonal decoration | Candles & Fragrances,,,
Ambiente,01/28/2022,2022,https://christmasworld.messefrankfurt.com,DM,Ideas 4 Seasons B.V.,C01,8.0,www.ideas4seasons.com,,,,2811 PV Reeuwijk Reewal 38,Netherlands,,,,Ideas 4 seasons BV is established in the Netherlands and was founded in 2004. We are the wholesaler for the wholesale trade...
Ambiente,01/28/2022,2022,https://christmasworld.messefrankfurt.com,DM,IDO S.r.l.,C88,9.0,www.idolight.it,info@idolight.it,+39 0522 1977987,,42122 Reggio Emilia Via Monti Urali 24,Italy,Visual Merchandising & Light,,,"Italian Design, Passion and Elegance. Idolight® is a global brand of decorative illumination LED products, projects and solutions..."
Ambiente,01/28/2022,2022,https://christmasworld.messefrankfurt.com,DM,IHR Ideal Home Range GmbH,C21,11.0,www.ihr.eu,,,,49632 Essen (Oldenburg) Höger Damm 4,Germany,Christmas & Seasonal decoration,,,"ihr – three letters which unite people with a passion for table culture across the world.
	
	We have been sharing our joy..."
Ambiente,01/28/2022,2022,https://christmasworld.messefrankfurt.com,DM,IKO - Import Klaus Otte GmbH,E59,12.0,www.iko-import.de,,,,66539 Neunkirchen Maikesselkopf 23,Germany,Christmas & Seasonal decoration,,,"Look together with us at our history and get to know better our company and us.
	
	The company was founded in January 1979..."
Ambiente,01/28/2022,2022,https://christmasworld.messefrankfurt.com,DM,Iliadis Alexandros SA,C88,12.0,www.iliadis.com.gr,,,,56429 Thessaloniki 7 km Thessaloniki - Lagada Road,Greece,Christmas & Seasonal decoration | Visual Merchandising & Light,,,"The company operates in the field of import, export and wholesale of gift, seasonal and decorative items since 1986 as a private..."
Ambiente,01/28/2022,2022,https://christmasworld.messefrankfurt.com,DM,ILKOS d.o.o.,B92,8.0,www.ilkos.si,,,,2272 Gorisnica Moskanjci 95,Slovenia,,,,
Ambiente,01/28/2022,2022,https://christmasworld.messefrankfurt.com,DM,ILLUMINATSIA LLC,B76,9.0,www.multidekor.ru,,,,119019 Moscow Str.  Novyi Arbat 21,Russia,,,,"Since 2009, our team has been successfully operating in the field of Christmas decoration and illumination. We are proud..."
Ambiente,01/28/2022,2022,https://christmasworld.messefrankfurt.com,DM,Ilvris Import Export Distribution SPRL,A71,9.0,www.ilvris.com,,,,1020 Brüssel rue de Moorslede 100,Belgium,,,,"ILVRIS is specialized in decorative lighting of streets and buildings. Our bright designs are for sale or for rent.
	
	ILVRIS..."
Ambiente,01/28/2022,2022,https://christmasworld.messefrankfurt.com,DM,Imhof &amp; Stevens BV,D03,8.0,www.imhofstevens.nl,,,,7478 DE Diepenheim Peckedammerstraat 15A,Netherlands,,,,Imhof & Stevens distinguishes itself within the market with its unique range of ornaments and decorations as well as a high...
Ambiente,01/28/2022,2022,https://christmasworld.messefrankfurt.com,DM,India Glazes Ltd,H86,12.1,www.indiaglazes.com,info@indiaglazes.com,,,"700001 Kolkata 6, Lyons Range, 4th Floor",India,Christmas & Seasonal decoration | Ribbons & Wrapping,,,India Glazes Ltd. was established in 1996. It is a family owned enterprise. With over fifty-five years of experience starting...
Ambiente,01/28/2022,2022,https://christmasworld.messefrankfurt.com,DM,Inge&#39;s Christmas Decor GmbH,B80,11.0,www.inge-glas.de,,,,96465 Neustadt b. Coburg Dieselstr. 7,Germany,Christmas & Seasonal decoration,,,Inge’s Christmas Decor GmbH is an owner-managed family company that specialises in the manufacture and sale of Christmas...
Ambiente,01/28/2022,2022,https://christmasworld.messefrankfurt.com,DM,Inmark Exports Pvt. Ltd.,F90,12.1,www.in-mark.com,,,,"201306 Greater Noida, Uttar Pradesh E-35 & 36, Export Promotion",India,,,,Inmark is a design oriented company established in India in 1995. Inmark specializes in manufacture and export of creative...
Ambiente,01/28/2022,2022,https://christmasworld.messefrankfurt.com,DM,IQBAL Paramount Metal Industries,E98,12.1,www.iqbalparamount.com,MAIL@SAGNL-IPMI.COM,+91 591 2223425,,244001 Moradabad Tavela Street (Iqbal House),India,Christmas & Seasonal decoration | Candles & Fragrances,,,"IQBAL PARAMOUNT METAL INDUSTRIES.COMPANY PROFILEEstablished in 1960, Began by our ancestors who did a lot of hard work and talent..."
Ambiente,01/28/2022,2022,https://christmasworld.messefrankfurt.com,DM,ISA HANDICRAFTS,C87,12.1,,,,,247121 Saharanpur Near bus stand town behat,India,,,,
Ambiente,01/28/2022,2022,https://christmasworld.messefrankfurt.com,DM,Dr. Jaglas GmbH,D56,12.0,www.dr-jaglas.de,,,,10435 Berlin Choriner Straße 40,Germany,,,,The Jagla family of pharmacists has been manufacturing bitters based on ancient abbey recipes and herbal knowledge for decades...
Ambiente,01/28/2022,2022,https://christmasworld.messefrankfurt.com,DM,Jakelio Zvakes UAB,A94,8.0,www.candles.lt,,,,47176 Kaunas Musos g. 7,Lithuania,,,,We produce handmade candles since 1994. All candles are made from the highest quality raw materials by artists in Lithuania...
Ambiente,01/28/2022,2022,https://christmasworld.messefrankfurt.com,DM,Jelitto Star GmbH,C94,9.0,www.jelittostar.de,,,,28790 Schwanewede Bahnhofstraße 36,Germany,Visual Merchandising & Light,,,"For more than 50 years, the company Jelitto Star GmbH
	has already impressed with Christmas lights

	However, the range..."
Ambiente,01/28/2022,2022,https://christmasworld.messefrankfurt.com,DM,JOLIPA SPRL,C40,11.0,www.jolipa.com,pieter@jolipa.com,,,7522 Marquain Rue de la Foret 5,Belgium,Christmas & Seasonal decoration,,,J-Line by Jolipa The reference for home accessories and decorationJ-line by Jolipa is a Belgian import-export company of interior...
Ambiente,01/28/2022,2022,https://christmasworld.messefrankfurt.com,DM,Joyland Factory Sp. z o.o.,C59,9.0,,george@joylandfactory.com,,,64-010 Krzywin Ks. Nawrockiego 27,Poland,Christmas & Seasonal decoration,,,"Have you ever wondered how Joyland Factory’s handmade decorations come into existence?
	
	We pour tiny pieces of soul into our..."
Ambiente,01/28/2022,2022,https://christmasworld.messefrankfurt.com,DM,Jumbo International,C97,12.1,,jumboint@gmail.com,,,"122001 Gurugram 711-H, Pace City - II",India,Christmas & Seasonal decoration,,,We at Jumbo International are situated in an Industrial area of Pace City – II near the Delhi Airport and we are Sedex certfied...
Ambiente,01/28/2022,2022,https://christmasworld.messefrankfurt.com,DM,Juvenile Creations Pvt. Ltd.,A83,12.1,www.midas-group.org,,,,"124507 Bahadurgarh M I E PART-A, 433, Delhi Rohtak Road",India,,,,
Ambiente,01/28/2022,2022,https://christmasworld.messefrankfurt.com,DM,"Quanzhou J&amp;W Giftwell Imp. &amp; Exp. Co., Ltd.",A79,12.1,www.jwgiftwell.com,,,,"362000 Quanzhou Yulun Road, Yun, Donghai, Fengze",China,Christmas & Seasonal decoration,,,"J&W GIFTWELL is established since 1998. As a professional trading company for home, garden and holiday décor, we connect..."
Ambiente,01/28/2022,2022,https://christmasworld.messefrankfurt.com,DM,Kaemingk B.V.,J90,8.0,,,,,7122 MN Aalten Broekstraat 13,Netherlands,Christmas & Seasonal decoration | Visual Merchandising & Light | Florists' requisites & Garden decoration | Ribbons & Wrapping,,,Every season we strive to develop the most complete and distinctive collection in seasonal decoration for in and around the house...
Ambiente,01/28/2022,2022,https://christmasworld.messefrankfurt.com,DM,Sergei Kagan,E74,12.0,www.weihnachtswindlichter.com,,,,44225 Dortmund Lehnertweg 16,Germany,Christmas & Seasonal decoration,,,Wir sind ein Familienunternehmen und produzieren seit 20 Jahren mundgeblasene und handgefertigte Glasartikel im Bereich...
Ambiente,01/28/2022,2022,https://christmasworld.messefrankfurt.com,DM,Kaheku Sch&ouml;nes Wohnen GmbH,C01,11.0,www.kaheku.com,,,,31137 Hildesheim Käthe-Paulus-Str. 11-13,Germany,Christmas & Seasonal decoration | Candles & Fragrances,,,"Kaheku is importing and distributing home decoration and accessories since 1978. As a wholesaler, we are offering glassware..."
Ambiente,01/28/2022,2022,https://christmasworld.messefrankfurt.com,DM,Kahlert Licht,D75,12.0,www.kahlert-licht.de,,,,89567 Sontheim an der Brenz Mozartstr. 8,Germany,Christmas & Seasonal decoration,,,"For 60 years now, the mid-sized company Kahlert-Licht is famous for its lovingly handmade nativity set and dollhouse accessories..."
Ambiente,01/28/2022,2022,https://christmasworld.messefrankfurt.com,DM,Kappa Decor N. Kappas &amp; Co,A74,8.0,www.kdecor.gr,ria@kdecor.gr,00302102526016,,14343 N. Halkidona Kosti Palama 15,Greece,Christmas & Seasonal decoration | Ribbons & Wrapping,,,"With more than 6.000 different products, Kappa Decor offers a huge variety of laces, fabrics, ribbons and pouches to all..."
Ambiente,01/28/2022,2022,https://christmasworld.messefrankfurt.com,DM,J. Kersten BV,C34,11.0,www.kerstenbv.nl,rjorna@kerstenbv.nl,,,3439 MG Nieuwegein Galvanibaan 14,Netherlands,Christmas & Seasonal decoration,,,KERSTEN is a wholesaler for decorative and lifestyle products for every home. Our business is importing decorative and lifestyle...
Ambiente,01/28/2022,2022,https://christmasworld.messefrankfurt.com,DM,Kerzenfarm Hahn e.K.,C31,12.0,www.kerzenfarm.com,,,,25596 Nienbüttel Dorfstr. 21,Germany,Candles & Fragrances,,,KERZENFARM HAHN has more than 40 years experience in the development and production of high quality candles and is a leading...
Ambiente,01/28/2022,2022,https://christmasworld.messefrankfurt.com,DM,Kerzen-Manufaktur Freckenhorster Werkst&auml;tten GmbH,D11,11.0,www.kerzen-manufaktur.de,info@kerzen-manufaktur.de,+49 2382 981110,,59227 Ahlen Kruppstrasse 22,Germany,Candles & Fragrances,,,"The candle manufactory
	
	The Kerzen-Manufaktur looks back on a tradition covering more than 40 years and has a corresponding..."
Ambiente,01/28/2022,2022,https://christmasworld.messefrankfurt.com,DM,Khanyk Andriy,D63,12.0,www.rattwood.com,,,,79034 Lviv Heroiv Krut 1B,Ukraine,,,,
Ambiente,01/28/2022,2022,https://christmasworld.messefrankfurt.com,DM,"Taizhou Huangyan KingArt Handicrafts Co.,Ltd",E96,12.1,www.kingartchina.com,chloe@kingartchina.com,+008681105691,,"318025 Huangyan, Taizhou Shabu Town",China,Christmas & Seasonal decoration,,,"Since the foundation in 2003 we have focused on Easter and Christmas decorations made of wood, fabric, metal and paper, ect..."
Ambiente,01/28/2022,2022,https://christmasworld.messefrankfurt.com,DM,Kleinkunst aus dem Erzgebirge M&uuml;ller GmbH,D83,12.0,www.mueller.com,,037362/ 87-0,,09548 Kurort Seiffen Hauptstr. 154 B,Germany,Christmas & Seasonal decoration,,,"""WOODEN ART WITH HEART"" SINCE 1899 FROM THE MUELLER WORKSHOPSWelcome to the family-run Müller workshop in Seiffen. Following..."
Ambiente,01/28/2022,2022,https://christmasworld.messefrankfurt.com,DM,KM Concept GmbH,D98,9.0,www.kmconcept.com,t.sonderegger@kmconcept.com,,,1010 Wien Graben 19/4.Stock,Austria,Visual Merchandising & Light,,,KM Concept GmbH is a second generation family business located in Austria.​ For more than 35 years we have turned cities...
Ambiente,01/28/2022,2022,https://christmasworld.messefrankfurt.com,DM,Komozja Family Sp. z o.o.,E72,9.0,,m.a.mostowski@gmail.com,,,42-202 Czestochowa ul. Zyzna 58 C,Poland,Christmas & Seasonal decoration,,,
Ambiente,01/28/2022,2022,https://christmasworld.messefrankfurt.com,DM,Konrad Arnold GmbH &amp; Co. KG,A41,8.0,www.konrad-arnold.de,,,,42327 Wuppertal Deutscher Ring 85,Germany,,,,
Ambiente,01/28/2022,2022,https://christmasworld.messefrankfurt.com,DM,A. Konstantinidou AE,C75,12.0,www.inart.com,,,,"57009 Kalochori, Thessaloniki Ektelesthenton Kalohoriton 9",Greece,Christmas & Seasonal decoration | Florists' requisites & Garden decoration,,,"We, at inart are constantly searching for the latest trends in the field of decoration. With our experienced designer team..."
Ambiente,01/28/2022,2022,https://christmasworld.messefrankfurt.com,DM,Koopman International B.V.,D10,12.0,www.koopmanint.com,,,,1031 HH Amsterdam Distelweg 88,Netherlands,Christmas & Seasonal decoration | Visual Merchandising & Light,,,"Koopman is the #1 international wholesaler with a diverse collection of more than 30,000 non-food products. We have everything..."
Ambiente,01/28/2022,2022,https://christmasworld.messefrankfurt.com,DM,KORONEX Agnieszka Zgajewska,A34,11.0,www.glasschristmas.com,agnes.koronex@gmail.com,,,42-200 Czestochowa Uczniowska 9,Poland,Christmas & Seasonal decoration,,,"We offer complex services, starting with development of new designs and mould making, and finishing at a brand-new, hand..."
Ambiente,01/28/2022,2022,https://christmasworld.messefrankfurt.com,DM,PPH Impuls Dariusz Kowalczyk,A80,9.0,www.christmas.pl,agata@christmas.pl,0048343661303,,42-202 Czestochowa Zyzna 11M,Poland,Christmas & Seasonal decoration,,,"Although IMPULS was founded by Dariusz and Ewa Kowalczyk, the inspiration came to Darek from his dad, or in Polish – his..."
Ambiente,01/28/2022,2022,https://christmasworld.messefrankfurt.com,DM,Koza Dereza Manufacture Sp. z o.o.,A44,12.0,https://www.kozadereza.ua/,,,,35-234 Rzeszow ul. Stanislawa Trembeckiego 11a,Poland,Christmas & Seasonal decoration,,,"Koza Dereza Manufacture represents Ukrainian brand Koza Dereza, that produce handmade souvenirs and decoration. Wide variaty..."
Ambiente,01/28/2022,2022,https://christmasworld.messefrankfurt.com,DM,PE Kravets Oleksandra,B91,12.1,https://cristmas.eu,longstar.roman@gmail.com,,,49000 Dnipro 21 Darnitska 52,Ukraine,Florists' requisites & Garden decoration,,,Our company is a world leader of artificial Christmas trees production. We do our best to meet all the requirements of our...
Ambiente,01/28/2022,2022,https://christmasworld.messefrankfurt.com,DM,Krebs Glas Lauscha GmbH,A18,12.0,www.krebslauscha.de,,,,98724 Lauscha Am Park 1,Germany,Christmas & Seasonal decoration,,,Krebs Glas Lauscha is the perfect partner on different price levels for every kind of Glass Christmas Ornaments. We have...
Ambiente,01/28/2022,2022,https://christmasworld.messefrankfurt.com,DM,Krenz GmbH,G70,8.0,www.korbwaren-krenz.de,,,,48161 Münster Feldstiege 50,Germany,,,,"The KRENZ Company exists over 40 years and is the specialist for trendy baskets and pots for Flowers.

	We are importer..."
Ambiente,01/28/2022,2022,https://christmasworld.messefrankfurt.com,DM,Krinner GmbH,B10,9.0,www.krinner.com,k.eibach@krinner.com,09424/9401-30,,94342 Straßkirchen Passauer Str. 55,Germany,Christmas & Seasonal decoration | Visual Merchandising & Light,,,"For over 30 years, KRINNER has been ensuring a stress-free Christmas with its innovative products. The success of the Bavarian..."
Ambiente,01/28/2022,2022,https://christmasworld.messefrankfurt.com,DM,KTC Export Pvt. Ltd.,C80,12.1,www.ktcexport.com,,,,"700007 Kolkata 4B, Chetan Seth Street",India,,,,
Ambiente,01/28/2022,2022,https://christmasworld.messefrankfurt.com,DM,Drechslerei Kuhnert GmbH,C48,12.0,www.kuhnert-gmbh.de,verkauf@kuhnert-gmbh.de,037462 636410,,08237 Steinberg OT Rothenkirchen Hauptstr. 28,Germany,Christmas & Seasonal decoration,,,"With our commitment to Erzgebirge-folk art, we continue these traditions with modern means of production and new design aspects..."
Ambiente,01/28/2022,2022,https://christmasworld.messefrankfurt.com,DM,R. Kumar &amp; Company,H91,12.1,www.rkumar.com,rkhemka69@gmail.com,+91-3322851281,,"700046 Kolkata 84/1 B, Topsia Road South",India,Christmas & Seasonal decoration,,,"R Kumar & Company is your reliable provider of a wide range of eco-friendly bags including Jute bags, Cotton Shopping bags..."
Ambiente,01/28/2022,2022,https://christmasworld.messefrankfurt.com,DM,Kvazar Ltd,F31,8.0,www.kvazarltd.com.ua,,,,81500 Gorodok Lviv region Shykhevicha 18,Ukraine,,,,"Kvazar company specialize in the manufacture of artifical Christmas trees, Christmas decoration. Company was founded in 1995.Every..."
Ambiente,01/28/2022,2022,https://christmasworld.messefrankfurt.com,DM,"LABREX, d.o.o., Celje",A96,8.0,www.labrex.si,,,,3000 Celje Kersnikova ulica 17A,Slovenia,,,,
Ambiente,01/28/2022,2022,https://christmasworld.messefrankfurt.com,DM,Land-Art GmbH,C78,12.0,www.land-art.de,,,,67125 Dannstadt Hauptstr. 197,Germany,Christmas & Seasonal decoration,,,
Ambiente,01/28/2022,2022,https://christmasworld.messefrankfurt.com,DM,Landgard Fachhandel GmbH &amp; Co. KG,D84,8.0,www.landgard.de,,,,47638 Straelen-Herongen Veilingstr. A1,Germany,,,,
Ambiente,01/28/2022,2022,https://christmasworld.messefrankfurt.com,DM,Lang Kunstgewerbe GmbH,A80,11.0,www.lang-kunstgewerbe.at,,,,4061 Pasching Wiener Bundesstrasse 60,Austria,Christmas & Seasonal decoration,,,Founded in 1961 by Georg Lang the company „Lang Korbwaren“ quickly became one of the main producers of baskets and wickerwork...
Ambiente,01/28/2022,2022,https://christmasworld.messefrankfurt.com,DM,Groupe Leblanc SASU,D80,9.0,www.leblanc-illuminations.fr,,,,72100 Le Mans 6-8 rue Michael Faraday,France,,,,
Ambiente,01/28/2022,2022,https://christmasworld.messefrankfurt.com,DM,LEDWIN,D94,9.0,www.lewin.eu,,,,7091 HR Dinxperlo Helmkamp 2,Netherlands,Visual Merchandising & Light,,,"LEDWIN strives to have the highest quality led products in the market.
	
	It is our mission to statisfy professional users..."
Ambiente,01/28/2022,2022,https://christmasworld.messefrankfurt.com,DM,Ledworks S.r.l.,C20,9.0,www.twinkly.com,,,,20144 Milano MI Via Tortona 37,Italy,Visual Merchandising & Light,,,Ledworks is an Italian tech company founded in 2016 and headquartered in Milan.It is focused on digital innovation for consumer...
Ambiente,01/28/2022,2022,https://christmasworld.messefrankfurt.com,DM,Lemax- Europe B.V.,C24,12.0,www.lemaxeurope.com,,,,2371 TT Roelofarendsveen Veenderveld 57,Netherlands,,,,"Welcome to Lemax, a worldwide leader in collectable village miniatures.

	Since our founding in 1990, Lemax has been at the forefront..."
Ambiente,01/28/2022,2022,https://christmasworld.messefrankfurt.com,DM,Lemetex Import/Export B.V.,G30,8.0,www.uniqueliving.nl,,,,5321 KB Hedel Buitenkamp 18,Netherlands,,,,
Ambiente,01/28/2022,2022,https://christmasworld.messefrankfurt.com,DM,Lesli Living B.V.,E80,8.0,www.lesliliving.nl,,,,7131 PB Lichtenvoorde Edisonstraat 20,Netherlands,,,,Lesli Living's origin dates more than 100 years ago and we characterize ourself as a real family business with a rich history...
Ambiente,01/28/2022,2022,https://christmasworld.messefrankfurt.com,DM,"Quanzhou Levy Houseware Co., Ltd",B88,12.1,www.tingle.asia,sales08@tingle.asia,008659522466276,,"362005 Quanzhou Huoju Industrial Area,  Licheng District",China,Christmas & Seasonal decoration,,,"Founded in 2004, Tingle Industry Limited has been manufacturing metal and glass crafts for more than 15 years. Located in Quanzhou..."
Ambiente,01/28/2022,2022,https://christmasworld.messefrankfurt.com,DM,Light Project Global S.r.l.,E81,9.0,www.lpgled.com,info@lpgled.com,,,00019 Tivoli Via Ottorino Respighi snc,Italy,Visual Merchandising & Light,,,Being passionate is the energy that drives us to make the most of our idea of ​​lighting: from this belief was born the Light...
Ambiente,01/28/2022,2022,https://christmasworld.messefrankfurt.com,DM,LINEA 94 Srl Unipersonale,B94,8.0,www.linea94.com,LINEA94@LINEA94.COM,+390432573825,,33010 Feletto Umberto-Tavagnacco (UD) Via Carlo Pisacane 13,Italy,Christmas & Seasonal decoration | Ribbons & Wrapping,,,"LINEA 94 SRL

	GIFT WRAPPING PAPER AND PPL GIFT BAGS:

	a perfect blend of style and fantasy!!Founded more then twenty..."
Ambiente,01/28/2022,2022,https://christmasworld.messefrankfurt.com,DM,Lotti Importex Srl,D70,9.0,www.lottiitaly.com,c.cavicchioli@lottiitaly.com,+390386741392,,46025 Poggio Rusco Via Abetone Brennero 149,Italy,Visual Merchandising & Light,,,"Lotti presents lighting in all its varied forms: luminous decorations, Christmas lights, illuminating devices for homes and gardens..."
Ambiente,01/28/2022,2022,https://christmasworld.messefrankfurt.com,DM,Lucky Star Messe Design GmbH,H88,12.1,www.luckystarmesse.de,jazzyliu@luckystarmesse.de,+49 4050799363,,22415 Hamburg Krohnstieg 118,Germany,Christmas & Seasonal decoration,,,"""Design and Quality"" is not just a Lucky Star slogan but also the pursuit of our designer team and our Production team. We..."
Ambiente,01/28/2022,2022,https://christmasworld.messefrankfurt.com,DM,LUDELL S.n.c. di Luca dell&acute; Innocenti &amp; C.,A50,11.0,www.ludell.it,,,,55049 Viareggio (LU) Vietta dei Comparini 63,Italy,,,,"CHRISTMAS COUTURE by LUDELL Christmas, Art and Mode: meeting of three passions.

	The same still alive in Luca Dell’Innocenti..."
Ambiente,01/28/2022,2022,https://christmasworld.messefrankfurt.com,DM,LUMEN trgovina d.o.o.,A61,8.0,www.lumen.ba,,,,10000 Zagreb Slavonska avenija 52g,Croatia,,,,LUMEN is one of the leading producers of battery operated candles and lamps in Europe. This family company was established...
Ambiente,01/28/2022,2022,https://christmasworld.messefrankfurt.com,DM,Lumiere Ukraine Limited Liability Company,E70,9.0,,,,,"68003 Chernomorsk, Odessa region Sportivnaya 5А",Ukraine,,,,
Ambiente,01/28/2022,2022,https://christmasworld.messefrankfurt.com,DM,Luxform Global B.V.,E40,9.0,www.luxform-lighting.com,htice@luxformglobal.com,0031 (0) 38 - 331 64 41,,8263 BW Kampen Transportstraat 1,Netherlands,Visual Merchandising & Light,,,"Luxform Lighting is the lighting specialist, founded in 1978 and selling in 25 countries. Luxform Lighting is total supplier..."
Ambiente,01/28/2022,2022,https://christmasworld.messefrankfurt.com,DM,Mabella Decorb&auml;nder GmbH,A51,8.0,www.mabella.eu,thomas.will@mabella.eu,0202-75916-15,,42327 Wuppertal Deutscher Ring 83,Germany,Christmas & Seasonal decoration | Ribbons & Wrapping,,,"Manufacturer of ribbons
	ribbons for gifts and decoration

	seasonal collections of ribbon (changed every year (Spring..."
Ambiente,01/28/2022,2022,https://christmasworld.messefrankfurt.com,DM,MAG Sp. z o.o.,B47,9.0,www.mag.info,marketing@mag.info.pl,+48 67 214 83 83,,64-920 Pila Ul. Warsztatowa 24,Poland,Visual Merchandising & Light | Florists' requisites & Garden decoration,,,"About us

established in 1994 r. as a private Company and transformed into limited Company in 2017
from July 2017 new ownership..."
Ambiente,01/28/2022,2022,https://christmasworld.messefrankfurt.com,DM,MAG-2000 Ltd.,D97,12.1,www.mag-2000.ua,,,,02089 Kiev Radistov Str. 73,Ukraine,,,,"Market for our products is not just limited to Ukraine; we deliver Christmas goods to 20 states.
	
	Today the company is one..."
Ambiente,01/28/2022,2022,https://christmasworld.messefrankfurt.com,DM,Manufaktur Locnikar GmbH &amp; Co. KG,C42,12.0,www.locnikar.de,,,,26931 Elsfleth Butteldorf 13,Germany,,,,"Unsere Manufaktur wurde im Jahr 1985 von Margrit und Peter Locnikar in Bremen gegründet.

	Die ersten Produkte waren liebenswerte..."
Ambiente,01/28/2022,2022,https://christmasworld.messefrankfurt.com,DM,Marshal Exports,F84,12.1,www.marshalexports.com,,,,244001 Moradabad 162 Lajpat Nagar,India,Florists' requisites & Garden decoration | Candles & Fragrances,,,"Welcome to Marshal Exports – where function meets innovative design.

	 

	With over 35 years of experience, our exclusive..."
Ambiente,01/28/2022,2022,https://christmasworld.messefrankfurt.com,DM,Max Glass - Kowalski Family Co.,F53,9.0,www.maxglass.com.pl,max@maxglass.com.pl,+48343246458,,42-274 Konopiska Wygoda 15A,Poland,Christmas & Seasonal decoration,,,Max Glass Company specialize in manufacturing of molded ornaments. Our ornaments are designed by professional artists. We...
Ambiente,01/28/2022,2022,https://christmasworld.messefrankfurt.com,DM,MCC S.r.l.,D85,8.0,www.mccitalia.it,marketing@mccitalia.it,0039 039 2142513,,20861 Brugherio (MB) Viale Lombardia 51,Italy,Christmas & Seasonal decoration | Visual Merchandising & Light,,,MCC was founded in 1945 starting its activity in the textile industry for garments producing linings and felts.In the following...
Ambiente,01/28/2022,2022,https://christmasworld.messefrankfurt.com,DM,Mea-Living GmbH,D91,11.0,www.mea-living.de,,,,47138 Duisburg Im Freihafen 9,Germany,,,,"Wir sind ein junges, innovatives Unternehmen mit Sitz in Duisburg. Unser Ziel ist es, dem Kunden mit liebevoll gestalteten..."
Ambiente,01/28/2022,2022,https://christmasworld.messefrankfurt.com,DM,Meander BV,C45,11.0,www.meander-bv.nl,,,,2289 CD Rijswijk Ampèrelaan 3,Netherlands,,,,
Ambiente,01/28/2022,2022,https://christmasworld.messefrankfurt.com,DM,Mega Collections B.V.,K21,8.0,www.megacollections.com,,,,5145 NS Waalwijk Veerweg 2,Netherlands,Florists' requisites & Garden decoration,,,"Mega Collections is one of the leaders in the field of pottery, baskets and decorative items in Europe. Our customers are located..."
Ambiente,01/28/2022,2022,https://christmasworld.messefrankfurt.com,DM,Mehrotra Impex (India),E88,12.1,,,,,"244001 Moradabad Opp. Circuit House, Niryat Nagar",India,,,,"Mehrotra Impex IndiaWith a legacy running since 1969, the company has been a manufacturer and exporter of handicrafts, household..."
Ambiente,01/28/2022,2022,https://christmasworld.messefrankfurt.com,DM,Horst Meier + Stefan Koch Spiel- und Designobjekte Modellentwicklung GbR,D35,11.0,www.meier-germany.de,,,,74374 Zaberfeld Waldstraße 32-34,Germany,Christmas & Seasonal decoration,,,Der 1948 gegründete Familienbetrieb wird derzeit in der dritten Generation von Cornelia und Stefan Koch geführt. In den Anfangsjahren...
Ambiente,01/28/2022,2022,https://christmasworld.messefrankfurt.com,DM,Menart di Paciolla Pasquale,E90,9.0,,,,,80058 Torre Annunziata (NA) Via Ercole Ercole 62,Italy,Christmas & Seasonal decoration | Visual Merchandising & Light,,,"MENART is a team of artists specialised in the field of scenography, that continuously enriches its know-how to successifully..."
Ambiente,01/28/2022,2022,https://christmasworld.messefrankfurt.com,DM,Metma Ltd,B02,8.0,www.metma-bg.com,,,,4400 Pazardzhik General Gurko 6,Bulgaria,Christmas & Seasonal decoration,,,MetmaLtd started its activity – production of egg dyes - in 1997 with one item for the Bulgarian market. In 2006 we had...
Ambiente,01/28/2022,2022,https://christmasworld.messefrankfurt.com,DM,"MI I MZS, TOV",A53,9.0,www.miimzs.com,miimzs2012@gmail.com,,,82400 Stryi Bud. 16 vul. Kryva,Ukraine,Christmas & Seasonal decoration,,,Each brand has got its own story.Ours started in 2000. Since that time MI I MZS has been constantly developing. From a small...
Ambiente,01/28/2022,2022,https://christmasworld.messefrankfurt.com,DM,MIR HANDICRAFTS Pvt. Ltd.,B81,12.1,www.mirhandicrafts.com,,,,"110020 New Delhi D-85/1, Okhla Industrial Area,",India,,,,
Ambiente,01/28/2022,2022,https://christmasworld.messefrankfurt.com,DM,Mosy GmbH,A85,8.0,www.mosy.de,,,,27321 Thedinghausen Am Heidekamp 2,Germany,Florists' requisites & Garden decoration,,,"mosy floral foam
	wet foam, dry foam, mosy Duplex"
Ambiente,01/28/2022,2022,https://christmasworld.messefrankfurt.com,DM,M S International,D90,12.1,,mehfooz@msintnl.com,,,"244001 Moradabad, U.P. Rampur Road,  Bhaisiya Near Zero Point",India,Christmas & Seasonal decoration | Florists' requisites & Garden decoration,,,M S International is one of the leading Manufacturing & Export company & our Company has made its reputation by giving high...
Ambiente,01/28/2022,2022,https://christmasworld.messefrankfurt.com,DM,My Flame Lifestyle BV,C64,8.0,www.myflame.nl,,,,2404 HE Alphen aan den Rijn Energieweg 65,Netherlands,,,,
Ambiente,01/28/2022,2022,https://christmasworld.messefrankfurt.com,DM,Nastri d&acute;Ottavio S.r.l.,C71,8.0,www.nastridottaviosrl.it,,,,23871 Lomagna Via Marco Biagi 30,Italy,,,,"NASTRI DOTTAVIO, is a 50 years old company, specialized in the production of textile packaging, like ribbons, rolls, runner..."
Ambiente,01/28/2022,2022,https://christmasworld.messefrankfurt.com,DM,National Jute Board,B84,12.1,www.jute.com,,,,"700016 Kolkata 3A & 3B, Park Plaza, 71 Park Street",India,,,,
Ambiente,01/28/2022,2022,https://christmasworld.messefrankfurt.com,DM,National Tree Company,G10,8.0,http://www.nationaltree.com/,,,,07016 Cranford 2 Commerce Drive,United States,,,,
Ambiente,01/28/2022,2022,https://christmasworld.messefrankfurt.com,DM,Nature Fashion Square Private Limited,E85,12.1,www.jutefabs.com,info@jutefabs.com,+913323772760,,700040 Kolkata 174/31/2A NSC Bose Road,India,Christmas & Seasonal decoration | Ribbons & Wrapping,,,"Nature Fashion Square Pvt Ltd is a professional large scale manufacturer of all types of Jute Products, integrating development..."
Ambiente,01/28/2022,2022,https://christmasworld.messefrankfurt.com,DM,NATURE HOME d.o.o.,A24,11.0,www.xmas3.eu,,,,1000 Ljubljana Ulica Jozeta Jame 14,Slovenia,Florists' requisites & Garden decoration,,,"Nature Home is young company with focus on nature, design and innovation.
	Our main business activities are innovative..."
Ambiente,01/28/2022,2022,https://christmasworld.messefrankfurt.com,DM,Neelansh Exports,B85,12.1,,neelansh@hotmail.com,41516173,,"110006 New Delhi 2060 Tiraha Bazar, Parantha Gali,",India,Christmas & Seasonal decoration,,,"Mrs. Varsha Jariwala, a textile designer by profession and an entrepreneur by nature has skilfully explored various businesses..."
Ambiente,01/28/2022,2022,https://christmasworld.messefrankfurt.com,DM,Neo Crafts Impex Pvt. Ltd.,F80,12.1,www.neocrafts.in,,,,"201301 Noida, Uttar Pradesh F-454, Sector 63",India,,,,
Ambiente,01/28/2022,2022,https://christmasworld.messefrankfurt.com,DM,Nestler GmbH Feinkartonagen,B43,12.0,www.nestler-gmbh.de,m.illing@nestler-gmbh.de,037341189126,,09427 Ehrenfriedersdorf Gewerbegebiet an der B 95 14,Germany,Christmas & Seasonal decoration,,,"For over 120 years, the Nestler company in the Ore Mountains, Germany, has been producing, mainly by hand, filling items..."
Ambiente,01/28/2022,2022,https://christmasworld.messefrankfurt.com,DM,NET Poduzece ZA Trgovinu I Usluge d.o.o.,D57,8.0,www.net-net.hr,,,,40000 Cakovec Zrinsko Frankopanska 17,Croatia,,,,"NET has been present in the market since 1993. We manufacture and sell candles. In addition to this core business, we also..."
Ambiente,01/28/2022,2022,https://christmasworld.messefrankfurt.com,DM,New Mass India,D96,12.1,,,,,244001 Moradabad Opposite Moradabad Polytechnic,India,,,,
Ambiente,01/28/2022,2022,https://christmasworld.messefrankfurt.com,DM,Nissebanden Wholesale ApS,E50,12.0,https://nissebanden.net/,,,,3450 Allerod Statenevej 23,Denmark,Christmas & Seasonal decoration,,,"Nissebanden is a new Danish wholesaler specializing in Christmas accessories like bowties, earrings, boxershorts, cufflinks..."
Ambiente,01/28/2022,2022,https://christmasworld.messefrankfurt.com,DM,Hans Helmut Nitsche Antike Dekorationen,D90,9.0,www.antike-dekorationen.de,,,,60437 Frankfurt am Main Genfer Str. 2,Germany,Christmas & Seasonal decoration | Visual Merchandising & Light,,,"We are wholesalers for Antic-Decoration and Gifts located in the North of Francfort, in a long tradition since 1957. In the beginning..."
Ambiente,01/28/2022,2022,https://christmasworld.messefrankfurt.com,DM,nmedia GmbH,C74,12.0,www.nmedia.de,,,,40217 Düsseldorf Kirchfeldstr. 69A,Germany,,,,
Ambiente,01/28/2022,2022,https://christmasworld.messefrankfurt.com,DM,Noor Handels GmbH,E71,12.0,www.noorhandel.de,,,,63110 Rodgau Blumenau 1,Germany,Christmas & Seasonal decoration,,,
Ambiente,01/28/2022,2022,https://christmasworld.messefrankfurt.com,DM,Nostalgie-Christbaumschmuck UG,A52,12.0,www.nostalgie-christbaumschmuck.de,,,,99096 Erfurt Spielbergtor 19b,Germany,Christmas & Seasonal decoration,,,"""nostalgic christmas ornaments""
	
	The company FLES-CBS ug manufactures nostalgic Christmas ornaments in the old tradition..."
Ambiente,01/28/2022,2022,https://christmasworld.messefrankfurt.com,DM,Nova-Nature B.V.,G02,8.0,www.nova-nature.com,,,,5405 AE Uden Handelslaan 16,Netherlands,Florists' requisites & Garden decoration,,,"After Nova Nature was founded in 2001, it became in a very short time one of the most trendsetting and leading companies..."
Ambiente,01/28/2022,2022,https://christmasworld.messefrankfurt.com,DM,Oejbro Engros AB,D70,12.0,www.ojbrovantfabrik.se/de,,,,523 37 Ulricehamn Vistvägen 2,Sweden,,,,Öjbro Vantfabrik is a Swedish design company with a passion for handing down our knitting traditions. Swedish design with a storytelling...
Ambiente,01/28/2022,2022,https://christmasworld.messefrankfurt.com,DM,Trendagentur Offermann Doris Offermann,FOY05,9.0,www.offermann-trends.de,,,,41065 Mönchengladbach Lürriper Str. 157,Germany,Publishers & Associations,,,"Trends, colours, innovation, kreativity"
Ambiente,01/28/2022,2022,https://christmasworld.messefrankfurt.com,DM,Omkar Corporation,F85,12.1,www.omkarcorporation.net,,,,"421302 Bhiwandi Unit D1 -110 to 115, Bldg. D1, 1st Floor",India,,,,"Omkar Corporation is the leading brand for Christmas Home Textile items like wired ribbons, Tree Skirts, Stocking etc. We..."
Ambiente,01/28/2022,2022,https://christmasworld.messefrankfurt.com,DM,Ondepo Polyester Dekor Urunleri San. Tic. Ltd. Sti.,B53,9.0,www.ondepo.com.tr,serkan@ondepo.com.tr,+902127236636,,34570 Istanbul Kavakli Mahallesi Kalitim Sokak No:5,Turkey,Christmas & Seasonal decoration | Visual Merchandising & Light,,,"“3diverse workshop” is the basis of Ondepo. We think it describes what we do very well, from such things as 3D shop window..."
Ambiente,01/28/2022,2022,https://christmasworld.messefrankfurt.com,DM,Onlylight Enterprises Limited,F95,12.1,www.FL-LE.de,,,,"Tsim Sha Tsui East, Kowloon No. 14 Science Museum Road",Hong Kong,,,,"The ONLYLIGHT to illuminate your world!

	ONLYLIGHT ENTERPRISES LIMITED is a member of TIANYU LIGHTING, one of the leading..."
Ambiente,01/28/2022,2022,https://christmasworld.messefrankfurt.com,DM,Only Natural V.O.F.,B79,12.0,www.shop.onlynatural.nl,,,,1432 CM Aalsmeer Aalsmeerderweg 249G,Netherlands,Christmas & Seasonal decoration,,,"Only Natural is a Fair Trade company , born in 1983 when handmade Papers were just come to the market. Since we have developped..."
Ambiente,01/28/2022,2022,https://christmasworld.messefrankfurt.com,DM,OSB Overseas Pvt. Ltd. (JUTEFABS),E89,12.1,www.jutefabs.com,info@jutefabs.com,+913323772760,,"700040 Kolkata 174/31/2A N.S.C. Bose Road, West Bengal",India,Christmas & Seasonal decoration | Ribbons & Wrapping,,,"OSB Overseas Pvt Ltd is a professional large scale manufacturer of all types of Jute Products, integrating development and production..."
Ambiente,01/28/2022,2022,https://christmasworld.messefrankfurt.com,DM,pad home design concept GmbH,C75,11.0,www.padconcept.com,,,,86690 Mertingen Königsberger Str. 46,Germany,,,,
Ambiente,01/28/2022,2022,https://christmasworld.messefrankfurt.com,DM,Pagoda GmbH,A79,12.0,www.pagoda-lights.de,pagodalights@t-online.de,07903932206,,74535 Mainhardt Neugreutweg 3,Germany,Christmas & Seasonal decoration | Visual Merchandising & Light,,,The company Pagoda was founded in 2002 Since then our company has grown steadily and has presented to you the colors of the Orient...
Ambiente,01/28/2022,2022,https://christmasworld.messefrankfurt.com,DM,PAKOT S.A.,A55,8.0,www.pakot.com,gerard@pakot.com,,,08830 Sant Boi (BCN) Av. Marina 54D,Spain,Florists' requisites & Garden decoration | Ribbons & Wrapping,,,"We are pleased to present Pakot, SA, with over 25 years of experience. We deal in the manufacturing of decorative paper..."
Ambiente,01/28/2022,2022,https://christmasworld.messefrankfurt.com,DM,Paper Art BV,D91,8.0,www.paperart.eu,uwe.mueller@paperart.nl,+31164685153,,4661 PZ Halsteren Canadaweg 9 C,Netherlands,,,,
Ambiente,01/28/2022,2022,https://christmasworld.messefrankfurt.com,DM,Paper Fantasies UAB,C51,9.0,www.paper-fantasies.com,,,,LT-03151 Vilnius Vilkpedes 20A,Lithuania,Christmas & Seasonal decoration | Visual Merchandising & Light,,,"The most stylish paper decorations in the world! Roots coming from Scandinavia, born in 1923. Production of pure European..."
Ambiente,01/28/2022,2022,https://christmasworld.messefrankfurt.com,DM,Paperproducts Design GmbH,C41,11.0,www.ppd.de,,,,53340 Meckenheim Am Hambuch 4,Germany,Christmas & Seasonal decoration,,,Paperproducts Design - In 1991 we started as the first supplier with modern design on the printed paper napkin. Today we...
Ambiente,01/28/2022,2022,https://christmasworld.messefrankfurt.com,DM,Papeterie du Poitou SASU,C92,8.0,www.beaumont-group.fr,tobias.schulze@beaumont-group.fr,0033549191328,,"86490 Beaumont Saint-Cyr 21, Avenue de Bordeaux",France,Ribbons & Wrapping,,,Beaumont Group/Papeterie du Poitou is the leading French wrapping paper manufacturer with over 75 years of experience in this activity...
Ambiente,01/28/2022,2022,https://christmasworld.messefrankfurt.com,DM,Pasqualetti Home Decor di Zago Sandra e Pasqualetti Daniele,G40,8.0,www.nuvoledistoffa.it,ordini@nuvoledistoffa.it,0499004475,,35035 Mestrino Via Trieste 49,Italy,Christmas & Seasonal decoration,,,"""Nuvole di Stoffa"" brand was born to the passion and expirience of Pasqualetti family.We working in this sector from 30 years..."
Ambiente,01/28/2022,2022,https://christmasworld.messefrankfurt.com,DM,Handelsonderneming Peha Sneek B.V.,C30,12.0,www.peha.com,,,,8601 WG Sneek Kleermakersstraat 1,Netherlands,Christmas & Seasonal decoration | Visual Merchandising & Light,,,"At Peha we believe that the Christmas spirit contributes to making our world a better place. Carrying this thought, we..."
Ambiente,01/28/2022,2022,https://christmasworld.messefrankfurt.com,DM,PEMA Srl,E48,12.0,www.pema.it,,,,39046 Ortisei/St. Ulrich  BZ Via Cademia 20,Italy,,,,The PEMA company has been one of the leading workshops in the art of wood carving for several decades now. All the drafts...
Ambiente,01/28/2022,2022,https://christmasworld.messefrankfurt.com,DM,Erwin Pfaff Drechslerei und Holzwarenfabrikation e. K.,B81,12.0,www.erwin-pfaff.de,s.weis@erwin-pfaff.de,,,78136 Schonach im Schwarzwald Triberger Str. 18,Germany,Christmas & Seasonal decoration,,,Erwin Pfaff Drechslerei und Holzwarenfabrikation e.K. is a trusted partner for various branches. The fourth generation...
Ambiente,01/28/2022,2022,https://christmasworld.messefrankfurt.com,DM,PHILIPPI,A20,11.0,www.philippi.com,,,,24558 Henstedt-Ulzburg Am Redder 2,Germany,Christmas & Seasonal decoration,,,"PHILIPPI is an owner-operated design manufacturer headquartered in Henstedt-Ulzburg, located just outside the city gates..."
Ambiente,01/28/2022,2022,https://christmasworld.messefrankfurt.com,DM,PIFFANY Copenhagen ApS,A01,11.0,www.piffany.eu,,,,3200 Helsinge Bymosevej 17,Denmark,,,,PIFFANY Copenhagen creates designs of practical functionality and elegant minimalism with a distinctly Scandinavian aesthetic...
Ambiente,01/28/2022,2022,https://christmasworld.messefrankfurt.com,DM,"P.H.U. &quot;Pinus Company&quot; s.c. Jaroslaw Stysinski, Halina Stysinska Szymon Stysinski",A01,8.0,www.choinki-pinus.com.pl,choinki.pinus@gmail.com,,,66-003 Zabor Witosa 25 A,Poland,Christmas & Seasonal decoration | Florists' requisites & Garden decoration,,,"We are a family company from Poland with 28 years of tradition. Since the establishment of the company, we have been producing..."
Ambiente,01/28/2022,2022,https://christmasworld.messefrankfurt.com,DM,Piovaccari srl,A90,8.0,www.piovaccari.com,info@piovaccari.com,+390558869525,,50041 Calenzano (Firenze) Via Matteucci 13/15,Italy,Ribbons & Wrapping,,,"What Piovaccari means: More than 10.000 items in the decorative market. A strong experience in ribbons and textiles, to which..."
Ambiente,01/28/2022,2022,https://christmasworld.messefrankfurt.com,DM,La Plastose SARL,C75,8.0,www.laplastose.com,laplastose@franetulle.com,+ 33 4 78 84 90 12,,"69100 Villeurbanne 37, rue Faillebin",France,Christmas & Seasonal decoration,,,La Plastose is a French Company and we make fabrics and accessories for Christmas decoration.
Ambiente,01/28/2022,2022,https://christmasworld.messefrankfurt.com,DM,Pluto Produkter AB,A91,11.0,www.plutoprodukter.se,,,,421 31 Västra Frölunda Ea Rosengrensgata 32,Sweden,Christmas & Seasonal decoration | Candles & Fragrances,,,"Pluto Produkter is a Swedish company that designs, produces and sells interior decorations and gift products. Our vision..."
Ambiente,01/28/2022,2022,https://christmasworld.messefrankfurt.com,DM,PM Euro-Trading GmbH,D30,12.0,www.pmeurotrading.com,peter@pmeurotrading.de,,,36124 Eichenzell Bürgermeister-Ebert-Str.26,Germany,Christmas & Seasonal decoration,,,We are a German wholesale company with satisfied customers worldwide. Here you will find Europe's largest selection of decorative...
Ambiente,01/28/2022,2022,https://christmasworld.messefrankfurt.com,DM,P.N.P. Plast Italy S.r.l.,D80,8.0,www.pnpplast.it,foreign.sales@pnpplast.it,+390583202711,,55011 Altopascio Località Torre Salese 8,Italy,Ribbons & Wrapping,,,Our company was born in the 80s and has specialized in the production of articles for the packaging and decoration of flowers...
Ambiente,01/28/2022,2022,https://christmasworld.messefrankfurt.com,DM,Pobra - House of Christmas A/S,A58,12.0,www.pobra.com,,,,DK-2600 Glostrup Naverland 8,Denmark,Christmas & Seasonal decoration,,,
Ambiente,01/28/2022,2022,https://christmasworld.messefrankfurt.com,DM,Polamp Sp. z o.o.,B96,9.0,,karol.warecha@polamp.com,,,11-500 Gizycko Przemyslowa 1,Poland,Visual Merchandising & Light,,,We are one of the biggest polish manufacturer of lighting decorations and christmas illuminations. In our catalogue you can...
Ambiente,01/28/2022,2022,https://christmasworld.messefrankfurt.com,DM,Thierry Ponchon Imports SARL,F84,8.0,www.ponchon-imports.com,,,,42140 Chazelles sur Lyon ZI de Montfuron - BP 4,France,,,,
Ambiente,01/28/2022,2022,https://christmasworld.messefrankfurt.com,DM,Posiwio GmbH &amp; Co. Vertriebs KG,E84,8.0,www.posiwio.de/,,,,28816 Stuhr Handelshof 2,Germany,Christmas & Seasonal decoration,,,"History
	
	SUCCESSFULLY OPERATING ON THE MARKET FOR MORE THAN 50 YEARS.
	
	Founded in Bremen in 1961 by Heinz Posiwio, and today..."
Ambiente,01/28/2022,2022,https://christmasworld.messefrankfurt.com,DM,Prisma,A90,12.1,www.prismaworld.in,,,,244001 Moradabad Behind Hotel Drive in 24 Delhi,India,,,,"PRISMA

	Year of establishment – 2014

	Semi automated plant & machinery in numerous departments.

	Total Factory Covered..."
Ambiente,01/28/2022,2022,https://christmasworld.messefrankfurt.com,DM,Prodglob Clasic Glass S.R.L.,E77,9.0,www.prodglob.ro,madalina@prodglob.ro,,,400057 Cluj - Napoca Patriciu Barbu 18,Romania,Christmas & Seasonal decoration,,,"Established in 1994, Prodglob Clasic Glass produces high quality glass ornaments especially for Christmas. Why is it that we..."
Ambiente,01/28/2022,2022,https://christmasworld.messefrankfurt.com,DM,UAB &#39;PROMI&#39;,A19,8.0,https://promidesign.com/,audrius@promi.lt,+37064552116,,44254 Kaunas K. Donelaicio 78,Lithuania,Christmas & Seasonal decoration,,,Promi design is a well-known manufacturer of nature wood art works. 10 years of experience and passion in what we are doing...
Ambiente,01/28/2022,2022,https://christmasworld.messefrankfurt.com,DM,Prowise Handicraft Co. Ltd.,G84,12.1,http://www.prowise.tw,,,,"40854 Taichung City No. 293, Fongfu Road, Nantun",Taiwan,,,,"We are Prowise Handicraft Co. Ltd., and we are a professional manufacturer in Christmas ornament and decoration. We are located..."
Ambiente,01/28/2022,2022,https://christmasworld.messefrankfurt.com,DM,Rabella spolka z.o.o.,B35,9.0,www.rabella.pl,,,,42-610 Miasteczko Slaskie Cynkowa 49,Poland,Florists' requisites & Garden decoration,,,"Rabella  was founded in 1995 by Ewa Muchla .
	
	The company was inspired by the most beautiful atmospheres and the endless..."
Ambiente,01/28/2022,2022,https://christmasworld.messefrankfurt.com,DM,R&auml;der GmbH,C55,11.0,www.raeder.de,,,,44791 Bochum Kornharpener Str. 126,Germany,Christmas & Seasonal decoration,,,"raeder design stories
	Living accessories

	Gift items

	Christmas Decoration

	Stationery

	Porcelain"
Ambiente,01/28/2022,2022,https://christmasworld.messefrankfurt.com,DM,Rasp GmbH,A27,12.0,,,,,5020 Salzburg Eberhard-Fugger-Straße 6A,Austria,,,,"Rasp, experts in Salzburg-style traditional spice wreaths and Christmas decorations since 1954.

	We offer handmade spice..."
Ambiente,01/28/2022,2022,https://christmasworld.messefrankfurt.com,DM,RATAGS Holzdesign HEIPRO GmbH,A54,12.0,www.ratags.de,hesse@ratags.de,035973-62490,,01833 Stolpen Hauptstr. 167,Germany,Christmas & Seasonal decoration,,,RATAGS Holzdesign HEIPRO GmbH is a manufacturer of genuine Erzgebirge wood art and a member of the Verband erzgebirgischer...
Ambiente,01/28/2022,2022,https://christmasworld.messefrankfurt.com,DM,RBR Light SRL,E10,9.0,www.rbrlight.it,,,,83050 Scampitella AV Rione Lavanga 47,Italy,,,,RBR LIGHT is a company specialized in the realization of illuminated artistic installations by reinterpretating the tradition...
Ambiente,01/28/2022,2022,https://christmasworld.messefrankfurt.com,DM,Robin Reed Ltd.,A28,12.0,www.robinreed.com,julian@robinreed.com,44121 500 2800,,"B70 7TN West Bromwich, West Midlands Unit 3 Kelvin Way Trading Estate",Great Britain and Northern Ireland,Christmas & Seasonal decoration | Visual Merchandising & Light,,,"English Christmas Crackers

	We are all about Crackers !
	British designed Crackers that are handmade extraordinarily, unmatched..."
Ambiente,01/28/2022,2022,https://christmasworld.messefrankfurt.com,DM,Richful Homewares Limited,B88,12.1,,yuki.trend@163.com,008659522892177,,"362000 Quanzhou Industrial Area, Beifeng, Fengze",China,Christmas & Seasonal decoration | Florists' requisites & Garden decoration,,,"The company is mainly engaged in all kinds of Gardens & Seasonal products. Products include Garden, Christmas, Halloween..."
Ambiente,01/28/2022,2022,https://christmasworld.messefrankfurt.com,DM,Sandra Rich GmbH,A40,8.0,www.sandrarich.eu,,,,56424 Ebernhahn Sälzerstr. 4,Germany,Christmas & Seasonal decoration | Candles & Fragrances,,,"Sandra Rich is your competent contact person and specialist as well as system supplier for high-quality glass, porcelain..."
Ambiente,01/28/2022,2022,https://christmasworld.messefrankfurt.com,DM,Riffelmacher &amp; Weinberger Christbaumschmuck- Fabrik GmbH &amp; Co. KG,B21,9.0,www.riffelmacher.de,manuela.baier@riffelmacher.de,09119644124,,91154 Roth Norisstr. 1,Germany,Christmas & Seasonal decoration,,,Tradition combined with innovation - these are the components that make Riffelmacher & Weinberger so unique and successful...
Ambiente,01/28/2022,2022,https://christmasworld.messefrankfurt.com,DM,RJB Stone Ltd. - Sass &amp; Belle,B91,11.0,www.sassandbelletrade.co.uk,,,,SW11 5QL London Unit 134-135 Battersea Business,Great Britain and Northern Ireland,,,,"At Sass & Belle, our promise is to provide loveable, trend-led designs to an ever evolving gift market.
	
	From the birth..."
Ambiente,01/28/2022,2022,https://christmasworld.messefrankfurt.com,DM,Gerd Rodermund GmbH &amp; Co. KG,A50,9.0,www.rodermund.de,,,,77972 Mahlberg Schmiedeweg 6-8,Germany,Christmas & Seasonal decoration | Visual Merchandising & Light,,,"For 50 years, the company Gerd Rodermund GmbH & Co. KG has remained one of the leading suppliers of any kind of decoration..."
Ambiente,01/28/2022,2022,https://christmasworld.messefrankfurt.com,DM,Royal Nature GmbH &amp; Co. KG (English Tea Shop Germany),D58,12.0,https://www.royal-nature.de,,,,58553 Halver Langenscheid 2-6,Germany,Christmas & Seasonal decoration,,,English Tea Shop (UK) Ltd is a 100% privately owned company based in the United Kingdom. It has its own manufacturing facility...
Ambiente,01/28/2022,2022,https://christmasworld.messefrankfurt.com,DM,SABODesign GmbH,A10,11.0,www.sabodesign.de,,,,47906 Kempen An Eulen 7,Germany,,,,SABODesign is a medium-sized company from Germany. Since many years we distribute successfully the lovingly designed ceramic...
Ambiente,01/28/2022,2022,https://christmasworld.messefrankfurt.com,DM,OOO Sad Radosti,B54,9.0,https://svet.sadradosti.ru/,export@sadradosti.ru,,,404181 Volgograd Tenistaya ul. 8,Russia,Visual Merchandising & Light,,,We are one of the largest full-cycle producers of decorative light figures in Russia. The name of company is translated as “The Garden...
Ambiente,01/28/2022,2022,https://christmasworld.messefrankfurt.com,DM,SAG New Look,D99,12.1,,MAIL@SAGNL-IPMI.COM,+91 591 2223051,,244001 Moradabad Tavela Street (Iqbal House),India,Christmas & Seasonal decoration | Candles & Fragrances,,,"SAG NEW LOOK COMPANY PROFILE Established in 1960, Began by our ancestors who did a lot of hard work and talent by their master..."
Ambiente,01/28/2022,2022,https://christmasworld.messefrankfurt.com,DM,SAICO GmbH Seiffen,A18,12.0,www.saico-group.de,,,,09526 Olbernhau Heinrich-Heine-Weg 2,Germany,Christmas & Seasonal decoration,,,"Visit us at christmasworld to discover our new collection:Saico - Woodcraft from the ""German Erzgebirge""""Made in Germany..."
Ambiente,01/28/2022,2022,https://christmasworld.messefrankfurt.com,DM,Salon Spezerei Inh. Ana Ortega,C41,12.0,www.salon-spezerei.de,,,,83646 Bad Tölz Tannenbergstrasse 1,Germany,,,,
Ambiente,01/28/2022,2022,https://christmasworld.messefrankfurt.com,DM,San Chiou Incorporated,F99,12.1,www.sanchiou.com,kej@kroyplay.com,,,"11164 Taipei No. 8, Alley 4, Lane 45, She Cheng Rd., Shilin Dist.",Taiwan,Ribbons & Wrapping,,,"Founded in 1980, San Chiou is a leading professional paper packaging solution provider in Taiwan, providing our customers..."
Ambiente,01/28/2022,2022,https://christmasworld.messefrankfurt.com,DM,Sawrasko-Glas Kogan,D91,12.0,www.sawrasko.de,,,,31191 Algermissen Hauptstr. 9c,Germany,,,,"SAWRASKO-GLAS ist eine Produktionsfirma die auf eine 20-järige Tradition und Erfahrung.
	
	Wir sind Hersteller von mundgeblasenen..."
Ambiente,01/28/2022,2022,https://christmasworld.messefrankfurt.com,DM,Schlaraffenland GmbH,C11,8.0,www.schlaraffenland.at,,,,5081 Anif Sonystraße 20,Austria,Christmas & Seasonal decoration | Candles & Fragrances,,,"The company was founded in 1991 by Mr. Bernhard Illich. Business mission is the trade of essential oils, scented candles..."
Ambiente,01/28/2022,2022,https://christmasworld.messefrankfurt.com,DM,Schulte Kunstgewerbe International GmbH &amp; Co. KG,D55,12.0,www.schulte-kunst.de,,,,49733 Haren (Ems) Twister Str. 3,Germany,,,,"Your specialist for Christmas decoration, Easterdecoration and seasonal products.
	Schulte Kunstgewerbe Import Export is a family..."
Ambiente,01/28/2022,2022,https://christmasworld.messefrankfurt.com,DM,Schusters Spezialit&auml;ten GbR,C43,12.0,www.schusters-shrub.de,,,,96181 Untersteinbach Hauptstr. 2b,Germany,Christmas & Seasonal decoration,,,"Schusters Spezialitäten is a family business, which is specialised on the production of syrups without additional flavours..."
Ambiente,01/28/2022,2022,https://christmasworld.messefrankfurt.com,DM,The Seasonal Group,E80,9.0,www.theseasonalgroup.co.uk,,,,"HX1 2TY Halifax Brunswick Mill, Westfield St 14",Great Britain and Northern Ireland,,,,
Ambiente,01/28/2022,2022,https://christmasworld.messefrankfurt.com,DM,8 seasons design GmbH,A81,9.0,www.8-seasons-design.de,,,,28207 Bremen Hastedter Osterdeich 250,Germany,Visual Merchandising & Light | Florists' requisites & Garden decoration,,,8 seasons design is a young dynamic company focused on the development and distribution of design indoor and outdoor lighting...
Ambiente,01/28/2022,2022,https://christmasworld.messefrankfurt.com,DM,Sethi Handicrafts Pvt. Ltd.,F98,12.1,www.sethihandicraft.com,,,,"110096 East Delhi A-51, Allahabad Bank Staff, CGHS",India,,,,
Ambiente,01/28/2022,2022,https://christmasworld.messefrankfurt.com,DM,Seyko-Geschenke  Inh. Heiko Seyferth,D41,12.0,www.seyko-geschenke.de,,,,09337 Hohenstein-Ernstthal Brückenstraße 10,Germany,Christmas & Seasonal decoration,,,
Ambiente,01/28/2022,2022,https://christmasworld.messefrankfurt.com,DM,Shishi AS,C50,11.0,www.shishi.ee,katlin@shishi.ee,,,10415 Tallinn Peetri 3,Estonia,Christmas & Seasonal decoration | Florists' requisites & Garden decoration,,,"Shishi is a Norwegian-Estonian joint venture established in 1998 by Linda Johnsen, Lilli Bendriss, Taivo Piller and Mart..."
Ambiente,01/28/2022,2022,https://christmasworld.messefrankfurt.com,DM,Ltd Siga Group,H45,8.0,www.sigagroup.com.ua,,,,78293 Kovalivka Shakhtarska 20,Ukraine,,,,"The largest producer of artificial Christmas tree in Ukraine
	production of artificial Christmas trees, coniferous garlands..."
Ambiente,01/28/2022,2022,https://christmasworld.messefrankfurt.com,DM,Si.Gi. Impianti Elettrici S.N.C.,D88,9.0,www.grupposigi.it,info@grupposigi.it,,,"63831 Rapagnano Via Don Luigi Sturzo, 24",Italy,Visual Merchandising & Light,,,The Gruppo Si.Gi. is a company operating since 1998 in the design and manufacture of Decorative & Christmas Lights. The Gruppo...
Ambiente,01/28/2022,2022,https://christmasworld.messefrankfurt.com,DM,SIGRO Import Export Gro&szlig;handel e.K. Mike Singer,A30,12.0,www.sigro.com,,,,08223 Falkenstein Heinrich-Heine-Str. 14,Germany,Christmas & Seasonal decoration,,,Ihr Fachhandel für Saison- und Dekorationsartikel aus dem Vogtland!Alles was das Leben schöner macht: SIGRO bietet Dekorations...
Ambiente,01/28/2022,2022,https://christmasworld.messefrankfurt.com,DM,Silk-ka BV,F50,8.0,www.silk-ka.com,,,,7559 SP Hengelo Jan Tinbergenstraat 201,Netherlands,Florists' requisites & Garden decoration,,,It is our business to design and create silk flower & plant collections. These originally Dutch collections are handmade...
Ambiente,01/28/2022,2022,https://christmasworld.messefrankfurt.com,DM,Sintesi e Ricerca S.P.A.,C60,8.0,www.cere.it,,,,"12025 Dronero, CN Via IV Novembre 30",Italy,,,,SER is one of the European Leader for the producetion of waxes and Candles. Our candle range is complete and for different...
Ambiente,01/28/2022,2022,https://christmasworld.messefrankfurt.com,DM,Sirius Company AS,A10,9.0,www.sirius.as,,,,3450 Allerod Engholm Parkvej 3,Denmark,,,,
Ambiente,01/28/2022,2022,https://christmasworld.messefrankfurt.com,DM,S.L.Packaging Pvt. Ltd.,C89,12.1,www.slpackaging.in,INFO@SLPACKAGING.IN,,,"700006 Kolkata Green Plaza, 67 MD Road, Suite 101",India,Christmas & Seasonal decoration,,,"S L PACKAGING PVT LTD is Socially SA8000 Audited, SEDEX Registered, Govt. of India Recognized Star Export House, ISO 9001..."
Ambiente,01/28/2022,2022,https://christmasworld.messefrankfurt.com,DM,LLC &acute;&acute;SMART STROY DEVELOPMENT&acute;&acute;,B88,9.0,,,,,"61184 Kharkiv Lesia Serdyuk Street, Building. 12, Kv. 204 12",Ukraine,,,,
Ambiente,01/28/2022,2022,https://christmasworld.messefrankfurt.com,DM,Soendgen Keramik GmbH,F92,8.0,www.soendgen.de,,,,53501 Grafschaft-Gelsdorf Albert-Einstein-Straße 13,Germany,Florists' requisites & Garden decoration,,,"For more than 125 years, Soendgen Keramik has been synonymous with high quality “made in Germany” ceramic vessels. We offer..."
Ambiente,01/28/2022,2022,https://christmasworld.messefrankfurt.com,DM,Sompex GmbH &amp; Co. KG,A20,9.0,www.sompex.de,,,,40549 Düsseldorf Werftstr. 20-22,Germany,,,,"This is exactly what we mean, applied daily and fully, although it may perhaps sound a little flippant. Bringing light..."
Ambiente,01/28/2022,2022,https://christmasworld.messefrankfurt.com,DM,Sopp Industrie GmbH,D98,8.0,www.sopp.de,dohle@sopp.de,+49-2191-567-119,,42899 Remscheid Gerberstr. 24,Germany,Christmas & Seasonal decoration | Ribbons & Wrapping,,,"Our track record goes back a long way. Since 1888, SOPP has been manufacturing ribbons and bows, which have always awarded..."
Ambiente,01/28/2022,2022,https://christmasworld.messefrankfurt.com,DM,Spectra Deco BV,E51,8.0,www.spectradeco.com,,,,8171 MD Vaassen Radeweg 21,Netherlands,Christmas & Seasonal decoration | Florists' requisites & Garden decoration,,,"Spectra Deco - Better by natureSupplier of natural decorative materials, that is Spectra Deco in a nutshell. Our motto is ‘Better..."
Ambiente,01/28/2022,2022,https://christmasworld.messefrankfurt.com,DM,Spherical Designs,A94,12.1,www.sphericaldesigns.co.in,sales.abyss@gmail.com,,,"201301 Noida (UP) G31, Ground Floor, Sector 63",India,,,,We are young entrepreneurs established in 2009 and believes in commitments and quality assurance. We mainly works in mix...
Ambiente,01/28/2022,2022,https://christmasworld.messefrankfurt.com,DM,Spieluhrenwelt - MMM GmbH,A70,12.0,www.mmm-spieluhr.de,,,,65385 Rüdesheim am Rhein Rheinallee 7,Germany,,,,In 1993 the Mechanische Musikwerke Manufaktur (MMM) was founded by brothers Jens and Jörg Wendel in the redwine-village...
Ambiente,01/28/2022,2022,https://christmasworld.messefrankfurt.com,DM,G. Stamatopoulos &amp; Co EE,D80,11.0,www.veturbv.com,,,,17235 Athens Arkadiou 36,Greece,,,,"For 20 years Vetur BV has been a leading wholesale importer for holiday decoration. Each season, we hand select the best..."
Ambiente,01/28/2022,2022,https://christmasworld.messefrankfurt.com,DM,STAR Trading AB,D20,9.0,www.startrading.com,,,,512 50 Svenljunga Star Street 1,Sweden,Christmas & Seasonal decoration | Visual Merchandising & Light,,,Welcome to Star Trading. A family owned company with more than 30 years in the decorative lighting business!We offer a large...
Ambiente,01/28/2022,2022,https://christmasworld.messefrankfurt.com,DM,Ter Steege B.V.,F90,8.0,www.tersteege.nl,,,,7461 AD Rijssen Nijverheidsstraat 53,Netherlands,Florists' requisites & Garden decoration,,,"Ter Steege B.V., a Dutch-founded business that operates internationally, is a renowned supplier of a wide assortment of pots..."
Ambiente,01/28/2022,2022,https://christmasworld.messefrankfurt.com,DM,Gebr. Steinhart Wachswarenfabrik GmbH &amp; Co. KG,G95,8.0,www.steinhart.de,,,,86381 Krumbach (Schwaben) Buchstr. 20,Germany,Candles & Fragrances,,,"LUMINOUS ACCENTS - Candles are always in season - whether exclusive or simple, they create a captivating atmosphere on any..."
Ambiente,01/28/2022,2022,https://christmasworld.messefrankfurt.com,DM,Dr. J.Volkmar St&ouml;ber e.K.,A78,12.0,,,,,42281 Wuppertal Märkische Straße 114,Germany,Christmas & Seasonal decoration,,,In 1953 Volkmar Stöber commenced importing arts and crafts such as ceramics and hand blown glass from Sweden. By doing...
Ambiente,01/28/2022,2022,https://christmasworld.messefrankfurt.com,DM,Peter St&uuml;hler Werbefiguren Horst Baumann e.K.,E99,9.0,www.peter-stuehler.de,info@peter-steuhler.de,+49 911 79 36 60,,90765 Fürth Karl-Bröger-Str. 32,Germany,Christmas & Seasonal decoration | Visual Merchandising & Light,,,"Mechanically moving advertising figures

	We set everything in movement. Since more than 45 years all over the world in more..."
Ambiente,01/28/2022,2022,https://christmasworld.messefrankfurt.com,DM,F. Stumpf GmbH,A41,8.0,www.stumpf-band.de,,,,42327 Wuppertal Deutscher Ring 83,Germany,,,,
Ambiente,01/28/2022,2022,https://christmasworld.messefrankfurt.com,DM,Style-Box GbR,C35,12.0,www.style-box.net,,,,89231 Neu-Ulm Albrecht-Berblinger-Str. 13,Germany,,,,Tins with Passion
Ambiente,01/28/2022,2022,https://christmasworld.messefrankfurt.com,DM,Surreal Brand Solutions India Pvt Ltd,D58,9.0,www.letsgetsurreal.com,,,,"400054 Mumbai Patel House, Gazdhar Bandh, 6th floor",India,Christmas & Seasonal decoration | Visual Merchandising & Light,,,At ‘Surreal Design Studio’ we revel in the joy of creating larger than life installations that are not just disruptive...
Ambiente,01/28/2022,2022,https://christmasworld.messefrankfurt.com,DM,Diana Sveces SIA,A80,8.0,www.diana-candles.com,,,,3601 Ventspils Rupniecibas iela 33,Latvia,,,,"Although first established in year 2003, Diana Candles (Diana Sveces [the name in Latvian]) has over 40 years of experience..."
Ambiente,01/28/2022,2022,https://christmasworld.messefrankfurt.com,DM,Szklo-Dekor Sp. z o.o,C55,9.0,,,,,97300 Piotrkow Trybunalski ul. 1-go Maja 21,Poland,Christmas & Seasonal decoration,,,Who we are? Szkło-Dekor Company has been operating for over 70 years. We deal mainly with production of artistic glass Christmas...
Ambiente,01/28/2022,2022,https://christmasworld.messefrankfurt.com,DM,Michel Taillis Creation SASU,D54,9.0,www.micheltaillis.com,carole@micheltaillis.com,+33235326954,,76890 Tôtes Zone Artisanale,France,Christmas & Seasonal decoration | Visual Merchandising & Light,,,Our workshops are located in the heart of Normandy. We create and manufacture all our animated figures there. We also offer...
Ambiente,01/28/2022,2022,https://christmasworld.messefrankfurt.com,DM,Antonio Tammaro Group S.r.l.,C74,8.0,www.tammarohome.it,export@tammarohome.it,00390815057516,,80025 Casandrino Via Paolo Borsellino 142,Italy,Christmas & Seasonal decoration | Florists' requisites & Garden decoration,,,
Ambiente,01/28/2022,2022,https://christmasworld.messefrankfurt.com,DM,tec ar flor s.r.l.,A75,8.0,www.tecarflor.it,,,,20876 Ornago MB Via Santuario 18,Italy,Florists' requisites & Garden decoration,,,"100% high quality florists' accesories

	floral foam and plastic accessories manufacture"
Ambiente,01/28/2022,2022,https://christmasworld.messefrankfurt.com,DM,Thermobrass BVBA,D51,8.0,www.thermobrass.com,carine@thermobrass.com,0032478279775,,3200 Aarschot Nieuwlandlaan 59,Belgium,Christmas & Seasonal decoration | Florists' requisites & Garden decoration,,,"Thermobrass 
	 

	Bronze sculptures, garden ornaments and more!
	Our Bronzartes collection offers you a unique selection..."
Ambiente,01/28/2022,2022,https://christmasworld.messefrankfurt.com,DM,Th&uuml;ringer Glasdesign GmbH,B27,9.0,www.tgs-xmas.de,,,,98724 Neuhaus OT Steinheid Neuhäuser Strasse 8-10,Germany,,,,"As one of the last manufacturers of Christmas tree decorations in Germany, we manufacture original Thuringian Christmas..."
Ambiente,01/28/2022,2022,https://christmasworld.messefrankfurt.com,DM,"Huizhou Tianmei Arts &amp; Crafts Co.,Ltd",A79,12.1,,DAVID@TM-SANTA.COM,86-752-6363389,,"516131 Huizhou, Guangdong Industrial Zone, Futian Town,Boluo",China,Christmas & Seasonal decoration,,,"Huizhou Tianmei Arts&Crafts Co.,Ltd is located in Boluo County, Huizhou, Guangdong Province,Factory covering a total area..."
Ambiente,01/28/2022,2022,https://christmasworld.messefrankfurt.com,DM,TIMSTOR NV,E81,12.0,www.timstor.com,,,,2370 Arendonk Hoge Mauw 1040,Belgium,Christmas & Seasonal decoration,,,Timstor is a leading company in Import & Export of Christmas decorations for more than 30 years. We are specialized in Christmas...
Ambiente,01/28/2022,2022,https://christmasworld.messefrankfurt.com,DM,Tinker Tailor Ltd,A74,11.0,www.tinkertailorlondon.com,,,,N3 3HR London Regents Park Road 180A,Great Britain and Northern Ireland,,,,
Ambiente,01/28/2022,2022,https://christmasworld.messefrankfurt.com,DM,Top Ten Handels GmbH,F97,9.0,www.tt-gmbh.de,,,,48308 Senden Messingweg 8,Germany,,,,
Ambiente,01/28/2022,2022,https://christmasworld.messefrankfurt.com,DM,Toscana Carte Pregiate S.r.l.,C70,8.0,,,,,51015 Monsummano Terme Via Luciano Lama 101,Italy,,,,
Ambiente,01/28/2022,2022,https://christmasworld.messefrankfurt.com,DM,Tropicana Exotics,C88,12.1,www.tropicana-dryflowers.com,sc.tropicana@gmail.com,,,700017 Kolkata 3A Auckland Place,India,Florists' requisites & Garden decoration,,,"Tropicana brings you a wide range of natural floral decorations, dried exotics flowers, pods, bouquets and potpourri botanicals..."
Ambiente,01/28/2022,2022,https://christmasworld.messefrankfurt.com,DM,TROWA Manufaktur-Import Inh.: Ludger Wallrad,A30,11.0,www. trowa.de,,,,46397 Bocholt Binnenheide 2,Germany,,,,"TROWA Manufactory since 1984

	Specialist in floral sprice arrangements and Christmas dekoration. We help the christmas..."
Ambiente,01/28/2022,2022,https://christmasworld.messefrankfurt.com,DM,M/S Two Brothers Holding Ltd.,F81,12.1,www.alamode.co.in,,,,"110034 Pitampura, Delhi 4 G, Bigjo's Tower, Netaji Subhash",India,,,,
Ambiente,01/28/2022,2022,https://christmasworld.messefrankfurt.com,DM,Christian Ulbricht GmbH &amp; Co. KG,A20,12.0,www.ulbricht.com,heike.walther@ulbricht.com,+49 (0)37362 775-111,,09548 Kurort Seiffen Oberheidelberger Str. 4A,Germany,Christmas & Seasonal decoration,,,"What makes a vintage painting, a piece of fine furniture or a wooden statue so precious that a collector might pay a premium..."
Ambiente,01/28/2022,2022,https://christmasworld.messefrankfurt.com,DM,ULPE WOOD ART KRIPPEN/NATIVITIES,C70,12.0,www.ulpe.com,,,,39040 Laion Pontives 32,Italy,Christmas & Seasonal decoration,,,UNIQUE AND AGELESS ULPE WOOD ART ® guarantees highest quality sculptures! One of the leading art studios in woodcarving art...
Ambiente,01/28/2022,2022,https://christmasworld.messefrankfurt.com,DM,Vac International,H87,12.1,www.vacinternational.com,vac@vacdriedflowers.com,+913322305545,,"700001 Kolkata 16, Strand Road, 9th Floor",India,Florists' requisites & Garden decoration,,,VAC International was established in the year 1995 and since then it has been involved in manufacturing of dried flowers...
Ambiente,01/28/2022,2022,https://christmasworld.messefrankfurt.com,DM,Van Manen Veenendaal BV,E55,8.0,www.manen.nl,rvonkeman@manen.nl,0031318549176,,3903 LA Veenendaal Wageningselaan 8,Netherlands,,,,"Van Manen is an importer of home-decoration, gifts and toys. The combination of home decoration and toys is unique, and that´s..."
Ambiente,01/28/2022,2022,https://christmasworld.messefrankfurt.com,DM,Vedeco B.V.,C26,12.0,www.vedeco.nl,,,,4691 RH Tholen Postweg 3a,Netherlands,Christmas & Seasonal decoration,,,"Vedeco is based in the Netherlands, and imports and exports carefully selected, exclusive decorative products from all over..."
Ambiente,01/28/2022,2022,https://christmasworld.messefrankfurt.com,DM,Royal Christmas - Dennis Veldpape,H10,8.0,www.royalchristmas.com,dennis@royalchristmas.com.hk,,,9671 JH Winschoten Engelstilstraat 14,Netherlands,Florists' requisites & Garden decoration,,,"Welcome to Royal Christmas, the Christmas trees and accessories specialist since 1936. Royal Christmas is specialized in the newest..."
Ambiente,01/28/2022,2022,https://christmasworld.messefrankfurt.com,DM,VERS DEKO UAB,A53,8.0,www.versdeko.lt,,,,74111 Jurbarkas Statybininku 4,Lithuania,,,,Exceptionally designed and handmade decor products made of natural materials that make your home cosyand warm. This range...
Ambiente,01/28/2022,2022,https://christmasworld.messefrankfurt.com,DM,Victoria Grzegorz Wozniak,A65,8.0,www.victoriasponge.eu,,,,32-080 Morawica Mnikow 318,Poland,,,,VICTORIA has been in the floral industry since 1994. It is an international company specialized in the field of floral...
Ambiente,01/28/2022,2022,https://christmasworld.messefrankfurt.com,DM,Vierblatt Handel GmbH,D88,12.1,,wangchumo@vierblatt-handel.com,,,65760 Eschborn Mergenthaler Allee 15-21,Germany,Christmas & Seasonal decoration | Candles & Fragrances,,,
Ambiente,01/28/2022,2022,https://christmasworld.messefrankfurt.com,DM,Villa Verde Sp. z o.o.,C20,8.0,www.villa-verde.eu,boris.ramb@villa-verde.eu,,,33-240 Zabno Ul. Szkotnik 9,Poland,Candles & Fragrances,,,"Villa Verdeis your competent partner in the fields of Home and Decoration for more than 10 years.
	With the brand “Villa..."
Ambiente,01/28/2022,2022,https://christmasworld.messefrankfurt.com,DM,Vimin Box S.r.l.,D50,8.0,www.viminbox.com,,,,12030 Lagnasco Via Emanule T. d´ Azeglio 2,Italy,Christmas & Seasonal decoration | Florists' requisites & Garden decoration,,,"Vimin Box is an import and export company dealing in products for the Far East, with a huge range of willow and bamboo..."
Ambiente,01/28/2022,2022,https://christmasworld.messefrankfurt.com,DM,Vina Emporium Inh. Thi Hue Tran,E54,12.0,www.vinaemporium.de,info@vinaemporium.de,06897764799,,66125 Saarbrücken Am Neuhauser Weg 70,Germany,Christmas & Seasonal decoration,,,Since 2004 we present a large programm of glass miniatures and Fusing glass . Our products are all made by hand.
Ambiente,01/28/2022,2022,https://christmasworld.messefrankfurt.com,DM,Vinnemeier Textil- und Schuhimport GmbH,E21,8.0,www.vinnemeier-textil.de,,,,33397 Rietberg Langenberger Str. 55,Germany,,,,
Ambiente,01/28/2022,2022,https://christmasworld.messefrankfurt.com,DM,"Visions Innovation Co.,Ltd.",A97,12.1,www.visionsinno.com,Eva_nee@visionsinno.com,0086*571*86086779,,310000 Hangzhou No 65 Luxiang,China,Christmas & Seasonal decoration,,,"Visions Innovation Co., Ltd is a professional lighting trading company trading company.We focus on this area for 15years,and..."
Ambiente,01/28/2022,2022,https://christmasworld.messefrankfurt.com,DM,VIVANT Decorations B.V.,E70,8.0,www.vivantdecorations.com,,,,6199 AE Maastricht Airport Amerikalaan 21,Netherlands,Visual Merchandising & Light | Ribbons & Wrapping,,,"BE INSPIRED
	
	Since its foundation in 1989 Vivant became a leading producer for lifestyle and decoration products as well..."
Ambiente,01/28/2022,2022,https://christmasworld.messefrankfurt.com,DM,VivelaFleur B.V.,H35,8.0,www.vivelafleur.eu,,,,3342 GT Hendrik-Ido-Ambacht Het Tasveld 9,Netherlands,Florists' requisites & Garden decoration,,,
Ambiente,01/28/2022,2022,https://christmasworld.messefrankfurt.com,DM,VJS International,B98,12.1,www.vjsinternational.com,,,,"110045 New Delhi M-21/22, Vishwakarma Colony, Pul",India,,,,"WE ARE DEALING IN WOODEN, GLASS & METAL ARTICLES WHICH ARE TOTALLY UNIQUE."
Ambiente,01/28/2022,2022,https://christmasworld.messefrankfurt.com,DM,VNK Profaan B.V.,D20,8.0,www.wackx.nl,hein@wackx.nl,+31 73 553 0918,,5482 TN Schijndel Galvaniweg 20,Netherlands,Candles & Fragrances,,,Wackx creates foxy candles since 1871.The result of all these years of experience and know-how?High quality candles in an amazing...
Ambiente,01/28/2022,2022,https://christmasworld.messefrankfurt.com,DM,Patrick Vogel,B03,11.0,,,,,08262 Muldenhammer Rißbrücker Weg 9,Germany,,,,
Ambiente,01/28/2022,2022,https://christmasworld.messefrankfurt.com,DM,B.V. Voorheen Firma Hans Verhagen,C40,8.0,www.verhagengroup.com,,,,5482 VS Schijndel Nieuwe Eerdsebaan 10A,Netherlands,,,,Our brand started with the sale of ScentChips; vibrant wax chips that release a delightful fragrance when placed in a burner...
Ambiente,01/28/2022,2022,https://christmasworld.messefrankfurt.com,DM,Werner Vo&szlig; GmbH Handel &amp; Marketing,A30,8.0,www.wernervoss.com,,,,48161 Münster Feldstiege 60,Germany,Christmas & Seasonal decoration,,,Bring Adventure Home - This sentence is not just a motto for us but it is central to the way we operate since 1986.​ At Werner...
Ambiente,01/28/2022,2022,https://christmasworld.messefrankfurt.com,DM,Wandera GmbH,C51,12.0,www.wandera-schnitzereien.de,,,,93149 Nittenau Am Wellenbach 9,Germany,,,,"Wanderer GmbH 

	From a traditional family business from the Bavarian Forest with decades of tradition, the company Wandera..."
Ambiente,01/28/2022,2022,https://christmasworld.messefrankfurt.com,DM,PT. Wax Industri Nusantara,A71,8.0,,,,,"63251 Ngawi, East Java Jl. Raya Ngawi-Caruban KM 4",Indonesia,,,,
Ambiente,01/28/2022,2022,https://christmasworld.messefrankfurt.com,DM,Weihnachtsland GmbH,D10,9.0,www.weihnachtsland.com,,,,83026 Rosenheim Happinger-Au-Str. 1,Germany,Christmas & Seasonal decoration,,,Weihnachtsland GmbH is a medium-sized family business in its fourth generation with over 100 years of experience and expertise...
Ambiente,01/28/2022,2022,https://christmasworld.messefrankfurt.com,DM,K.A. Weiste Oy,B60,9.0,www.weiste.com,,,,00720 Helsinki Kalle Weisteen katu 4,Finland,,,,
Ambiente,01/28/2022,2022,https://christmasworld.messefrankfurt.com,DM,Richard Wenzel GmbH &amp; Co. KG,D71,8.0,www.wenzel-kerzen.de,,,,63741 Aschaffenburg Benzstrasse 5,Germany,Candles & Fragrances,,,PhilosophyTraditionally innovative.Enlightening Innovations since 1899.Our long-standing tradition not only describes production...
Ambiente,01/28/2022,2022,https://christmasworld.messefrankfurt.com,DM,WE TRADE SRL,E85,9.0,www.wetradesrl.it,,,,"81032 Carinaro Zona ASI Aversa Nord, Consorzio Impre.Co Lotto 11",Italy,,,,We Trade srl is the result of years of research and development in the indoor and outdoor Christmas lighting area. Out catalog...
Ambiente,01/28/2022,2022,https://christmasworld.messefrankfurt.com,DM,wondercandle RCB Handels- und Marketing Beratungsgesellschaft mbH,C47,12.0,www.wondercandle.de,bestellung@wondercandle.de,+49724372839900,,76275 Ettlingen Einsteinstr. 53,Germany,Christmas & Seasonal decoration | Visual Merchandising & Light,,,"wondercandle® stands for delight and celebration of a variety of events such as birthdays, Valentine’s Day, wedding anniversary..."
Ambiente,01/28/2022,2022,https://christmasworld.messefrankfurt.com,DM,Wonderful Lighting Sp. z o.o.,A78,9.0,,,,,81-506 Gdynia Ul. Stryjska 24,Poland,,,,
Ambiente,01/28/2022,2022,https://christmasworld.messefrankfurt.com,DM,Wood Art,G81,12.1,,,,,247001 Saharanpur Nadeem Colony Eidgah Road,India,,,,"Welcome to Wood Art !""Our name reflects the real meaning of wooden handicrafts as it not just a product but it is a real..."
Ambiente,01/28/2022,2022,https://christmasworld.messefrankfurt.com,DM,"Wunderle, Heike Bringemeier e.K.",C28,12.0,www.wunderle.com,,,,49477 Ibbenbüren Glücksburger Straße 29,Germany,Christmas & Seasonal decoration,,,
Ambiente,01/28/2022,2022,https://christmasworld.messefrankfurt.com,DM,G. Wurm GmbH + Co. KG,B10,12.0,www.wurmkg.de,,,,51107 Köln Wikingerstr. 69,Germany,Christmas & Seasonal decoration,,,Your importer and wholesaler for gift items and decoration. The company G. Wurm was founded in 1958 in Cologne by Günter...
Ambiente,01/28/2022,2022,https://christmasworld.messefrankfurt.com,DM,"Zhejiang Huangyan Xindi Handicraft &amp; Knitwear Co., Ltd.",F94,12.1,www.xindigroup.com,xindi@vip.163.com,0086-576-84998368,,"318020 Huangyan, Taizhou, Zhejiang",China,Christmas & Seasonal decoration,,,"Zhejiang Huangyan Xindi Handicraft & Knitwear Co., Ltd (YIDI), established in 1993, is specialized in producing a wide range..."
Ambiente,01/28/2022,2022,https://christmasworld.messefrankfurt.com,DM,X-Style Concept Limited,D91,12.1,www.x-styleconcept.com,,,,"Mongkok, Kowloon Plaza, 610 Nathan Road",Hong Kong,,,,Company X-STYLE CONCEPT LIMITED is producing their own developed products in China and has a strong sourcing and design...
Ambiente,01/28/2022,2022,https://christmasworld.messefrankfurt.com,DM,Zajc Design d.o.o.,A54,11.0,www.spirachristmas.com/,,,,4220 Skofja Loka Pod Plevno 55,Slovenia,Christmas & Seasonal decoration | Florists' requisites & Garden decoration,,,Spira is a collection of decorative wooden trees and decorations created in the embrace of the Alps. The entire collection...
Ambiente,01/28/2022,2022,https://christmasworld.messefrankfurt.com,DM,S.I. Zwartz B.V.,D30,8.0,www.zwartz.nl,,,,7575 ED Oldenzaal Münsterstraat 5,Netherlands,,,,"S.I. Zwartz B.V., originated in 1835, is a textile company, which produces various decorative products.
	The applications..."
