ShowName,ShowDate,ShowYear,ShowWebsite,SubmittedBy,ExhibitorName,BoothNumber,HallLocation,Website,Email,Phone,Fax,Address,Country,Categories,Manufacturers,Brands,Description
Formland - January,03/02/2022,2022,https://www.formland.com/,DM,2have,8220,K,,,,,Støvring,,,,,
Formland - January,03/02/2022,2022,https://www.formland.com/,DM,Burhens sp.zo o,9218,L,,,,,Przodkowo,,,,,
Formland - January,03/02/2022,2022,https://www.formland.com/,DM,Blue Duck Command,5300,F,,,,,Struer,,,,,
Formland - January,03/02/2022,2022,https://www.formland.com/,DM,Bloom K,5154,F,,,,,Herning,,,,,
Formland - January,03/02/2022,2022,https://www.formland.com/,DM,Blomus GmbH,5176,F,,,,,Sundern,,,,,
Formland - January,03/02/2022,2022,https://www.formland.com/,DM,Blomsterautomaten.dk,8112,K,,,,,Horsens,,,,,
Formland - January,03/02/2022,2022,https://www.formland.com/,DM,BeGin,4124,E,,,,,Tureby,,,,,
Formland - January,03/02/2022,2022,https://www.formland.com/,DM,Barbara,8114,K,www.barbarashop.dk,,,,"Esbjerg V, Danmark",Danmark, | Kunstige blomster,,,Barbara sælger kunstige blomster og planter
Formland - January,03/02/2022,2022,https://www.formland.com/,DM,Bolcheværk,4132,E,,,,,Skødstrup,,,,,
Formland - January,03/02/2022,2022,https://www.formland.com/,DM,Ørskov & Co. A/S,3170,D,,,,,Espergærde,,,,,
Formland - January,03/02/2022,2022,https://www.formland.com/,DM,Én Gry & Sif,3230,D,,,,,Ringsted,,,,,
Formland - January,03/02/2022,2022,https://www.formland.com/,DM,ZoZozial Coffee Roasters ApS,4214,E,,,,,Svendborg,,,,,
Formland - January,03/02/2022,2022,https://www.formland.com/,DM,Xocolatl,4350,E,,,,,Haderslev,,,,,
Formland - January,03/02/2022,2022,https://www.formland.com/,DM,Würtz Design,8115,K,,,,,Bording,,,,,
Formland - January,03/02/2022,2022,https://www.formland.com/,DM,Westphall Trading ApS,8160,K,,,,,Ringsted,,,,,
Formland - January,03/02/2022,2022,https://www.formland.com/,DM,Westjysk Smag,4166,E,,,,,Skjern,,,,,
Formland - January,03/02/2022,2022,https://www.formland.com/,DM,Wally and Whiz Aps,4112,E,,,,,Værløse,,,,,
Formland - January,03/02/2022,2022,https://www.formland.com/,DM,VUDEX d.o.o.,7232,J,,,,,Ljubljana,,,,,
Formland - January,03/02/2022,2022,https://www.formland.com/,DM,Vondels B.V.,5030,F,,,,,CE Aalsmeer,,,,,
Formland - January,03/02/2022,2022,https://www.formland.com/,DM,VINDING et CO A/S,7238,J,,,,,Grindsted,,,,,
Formland - January,03/02/2022,2022,https://www.formland.com/,DM,Vestjyske Delikatesser i/s,4210,E,,,,,Holstebro,,,,,
Formland - January,03/02/2022,2022,https://www.formland.com/,DM,Vesterhavsmost Aps,4270,E,,,,,Ringkøbing,,,,,
Formland - January,03/02/2022,2022,https://www.formland.com/,DM,Vejenlyst,5345,F,vejn.dk,,,,"Frørup, Danmark",Danmark, | Lampeskærme | Pendler |  | Design,Vejenlyst,Vejn,The luminous jellyfish is a cozy lamp that can be used anywhere. We believe a luminous gople is a dream vision that fascinates many people. The lamp creates a special atmosphere in the room it illuminates.
Formland - January,03/02/2022,2022,https://www.formland.com/,DM,Vejenlyst,5345,F,vejn.dk,,,,"Frørup, Danmark",Danmark, | Lampeskærme | Pendler |  | Design,Vejenlyst,Vejn,The luminous jellyfish is a cozy lamp that can be used anywhere. We believe a luminous gople is a dream vision that fascinates many people. The lamp creates a special atmosphere in the room it illuminates.
Formland - January,03/02/2022,2022,https://www.formland.com/,DM,Unique Furniture A/S,9240,L,,,,,Kolding,,,,,
Formland - January,03/02/2022,2022,https://www.formland.com/,DM,Underflod ApS,5335,F,,,,,Odense C,,,,,
Formland - January,03/02/2022,2022,https://www.formland.com/,DM,Uldkompagniet,6240,H,,,,,Brovst,,,,,
Formland - January,03/02/2022,2022,https://www.formland.com/,DM,U Go GrlZ I/S,5334,F,ugogrlz.com,,,,"København, Denmark",Denmark, | Bæredygtighed |  | Kunsthåndværk |  | Firmagaver |  | Butiksindretning |  | Design |  | Grafisk kunst | Plakater |  | Dekoration | Klistermærker |  | Barnedåb | Bryllup | Fastelavn | Halloween | Jul | Påske | Valentinsdag | Fødselsdag,,,"Handmade happy figurines, not bothered by rigid beauty standards ❤"
Formland - January,03/02/2022,2022,https://www.formland.com/,DM,U Go GrlZ I/S,5334,F,ugogrlz.com,,,,"København, Denmark",Denmark, | Bæredygtighed |  | Kunsthåndværk |  | Firmagaver |  | Butiksindretning |  | Design |  | Grafisk kunst | Plakater |  | Dekoration | Klistermærker |  | Barnedåb | Bryllup | Fastelavn | Halloween | Jul | Påske | Valentinsdag | Fødselsdag,,,"Handmade happy figurines, not bothered by rigid beauty standards ❤"
Formland - January,03/02/2022,2022,https://www.formland.com/,DM,Trædition,5348,F,www.trædition.dk,,,,"Vanløse, Danmark",Danmark, | Borde | Designmøbler | Hylder | Opbevaring,,,Trædition er et nyt og frisk skud på stammen indenfor dansk møbeldesign.
Formland - January,03/02/2022,2022,https://www.formland.com/,DM,Trædition,5348,F,www.trædition.dk,,,,"Vanløse, Danmark",Danmark, | Borde | Designmøbler | Hylder | Opbevaring,,,Trædition er et nyt og frisk skud på stammen indenfor dansk møbeldesign.
Formland - January,03/02/2022,2022,https://www.formland.com/,DM,Trademark Living A/S,7138,J,https://www.trademarkliving.dk/,,,,"Skanderborg, Danmark",Danmark, | Toiletspande |  | Bæredygtighed | Genbrug |  | Bordlamper | Gulvlamper | Lampeskærme | Lyspærer | Pendler |  | Lysestager | Accessories | Urtepotteskjuler | Vaser |  | Firmagaver |  | Butiksindretning | Emballage |  | Puder |  | Krukker |  | Accessories | Glas | Skåle |  | Punge | Tasker | Toilettasker |  | Borde | Designmøbler | Hylder | Kommoder | Opbevaring | Reoler | Skænke | Skamler | Stole | Spiseborde | Lænestole | Vitrineskabe |  | Rådgivning,,,"Trademark Living is a Danish furniture and interior design company that, with a great love for recycling and sustainable materials, creates completely unique interior solutions for you and your business."
Formland - January,03/02/2022,2022,https://www.formland.com/,DM,Trademark Living A/S,7138,J,https://www.trademarkliving.dk/,,,,"Skanderborg, Danmark",Danmark, | Toiletspande |  | Bæredygtighed | Genbrug |  | Bordlamper | Gulvlamper | Lampeskærme | Lyspærer | Pendler |  | Lysestager | Accessories | Urtepotteskjuler | Vaser |  | Firmagaver |  | Butiksindretning | Emballage |  | Puder |  | Krukker |  | Accessories | Glas | Skåle |  | Punge | Tasker | Toilettasker |  | Borde | Designmøbler | Hylder | Kommoder | Opbevaring | Reoler | Skænke | Skamler | Stole | Spiseborde | Lænestole | Vitrineskabe |  | Rådgivning,,,"Trademark Living is a Danish furniture and interior design company that, with a great love for recycling and sustainable materials, creates completely unique interior solutions for you and your business."
Formland - January,03/02/2022,2022,https://www.formland.com/,DM,Top-Line A/S,9120,L,,,,,Møldrup,,,,,
Formland - January,03/02/2022,2022,https://www.formland.com/,DM,TINTOK,5190,F,,,,,Vejle,,,,,
Formland - January,03/02/2022,2022,https://www.formland.com/,DM,Tim og Simonsen ApS,6262,H,www.timogsimonsen.dk,,,,"Vejle Øst, Danmark",Danmark, | Bælter | Sko | Tasker | Tøj,,,"Tim & Simonsen is a Danish brand designing for women since 2012. Quality footwear - sandals, sneakers and boots with great comfort and colors. Lasting leather bags and belts with a twist of joy. A wide range of basic öko-tex certified microfiber - tops, leggings and underwear in multiple, great colors."
Formland - January,03/02/2022,2022,https://www.formland.com/,DM,Tim og Simonsen ApS,6262,H,www.timogsimonsen.dk,,,,"Vejle Øst, Danmark",Danmark, | Bælter | Sko | Tasker | Tøj,,,"Tim & Simonsen is a Danish brand designing for women since 2012. Quality footwear - sandals, sneakers and boots with great comfort and colors. Lasting leather bags and belts with a twist of joy. A wide range of basic öko-tex certified microfiber - tops, leggings and underwear in multiple, great colors."
Formland - January,03/02/2022,2022,https://www.formland.com/,DM,Barbara,8114,K,www.barbarashop.dk,,,,"Esbjerg V, Danmark",Danmark, | Kunstige blomster,,,Barbara sælger kunstige blomster og planter
Formland - January,03/02/2022,2022,https://www.formland.com/,DM,Teministeriet,4162,E,,,,,Malmö,,,,,
Formland - January,03/02/2022,2022,https://www.formland.com/,DM,TE & KAFFE specialisten,4000,E,,,,,Karlslunde,,,,,
Formland - January,03/02/2022,2022,https://www.formland.com/,DM,The Mallows ApS,4128,E,,,,,Glostrup,,,,,
Formland - January,03/02/2022,2022,https://www.formland.com/,DM,Søberg Møbler ApS,9024,L,,,,,Nyborg,,,,,
Formland - January,03/02/2022,2022,https://www.formland.com/,DM,Sweetkynd Denmark,4166,E,www.sweetkynd.com,,,,"Brabrand, Danmark",Danmark, | Bæredygtighed |  | Firmagaver | Logotryk | Reklamegaver |  | Delikatesser | Økologiske fødevarer | Slik |  | Barnedåb | Bryllup | Jul | Påske | Valentinsdag | Fødselsdag,,,Sweetkynd Denmark ApS is a Danish company that offers luxury wine gums made with rosé wine. We use organic and natural ingredients in our products to create the best flavors and our mission is to offer high quality tasty organic sweets.
Formland - January,03/02/2022,2022,https://www.formland.com/,DM,Sweetkynd Denmark,4166,E,www.sweetkynd.com,,,,"Brabrand, Danmark",Danmark, | Bæredygtighed |  | Firmagaver | Logotryk | Reklamegaver |  | Delikatesser | Økologiske fødevarer | Slik |  | Barnedåb | Bryllup | Jul | Påske | Valentinsdag | Fødselsdag,,,Sweetkynd Denmark ApS is a Danish company that offers luxury wine gums made with rosé wine. We use organic and natural ingredients in our products to create the best flavors and our mission is to offer high quality tasty organic sweets.
Formland - January,03/02/2022,2022,https://www.formland.com/,DM,Sweetkitchen Engros,4255,E,,,,,Hornslet,,,,,
Formland - January,03/02/2022,2022,https://www.formland.com/,DM,Svane Design A/S,9154,L,,,,,Blokhus,,,,,
Formland - January,03/02/2022,2022,https://www.formland.com/,DM,Sufraco Savon de Marseille AB,5010,F,,,,,Åhus,,,,,
Formland - January,03/02/2022,2022,https://www.formland.com/,DM,Stuff design of scandinavia,4238,E,,,,,Fredericia,,,,,
Formland - January,03/02/2022,2022,https://www.formland.com/,DM,StudioMakuko,5315,F,,,,,Berlin,,,,,
Formland - January,03/02/2022,2022,https://www.formland.com/,DM,Strictly Design,9326,L,,,,,Randers NV,,,,,
Formland - January,03/02/2022,2022,https://www.formland.com/,DM,Tarp Bryggeri,4010,E,,,,,Esbjerg N,,,,,
Formland - January,03/02/2022,2022,https://www.formland.com/,DM,Stences ApS,5333,F,www.stences.dk,,,,"Holstebro, Danmark",Danmark, | Spejle |  | Keramik | Lysestager | Accessories | Urtepotteskjuler | Vaser |  | Design |  | Skåle,Stences ApS,,"A shared dream of creating something together as a family was in 2020 the starting shot for Stences. A family owned and operated business that bubbles and sizzles with creativity. Behind Stences are mother and daughter, Pia and Thea. Common is not only the middle name Christence, but also a drive and a passion to create."
Formland - January,03/02/2022,2022,https://www.formland.com/,DM,Stences ApS,5333,F,www.stences.dk,,,,"Holstebro, Danmark",Danmark, | Spejle |  | Keramik | Lysestager | Accessories | Urtepotteskjuler | Vaser |  | Design |  | Skåle,Stences ApS,,"A shared dream of creating something together as a family was in 2020 the starting shot for Stences. A family owned and operated business that bubbles and sizzles with creativity. Behind Stences are mother and daughter, Pia and Thea. Common is not only the middle name Christence, but also a drive and a passion to create."
Formland - January,03/02/2022,2022,https://www.formland.com/,DM,Stelton A/S,3226,D,www.stelton.dk,,,,"København K, Danmark",Danmark, | Bordlamper |  | Lysestager | Accessories | Vaser |  | Fastelavn |  | Bestik | Accessories | Udstyr | Glas | Køkkenartikler,RIG-TIG,RIG-TIG,"Stelton is a Scandinavian design company which has been a significant force within interior design since its establishment in 1960. We wish to continue the Scandinavian design heritage. Not by dwelling in history and tradition for the sake of it, but by using it as a source of inspiration and by refining and developing its unique strengths and ideals in collaboration with international architects and designers."
Formland - January,03/02/2022,2022,https://www.formland.com/,DM,State of Art,6190,H,,,,,Ålborg SV,,,,,
Formland - January,03/02/2022,2022,https://www.formland.com/,DM,Stacking Stories AB,5326,F,stackingstories.com/dk,,,,"Stockholm, Sweden",Sweden, | Accessories |  | Design |  | DIY | Papirvarer | Bøger og magasiner |  | Barnedåb,,,"Create an invaluable keepsake for you and your child. This is a memory book which stretches from pregnancy to those first days at school. Stylish and made to last a lifetime, it's the perfect centrepiece for your home now and for years to come."
Formland - January,03/02/2022,2022,https://www.formland.com/,DM,Stacking Stories AB,5326,F,stackingstories.com/dk,,,,"Stockholm, Sweden",Sweden, | Accessories |  | Design |  | DIY | Papirvarer | Bøger og magasiner |  | Barnedåb,,,"Create an invaluable keepsake for you and your child. This is a memory book which stretches from pregnancy to those first days at school. Stylish and made to last a lifetime, it's the perfect centrepiece for your home now and for years to come."
Formland - January,03/02/2022,2022,https://www.formland.com/,DM,Brafab AB,9150,L,,,,,Hishult,,,,,
Formland - January,03/02/2022,2022,https://www.formland.com/,DM,Sprit & Co. ApS.,E4134,E,www.sprit-co.dk,,,,"Frederiksberg, Danmark",Danmark, | Firmagaver |  | Chokolade | Delikatesser | Drikkevarer | Økologiske fødevarer |  | Jul | Påske |  | Accessories | Glas,,,"Siden 2006 har vi hos Sprit & Co leveret spiritus til barer, cafeer, restauranter og forhandlere i hele landet. Vi har agenturet for en række stærke kvalitetsmærker, hvilket betyder, at det er os, som repræsenterer dem på det danske marked. Men derudover fungerer vi også som grossist, og vores lager ligger derfor inde med samtlige etablerede spiritusbrands samt glas og barudstyr, så vi kan dække et hvert behov fra vores kunder."
Formland - January,03/02/2022,2022,https://www.formland.com/,DM,Broste Copenhagen,5270,F,http://www.brostecopenhagen.com,,,,"Hvidovre, Danmark",Danmark, | Spejle | Vaskeklude | Vasketøjsopbevaring |  | Bordlamper | Gulvlamper | Havelamper | Lampeskærme | Pendler |  | Keramik | Kurvevarer | Lysestager | Stearinlys | Urtepotteskjuler | Vaser |  | Plaider | Puder | Tæpper og måtter |  | Haveartikler | Havedekoration | Krukker | Lanterner og fakler |  | Dekoration |  | Jul |  | Bestik | Dækkeservietter | Accessories | Duge | Glas | Karklude | Servietter | Skåle | Spisestel | Viskestykker |  | Borde | Hylder | Opbevaring | Polstermøbler | Reoler | Skamler | Stole | Spiseborde | Lænestole | Sofa | Udendørsmøbler |  | Duftlys og æteriske olier,Broste Copenhagen,Broste Copenhagen,"aims to add a sense of familiarity to the designs of tableware, furniture, decorations & more. The SS22 collection marks a fresh start, an appetite for a new season, a playful take on everyday essentials, summer house necessities, and those little quirky treats that turn your house into a home."
Formland - January,03/02/2022,2022,https://www.formland.com/,DM,Sprit & Co. ApS,4134,E,,,,,Frederiksberg C,,,,,
Formland - January,03/02/2022,2022,https://www.formland.com/,DM,Spliid,6150,H,,,,,Hovedgård,,,,,
Formland - January,03/02/2022,2022,https://www.formland.com/,DM,spiritium.dk,4118,E,,,,,København V,,,,,
Formland - January,03/02/2022,2022,https://www.formland.com/,DM,Spice by Spice,4154,E,,,,,Farsø,,,,,
Formland - January,03/02/2022,2022,https://www.formland.com/,DM,Spunky Import,6208,H,,,,,Nørresundby,,,,,
Formland - January,03/02/2022,2022,https://www.formland.com/,DM,Speedtsberg A/S,7166,J,https://www.speedtsberg.com/da,,,,"Brabrand, Danmark",Danmark, | Spejle |  | Bæredygtighed |  | Bordlamper | Gulvlamper |  | Keramik | Kunsthåndværk | Kunstige blomster | Kurvevarer | Lysestager | Accessories | Urtepotteskjuler | Vaser |  | Plaider | Puder | Tæpper og måtter |  | Malerier |  | Blomsterbinderi artikler | Haveartikler | Havedekoration | Havemøbler | Krukker | Lanterner og fakler |  | Dekoration |  | Barnedåb | Bryllup | Påske | Valentinsdag | Fødselsdag |  | Dækkeservietter | Accessories | Duge | Glas | Porcelæn og faience | Servietter |  | Smykker |  | Borde | Designmøbler | Hylder | Kommoder | Opbevaring | Reoler | Lænestole | Udendørsmøbler | Vitrineskabe,,,"Speedtsberg is characterized by minimalism and modern Scandinavian design, which consists of interior decor, textiles, furniture etc."
Formland - January,03/02/2022,2022,https://www.formland.com/,DM,Sprit & Co. ApS.,E4134,E,www.sprit-co.dk,,,,"Frederiksberg, Danmark",Danmark, | Firmagaver |  | Chokolade | Delikatesser | Drikkevarer | Økologiske fødevarer |  | Jul | Påske |  | Accessories | Glas,,,"Siden 2006 har vi hos Sprit & Co leveret spiritus til barer, cafeer, restauranter og forhandlere i hele landet. Vi har agenturet for en række stærke kvalitetsmærker, hvilket betyder, at det er os, som repræsenterer dem på det danske marked. Men derudover fungerer vi også som grossist, og vores lager ligger derfor inde med samtlige etablerede spiritusbrands samt glas og barudstyr, så vi kan dække et hvert behov fra vores kunder."
Formland - January,03/02/2022,2022,https://www.formland.com/,DM,SoSchjelde,5332,F,,,,,Herning,,,,,
Formland - January,03/02/2022,2022,https://www.formland.com/,DM,Snoremark,4160,E,www.snoremark.dk,,,,"Roskilde, Danmark",Danmark, | Drikkevarer |  | Glas |  | Smykker,Snoremark | Woodviking | Merkurius,,"Snoremark is a small local meadery located in the countryside north of the historic town of Roskilde, Denmark. The award winning handcrafted applemead is brewed from local honey, apples and herbs found in the nature around the old farm and along the shores of Roskilde Fjord."
Formland - January,03/02/2022,2022,https://www.formland.com/,DM,Snoremark,4160,E,www.snoremark.dk,,,,"Roskilde, Danmark",Danmark, | Drikkevarer |  | Glas |  | Smykker,Snoremark | Woodviking | Merkurius,,"Snoremark is a small local meadery located in the countryside north of the historic town of Roskilde, Denmark. The award winning handcrafted applemead is brewed from local honey, apples and herbs found in the nature around the old farm and along the shores of Roskilde Fjord."
Formland - January,03/02/2022,2022,https://www.formland.com/,DM,Smallrevolution,5330,F,,,,,København,,,,,
Formland - January,03/02/2022,2022,https://www.formland.com/,DM,Speedtsberg A/S,7166,J,https://www.speedtsberg.com/da,,,,"Brabrand, Danmark",Danmark, | Spejle |  | Bæredygtighed |  | Bordlamper | Gulvlamper |  | Keramik | Kunsthåndværk | Kunstige blomster | Kurvevarer | Lysestager | Accessories | Urtepotteskjuler | Vaser |  | Plaider | Puder | Tæpper og måtter |  | Malerier |  | Blomsterbinderi artikler | Haveartikler | Havedekoration | Havemøbler | Krukker | Lanterner og fakler |  | Dekoration |  | Barnedåb | Bryllup | Påske | Valentinsdag | Fødselsdag |  | Dækkeservietter | Accessories | Duge | Glas | Porcelæn og faience | Servietter |  | Smykker |  | Borde | Designmøbler | Hylder | Kommoder | Opbevaring | Reoler | Lænestole | Udendørsmøbler | Vitrineskabe,,,"Speedtsberg is characterized by minimalism and modern Scandinavian design, which consists of interior decor, textiles, furniture etc."
Formland - January,03/02/2022,2022,https://www.formland.com/,DM,Skaven Danmark / Retro Møbler Galleri,9208,L,,,,,Tarm,,,,,
Formland - January,03/02/2022,2022,https://www.formland.com/,DM,skaev keramik,5329,F,,,,,Middelfart,,,,,
Formland - January,03/02/2022,2022,https://www.formland.com/,DM,Sköna Ting,3190,D,,,,,Hägersten,,,,,
Formland - January,03/02/2022,2022,https://www.formland.com/,DM,Silver Needle Bar,5331,F,www.silverneedlebar.com,,,,"Valby, Danmark",Danmark, | Bæredygtighed |  | Delikatesser | Drikkevarer | Økologiske fødevarer | Te |  | Barnedåb | Bryllup | Jul | Fødselsdag,Noveltea | Copenhagen Sparkling Tea | Silver Needle Bar,Noveltea | Sparkling Tea | No/Low Te cocktails,"Silver Needle Bar Is the first mobilebar in the world, to serve no to low alcoholic cocktails exclusively based on tea."
Formland - January,03/02/2022,2022,https://www.formland.com/,DM,Silver Needle Bar,5331,F,www.silverneedlebar.com,,,,"Valby, Danmark",Danmark, | Bæredygtighed |  | Delikatesser | Drikkevarer | Økologiske fødevarer | Te |  | Barnedåb | Bryllup | Jul | Fødselsdag,Noveltea | Copenhagen Sparkling Tea | Silver Needle Bar,Noveltea | Sparkling Tea | No/Low Te cocktails,"Silver Needle Bar Is the first mobilebar in the world, to serve no to low alcoholic cocktails exclusively based on tea."
Formland - January,03/02/2022,2022,https://www.formland.com/,DM,Sidinge Gårdbutik & Frugtplantage,4260,E,,,,,Vig,,,,,
Formland - January,03/02/2022,2022,https://www.formland.com/,DM,Schack Agentur,6276,H,,,,,Herning,,,,,
Formland - January,03/02/2022,2022,https://www.formland.com/,DM,Specktrum ApS,3350,D,,,,,Østbirk,,,,,
Formland - January,03/02/2022,2022,https://www.formland.com/,DM,Scanseason A/S,6192,H,,,,,Næstved,,,,,
Formland - January,03/02/2022,2022,https://www.formland.com/,DM,Scanlux Packaging,6020,H,,,,,Fredensborg,,,,,
Formland - January,03/02/2022,2022,https://www.formland.com/,DM,Scape Spirits ApS,4224,E,,,,,Hørsholm,,,,,
Formland - January,03/02/2022,2022,https://www.formland.com/,DM,rêve vert,5310,F,,,,,Charlottenlund,,,,,
Formland - January,03/02/2022,2022,https://www.formland.com/,DM,RUCON.dk,5313,F,,,,,Hesselager,,,,,
Formland - January,03/02/2022,2022,https://www.formland.com/,DM,Samsø Bær,4266,E,,,,,Samsø,,,,,
Formland - January,03/02/2022,2022,https://www.formland.com/,DM,Rosenbuen v/Finn Nygaard,8012,K,,,,,Egtved,,,,,
Formland - January,03/02/2022,2022,https://www.formland.com/,DM,Rezas Oriental & Modern Rugs,9336,L,https://rezasrugs.com/,,,,"Odense, Danmark",Danmark, | Accessories |  | Design |  | Tæpper og måtter |  | Spiseborde | Lænestole | Sofa,,,"Rezas Oriental & Modern Rugs was founded in 1991 and is based in Odense, Denmark. Rezas is Northern Europe's largest wholesaler of handmade oriental rugs. Besides oriental rugs we also have a large attractive assortment of high-quality modern rugs."
Formland - January,03/02/2022,2022,https://www.formland.com/,DM,RUCON.dk,5316,F,,,,,Hesselager,,,,,
Formland - January,03/02/2022,2022,https://www.formland.com/,DM,Replant Art,5319,F,,,,,Lunderskov,,,,,
Formland - January,03/02/2022,2022,https://www.formland.com/,DM,Remalux B.V.,7386,J,,,,,WR Purmerend,,,,,
Formland - January,03/02/2022,2022,https://www.formland.com/,DM,Relove and Roses,3126,D,,,,,Århus C,,,,,
Formland - January,03/02/2022,2022,https://www.formland.com/,DM,Relaxound GmbH,6102,H,,,,,Berlin,,,,,
Formland - January,03/02/2022,2022,https://www.formland.com/,DM,ReCollector,5090,F,,,,,Risskov,,,,,
Formland - January,03/02/2022,2022,https://www.formland.com/,DM,Rebekka Brogaard,6280,H,,,,,Kolding,,,,,
Formland - January,03/02/2022,2022,https://www.formland.com/,DM,Rezas Oriental & Modern Rugs,9336,L,https://rezasrugs.com/,,,,"Odense, Danmark",Danmark, | Accessories |  | Design |  | Tæpper og måtter |  | Spiseborde | Lænestole | Sofa,,,"Rezas Oriental & Modern Rugs was founded in 1991 and is based in Odense, Denmark. Rezas is Northern Europe's largest wholesaler of handmade oriental rugs. Besides oriental rugs we also have a large attractive assortment of high-quality modern rugs."
Formland - January,03/02/2022,2022,https://www.formland.com/,DM,Ravn Cph IvS,7248,J,,,,,København S,,,,,
Formland - January,03/02/2022,2022,https://www.formland.com/,DM,Sjælsø Nordic ApS,7226,J,,,,,Hillerød,,,,,
Formland - January,03/02/2022,2022,https://www.formland.com/,DM,Pure Culture,7278,J,,,,,Kolding,,,,,
Formland - January,03/02/2022,2022,https://www.formland.com/,DM,Broste Copenhagen,5270,F,http://www.brostecopenhagen.com,,,,"Hvidovre, Danmark",Danmark, | Spejle | Vaskeklude | Vasketøjsopbevaring |  | Bordlamper | Gulvlamper | Havelamper | Lampeskærme | Pendler |  | Keramik | Kurvevarer | Lysestager | Stearinlys | Urtepotteskjuler | Vaser |  | Plaider | Puder | Tæpper og måtter |  | Haveartikler | Havedekoration | Krukker | Lanterner og fakler |  | Dekoration |  | Jul |  | Bestik | Dækkeservietter | Accessories | Duge | Glas | Karklude | Servietter | Skåle | Spisestel | Viskestykker |  | Borde | Hylder | Opbevaring | Polstermøbler | Reoler | Skamler | Stole | Spiseborde | Lænestole | Sofa | Udendørsmøbler |  | Duftlys og æteriske olier,Broste Copenhagen,Broste Copenhagen,"aims to add a sense of familiarity to the designs of tableware, furniture, decorations & more. The SS22 collection marks a fresh start, an appetite for a new season, a playful take on everyday essentials, summer house necessities, and those little quirky treats that turn your house into a home."
Formland - January,03/02/2022,2022,https://www.formland.com/,DM,Raw Materials,7260,J,,,,,HP Amsterdam,,,,,
Formland - January,03/02/2022,2022,https://www.formland.com/,DM,Polanski,7333,J,,,,,Jevenstedt,,,,,
Formland - January,03/02/2022,2022,https://www.formland.com/,DM,Plint A/S,3148,D,www.plint.eu,,,,"Asperup, Danmark",Danmark, | Toiletartikler |  | Bæredygtighed |  | Accessories |  | Design |  | Te |  | Haveartikler | Haveredskaber |  | Accessories | Maskiner | Karklude | Køkkenartikler | Porcelæn og faience | Viskestykker,PLINT,PLINT,"The story about PLINT, is a history about a handful of casual people, whom has a tremendous volition about being good tradesmen. We think it is fun and exciting to make a difference, every day."
Formland - January,03/02/2022,2022,https://www.formland.com/,DM,Plint A/S,3148,D,www.plint.eu,,,,"Asperup, Danmark",Danmark, | Toiletartikler |  | Bæredygtighed |  | Accessories |  | Design |  | Te |  | Haveartikler | Haveredskaber |  | Accessories | Maskiner | Karklude | Køkkenartikler | Porcelæn og faience | Viskestykker,PLINT,PLINT,"The story about PLINT, is a history about a handful of casual people, whom has a tremendous volition about being good tradesmen. We think it is fun and exciting to make a difference, every day."
Formland - January,03/02/2022,2022,https://www.formland.com/,DM,Planetwize ApS,5312,F,www.planetwize.dk,,,,"Bagsværd, Danmark",Danmark, | Toiletartikler |  | Bæredygtighed | Fairtrade | Genbrug |  | Kurvevarer | Accessories |  | Design |  | Økologiske tekstiler | Plaider | Puder | Sengetæpper | Tæpper og måtter |  | Accessories | Duge | Udstyr | Grydelapper | Karklude | Køkkenartikler | Servietter | Viskestykker |  | Punge | Smykker | Tasker | Toilettasker |  | Opbevaring,Planetwize,Kakej (by Planetwize) | From Me To You (by Planetwize),"Planetwize designs organic, upcycled and recycled lifestyle products and interiors."
Formland - January,03/02/2022,2022,https://www.formland.com/,DM,Planetwize ApS,5312,F,www.planetwize.dk,,,,"Bagsværd, Danmark",Danmark, | Toiletartikler |  | Bæredygtighed | Fairtrade | Genbrug |  | Kurvevarer | Accessories |  | Design |  | Økologiske tekstiler | Plaider | Puder | Sengetæpper | Tæpper og måtter |  | Accessories | Duge | Udstyr | Grydelapper | Karklude | Køkkenartikler | Servietter | Viskestykker |  | Punge | Smykker | Tasker | Toilettasker |  | Opbevaring,Planetwize,Kakej (by Planetwize) | From Me To You (by Planetwize),"Planetwize designs organic, upcycled and recycled lifestyle products and interiors."
Formland - January,03/02/2022,2022,https://www.formland.com/,DM,Piffany Copenhagen ApS,3040,D,https://piffany.eu,,,,"Helsinge, Danmark",Danmark, | Børnebelysning | Bordlamper | Gulvlamper | Pendler |  | Lysestager | Pejse og ildsteder | Stearinlys | Accessories |  | Firmagaver |  | Havedekoration | Lanterner og fakler |  | Dekoration |  | Jul |  | Borde | Designmøbler | Opbevaring | Stole,,Uyuni | Mr. Wattson | Ekta Håndværk | Eledea,"Piffany Copenhagen is a Danish design company committed to bringing unique designs to life through ethical, considered craftsmanship. Striving to achieve the balance between functional practicality and minimal elegance, every part of every piece has purpose and personality."
Formland - January,03/02/2022,2022,https://www.formland.com/,DM,Qvalitetstid,5311,F,www.qvalitetstid.dk,,,,"Herning, Danmark",Danmark, | Firmagaver |  | Legetøj |  | Bryllup | Jul | Valentinsdag | Fødselsdag |  | Rådgivning,,,"It all started with the game for the relationship, which was developed by coupletherapist Anna Østergaard, together with Jake Inlove, who is a game designer. The two met in the Business Council and discovered their common interest for people."
Formland - January,03/02/2022,2022,https://www.formland.com/,DM,PH Import,8000,K,,,,,Fuglebjerg,,,,,
Formland - January,03/02/2022,2022,https://www.formland.com/,DM,Petroleum Studio,5328,F,,,,,London E8 2NL,,,,,
Formland - January,03/02/2022,2022,https://www.formland.com/,DM,Piffany Copenhagen ApS,3040,D,https://piffany.eu,,,,"Helsinge, Danmark",Danmark, | Børnebelysning | Bordlamper | Gulvlamper | Pendler |  | Lysestager | Pejse og ildsteder | Stearinlys | Accessories |  | Firmagaver |  | Havedekoration | Lanterner og fakler |  | Dekoration |  | Jul |  | Borde | Designmøbler | Opbevaring | Stole,,Uyuni | Mr. Wattson | Ekta Håndværk | Eledea,"Piffany Copenhagen is a Danish design company committed to bringing unique designs to life through ethical, considered craftsmanship. Striving to achieve the balance between functional practicality and minimal elegance, every part of every piece has purpose and personality."
Formland - January,03/02/2022,2022,https://www.formland.com/,DM,PR Chokolade A/S,4216,E,,,,,Kolding,, | Chokolade | Delikatesser | Slik,PR Chokolade A/S | Cocoture & Co | Lakridseriet | Georges´Spoon,,"Vi producerer og pakker lækre hjemmelavede fyldte chokolader, marcipan med chokolade og meget andet."
Formland - January,03/02/2022,2022,https://www.formland.com/,DM,Paper Ministry ApS,5325,F,,,,,Vejle,,,,,
Formland - January,03/02/2022,2022,https://www.formland.com/,DM,pej gruppen,9250,L,,,,,Herning,,,,,
Formland - January,03/02/2022,2022,https://www.formland.com/,DM,Oy BD-Möbel AB,9014,L,bdmobel.com,,,,"Jakobstad, FINLAND",FINLAND, | Designmøbler | Polstermøbler | Skamler | Stole | Sofa,,,
Formland - January,03/02/2022,2022,https://www.formland.com/,DM,PR Chokolade A/S,4216,E,,,,,Kolding,, | Chokolade | Delikatesser | Slik,PR Chokolade A/S | Cocoture & Co | Lakridseriet | Georges´Spoon,,"Vi producerer og pakker lækre hjemmelavede fyldte chokolader, marcipan med chokolade og meget andet."
Formland - January,03/02/2022,2022,https://www.formland.com/,DM,Oy BD-Möbel AB,9014,L,bdmobel.com,,,,"Jakobstad, FINLAND",FINLAND, | Designmøbler | Polstermøbler | Skamler | Stole | Sofa,,,
Formland - January,03/02/2022,2022,https://www.formland.com/,DM,Nørgaard,8010,K,,,,,Hjørring,,,,,
Formland - January,03/02/2022,2022,https://www.formland.com/,DM,Openhagen ApS,5323,F,,,,,København V,,,,,
Formland - January,03/02/2022,2022,https://www.formland.com/,DM,Nybro Frugtplantage,4222,E,,,,,Mesinge,,,,,
Formland - January,03/02/2022,2022,https://www.formland.com/,DM,Stendix Furniture,5347,F,,,,,Videbæk,,,,,
Formland - January,03/02/2022,2022,https://www.formland.com/,DM,Oejbro Engros AB,3222,D,,,,,Ulricehamn,,,,,
Formland - January,03/02/2022,2022,https://www.formland.com/,DM,Nordahl Andersen,7148,J,,,,,Horsens,,,,,
Formland - January,03/02/2022,2022,https://www.formland.com/,DM,NORD Roastery,4132,E,,,,,Skødstrup,,,,,
Formland - January,03/02/2022,2022,https://www.formland.com/,DM,PaperMatrix,5324,F,,,,,Hjørring,,,,,
Formland - January,03/02/2022,2022,https://www.formland.com/,DM,New Ways,7294,J,,,,,Beddingestrand,,,,,
Formland - January,03/02/2022,2022,https://www.formland.com/,DM,My Moroccan Rug,3264,D,,,,,Cham,,,,,
Formland - January,03/02/2022,2022,https://www.formland.com/,DM,Munke-Tex Aps,6252,H,,,,,Galten,,,,,
Formland - January,03/02/2022,2022,https://www.formland.com/,DM,Mouse & Pen,3120,D,,,,,Ebeltoft,,,,,
Formland - January,03/02/2022,2022,https://www.formland.com/,DM,MOUD Home,5307,F,,,,,Galten,,,,,
Formland - January,03/02/2022,2022,https://www.formland.com/,DM,Mots More,8100,K,,,,,Varde,,,,,
Formland - January,03/02/2022,2022,https://www.formland.com/,DM,Morsø Oliemølle ApS,4405,E,,,,,Erslev,,,,,
Formland - January,03/02/2022,2022,https://www.formland.com/,DM,Nördik Coffee Company ApS,5327,F,Nordikcoffee.com,,,,"Odense, Danmark",Danmark, | Bæredygtighed |  | Delikatesser | Drikkevarer | Kaffe | Økologiske fødevarer,,,
Formland - January,03/02/2022,2022,https://www.formland.com/,DM,NoCrap Gourmet Popcorn,4288,E,,,,,Hjørring,,,,,
Formland - January,03/02/2022,2022,https://www.formland.com/,DM,NPA A/S,8150,K,,,,,Albertslund,,,,,
Formland - January,03/02/2022,2022,https://www.formland.com/,DM,Nordisk,4226,E,,,,,Frederikshavn,,,,,
Formland - January,03/02/2022,2022,https://www.formland.com/,DM,Bon Coca P/S,4158,E,,,,,Kolding,,,,,
Formland - January,03/02/2022,2022,https://www.formland.com/,DM,Miss Syberg,7136,J,www.misssyberg.com,,,,"Odense C, Danmark",Danmark, | Bæredygtighed |  | Accessories |  | Firmagaver |  | Butiksindretning |  | Design |  | Dyreskind | Puder | Tæpper og måtter |  | Haveartikler |  | Accessories | Køkkenartikler |  | Handsker | Tøj,Miss Syberg,Miss Syberg,"Miss Syberg blev etableret i 2015, med missionen om at minimere spild af naturlige ressourcer, og levere smukke lammeskind og lammeskinds-produkter til bevidste forbrugere."
Formland - January,03/02/2022,2022,https://www.formland.com/,DM,Bryggeriet Æ,4020,E,,,,,Svendborg,,,,,
Formland - January,03/02/2022,2022,https://www.formland.com/,DM,Mogens Daarbak A/S,7114,J,,,,,Aalborg SØ,,,,,
Formland - January,03/02/2022,2022,https://www.formland.com/,DM,Makasi Organic,5308,F,,,,,Viborg,,,,,
Formland - January,03/02/2022,2022,https://www.formland.com/,DM,Maj Isenkram ApS,7318,J,,,,,Odder,,,,,
Formland - January,03/02/2022,2022,https://www.formland.com/,DM,MaisonMette,4180,E,,,,,Gilleleje,,,,,
Formland - January,03/02/2022,2022,https://www.formland.com/,DM,Mojoo ApS,3246,D,,,,,Vejle,,,,,
Formland - January,03/02/2022,2022,https://www.formland.com/,DM,Maileg,3070,D,,,,,Herning,,,,,
Formland - January,03/02/2022,2022,https://www.formland.com/,DM,Miss Syberg,7136,J,www.misssyberg.com,,,,"Odense C, Danmark",Danmark, | Bæredygtighed |  | Accessories |  | Firmagaver |  | Butiksindretning |  | Design |  | Dyreskind | Puder | Tæpper og måtter |  | Haveartikler |  | Accessories | Køkkenartikler |  | Handsker | Tøj,Miss Syberg,Miss Syberg,"Miss Syberg blev etableret i 2015, med missionen om at minimere spild af naturlige ressourcer, og levere smukke lammeskind og lammeskinds-produkter til bevidste forbrugere."
Formland - January,03/02/2022,2022,https://www.formland.com/,DM,Lübech Living,7118,J,,,,,Aalborg SV,,,,,
Formland - January,03/02/2022,2022,https://www.formland.com/,DM,MayMays,5309,F,,,,,Vester Skerninge,,,,,
Formland - January,03/02/2022,2022,https://www.formland.com/,DM,Lumimi AS,5343,F,https://www.lumimi.no/en/,,,,"Larvik, Norway",Norway, | Børnebelysning |  | Dekoration |  | Barnedåb | Jul | Fødselsdag,Lumimi AS,Lumimi.no,"Lumimi.no is a young design company from Norway. We have designed and developed a series of handmade, wooden LED lights for children using high-quality materials. Our vision is to inspire children to use their unqiue imagination , make their world even more colorful and adventorous, give them joy and surround them with happy and magical energy."
Formland - January,03/02/2022,2022,https://www.formland.com/,DM,Lowin ApS,4136,E,,,,,Viborg,,,,,
Formland - January,03/02/2022,2022,https://www.formland.com/,DM,Mitomito,5104,F,,,,,København S,,,,,
Formland - January,03/02/2022,2022,https://www.formland.com/,DM,Madleys,7150,J,,,,,Søndersø,,,,,
Formland - January,03/02/2022,2022,https://www.formland.com/,DM,Lille Kanin,3200,D,,,,,Bjert,,,,,
Formland - January,03/02/2022,2022,https://www.formland.com/,DM,Lili Lamps ApS,5344,F,https://www.lililamps.com/,,,,"Veflinge, Danmark",Danmark, | Bæredygtighed | Fairtrade | Genbrug |  | Børnebelysning | Bordlamper | Lampeskærme | Pendler |  | Design |  | DIY,Lili Lamps ApS,Lili Lamps,Lili Lamps is sustainable designer lamps that are 3d printed near every customer.
Formland - January,03/02/2022,2022,https://www.formland.com/,DM,Lumimi AS,5343,F,https://www.lumimi.no/en/,,,,"Larvik, Norway",Norway, | Børnebelysning |  | Dekoration |  | Barnedåb | Jul | Fødselsdag,Lumimi AS,Lumimi.no,"Lumimi.no is a young design company from Norway. We have designed and developed a series of handmade, wooden LED lights for children using high-quality materials. Our vision is to inspire children to use their unqiue imagination , make their world even more colorful and adventorous, give them joy and surround them with happy and magical energy."
Formland - January,03/02/2022,2022,https://www.formland.com/,DM,Lignas ApS,9100,L,www.lignas.com,,,,"Ikast, Danmark",Danmark, | Firmagaver |  | Butiksindretning |  | Børnemøbler | Borde | Designmøbler | Hylder | Kommoder | Opbevaring | Polstermøbler | Reoler | Skænke | Skamler | Stole | Spiseborde | Lænestole | Sofa | Vitrineskabe,,,Lignas ApS. designer og får produceret en lang række møbler i træ og metal. Vores produkter er alle produceret i Europa på moderne højteknologiske fabrikker.
Formland - January,03/02/2022,2022,https://www.formland.com/,DM,Lignas ApS,9100,L,www.lignas.com,,,,"Ikast, Danmark",Danmark, | Firmagaver |  | Butiksindretning |  | Børnemøbler | Borde | Designmøbler | Hylder | Kommoder | Opbevaring | Polstermøbler | Reoler | Skænke | Skamler | Stole | Spiseborde | Lænestole | Sofa | Vitrineskabe,,,Lignas ApS. designer og får produceret en lang række møbler i træ og metal. Vores produkter er alle produceret i Europa på moderne højteknologiske fabrikker.
Formland - January,03/02/2022,2022,https://www.formland.com/,DM,LIE GOURMET ApS,4138,E,www.liegourmet.com,,,,"Hinnerup, Danmark",Danmark, | Bæredygtighed |  | Firmagaver |  | Chokolade | Delikatesser | Drikkevarer | Økologiske fødevarer | Slik |  | Jul | Påske | Valentinsdag,LIE GOURMET,LIE GOURMET,"is a Danish delicacy brand which has a great love for the French pantry, for ""La vie francaise"" and we offer a number of honest and authentic delicacies which are mainly produced in Provence. Often with a little delicate dispute, if we have fallen for a special composition that suits the taste. We offer everything from extra virgin olive oil, pasta, salt grinders to jams and chocolates - and much more. The goal is a sensuous experience, created to add spice to everyday meals and bring out more nuances in cooking. The many ingredients we use in our simple recipes come from our producers' fields in the South of France. We combine the pure quality with a stylish, Scandinavian expression and look that also tells the story of the good life and makes you want to have the products standing out in the home. All items are packed in sustainable packagings and can be recycled. Bon appetit!"
Formland - January,03/02/2022,2022,https://www.formland.com/,DM,Lili Lamps ApS,5344,F,https://www.lililamps.com/,,,,"Veflinge, Danmark",Danmark, | Bæredygtighed | Fairtrade | Genbrug |  | Børnebelysning | Bordlamper | Lampeskærme | Pendler |  | Design |  | DIY,Lili Lamps ApS,Lili Lamps,Lili Lamps is sustainable designer lamps that are 3d printed near every customer.
Formland - January,03/02/2022,2022,https://www.formland.com/,DM,Lauvring A/S,8120,K,,,,,Vildbjerg,,,,,
Formland - January,03/02/2022,2022,https://www.formland.com/,DM,By Invite Only ApS,3320,D,www.byinviteonly.dk,,,,"Dragør, Danmark",Danmark, | Håndklæder | Vasketøjsopbevaring |  | Bæredygtighed | Genbrug |  | Børnebelysning | Bordlamper | Gulvlamper | Havelamper | Udendørslamper |  | Kurvevarer | Accessories |  | Økologiske tekstiler | Sengelinned |  | Fotokunst |  | Haveartikler | Havedekoration | Havemøbler | Solafskærmning |  | Legetøj |  | Fastelavn | Halloween |  | Bestik |  | Børnetøj | Punge | Sko | Tasker | Tøj | Toilettasker |  | Opbevaring,Sunnylife | Sun Jellies | Goodnight Light | SNURK | Affenzahn | by Lille Vilde | Play&Go | Pellianni | Namaki | Les P'tits Fouets | Neogrün | KIDYWOLF | Mojipower,Sunnylife | Sun Jellies | Goodnight Light | SNURK | Affenzahn | by Lille Vilde | Play&Go | Pellianni | Namaki | Les P'tits Fouets | Neogrün | KIDYWOLF | Mojipower,"Who wouldn’t want to sleep with a dragon, take a walk with a tiger or float on a unicorn? The brands that we work with are all about having fun with functional products that appeal to young souls; young by age or mind that is."
Formland - January,03/02/2022,2022,https://www.formland.com/,DM,Liv Interior GmbH,3100,D,,,,,Hamburg,,,,,
Formland - January,03/02/2022,2022,https://www.formland.com/,DM,Masala-Chaii,3298,D,,,,,Hellerup,,,,,
Formland - January,03/02/2022,2022,https://www.formland.com/,DM,Lahvino Italiensk Vinimport,4236,E,,,,,Viborg,,,,,
Formland - January,03/02/2022,2022,https://www.formland.com/,DM,Kuhr´s A/S,8116,K,,,,,Viborg,,,,,
Formland - January,03/02/2022,2022,https://www.formland.com/,DM,KUDSK,4130,E,,,,,Silkeborg,,,,,
Formland - January,03/02/2022,2022,https://www.formland.com/,DM,Kristian Juul ApS,5306,F,,,,,Ribe,,,,,
Formland - January,03/02/2022,2022,https://www.formland.com/,DM,Kreafunk ApS,5185,F,,,,,Åbyhøj,,,,,
Formland - January,03/02/2022,2022,https://www.formland.com/,DM,Koustrup & Co. Aps,7154,J,,,,,Hillerød,,,,,
Formland - January,03/02/2022,2022,https://www.formland.com/,DM,Kombucha Time,5320,F,www.kombuchatime.dk ,,,,"Slagelse, Danmark",Danmark, | Bæredygtighed |  | Firmagaver | Reklamegaver |  | Delikatesser | Drikkevarer | Økologiske fødevarer | Te,Kombucha Time | ,,
Formland - January,03/02/2022,2022,https://www.formland.com/,DM,Kombucha Time,5320,F,www.kombuchatime.dk ,,,,"Slagelse, Danmark",Danmark, | Bæredygtighed |  | Firmagaver | Reklamegaver |  | Delikatesser | Drikkevarer | Økologiske fødevarer | Te,Kombucha Time | ,,
Formland - January,03/02/2022,2022,https://www.formland.com/,DM,Kodanska ApS,5150,F,,,,,Vejle,,,,,
Formland - January,03/02/2022,2022,https://www.formland.com/,DM,Klarborg Denmark A/S,3238,D,,,,,Pandrup,,,,,
Formland - January,03/02/2022,2022,https://www.formland.com/,DM,Kit Company,5100,F,,,,,Herlev,,,,,
Formland - January,03/02/2022,2022,https://www.formland.com/,DM,Kids by Friis ApS,3212,D,,,,,Bryrup,,,,,
Formland - January,03/02/2022,2022,https://www.formland.com/,DM,KIDEK AB,7366,J,,,,,Helsingborg,,,,,
Formland - January,03/02/2022,2022,https://www.formland.com/,DM,Kicking Horse BV,5305,F,,,,,Sint-Martens-Latem,,,,,
Formland - January,03/02/2022,2022,https://www.formland.com/,DM,Kazuri Scandinavia,6258,H,,,,,Fredericia,,,,,
Formland - January,03/02/2022,2022,https://www.formland.com/,DM,LIE GOURMET ApS,4138,E,www.liegourmet.com,,,,"Hinnerup, Danmark",Danmark, | Bæredygtighed |  | Firmagaver |  | Chokolade | Delikatesser | Drikkevarer | Økologiske fødevarer | Slik |  | Jul | Påske | Valentinsdag,LIE GOURMET,LIE GOURMET,"is a Danish delicacy brand which has a great love for the French pantry, for ""La vie francaise"" and we offer a number of honest and authentic delicacies which are mainly produced in Provence. Often with a little delicate dispute, if we have fallen for a special composition that suits the taste. We offer everything from extra virgin olive oil, pasta, salt grinders to jams and chocolates - and much more. The goal is a sensuous experience, created to add spice to everyday meals and bring out more nuances in cooking. The many ingredients we use in our simple recipes come from our producers' fields in the South of France. We combine the pure quality with a stylish, Scandinavian expression and look that also tells the story of the good life and makes you want to have the products standing out in the home. All items are packed in sustainable packagings and can be recycled. Bon appetit!"
Formland - January,03/02/2022,2022,https://www.formland.com/,DM,Kalager Design ApS,3270,D,www.kalagerdesign.dk,,,,"Holstebro, Danmark",Danmark, | Accessories |  | Design |  | Havedekoration | Havemøbler |  | Jul |  | Designmøbler | Hylder | Opbevaring | Skamler,,,
Formland - January,03/02/2022,2022,https://www.formland.com/,DM,Julaika Jooma ApS,3210,D,,,,,Aarhus C,,,,,
Formland - January,03/02/2022,2022,https://www.formland.com/,DM,La Vida,8126,K,,,,,Horsens,,,,,
Formland - January,03/02/2022,2022,https://www.formland.com/,DM,Janne K,6290,H,,,,,Kolding,,,,,
Formland - January,03/02/2022,2022,https://www.formland.com/,DM,JanGustavProjects,5314,F,,,,,København V,,,,,
Formland - January,03/02/2022,2022,https://www.formland.com/,DM,IO Scandinavia Indoor-Outdoor,7160,J,,,,,Tåstrup,,,,,
Formland - January,03/02/2022,2022,https://www.formland.com/,DM,Jesper Nørgaard,3284,D,,,,,Herning,,,,,
Formland - January,03/02/2022,2022,https://www.formland.com/,DM,Kunstindustrien ApS,3162,D,,,,,Sønderborg,,,,,
Formland - January,03/02/2022,2022,https://www.formland.com/,DM,Ibu Jewels,3220,D,,,,,RN  Amstelveen,,,,,
Formland - January,03/02/2022,2022,https://www.formland.com/,DM,Ib Laursen,6110,H,www.iblaursen.dk,,,,Ribe,, | Håndklæder | Spejle | Vaskeklude |  | Bæredygtighed | Genbrug |  | Bordlamper | Gulvlamper | Havelamper |  | Kunstige blomster | Kurvevarer | Lysestager | Stearinlys | Accessories | Urtepotteskjuler | Vaser |  | Butiksindretning | Emballage | Gavepapir og bånd | Skilte |  | Design |  | Dyreskind | Gardiner og gardinstænger | Plaider | Puder | Sengetæpper | Tæpper og måtter |  | Billedrammer |  | Blomsterbinderi artikler | Haengekøjer | Haveartikler | Havedekoration | Havemøbler | Krukker | Lanterner og fakler |  | Jul | Påske |  | Bestik | Dækkeservietter | Accessories | Duge | Udstyr | Glas | Grydelapper | Karklude | Køkkenartikler | Porcelæn og faience | Servietter | Skåle | Spisestel | Viskestykker |  | Smykker | Tasker | Tørklæder | Toilettasker |  | Borde | Hylder | Kommoder | Opbevaring | Reoler | Skænke | Skamler | Stole | Spiseborde | Udendørsmøbler |  | Duftlys og æteriske olier | Hudplejeprodukter | Sæbeartikler,,,Ib Laursen ApS is a family-owned multi-brand company that designs home and garden decor items that match the Nordic design tradition and sells them to retailers worldwide.
Formland - January,03/02/2022,2022,https://www.formland.com/,DM,Ib Laursen,6110,H,www.iblaursen.dk,,,,Ribe,, | Håndklæder | Spejle | Vaskeklude |  | Bæredygtighed | Genbrug |  | Bordlamper | Gulvlamper | Havelamper |  | Kunstige blomster | Kurvevarer | Lysestager | Stearinlys | Accessories | Urtepotteskjuler | Vaser |  | Butiksindretning | Emballage | Gavepapir og bånd | Skilte |  | Design |  | Dyreskind | Gardiner og gardinstænger | Plaider | Puder | Sengetæpper | Tæpper og måtter |  | Billedrammer |  | Blomsterbinderi artikler | Haengekøjer | Haveartikler | Havedekoration | Havemøbler | Krukker | Lanterner og fakler |  | Jul | Påske |  | Bestik | Dækkeservietter | Accessories | Duge | Udstyr | Glas | Grydelapper | Karklude | Køkkenartikler | Porcelæn og faience | Servietter | Skåle | Spisestel | Viskestykker |  | Smykker | Tasker | Tørklæder | Toilettasker |  | Borde | Hylder | Kommoder | Opbevaring | Reoler | Skænke | Skamler | Stole | Spiseborde | Udendørsmøbler |  | Duftlys og æteriske olier | Hudplejeprodukter | Sæbeartikler,,,Ib Laursen ApS is a family-owned multi-brand company that designs home and garden decor items that match the Nordic design tradition and sells them to retailers worldwide.
Formland - January,03/02/2022,2022,https://www.formland.com/,DM,Iadvice,7200,J,,,,,Aarhus N,,,,,
Formland - January,03/02/2022,2022,https://www.formland.com/,DM,Hübsch A/S,5114,F,www.hubsch-interior.com,,,,"Herning, Danmark",Danmark, | Håndklæder | Vasketøjsopbevaring |  | Bordlamper | Gulvlamper | Pendler | Udendørslamper |  | Glaskunst | Keramik | Kurvevarer | Lysestager | Accessories | Urtepotteskjuler | Vaser |  | Billedrammer | Plakater |  | Havedekoration | Havemøbler | Krukker | Lanterner og fakler |  | Accessories | Glas | Karklude | Køkkenartikler | Porcelæn og faience | Skåle | Viskestykker |  | Borde | Designmøbler | Hylder | Kommoder | Opbevaring | Polstermøbler | Reoler | Skænke | Skamler | Stole | Spiseborde | Lænestole | Sofa | Udendørsmøbler | Vitrineskabe,Hübsch,Hübsch,"o us, the home is an honest reflection of who we are and what we stand for. We create our homes. And our homes create us. We all come with a fingerspitz gefühl for the Danish Design heritage, which has been passed down through generations. A combination of timeless and on-trend design expressions is what we are striving for, and last but not least: Happiness. When we talk about happiness, it’s about seeing beauty in the small things and enjoying both aesthetics and unique details. We carefully think out materials and colour choices around the feeling of happiness because we strongly believe happiness is of the essence. It permeates everything we do: from idea to finished product, and all the way to the end-user. Happiness is simply at the core of the Hübsch brand ethos."
Formland - January,03/02/2022,2022,https://www.formland.com/,DM,Hübsch A/S,5114,F,www.hubsch-interior.com,,,,"Herning, Danmark",Danmark, | Håndklæder | Vasketøjsopbevaring |  | Bordlamper | Gulvlamper | Pendler | Udendørslamper |  | Glaskunst | Keramik | Kurvevarer | Lysestager | Accessories | Urtepotteskjuler | Vaser |  | Billedrammer | Plakater |  | Havedekoration | Havemøbler | Krukker | Lanterner og fakler |  | Accessories | Glas | Karklude | Køkkenartikler | Porcelæn og faience | Skåle | Viskestykker |  | Borde | Designmøbler | Hylder | Kommoder | Opbevaring | Polstermøbler | Reoler | Skænke | Skamler | Stole | Spiseborde | Lænestole | Sofa | Udendørsmøbler | Vitrineskabe,Hübsch,Hübsch,"o us, the home is an honest reflection of who we are and what we stand for. We create our homes. And our homes create us. We all come with a fingerspitz gefühl for the Danish Design heritage, which has been passed down through generations. A combination of timeless and on-trend design expressions is what we are striving for, and last but not least: Happiness. When we talk about happiness, it’s about seeing beauty in the small things and enjoying both aesthetics and unique details. We carefully think out materials and colour choices around the feeling of happiness because we strongly believe happiness is of the essence. It permeates everything we do: from idea to finished product, and all the way to the end-user. Happiness is simply at the core of the Hübsch brand ethos."
Formland - January,03/02/2022,2022,https://www.formland.com/,DM,Kalager Design ApS,3270,D,www.kalagerdesign.dk,,,,"Holstebro, Danmark",Danmark, | Accessories |  | Design |  | Havedekoration | Havemøbler |  | Jul |  | Designmøbler | Hylder | Opbevaring | Skamler,,,
Formland - January,03/02/2022,2022,https://www.formland.com/,DM,HRD Carpets AB,8040,K,,,,,Horred,,,,,
Formland - January,03/02/2022,2022,https://www.formland.com/,DM,Made by Mama,4322,E,,,,,Kgs. Lyngby,,,,,
Formland - January,03/02/2022,2022,https://www.formland.com/,DM,HUSET ANDERSEN,4126,E,,,,,Gram,,,,,
Formland - January,03/02/2022,2022,https://www.formland.com/,DM,House of Sander A/S,5120,F,www.houseofsander.dk,,,,"Horsens, Danmark",Danmark, | Bæredygtighed | Genbrug |  | Glaskunst | Keramik | Lysestager | Accessories | Urtepotteskjuler | Vaser |  | Design |  | Havemøbler |  | Påske |  | Dækkeservietter | Accessories | Skåle |  | Borde | Designmøbler | Opbevaring | Polstermøbler | Reoler | Skænke | Stole | Spiseborde | Udendørsmøbler,,,"For more than 30 years, House of Sander has been a supplier of furniture and home decoration to the business to business market, in Scandinavia and Europe."
Formland - January,03/02/2022,2022,https://www.formland.com/,DM,House Nordic ApS,3050,D,www.housenordic.dk,,,,"Søndersø, Denmark",Denmark, | Spejle | Vasketøjsopbevaring |  | Bordlamper | Gulvlamper | Pendler |  | Glaskunst | Keramik | Kunstige blomster | Kurvevarer | Lysestager | Accessories | Urtepotteskjuler | Vaser |  | Dyreskind | Plaider | Puder | Tæpper og måtter |  | Billedrammer |  | Havedekoration | Havemøbler | Krukker | Lanterner og fakler |  | Accessories |  | Borde | Designmøbler | Hylder | Kommoder | Opbevaring | Polstermøbler | Reoler | Skænke | Skamler | Stole | Kontorstole | Spiseborde | Lænestole | Sofa | Udendørsmøbler | Vitrineskabe |  | Duftlys og æteriske olier,,,ABOUT HOUSE NORDIC
Formland - January,03/02/2022,2022,https://www.formland.com/,DM,Incado A/S,3010,D,,,,,Esbjerg Ø,,,,,
Formland - January,03/02/2022,2022,https://www.formland.com/,DM,Himalaya Textilhandels GmbH,6260,H,,,,,Hamburg,,,,,
Formland - January,03/02/2022,2022,https://www.formland.com/,DM,House of Sander A/S,5120,F,www.houseofsander.dk,,,,"Horsens, Danmark",Danmark, | Bæredygtighed | Genbrug |  | Glaskunst | Keramik | Lysestager | Accessories | Urtepotteskjuler | Vaser |  | Design |  | Havemøbler |  | Påske |  | Dækkeservietter | Accessories | Skåle |  | Borde | Designmøbler | Opbevaring | Polstermøbler | Reoler | Skænke | Stole | Spiseborde | Udendørsmøbler,,,"For more than 30 years, House of Sander has been a supplier of furniture and home decoration to the business to business market, in Scandinavia and Europe."
Formland - January,03/02/2022,2022,https://www.formland.com/,DM,HAY,5340,F,,,,,Horsens,,,,,
Formland - January,03/02/2022,2022,https://www.formland.com/,DM,Hattesens Konfektfabrik,4250,E,,,,,Ærøskøbing,,,,,
Formland - January,03/02/2022,2022,https://www.formland.com/,DM,Hammershus Fairtrade,7108,J,,,,,Allinge,,,,,
Formland - January,03/02/2022,2022,https://www.formland.com/,DM,GrowDesign.dk,8140,K,www.growdesign.dk,,,,"Kolding, Danmark",Danmark, | Bæredygtighed | Genbrug |  | Havelamper | Udendørslamper |  | Keramik | Kunsthåndværk | Kunstige blomster | Kurvevarer | Accessories | Urtepotteskjuler | Vaser |  | Haveartikler | Havedekoration | Krukker | Lanterner og fakler |  | Dekoration,Artevasi | Lechuza | Adezz | Pottery Pots | Livingreen Design | Plantinum | Vondom,Artevasi | Lechuza | Adezz | Pottery Pots | Livingreen Design | Plantinum | Vondom,Vil du bruge mindre tid på at indkøbe både planter og krukker?
Formland - January,03/02/2022,2022,https://www.formland.com/,DM,House Nordic ApS,3050,D,www.housenordic.dk,,,,"Søndersø, Denmark",Denmark, | Spejle | Vasketøjsopbevaring |  | Bordlamper | Gulvlamper | Pendler |  | Glaskunst | Keramik | Kunstige blomster | Kurvevarer | Lysestager | Accessories | Urtepotteskjuler | Vaser |  | Dyreskind | Plaider | Puder | Tæpper og måtter |  | Billedrammer |  | Havedekoration | Havemøbler | Krukker | Lanterner og fakler |  | Accessories |  | Borde | Designmøbler | Hylder | Kommoder | Opbevaring | Polstermøbler | Reoler | Skænke | Skamler | Stole | Kontorstole | Spiseborde | Lænestole | Sofa | Udendørsmøbler | Vitrineskabe |  | Duftlys og æteriske olier,,,ABOUT HOUSE NORDIC
Formland - January,03/02/2022,2022,https://www.formland.com/,DM,Green Steel A/S,8021,K,,,,,Haderslev,,,,,
Formland - January,03/02/2022,2022,https://www.formland.com/,DM,Gourmeture,4125,E,,,,,Allerøde,,,,,
Formland - January,03/02/2022,2022,https://www.formland.com/,DM,GrowDesign.dk,8140,K,www.growdesign.dk,,,,"Kolding, Danmark",Danmark, | Bæredygtighed | Genbrug |  | Havelamper | Udendørslamper |  | Keramik | Kunsthåndværk | Kunstige blomster | Kurvevarer | Accessories | Urtepotteskjuler | Vaser |  | Haveartikler | Havedekoration | Krukker | Lanterner og fakler |  | Dekoration,Artevasi | Lechuza | Adezz | Pottery Pots | Livingreen Design | Plantinum | Vondom,Artevasi | Lechuza | Adezz | Pottery Pots | Livingreen Design | Plantinum | Vondom,Vil du bruge mindre tid på at indkøbe både planter og krukker?
Formland - January,03/02/2022,2022,https://www.formland.com/,DM,Godtbergsen A/S,7330,J,,,,,Haderslev,,,,,
Formland - January,03/02/2022,2022,https://www.formland.com/,DM,Glean ApS,4332,E,,,,,København N,,,,,
Formland - January,03/02/2022,2022,https://www.formland.com/,DM,Furninova AB,9150,L,,,,,Bjärnum,,,,,
Formland - January,03/02/2022,2022,https://www.formland.com/,DM,Furninova,0000,D,www.furninova.com,,,,"Bjärnum, Sverige",Sverige, | Designmøbler | Polstermøbler | Skamler | Stole | Lænestole | Sofa | Udendørsmøbler,Furninova,,"har med udgangspunkt i tidens trends, skabt et bredt udvalg af moderne og fleksible kvalitetsmøbler til konkurrencedygtige priser."
Formland - January,03/02/2022,2022,https://www.formland.com/,DM,Gourmet Supply,4070,E,,,,,København K,,,,,
Formland - January,03/02/2022,2022,https://www.formland.com/,DM,Fur Bryghus,4040,E,,,,,Fur,,,,,
Formland - January,03/02/2022,2022,https://www.formland.com/,DM,Friis-Holm Chokolade  A/S,4168,E,,,,,Roskilde,,,,,
Formland - January,03/02/2022,2022,https://www.formland.com/,DM,forfjorliving ApS,9023,L,,,,,Risskov,,,,,
Formland - January,03/02/2022,2022,https://www.formland.com/,DM,Food for Friends,4188,E,,,,,Svendborg,,,,,
Formland - January,03/02/2022,2022,https://www.formland.com/,DM,HENRIQUES,7190,J,,,,,Them,,,,,
Formland - January,03/02/2022,2022,https://www.formland.com/,DM,FLOT,5304,F,,,,,Ikast,,,,,
Formland - January,03/02/2022,2022,https://www.formland.com/,DM,Festival Strømper,6248,H,,,,,Nibe,,,,,
Formland - January,03/02/2022,2022,https://www.formland.com/,DM,Fogarolli,4258,E,,,,,Ystad,,,,,
Formland - January,03/02/2022,2022,https://www.formland.com/,DM,FALSIG,9300,L,,,,,Vejle,,,,,
Formland - January,03/02/2022,2022,https://www.formland.com/,DM,Eurotex/Eurodun,6010,H,,,,,Vejle,,,,,
Formland - January,03/02/2022,2022,https://www.formland.com/,DM,European House of Beds A/S,9228,L,,,,,Horsens,,,,,
Formland - January,03/02/2022,2022,https://www.formland.com/,DM,ester & erik a/s,5180,F,,,,,Silkeborg,,,,,
Formland - January,03/02/2022,2022,https://www.formland.com/,DM,Furninova,0000,D,www.furninova.com,,,,"Bjärnum, Sverige",Sverige, | Designmøbler | Polstermøbler | Skamler | Stole | Lænestole | Sofa | Udendørsmøbler,Furninova,,"har med udgangspunkt i tidens trends, skabt et bredt udvalg af moderne og fleksible kvalitetsmøbler til konkurrencedygtige priser."
Formland - January,03/02/2022,2022,https://www.formland.com/,DM,HP Interior Nordic AS,9312,L,,,,,Nørager,,,,,
Formland - January,03/02/2022,2022,https://www.formland.com/,DM,Eja International ApS,6120,H,,,,,Kolding,,,,,
Formland - January,03/02/2022,2022,https://www.formland.com/,DM,Eden Outcast,5040,F,,,,,Kolding,,,,,
Formland - January,03/02/2022,2022,https://www.formland.com/,DM,E.O. Engros Odense ApS,7164,J,,,,,Odense S,,,,,
Formland - January,03/02/2022,2022,https://www.formland.com/,DM,Little Otter,3138,D,,,,,Struer,,,,,
Formland - January,03/02/2022,2022,https://www.formland.com/,DM,dryss,5318,F,,,,,Varde,,,,,
Formland - January,03/02/2022,2022,https://www.formland.com/,DM,Dream of Sweden,4284,E,,,,,Jönköping,,,,,
Formland - January,03/02/2022,2022,https://www.formland.com/,DM,Embacollage A/S,3360,D,,,,,Kvistgård,,,,,
Formland - January,03/02/2022,2022,https://www.formland.com/,DM,Det Gule Hus Engros ApS,3198,D,,,,,Ribe,,,,,
Formland - January,03/02/2022,2022,https://www.formland.com/,DM,Kuriosis,3376,D,,,,,Berlin,,,,,
Formland - January,03/02/2022,2022,https://www.formland.com/,DM,designsofa,9310,L,www.designsofa.dk,,,,"Aars, Danmark",Danmark, | Design |  | Designmøbler | Polstermøbler | Stole | Sofa,"designsofa Aps
designsofa.dk Aps","designsofa
designsofa.dk",Tailormade Sofas on meassurement.
Formland - January,03/02/2022,2022,https://www.formland.com/,DM,Design Rocket,5140,F,,,,,Skanderborg,,,,,
Formland - January,03/02/2022,2022,https://www.formland.com/,DM,Dialægt/Citatplakat ApS,3108,D,,,,,Næstved,,,,,
Formland - January,03/02/2022,2022,https://www.formland.com/,DM,Elmelund Chocolatier,4230,E,,,,,Vordingborg,,,,,
Formland - January,03/02/2022,2022,https://www.formland.com/,DM,Dansk Smykkekunst A/S,6250,H,,,,,Herlev,,,,,
Formland - January,03/02/2022,2022,https://www.formland.com/,DM,Design Hub / Kældergalleriet under,5342,F,,,,,Herning,,,,,
Formland - January,03/02/2022,2022,https://www.formland.com/,DM,Danske Dekoratører,7370,J,,,,,Silkeborg,,,,,
Formland - January,03/02/2022,2022,https://www.formland.com/,DM,Danish Coffee and Tea Aps,4150,E,www.farmmountain.com,,,,"Randers NØ, Danmark",Danmark, | Delikatesser | Kaffe | Økologiske fødevarer | Te,"Danish Coffee
Farm Mountain","ICED Espresso.com
Farm Mountain","At Danish Coffee, we are dedicated coffee lovers and our primary focus has always been to maintain the highest and most exclusive quality coffee in the world."
Formland - January,03/02/2022,2022,https://www.formland.com/,DM,FEMININITY ApS,5322,F,,,,,Kolding,,,,,
Formland - January,03/02/2022,2022,https://www.formland.com/,DM,IKIGAAI,5346,F,,,,,København,,,,,
Formland - January,03/02/2022,2022,https://www.formland.com/,DM,Columbine ApS,6030,H,,,,,Allerød,,,,,
Formland - January,03/02/2022,2022,https://www.formland.com/,DM,Chakar,8108,K,,,,,Vallensbæk,,,,,
Formland - January,03/02/2022,2022,https://www.formland.com/,DM,Danish Coffee and Tea Aps,4150,E,www.farmmountain.com,,,,"Randers NØ, Danmark",Danmark, | Delikatesser | Kaffe | Økologiske fødevarer | Te,"Danish Coffee
Farm Mountain","ICED Espresso.com
Farm Mountain","At Danish Coffee, we are dedicated coffee lovers and our primary focus has always been to maintain the highest and most exclusive quality coffee in the world."
Formland - January,03/02/2022,2022,https://www.formland.com/,DM,designsofa,9310,L,www.designsofa.dk,,,,"Aars, Danmark",Danmark, | Design |  | Designmøbler | Polstermøbler | Stole | Sofa,"designsofa Aps
designsofa.dk Aps","designsofa
designsofa.dk",Tailormade Sofas on meassurement.
Formland - January,03/02/2022,2022,https://www.formland.com/,DM,Cos&Krogh ApS,5317,F,,,,,Horsens,,,,,
Formland - January,03/02/2022,2022,https://www.formland.com/,DM,Cday ApS,5316,F,www.cday.dk,,,,"Søborg, Danmark",Danmark, | Design |  | Hylder | Opbevaring | Reoler,Cday ApS,,"CDAY blev grundlagt i 2021 af Christoffer Cady, der fra første blyantstreg har haft en vision om at designe et tidløst minimalistiske reolsystem der vil holde i generationer. Ud fra en mantra om at et godt design skal gøre et produkt anvendeligt, være æstetisk og holde i mange år."
Formland - January,03/02/2022,2022,https://www.formland.com/,DM,E N Art ApS,8200,K,,,,,Herning,,,,,
Formland - January,03/02/2022,2022,https://www.formland.com/,DM,Dansk Baandtryk,8115,K,,,,,Vojens,,,,,
Formland - January,03/02/2022,2022,https://www.formland.com/,DM,Casio Ecr Center København A/S,7332,J,,,,,Valby,,,,,
Formland - January,03/02/2022,2022,https://www.formland.com/,DM,Canett Furniture A/S,9120,L,,,,,Lemvig,,,,,
Formland - January,03/02/2022,2022,https://www.formland.com/,DM,Caja Company,6140,H,,,,,Stenlille,,,,,
Formland - January,03/02/2022,2022,https://www.formland.com/,DM,Byliving ApS,3268,D,,,,,Smørum,,,,,
Formland - January,03/02/2022,2022,https://www.formland.com/,DM,Cday ApS,5302,F,,,,,Søborg,,,,,
Formland - January,03/02/2022,2022,https://www.formland.com/,DM,By Invite Only ApS,3320,D,www.byinviteonly.dk,,,,"Dragør, Danmark",Danmark, | Håndklæder | Vasketøjsopbevaring |  | Bæredygtighed | Genbrug |  | Børnebelysning | Bordlamper | Gulvlamper | Havelamper | Udendørslamper |  | Kurvevarer | Accessories |  | Økologiske tekstiler | Sengelinned |  | Fotokunst |  | Haveartikler | Havedekoration | Havemøbler | Solafskærmning |  | Legetøj |  | Fastelavn | Halloween |  | Bestik |  | Børnetøj | Punge | Sko | Tasker | Tøj | Toilettasker |  | Opbevaring,Sunnylife | Sun Jellies | Goodnight Light | SNURK | Affenzahn | by Lille Vilde | Play&Go | Pellianni | Namaki | Les P'tits Fouets | Neogrün | KIDYWOLF | Mojipower,Sunnylife | Sun Jellies | Goodnight Light | SNURK | Affenzahn | by Lille Vilde | Play&Go | Pellianni | Namaki | Les P'tits Fouets | Neogrün | KIDYWOLF | Mojipower,"Who wouldn’t want to sleep with a dragon, take a walk with a tiger or float on a unicorn? The brands that we work with are all about having fun with functional products that appeal to young souls; young by age or mind that is."
Formland - January,03/02/2022,2022,https://www.formland.com/,DM,B Green by Callapor A/S,8130,K,,,,,Hasselager,,,,,
Formland - January,03/02/2022,2022,https://www.formland.com/,DM,AYA&IDA ApS,5198,F,,,,,Kolding,,,,,
Formland - January,03/02/2022,2022,https://www.formland.com/,DM,Miss Bagel ApS,4330,E,,,,,Espergærde,,,,,
Formland - January,03/02/2022,2022,https://www.formland.com/,DM,bySKAGEN,3182,D,,,,,Silkeborg,,,,,
Formland - January,03/02/2022,2022,https://www.formland.com/,DM,Aqua Dulce,6230,H,,,,,Vadum,,,,,
Formland - January,03/02/2022,2022,https://www.formland.com/,DM,angela B.,6000,H,,,,,Helsinge,,,,,
Formland - January,03/02/2022,2022,https://www.formland.com/,DM,byLI,6266,H,,,,,Randers NØ,,,,,
Formland - January,03/02/2022,2022,https://www.formland.com/,DM,Andersson Supply Aps,6040,H,,,,,Skovlunde,,,,,
Formland - January,03/02/2022,2022,https://www.formland.com/,DM,Amalie Rosalie,6182,H,,,,,Aarhus V,,,,,
Formland - January,03/02/2022,2022,https://www.formland.com/,DM,Bælg ApS,5301,F,www.baelg.com,,,,"Ørbæk, Danmark",Danmark, | Chokolade,Bælg ApS,Bælg | Klimasød,
Formland - January,03/02/2022,2022,https://www.formland.com/,DM,Avoca,6200,H,,,,,Wicklow A98 PSP3,,,,,
Formland - January,03/02/2022,2022,https://www.formland.com/,DM,Alfred & Co.,6076,H,,,,,Hellerup,,,,,
Formland - January,03/02/2022,2022,https://www.formland.com/,DM,Almuegaardens Bolchekogeri,4120,E,,,,,Næstved,,,,,
Formland - January,03/02/2022,2022,https://www.formland.com/,DM,Cday ApS,5316,F,www.cday.dk,,,,"Søborg, Danmark",Danmark, | Design |  | Hylder | Opbevaring | Reoler,Cday ApS,,"CDAY blev grundlagt i 2021 af Christoffer Cady, der fra første blyantstreg har haft en vision om at designe et tidløst minimalistiske reolsystem der vil holde i generationer. Ud fra en mantra om at et godt design skal gøre et produkt anvendeligt, være æstetisk og holde i mange år."
Formland - January,03/02/2022,2022,https://www.formland.com/,DM,ABC Reoler A/S,9120,L,,,,,Aulum,,,,,
Formland - January,03/02/2022,2022,https://www.formland.com/,DM,AH Vine,4215,E,,,,,Skødstrup,,,,,
Formland - January,03/02/2022,2022,https://www.formland.com/,DM,AEArt,3304,D,,,,,Skanderborg,,,,,
Formland - January,03/02/2022,2022,https://www.formland.com/,DM,Andersson Supply Aps,6130,H,,,,,Skovlunde,,,,,
Formland - January,03/02/2022,2022,https://www.formland.com/,DM,A2 Living ApS,8030,K,,,,,Skive,,,,,
Formland - January,03/02/2022,2022,https://www.formland.com/,DM,Aalborg Chokoladen,4114,E,,,,,Aalborg Øst,,,,,
Formland - January,03/02/2022,2022,https://www.formland.com/,DM,Aafod Import ApS,6050,H,,,,,Køge,,,,,
Formland - January,03/02/2022,2022,https://www.formland.com/,DM,ALMA BY G.,4232,E,,,,,Skanderborg,,,,,
Formland - January,03/02/2022,2022,https://www.formland.com/,DM,Asian House Denmark A/S,7262,J,,,,,Sunds,,,,,
Formland - January,03/02/2022,2022,https://www.formland.com/,DM,BySommer Aps,3140,D,,,,,Nørresundby,,,,,
Formland - January,03/02/2022,2022,https://www.formland.com/,DM,Conform Collection AB,9150,L,,,,,Vetlanda,,,,,
Formland - January,03/02/2022,2022,https://www.formland.com/,DM,A Nordic Storm,5303,F,,,,,Køge,,,,,
Formland - January,03/02/2022,2022,https://www.formland.com/,DM,Aalborg Chokoladen,4228,E,,,,,Aalborg Øst,,,,,
