ShowName,ShowDate,ShowYear,ShowWebsite,SubmittedBy,ExhibitorName,BoothNumber,HallLocation,Website,Email,Phone,Fax,Address,Country,Categories,Manufacturers,Brands,Description
NY Textiles Market - Fall,10/04/2021,2021,https://www.hometextilestoday.com/,DM,Al-Karam USA Inc,,,www.alkaram.com,irfan@alkaramus.com,9176895645,,295 Fifth Avenue Suite 1111 New York NY 10016 US,,,,,
NY Textiles Market - Fall,10/04/2021,2021,https://www.hometextilestoday.com/,DM,Allergy Standards Ltd,,,,tracycullen@allergystandards.com,+ 353 1 675 5678,,"The Tower Trinity Enterprise Campus, Grand Canal Quay Dublin  2 IE",,,,,
NY Textiles Market - Fall,10/04/2021,2021,https://www.hometextilestoday.com/,DM,American Textile Company,,,www.americantextile.com,pseiffert@americantextile.com,412-948-1084,,10 N Linden St Duquesne PA 15110 US,,,,,
NY Textiles Market - Fall,10/04/2021,2021,https://www.hometextilestoday.com/,DM,AQ Textiles,,,,larryqueen@gmail.com,2122972137,,230 Fifth Ave New York NY 10001 US,,,,,
NY Textiles Market - Fall,10/04/2021,2021,https://www.hometextilestoday.com/,DM,Arroya Studio,,,arroyasleep.com,stevemcgee@arroyastudio.com,9418072815,,91 Leonard Street 7C New York NY 10013 US,,,,,
NY Textiles Market - Fall,10/04/2021,2021,https://www.hometextilestoday.com/,DM,Avanti Linens,,,https://www.avantilinens.com/,jkaufman@avantilinens.com,201-641-7766,,234 Moonachie Road Moonachie NJ 07074 US,,,,,"Avanti Linens, established in 1969, is the world’s leading designer and manufacturer of embellished towels, with a focus on the better independent, specialty and department stores. Avanti also designs and markets an extensive collection of fully coordinated bath accessories, as well as the Spode Christmas Tree collection for kitchen, table and bath."
NY Textiles Market - Fall,10/04/2021,2021,https://www.hometextilestoday.com/,DM,"Beatrice Home Fashions, Inc.",,,www.beatricehf.com,sam.gindi@beatricehf.com,9085617370,,151 Helen Street South Plainfield NJ 07080 US,,,,,
NY Textiles Market - Fall,10/04/2021,2021,https://www.hometextilestoday.com/,DM,Berkshire Blanket,,,,smaddalene@berkshireblanket.com,4139675964,,44 E. Main St. Ware MA 01082 US,,,,,
NY Textiles Market - Fall,10/04/2021,2021,https://www.hometextilestoday.com/,DM,Better Trends,,,,nitish@bettertrends.com,7322104127,,23 Roosevelt Ave Suite 15 Somerset NJ 08873 US,,,,,
NY Textiles Market - Fall,10/04/2021,2021,https://www.hometextilestoday.com/,DM,Blue Ridge Home Fashions,,,,Ning.He@blueridgehome.com,540-463-1646,540-464-5764,15761 Tapia Street Irwindale CA 91706 US,,,,,"Down and Down Alternative comforters and pillows, including Royal Velvet line. Duvets, featherbeds and fiberbeds."
NY Textiles Market - Fall,10/04/2021,2021,https://www.hometextilestoday.com/,DM,Brentwood,,,,lsbrent99@yahoo.com,212-684-7320,, US,,,,,
NY Textiles Market - Fall,10/04/2021,2021,https://www.hometextilestoday.com/,DM,Caro Home,,,Carohome.com,John@carohome.com,2129204868,,583 Pacific st 583 Pacific St Stamford  CT 06902 US,,,,,
NY Textiles Market - Fall,10/04/2021,2021,https://www.hometextilestoday.com/,DM,Commonwealth Home Fashions,,,http://www.commonwealthhomefashions.com/,barryg@comhomfash.com,5143848290,5143827998,39 Myers Way   P.O. Box 339 Willsboro NY 12996 US,,,,,"A family operated business since 1946, specializing in ready made curtains, draperies, and related accessories. Brand names that are merchandising include Thermalogic insulated curtains, Outdoor Decor, and water repellent outdoor curtains. Headquartered in Montreal, Canada, our distribution and warehouse facilities are based in upstate New York."
NY Textiles Market - Fall,10/04/2021,2021,https://www.hometextilestoday.com/,DM,Down & Feather Co.,,,www.downandfeather.com,david@downandfeather.com,8883696263,,9595 Six Pines Drive Suite 8210 Woodlands TX 77380 US,,,,,
NY Textiles Market - Fall,10/04/2021,2021,https://www.hometextilestoday.com/,DM,Down Inc.,,,,dmclin@downinc.com,"",,635 Evergreen SE Grand Rapids MI 49507 US,,,,,
NY Textiles Market - Fall,10/04/2021,2021,https://www.hometextilestoday.com/,DM,Franco Manufacturing,,,http://www.franco-mfg.com/,davidl@francomfg.com,732-623-9497,,555 Prospect Street Metuchen NJ 8840 US,,,,,"Through consistent year to year growth and partnerships with top brands such as Disney, Nickelodeon, Warner Brothers, Hasbro, Paul Frank and Speedo, Franco Manufacturing has become one of the top ten USA based home textiles companies."
NY Textiles Market - Fall,10/04/2021,2021,https://www.hometextilestoday.com/,DM,"Himatsingka America, Inc.",,,,261 Fifth Avenue Suite 1400,1234567890,,New York NY 10016 US ,,,,,"Himatsingka America is the leading designer, manufacturer and distributor of luxury home textile brands in North America.  Our portfolio features top-tier labels like Kate Spade, Calvin Klein and Barbara Barry.  Our product assortment includes top of bed, sheeting, bedding accessories, towels and bath accessories. As a division of the Himatsingka Group, a leading textile manufacturer in India, we are North America’s premier source for exceptional home collections."
NY Textiles Market - Fall,10/04/2021,2021,https://www.hometextilestoday.com/,DM,Hollander Sleep Products,,,http://www.hollander.com/,bmack@hollander.com,561-997-6900,561-997-8738,901 Yamato Rd. Ste. 250 Boca Raton FL 33431 US,,,,,"Hollander Sleep Products has developed and sold basic bedding for over 50 years and is the world's largest producer of bed pillows. Other products include down and down alternative comforters and mattress pads. We have world wide sourcing teams and 8 distribution facilities throughout the US and Canada. We pride ourselves on quality, having our own in house quality control laboratory. Hollander helps you live comfortably."
NY Textiles Market - Fall,10/04/2021,2021,https://www.hometextilestoday.com/,DM,Home Textiles Today,,,http://www.homeandtextilestoday.com/,jmarks@homeandtextilestoday.com,9172088733,,500 7th Avenue 12th Floor New York NY 10018 US,,,,,"Founded in 1979, Home & Textiles Today is the voice of the home textiles industry, providing news and information about leading home textiles retailers and vendors as well as product categories, trends and key executives. In addition to 17 print issues (also available digitally), HTT publishes HTT Extra, a free global daily e-newsletter bringing executives up to the minute news."
NY Textiles Market - Fall,10/04/2021,2021,https://www.hometextilestoday.com/,DM,Indo Count Global,,,www.indocount.com,kklalpuria@indocount.com,1-646-416-7000,,"295 Fifth Avenue, Suite 621 New York NY 10016  US",,,,,
NY Textiles Market - Fall,10/04/2021,2021,https://www.hometextilestoday.com/,DM,"JLA Home- E & E Co., Inc.",,,,joan.scotto@jlahome.com,5165287829,,11 E 26th Street  2nd Floor New York NY 11561 US,,,,,
NY Textiles Market - Fall,10/04/2021,2021,https://www.hometextilestoday.com/,DM,Keeco,,,,cgrassi@lkeeco.com,212-685-9077,,295 5th Ave Suite 406 New York NY 10016 US,,,,,
NY Textiles Market - Fall,10/04/2021,2021,https://www.hometextilestoday.com/,DM,Klear Vu Corporation,,,www.klearvu.com,Ben.Cooper@klearvu.com,5086745723,,600 Airport Road Fall River MA 02720 US,,,,,
NY Textiles Market - Fall,10/04/2021,2021,https://www.hometextilestoday.com/,DM,Laural Home,,,Lauralhome.com,Don@LauralHome.com,2012648020,,210 Knickerbocker Road Cresskill NJ 07626 US,,,,,
NY Textiles Market - Fall,10/04/2021,2021,https://www.hometextilestoday.com/,DM,LDB Interior Textiles,,,http://ldbinteriortextiles.com/,LDBadvPhilippa@aol.com,212-661-1516,,5255 Zelzah Avenue  #117 Encino CA 91316 US,,,,,
NY Textiles Market - Fall,10/04/2021,2021,https://www.hometextilestoday.com/,DM,Lenzing,,,,w.bridgham@lenzing.com,212-944-7400,212-944-7406,530 Seventh Avenue Suite 808 New York NY 10018 US,,,,,"The Lenzing Group is a world leader in marketing and manufacturing man-made cellulose fibers. Lenzing Viscose®,  Lenzing Modal® and TENCEL® fibers are primarily used in the Home and Apparel textile industry; special fibers made by Lenzing are used for hygiene as well as technical applications."
NY Textiles Market - Fall,10/04/2021,2021,https://www.hometextilestoday.com/,DM,Levinsohn Textiles,,,,levtex@aol.com,"",,"230 Fifth Avenue, Suite #1510 New York NY 10001 US",,,,,
NY Textiles Market - Fall,10/04/2021,2021,https://www.hometextilestoday.com/,DM,Loftex USA,,,http://www.loftex.com/,CGaenslen@loftexusa.com,"",,58 W 40th Street  10th Floor New York NY 10018 US,,,,,"Loftex is a vertically integrated manufacturer of bath towels, beach towels, bath rugs, and plush throws."
NY Textiles Market - Fall,10/04/2021,2021,https://www.hometextilestoday.com/,DM,Matouk,,,www.matouk.com,gmatouk@matouk.com,5083699383,,925 Airport Road Fall River MA 02720 US,,,,,
NY Textiles Market - Fall,10/04/2021,2021,https://www.hometextilestoday.com/,DM,Mohawk,,,http://www.mohawkind.com/,cyndi_green@mohawkind.com,706-629-7916,,P.O. Box 130 3032 Sugar Valley Road NW Sugar Valley GA 30746 US,,,,,"For over 120-years Mohawk has been a trusted name in carpets. Today Mohawk is the leading producer and distributor of flooring worldwide. All major flooring categories, carpet, rugs, hardwood, laminate, ceramic tile, and vinyl flooring can be purchased at an authorized Mohawk dealer for residential or commercial application. The company operates under four divisions with its own products, features, and brand names."
NY Textiles Market - Fall,10/04/2021,2021,https://www.hometextilestoday.com/,DM,Natco Home Products,,,www.natcohome.com,mlarovere@natcohome.com,9175762984,,155 Brookside Avenue West Warwick RI 02893 US,,,,,
NY Textiles Market - Fall,10/04/2021,2021,https://www.hometextilestoday.com/,DM,NeiperHome S.A.,,,,zamith@neiper.pt,+351252980010,+351252907073,Rua das Escolas 1466 Guimaraes  4765-486 PT,,,,,
NY Textiles Market - Fall,10/04/2021,2021,https://www.hometextilestoday.com/,DM,"New Sega Home Textiles North America, Inc.",,,https://www.newsegahome.com/,brian.delp@newsegahome.com,2125450906,8664970866,"261 5th Avenue, Suite 2303 New York NY 10016 US",,,,,
NY Textiles Market - Fall,10/04/2021,2021,https://www.hometextilestoday.com/,DM,Pacific Cotton LLC,,,www.pacific-cotton.com,sala@pacific-cotton.com,4436166416,,9600 NW Fleischner St Portland  97229 US,,,,,
NY Textiles Market - Fall,10/04/2021,2021,https://www.hometextilestoday.com/,DM,Pegasus Home Fashions,,,www.pegasushomefashions.com,j.spinella@pegasushomefashions.com,9089651919,,107 Trumbull Street Building G1 Elizabeth NJ 07026 US,,,,,
NY Textiles Market - Fall,10/04/2021,2021,https://www.hometextilestoday.com/,DM,Peking Handicraft Inc,,,,rsmith@pkhc.com,972.978.5403,,"1388 San Mateo Ave, South , CA San Francisco CA 94080 US",,,,,
NY Textiles Market - Fall,10/04/2021,2021,https://www.hometextilestoday.com/,DM,Pem America,,,,chuck.brannon@pemamerica.com,212-481-2141,,70 West 36th Street Second Floor New York NY 10018 US,,,,,"Pem America, Inc. provides comforter, quilts, bedspreads, duvetcovers, blankets, throws, bath products, and infant bedding."
NY Textiles Market - Fall,10/04/2021,2021,https://www.hometextilestoday.com/,DM,Revman International,,,http://www.revman.com/,rroman@revman.com,212-278-0300,,350 Fifth Avenue 70th Floor New York NY 10118 US,,,,,"Revman International, Inc. was founded by Richard J. Roman, President in 1988, focusing on high fashion lifestyle home furnishings products. Revman produces bed and bath products for Nautica, Tommy Bahama, Nicole Miller, Laura Ashley, Vera Wang, Marimekko, Wedgwood, Steve Madden, Betsey Johnson, Perry Ellis, Kevin O'Brien, Eddie Bauer, Adrienne Vittadini, Manor Hill, and City Scene."
NY Textiles Market - Fall,10/04/2021,2021,https://www.hometextilestoday.com/,DM,"Royale Linens, Inc.",,,www.royalelinens.com,pkatyal@royalelinens.com,201-997-3700 ext. 1024,,295 5th Ave Room 1109 New York NY 10016 US,,,,,
NY Textiles Market - Fall,10/04/2021,2021,https://www.hometextilestoday.com/,DM,S. Lichtenberg & Co.,,,,sgoldstein@lichtenberg.com,212-689-4510,212-689-4517,"1010 Northern Blvd., Suite 400 Great Neck NY 11021 US",,,,,
NY Textiles Market - Fall,10/04/2021,2021,https://www.hometextilestoday.com/,DM,Sinomax USA,,,www.sinomax-usa.com,alysabeth.anderson@sinomax-usa.com,8459011251,,3151 Briarpark Drive Suite 1220 Houston TX 77042 US,,,,,
NY Textiles Market - Fall,10/04/2021,2021,https://www.hometextilestoday.com/,DM,Standard Fiber,,,,russholbrook@standardfiber.com,704-840-7305,,11203 Creek Pointe Drive Matthews NC  US,,,,,
NY Textiles Market - Fall,10/04/2021,2021,https://www.hometextilestoday.com/,DM,Sun-Yin USA,,,,brandon.grether@sunyin.com,(909) 594-7767,,280 Machlin CT Walnut CA 91789 US,,,,,
NY Textiles Market - Fall,10/04/2021,2021,https://www.hometextilestoday.com/,DM,Trade Linker Int'l Inc.,,,,ARSLAN@TRADE-LINKER.COM,9086530800,,"570 South Ave East, Bldg. B Cranford NJ 07016 US",,,,,
NY Textiles Market - Fall,10/04/2021,2021,https://www.hometextilestoday.com/,DM,Trident,,,http://www.tridentindia.com/,jeffkambak@tridentindia.com,212-684-6342,,295 Fifth Avenue Suite 1112 New York NY 10016 US,,,,,"TridentGroup is a USD 1 billion Indian business conglomerate and global player. With recent expansion and modernization, we are now the largest Terry Towel manufacturer in the world. Trident has an installed capacity of 688 looms capable of producing 360 million pieces of towels and 1 million pieces of bathrobes annually. We have made new foray into the bed linen segment. With customer base across 6 continents, we have frequently received accolades from our patrons who are stalwarts of the retail world. With state-of-the-art manufacturing processes and export turnover for Terry Towel accounting for 90% of total sales of the Company, Trident has emerged as one of the largest integrated home textile manufacturers of the world."
NY Textiles Market - Fall,10/04/2021,2021,https://www.hometextilestoday.com/,DM,United Feather & Down,,,,spalmer@ufandd.com,"",,3100 Dundee Rd. Ste. 208 Northbrook IL 60062 US,,,,,
NY Textiles Market - Fall,10/04/2021,2021,https://www.hometextilestoday.com/,DM,WestPoint Home,,,http://www.westpointhome.com/,Kristen.Biddison@wphome.com,212-930-2000,212-679-2757,28 East 28th Street New York NY 10016 US,,,,,"WestPoint Home is a leading global manufacturer of bed and bath home fashions with U.S. and offshore manufacturing facilities as well as a sourcing operation in the Far East. WestPoint Home's 200 Years of heritage and institutional knowledge is unparalleled in the industry. Noted for innovative marketing, creative design, supply-chain management, and cross channel distribution. WestPoint Home is owner of recognized home brands such as Martex, Vellux, Luxor, Grand Patrician, Five Star Hotel Collection, and has recently introduced a comprehensive lifestyle fashion brand, 'Modern Living'. WestPoint Home is a licensee of the top brands in today's market including Lauren Ralph Lauren, IZOD, Portico, Under the Canopy and Hanes. Renowned for quality, innovation and design and committed to creating innovative products to meet the ever-changing home fashion needs of our consumers."
