ShowName,ShowDate,ShowYear,ShowWebsite,SubmittedBy,ExhibitorName,BoothNumber,HallLocation,Website,Email,Phone,Fax,Address,Country,Categories,Manufacturers,Brands,Description
NY Textiles Market - Spring,03/21/2022,2022,https://www.hometextilestoday.com/,DM,Al-Karam USA Inc,,,www.alkaram.com,295 Fifth Avenue Suite 1111,Fax:,,New York NY 10016 US,,,,,
NY Textiles Market - Spring,03/21/2022,2022,https://www.hometextilestoday.com/,DM,Avanti Linens,,,https://www.avantilinens.com/,jkaufman@avantilinens.com,201-641-7766,,"234 Moonachie Road, Moonachie NJ 07074 US",,,,,"Avanti Linens, established in 1969, is the world’s leading designer and manufacturer of embellished towels, with a focus on the better independent, specialty and department stores. Avanti also designs and markets an extensive collection of fully coordinated bath accessories, as well as the Spode Christmas Tree collection for kitchen, table and bath."
NY Textiles Market - Spring,03/21/2022,2022,https://www.hometextilestoday.com/,DM,"Beatrice Home Fashions, Inc.",,,www.beatricehf.com,sam.gindi@beatricehf.com,9085617370,,"151 Helen Street, South Plainfield NJ 07080 US",,,,,
NY Textiles Market - Spring,03/21/2022,2022,https://www.hometextilestoday.com/,DM,Berkshire Blanket,,,,smaddalene@berkshireblanket.com,4139675964,,"44 E. Main St., Ware MA 01082 US",,,,,
NY Textiles Market - Spring,03/21/2022,2022,https://www.hometextilestoday.com/,DM,Brentwood,,,,joys@brentwoodoriginals.com,310-667-8713,,US,,,,,
NY Textiles Market - Spring,03/21/2022,2022,https://www.hometextilestoday.com/,DM,Commonwealth Home Fashions,,,http://www.commonwealthhomefashions.com/,barryg@comhomfash.com,5143848290,5143827998,"39 Myers Way   P.O. Box 339, Willsboro NY 12996 US",,,,,"A family operated business since 1946, specializing in ready made curtains, draperies, and related accessories. Brand names that are merchandising include Thermalogic insulated curtains, Outdoor Decor, and water repellent outdoor curtains. Headquartered in Montreal, Canada, our distribution and warehouse facilities are based in upstate New York."
NY Textiles Market - Spring,03/21/2022,2022,https://www.hometextilestoday.com/,DM,Dito Lifestyles Inc.,,,www.ditohome.com,matt@ditohome.com,212-219-8680,,"70 Bowery Suite 504, New York NY 10013 US",,,,,
NY Textiles Market - Spring,03/21/2022,2022,https://www.hometextilestoday.com/,DM,Down Décor,,,,travis@downdecor.com,1-206-595-8629,,"1 Kovach Drive, Cincinnatti OH 45215 US",,,,,"A manufacturer and importer of private label down bedding, decorator pillow inserts and offer contract cut and sew services. We also sell bulk fill to other manufacturers."
NY Textiles Market - Spring,03/21/2022,2022,https://www.hometextilestoday.com/,DM,Franco Manufacturing,,,http://www.franco-mfg.com/,davidl@francomfg.com,732-623-9497,,"555 Prospect Street, Metuchen NJ 8840 US",,,,,"Through consistent year to year growth and partnerships with top brands such as Disney, Nickelodeon, Warner Brothers, Hasbro, Paul Frank and Speedo, Franco Manufacturing has become one of the top ten USA based home textiles companies."
NY Textiles Market - Spring,03/21/2022,2022,https://www.hometextilestoday.com/,DM,"Himatsingka America, Inc.",,,,trishala.kataria@himatsingka.com,1234567890,,"261 Fifth Avenue Suite 1400, New York NY 10016 US",,,,,"Himatsingka America is the leading designer, manufacturer and distributor of luxury home textile brands in North America.  Our portfolio features top-tier labels like Kate Spade, Calvin Klein and Barbara Barry.  Our product assortment includes top of bed, sheeting, bedding accessories, towels and bath accessories. As a division of the Himatsingka Group, a leading textile manufacturer in India, we are North America’s premier source for exceptional home collections."
NY Textiles Market - Spring,03/21/2022,2022,https://www.hometextilestoday.com/,DM,Home Fashion Products Association,,,http://www.homefashionproducts.com,hfpa@kellencompany.com,212-297-2122,,"355 Lexington Avenue Suite 1500, New York NY 10017 US",,,,,
NY Textiles Market - Spring,03/21/2022,2022,https://www.hometextilestoday.com/,DM,"JLA Home- E & E Co., Inc.",,,,joan.scotto@jlahome.com,5165287829,,"11 E 26th Street  2nd Floor, New York NY 11561 US",,,,,
NY Textiles Market - Spring,03/21/2022,2022,https://www.hometextilestoday.com/,DM,Keeco,,,,cgrassi@lkeeco.com,212-685-9077,,"295 5th Ave Suite 406, New York NY 10016 US",,,,,
NY Textiles Market - Spring,03/21/2022,2022,https://www.hometextilestoday.com/,DM,Klear Vu Corporation,,,www.klearvu.com,Ben.Cooper@klearvu.com,5086745723,,"600 Airport Road, Fall River MA 02720 US",,,,,
NY Textiles Market - Spring,03/21/2022,2022,https://www.hometextilestoday.com/,DM,Laural Home,,,Lauralhome.com,Don@LauralHome.com,2012648020,,"210 Knickerbocker Road, Cresskill NJ 07626 US",,,,,
NY Textiles Market - Spring,03/21/2022,2022,https://www.hometextilestoday.com/,DM,Lenzing Fibers - Tencel (tm),,,www.tencel.com,w.bridgham@lenzing.com,305-793-3486,212-944-7406,"530 Seventh Avenue Suite 808, New York NY 10018 US",,,,,"The Lenzing Group is a world leader in marketing and manufacturing man-made cellulose fibers. Lenzing Viscose®,  Lenzing Modal® and TENCEL® fibers are primarily used in the Home and Apparel textile industry; special fibers made by Lenzing are used for hygiene as well as technical applications."
NY Textiles Market - Spring,03/21/2022,2022,https://www.hometextilestoday.com/,DM,Levinsohn Textiles,,,,levtex@aol.com,2122972137,,"230 Fifth Avenue, Suite #1510, New York NY 10001 US",,,,,
NY Textiles Market - Spring,03/21/2022,2022,https://www.hometextilestoday.com/,DM,Loftex USA,,,http://www.loftex.com/,CGaenslen@loftexusa.com,Fax:,,"58 W 40th Street  10th Floor, New York NY 10018 US",,,,,"Loftex is a vertically integrated manufacturer of bath towels, beach towels, bath rugs, and plush throws."
NY Textiles Market - Spring,03/21/2022,2022,https://www.hometextilestoday.com/,DM,Matouk,,,www.matouk.com,gmatouk@matouk.com,5083699383,,"925 Airport Road, Fall River MA 02720 US",,,,,
NY Textiles Market - Spring,03/21/2022,2022,https://www.hometextilestoday.com/,DM,Mohawk,,,http://www.mohawkind.com/,cyndi_green@mohawkind.com,7066244612,,"P.O. Box 130 3032 Sugar Valley Road NW, Sugar Valley GA 30746 US",,,,,"For over 120-years Mohawk has been a trusted name in carpets. Today Mohawk is the leading producer and distributor of flooring worldwide. All major flooring categories, carpet, rugs, hardwood, laminate, ceramic tile, and vinyl flooring can be purchased at an authorized Mohawk dealer for residential or commercial application. The company operates under four divisions with its own products, features, and brand names."
NY Textiles Market - Spring,03/21/2022,2022,https://www.hometextilestoday.com/,DM,Natco Home Products,,,www.natcohome.com,mlarovere@natcohome.com,9175762984,,"155 Brookside Avenue, West Warwick RI 02893 US",,,,,
NY Textiles Market - Spring,03/21/2022,2022,https://www.hometextilestoday.com/,DM,"New Sega Home Textiles North America, Inc.",,,https://www.newsegahome.com/,brian.delp@newsegahome.com,2125450906,8664970866,"261 5th Avenue, Suite 2303, New York NY 10016 US",,,,,
NY Textiles Market - Spring,03/21/2022,2022,https://www.hometextilestoday.com/,DM,Pem America,,,,chuck.brannon@pemamerica.com,212-481-2141,,"70 West 36th Street Second Floor, New York NY 10018 US",,,,,"Pem America, Inc. provides comforter, quilts, bedspreads, duvetcovers, blankets, throws, bath products, and infant bedding."
NY Textiles Market - Spring,03/21/2022,2022,https://www.hometextilestoday.com/,DM,"Royale Linens, Inc.",,,www.royalelinens.com,pkatyal@royalelinens.com,201-997-3700 ext. 1024,,"295 5th Ave Room 1109, New York NY 10016 US",,,,,
NY Textiles Market - Spring,03/21/2022,2022,https://www.hometextilestoday.com/,DM,S. Lichtenberg & Co.,,,,sgoldstein@lichtenberg.com,212-689-4510,212-689-4517,"1010 Northern Blvd., Suite 400, Great Neck NY 11021 US",,,,,
NY Textiles Market - Spring,03/21/2022,2022,https://www.hometextilestoday.com/,DM,Smartweb Inc.,,,,amit@smartweb.net,9179222742,www.smartweb.net,"89 5th Ave., New York NY 10003 US",,,,,
NY Textiles Market - Spring,03/21/2022,2022,https://www.hometextilestoday.com/,DM,Standard Fiber,,,,russholbrook@standardfiber.com,17048407305,,"577 Airport Blvd. Suite 200, Burlingame CA 91010 US",,,,,
NY Textiles Market - Spring,03/21/2022,2022,https://www.hometextilestoday.com/,DM,Sunyin USA,,,,brandon.grether@sunyin.com,(909) 594-7767,,"280 Machlin Ct., City of Industry CA 91789 US",,,,,
NY Textiles Market - Spring,03/21/2022,2022,https://www.hometextilestoday.com/,DM,Trident,,,http://www.tridentindia.com/,jeffkambak@tridentindia.com,212-684-6342,,"295 Fifth Avenue Suite 1112, New York NY 10016 US",,,,,"TridentGroup is a USD 1 billion Indian business conglomerate and global player. With recent expansion and modernization, we are now the largest Terry Towel manufacturer in the world. Trident has an installed capacity of 688 looms capable of producing 360 million pieces of towels and 1 million pieces of bathrobes annually. We have made new foray into the bed linen segment. With customer base across 6 continents, we have frequently received accolades from our patrons who are stalwarts of the retail world. With state-of-the-art manufacturing processes and export turnover for Terry Towel accounting for 90% of total sales of the Company, Trident has emerged as one of the largest integrated home textile manufacturers of the world."
