ShowName,ShowDate,ShowYear,ShowWebsite,SubmittedBy,ExhibitorName,BoothNumber,HallLocation,Website,Email,Phone,Fax,Address,Country,Categories,Manufacturers,Brands,Description
FORMEX,01/18/2022,2022,https://www.formex.se/,DM,Blomberg & Stenström AB,,,www.blombergstenstromhome.se,mikael@blombergstenstrom.se,0734 280 776,,"Illerbacken 2 0 tr, 181 45, Lidingö",Sverige,,,,
FORMEX,01/18/2022,2022,https://www.formex.se/,DM,Bergs Potter ApS,,,www.bergspotter.com,gb@bergspotter.com,+45 31 37 99 79,,"Holger Danskes Vej 17, st.th., 2000, FREDERIKSBERG",Danmark,,,,
FORMEX,01/18/2022,2022,https://www.formex.se/,DM,BLL Lager & Logistik AB,,,www.bll.nu,andreas@bll.nu,0708326686,,"Elestorpsvägen 135, 26991, Båstad",Sverige,Miscellaneous,,,
FORMEX,01/18/2022,2022,https://www.formex.se/,DM,Bergerlinds Förlag,,,www.bergerlind.se,jan@bergerlind.se,+46 736 187356,,"Granhällsvägen 7, 511 68, Hyssna",Sverige,,,,
FORMEX,01/18/2022,2022,https://www.formex.se/,DM,Bengt & Lotta AB,,,www.bengt-lotta.se,bengt@bengt-lotta.se,+46 8 660 65 15,,"Holländargatan 40, 113 59, Stockholm",Sverige,,,,
FORMEX,01/18/2022,2022,https://www.formex.se/,DM,Beckmans Designhögskola,,,www.beckmans.se,info@beckmans.se,+46 8 660 20 20,,"Brahegatan 10, 114 37, Stockholm",Sverige,,,,
FORMEX,01/18/2022,2022,https://www.formex.se/,DM,Beriksson AB,,,beriksson.se,info@beriksson.se,+46 520 820 07,,"Montörvägen 2, 461 37, Trollhättan",Sverige,,,,
FORMEX,01/18/2022,2022,https://www.formex.se/,DM,BERGO Lampskärmar,,,www.bergo.se,info@bergo.se,016-351206,,"Hällby Storsved 2, 635 10, Eskilstuna",Sverige,Soft Furnishibgs | Interior,,BERGO Home - Sverige | BERGO Lampskärmar - Sverige,
FORMEX,01/18/2022,2022,https://www.formex.se/,DM,BaooBaoo Leather Production AB,,,,info@baobaoo.se,070-9692504,,"Fredsgatan 25, 331 52, Värnamo",Sverige,,,,
FORMEX,01/18/2022,2022,https://www.formex.se/,DM,Ballongkungen.com,,,www.ballongkungen.com,info@ballongkungen.com,+46 60 66 40 00,,"Tegelvägen 3B, 853 50, Sundsvall",Sverige,,,,
FORMEX,01/18/2022,2022,https://www.formex.se/,DM,Bargi AB,,,www.bargi.se,fg@bargi.se,+46 40 53 55 00,,"Limvägen 3, 232 37, Arlöv",Sverige,,,,
FORMEX,01/18/2022,2022,https://www.formex.se/,DM,B GREEN  by Callapor A/S,,,www.callapor.dk,info@bgreen.dk,+45 862 836 07,,"Hovedvejen 167, 8361, HASSELAGER",Danmark,,,,
FORMEX,01/18/2022,2022,https://www.formex.se/,DM,Axlings Linne AB,,,www.axlings.se,,+46 8 550 801 11,,"Nordqvists väg 4, 136 49, Vega",Sverige,,,,
FORMEX,01/18/2022,2022,https://www.formex.se/,DM,Aveva Design AB,,,www.aveva-design.se,contact@aveva-design.se,+46 709 396 199,,"Ekonomigatan 4, 216 13, Limhamn",Sverige,Interior | Kitchen Accessories | Pots | General gifts,,,
FORMEX,01/18/2022,2022,https://www.formex.se/,DM,Atelier Schönenberg,,,www.atelierschonenberg.se,fanny.schonenberg@gmail.com,076-0458318,,"Övre Husargatan 32, 413 14, Göteborg",Sverige,,,,
FORMEX,01/18/2022,2022,https://www.formex.se/,DM,Baroness Design AB,,,www.baroness.se,info@baroness.se,+46 476 122 00,,"Vaktgatan 8, 343 34, Älmhult",Sverige,,,,
FORMEX,01/18/2022,2022,https://www.formex.se/,DM,By Benson,,,www.bybenson.com,anna@bybenson.com,+46 706 20 73 33,,"Södra Kärr 318, 385 98, Bergkvara",Sverige,,,,
FORMEX,01/18/2022,2022,https://www.formex.se/,DM,By Jolima,,,www.byjolima.com,info@byjolima.com,+46 340 690 510,,"Härdgatan 23, 432 31, Varberg",Sverige,,,,
FORMEX,01/18/2022,2022,https://www.formex.se/,DM,By Odahl Sweden,,,www.byodahl.se,byodahl@gmail.com,,,"Bispvägen 21, 239 41, Falsterbo",Sverige,,,,
FORMEX,01/18/2022,2022,https://www.formex.se/,DM,Butik Maia,,,butikmaia.se,butikmaia@gmail.com,0727472627,,"Rådhusgatan 4, 261 61, Landskrona",Sverige,,,,
FORMEX,01/18/2022,2022,https://www.formex.se/,DM,By Boysen,,,byboysen.dk,info@byboysen.dk,+45 22 18 77 81,,"Smidstrupvej 31, 4733, Tappernøje",Danmark,,,,
FORMEX,01/18/2022,2022,https://www.formex.se/,DM,Butterick's Leco AB,,,www.leco.se,info@leco.se,+46 35 160 350,,"Sune Sågares Väg 4, 310 38, Simlångsdalen",Sverige,,,,
FORMEX,01/18/2022,2022,https://www.formex.se/,DM,Busy Lizzie by Willow,,,www.bywillow.com,info@bywillow.com,+46 (0) 16 42 86 72,,"Torshällavägen 148, 63344, Eskilstuna",Sverige,,,Busy Lizzie - Sverige | Nojomojo - Sverige,
FORMEX,01/18/2022,2022,https://www.formex.se/,DM,Bud to rose by Diddi,,,www.budtorose.se,susanne@budtorose.se,+46 706 31 18 10,,"Västkustvägen 48, 254 71, Hasslarp",Sverige,,,,
FORMEX,01/18/2022,2022,https://www.formex.se/,DM,Bukowski Design,,,www.bukowski.se,"info@bukowski.se, sales@bukowski.se",+46 8 611 08 06,,"Speditionsvägen 34, 142 50, Skogås",Sverige,,,,
FORMEX,01/18/2022,2022,https://www.formex.se/,DM,Boel & Jan,,,www.jakobsdalstextil.se  www.boeljan.se,mailbox@homeoftextile.se,+46 33 10 23 30,,"Stationsvägen 2, 516 31, Dalsjöfors",Sverige,,,,
FORMEX,01/18/2022,2022,https://www.formex.se/,DM,Bon Dep AS,,,,,,,"Stasjonsveien 5, 0771, Oslo",Norge,,,,
FORMEX,01/18/2022,2022,https://www.formex.se/,DM,BOXinBAG & Co,,,www.boxinbag.com,info@boxinbag.com,+46 42 14 08 00,,"SMÄLTAREGATAN 4, 263 39, Höganäs",Sverige,Edible | Bath and spa products | Glass & porcelain | Interior | Kitchen Accessories,,BarProfessional - Nederländerna | BOXinBAG + PRE Snaps - Sverige | Culinary Concepts - Storbritannien | DeliVita - Storbritannien | Koala - Spanien | Snippers - Nederländerna | Tarrerias-Bonjean - Frankrike | TeaNetherlands - Nederländerna | Wellmark - Nederländerna | Wijck - Nederländerna | VinBouquet - Spanien | Xapron - Nederländerna,
FORMEX,01/18/2022,2022,https://www.formex.se/,DM,ARTESANIA DE GALICIA,,,www.artesaniadegalicia.xunta.gal,promocion.artesania@xunta.gal,+ 34 881 999 171,,"Edif. Adm. San Caetano Bloque 5, 15702, SANTIAGO DE COMPOSTELA, A CORUÑA",Spanien,,,,
FORMEX,01/18/2022,2022,https://www.formex.se/,DM,A piece of Arch,,,apieceofarch.com,asalof88@gmail.com,+46 070 601 36 10,,"Torsplan 8, 113 65, Stockholm",Sverige,,,,
FORMEX,01/18/2022,2022,https://www.formex.se/,DM,Artwood AB,,,www.artwood.se,info@artwood.se,+46 320 181 00,,"Industrigatan 19, 511 62, Skene",Sverige,Interior,,Artwood - Sverige | - Sverige,
FORMEX,01/18/2022,2022,https://www.formex.se/,DM,Apelgren.se,,,,info@apelgren.se,0707563199,,"Producentvägen 12B, 13044, Årsta",Sverige,,,,
FORMEX,01/18/2022,2022,https://www.formex.se/,DM,Annuzza AB,,,www.annuzza.se,info@annuzza.se,+46 8 731 58 60,,"Södra Kungsvägen 68, 18132, Lidingö",Sverige,,,,
FORMEX,01/18/2022,2022,https://www.formex.se/,DM,Aqua Gustus,,,www.aquagustus.com,hello@aquagustus.com,072-4541660,,"C/o Andreas Kirsebom
Rydnäsvägen 6, 184 63, Åkersberga",Sverige,,,Aqua Gustus Naturlig smaksättning för vatten - Sverige | Aqua Gustus - The Botanical Brew - Sverige,
FORMEX,01/18/2022,2022,https://www.formex.se/,DM,Anteba,,,www.anteba.se,info@anteba.se,+46 706 240 716,,"Märsvägen 8, 69234, Kumla",Sverige,,,,
FORMEX,01/18/2022,2022,https://www.formex.se/,DM,Greb Import,,,www.grebimport.se,info@grebimport.se,+46 707 - 557 808,,"Aspviksvägen 16N, 134 38, Gustavsberg",Sverige,,,,
FORMEX,01/18/2022,2022,https://www.formex.se/,DM,Gemini By Helen AB,,,www.geminibyhelen.com,info@geminibyhelen.com,+46 300 391 03,,"Arendalsvägen 33H, 434 39, KUNGSBACKA",Sverige,,,,
FORMEX,01/18/2022,2022,https://www.formex.se/,DM,Frejas Boning AB,,,www.frejasboning.com,info@frejasboning.se,070-760 07 46,,"Brantingsgatan 25, 115 35, Stockholm",Sverige,,,,
FORMEX,01/18/2022,2022,https://www.formex.se/,DM,Galleri Anders,,,www.gallerianders.se/#!home,agngabrielsson@gmail.com,070-566 71 71,,"Kiselgränd 12, 167 64, Bromma",Sverige,,,,
FORMEX,01/18/2022,2022,https://www.formex.se/,DM,Gumselids Hantverk,,,www.gumselid.com,gumselid@gmail.com,+46 -705 383454,,"Sundshult Eriksdal 1, 518 90, Sandared",Sverige,Interior | Seasonal Products | Souvenirs | General gifts,,Gumselids - Sverige,
FORMEX,01/18/2022,2022,https://www.formex.se/,DM,Frames by Vallen,,,www.byvallen.com,info@byvallen.com,,,"Torsplan 8 Lgh 1203, 113 65, Stockholm",Sverige,Interior,,By Vallen - Sverige,
FORMEX,01/18/2022,2022,https://www.formex.se/,DM,Globen Lighting,,,www.globenlighting.se,info@globenlighting.se,+46 325 61 80 80,,"Sågvägen 10, 512 00, Svenljunga",Sverige,Interior,,Globen Lighting - Sverige,
FORMEX,01/18/2022,2022,https://www.formex.se/,DM,Fondaco AB,,,www.fondaco.se,info@fondaco.se,+46 33 12 95 50,,"Getängsvägen 28-30, 504 68, Borås",Sverige,,,,
FORMEX,01/18/2022,2022,https://www.formex.se/,DM,Formverket,,,www.formverket.se,barbro@formverket.se,+46 706 64 96 56,,"Adelsgatan 34 a, 62157, Visby",Sverige,,,,
FORMEX,01/18/2022,2022,https://www.formex.se/,DM,Lonneberg Design AB,,,www.lonneberg.se,info@lonneberg.se,010-603 90 23,,"Värnamovägen 1, 333 31, Smålandsstenar",Sverige,Table Decorations | Interior | Seasonal Products | General gifts,,Lonneberg Design - Sverige,
FORMEX,01/18/2022,2022,https://www.formex.se/,DM,Linnéa Öberg,,,www.designandrabullar.com,contact@designandrabullar.com,072-5287027,,"Flärke 175, 894 95, Moliden",Sverige,Ceramics | Miscellaneous,,Design Andra Bullar - Sverige | Norrland På Tapeten - Sverige,
FORMEX,01/18/2022,2022,https://www.formex.se/,DM,Godtbergsen  A/S,,,www.godtbergsen.dk,paulino.gustavo@tele2.se,+45 74 56 70 50,,"Kystvejen 4, Hejlsminde, 6100, HADERSLEV",Danmark,,,,
FORMEX,01/18/2022,2022,https://www.formex.se/,DM,Lindform AB,,,www.lindform.se,mt@lindform.se,+46 733 57 16 15,,"Svalbovägen 7, 635 18, Husby-Rekarne",Sverige,,,,
FORMEX,01/18/2022,2022,https://www.formex.se/,DM,Lilliestråle Mässing,,,www.lilliestralemassing.se,info@lilliestralemassing.se,070-6303394,,"Karlbergsvägen 50, lgh 1302, 113 37, Stockholm",Sverige,Interior,,,
FORMEX,01/18/2022,2022,https://www.formex.se/,DM,Leklyckan AB,,,www.leklyckan.se,info@leklyckan.se,+46 70-3450852,,"Varlabergsvägen 2, 434 39, KUNGSBACKA",Sverige,,,,
FORMEX,01/18/2022,2022,https://www.formex.se/,DM,Liljebergs,,,www.liljebergs.nu,info@liljebergs.nu,+46 70 342 42 86,,"Gillbergavägen 11, 610 75, Västerljung",Sverige,,,,
FORMEX,01/18/2022,2022,https://www.formex.se/,DM,L:a Fiskaregatans Trädgårdsbutik,,,www.lillafiskaregatanstradgardsbutik.se,info@lillafiskaregatanstradgardsbutik.se,+46 46 590 00 30,,"Gastelyckan,  Skiffervägen 23, 224 78, LUND",Sverige,,,,
FORMEX,01/18/2022,2022,https://www.formex.se/,DM,Larssons Trä AB,,,www.larssonstra.se,info@larssonstra.se,+46 325 472 50,,"Tåstarpsgatan 34, 514 31, Tranemo",Sverige,Interior | Seasonal Products | Souvenirs | General gifts,,,
FORMEX,01/18/2022,2022,https://www.formex.se/,DM,Kryddhyllan Ormesta,,,,thomas.lydell@signlanguage.eu,+46 721765145,,"Ormesta 505, 705 95, Örebro",Sverige,,,,
FORMEX,01/18/2022,2022,https://www.formex.se/,DM,Kriminalvården,,,www.krimprod.se,arve.hopen@kriminalvarden.se,+46 727129130,,", 60180, Norrköping",Sverige,,,KrimProd - Sverige,
FORMEX,01/18/2022,2022,https://www.formex.se/,DM,Kockums Jernverk AB,,,www.kockumsjernverk.se,liselott@kockumsjernverk.se,0707-592380,,"Golfstigen 5, 436 50, Hovås",Sverige,,,,
FORMEX,01/18/2022,2022,https://www.formex.se/,DM,Q3design AB,,,www.q3design.se,Q3designab@gmail.com,,,", , Svinninge",Sverige,Glass & porcelain,,,
FORMEX,01/18/2022,2022,https://www.formex.se/,DM,"Olja&Oliv Deli, Kök & Bar",,,www.olja-oliv-se,henrik@selbo.se,+46 70 252 7757,,"Johannelundsgränd 5, 163 45, Spånga",Sverige,Edible,,Acetaia Malpighi - Italien | Azeite Angelica - Portugal | Azienda Villa Zottopera - Italien | Cipriani Food - Italien | Conte Cuicciardini - Italien | Delizie di Calabria - Italien | Entre Caminos - Spanien | Giuliano Caffee - Italien | José Gourmet - Portugal | Noor Fes - Marocko | Olio Montalbano - Italien | Pastificio Artigianale Leonessa - Italien | Tasting Sicily - Italien,
FORMEX,01/18/2022,2022,https://www.formex.se/,DM,Kärrstegens Gård På Berg AB,,,www.karrstegensgard.se,info@karrstegensgard.se,+46 522 213 39,,"Ulvesundsvägen 22, 459 93, Ljungskile",Sverige,,,,
FORMEX,01/18/2022,2022,https://www.formex.se/,DM,Rabén & Sjögren - B.Wahlströms,,,www.norstedts.se,info@norstedts.se,010-744 20 00,,"Box 2052, 103 12, Stockholm",Sverige,,,,
FORMEX,01/18/2022,2022,https://www.formex.se/,DM,Pufz och Barnmatsburken,,,www.pufz.se,info@pufz.se,+46 768 030 308,,"Fågelviksvägen 9, 184 42, Åkersberga",Sverige,,,,
FORMEX,01/18/2022,2022,https://www.formex.se/,DM,Pärlans Konfektyr,,,www.parlanskonfektyr.se,parlan@parlanskonfektyr.se,+46 866 070 10,,"Nytorgsgatan 38, 116 40, Stockholm",Sverige,,,,
FORMEX,01/18/2022,2022,https://www.formex.se/,DM,PR Home och Svanefors,,,www.prhome.se,,+46 33 13 33 49,,"Box 89, 503 06, Borås",Sverige,,,,
FORMEX,01/18/2022,2022,https://www.formex.se/,DM,PotteryJo,,,www.potteryjo.com,johanna@potteryjo.com,+46 735 133 289,,"Valhallavägen 124, 114 41, Stockholm",Sverige,,,,
FORMEX,01/18/2022,2022,https://www.formex.se/,DM,Pipol’s Bazaar AB,,,www.pipolsbazaar.com,contact@pipolsbazaar.com,+46 8 758 32 00,,"Enebybergsvaegen 10A, 182 36, DANDERYD",Sverige,,,PIPOL - Sverige,
FORMEX,01/18/2022,2022,https://www.formex.se/,DM,Pendulum,,,www.pendulum.dk,viktoria@pendulum.dk,+45 269 267 80,,"Tordenskjoldsgade 12, 1055, Copenhagen k",Danmark,,,,
FORMEX,01/18/2022,2022,https://www.formex.se/,DM,Puckator Ltd,,,www.puckator.se,support@puckator.se,+ 46 (0) 18-495 71 16,,"Sp. z o.o.
Ul. Graniczna 8 aa, 54-610, WROCLAW",Polen,Souvenirs | General gifts,,,
FORMEX,01/18/2022,2022,https://www.formex.se/,DM,Paradisverkstaden Design AB,,,www.paradisverkstaden.se,info@paradisverkstaden.se,+46 485 316 24,,"Snäckstrand, 386 33, Färjestaden",Sverige,,,,
FORMEX,01/18/2022,2022,https://www.formex.se/,DM,Pralinhuset,,,www.pralinhuset.se,kontakt@pralinhuset.se,+46 (08) 408 80 668,,"Energivägen 2C, 135 49, Tyresö",Sverige,,,,
FORMEX,01/18/2022,2022,https://www.formex.se/,DM,Precious Toy,,,www.precioustoy.dk,info@precioustoy.dk,+45 294 78 666,,"Havremarken 4. A5-7, 3650, Ölstykke",Danmark,,,,
FORMEX,01/18/2022,2022,https://www.formex.se/,DM,PaperMe,,,www.paperme.se,info@paperme.se,+46 86 110 405,,"Tryffelslingan 16, 181 56, Lidingö",Sverige,,,,
FORMEX,01/18/2022,2022,https://www.formex.se/,DM,Trivselkort Nordic AB,,,www.trivselkort.com,info@trivselkort.com,0320-748 22,,"Segloravägen 23, 511 72, Fritsla",Sverige,,,,
FORMEX,01/18/2022,2022,https://www.formex.se/,DM,Trio Lighting Scandinavia Oy,,,www.trio-lighting.com,tomas.ronnback@trio-lighting.com,+358 404170959,,"Malmin raitti 17 B, 00700, HELSINGFORS",Finland,,,,
FORMEX,01/18/2022,2022,https://www.formex.se/,DM,Trollgods - Marie Norée,,,www.trollgods.se,info@trollgods.se,+46 73 - 141 11 29,,"Rindögatan 28, 115 58, Stockholm",Sverige,,,Trollgods - Sverige,
FORMEX,01/18/2022,2022,https://www.formex.se/,DM,Ty Nordic,,,tynordic.com,maiken@tynordic.com,,,"Akadeemia tee 47, 12618, TALLIN",Estland,,,,
FORMEX,01/18/2022,2022,https://www.formex.se/,DM,Tove Adman AB,,,www.toveadman.se,info@toveadman.se,+46 498-524 27,,"Östergarn, Filippuse 330, 62368, Katthammarsvik",Sverige,,,,
FORMEX,01/18/2022,2022,https://www.formex.se/,DM,Ulrika Design,,,www.bozzini.se,info@bozzini.se,031-20 00 00,,"Olof Asklundsgatan 14, 421 30, Västra Frölunda",Sverige,,,,
FORMEX,01/18/2022,2022,https://www.formex.se/,DM,TOY IQ AB,,,www.toyiq.se,thomas.moller@toyiq.se,070-6756880,,"Kungsgatan 3, 826 30, Söderhamn",Sverige,,,,
FORMEX,01/18/2022,2022,https://www.formex.se/,DM,Tobar Scandinavia AB,,,www.umbria.se,info@tobarscandinavia.se,+46 18 59 15 22,,"Kungsgatan 30C, 753 21, Uppsala",Sverige,,,,
FORMEX,01/18/2022,2022,https://www.formex.se/,DM,Trademark Living A/S,,,www.trademarkliving.dk,info@trademarkliving.dk,+45 70 24 16 44,,"Nils Bohrsvej 28, 8660, SKANDERBORG",Danmark,,,,
FORMEX,01/18/2022,2022,https://www.formex.se/,DM,Torplyktan,,,www.torplyktan.com,hannes@torplyktan.com,+46-702 27 80 50,,"Igeldammsgatan 12, 112 49, Stockholm",Sverige,,,,
FORMEX,01/18/2022,2022,https://www.formex.se/,DM,Överstekvarn Gotland,,,www.overstekvarn.se,info@overstekvarn.se,+46 707 69 57 95,,"Lummelunda Lummelundsbruk 102, 621 71, Visby",Sverige,,,,
FORMEX,01/18/2022,2022,https://www.formex.se/,DM,Öjbro vantfabrik,,,www.ojbrovantfabrik.com,info@ojbrovantfabrik.se,+46 709461483,,"Box 19, 523 21, Ulricehamn",Sverige,Soft Furnishibgs | Interior | Seasonal Products | General gifts,,ÖjbroVantfabrik - Sverige,
FORMEX,01/18/2022,2022,https://www.formex.se/,DM,Östermalms Textilateljé,,,www.ostermalmstextil.se,info@ostermalmstextil.se,08-662 13 70,,"Nybrogatan 44, 114 40, Stockholm",Sverige,,,,
FORMEX,01/18/2022,2022,https://www.formex.se/,DM,Zwilling J.A. Henckels A/S,,,www.zwilling.dk,st@zwilling.dk,+45-33 73 40 67,,"Balltorpbakken 12b, 2750, BALLERUP",Danmark,,,,
FORMEX,01/18/2022,2022,https://www.formex.se/,DM,Älskaplåt i Småland AB,,,alskaplat.se,anna.giss@alskaplat.se,072-0 611 400,,"Tryckerigatan 3, 571 34, Nässjö",Sverige,,,,
FORMEX,01/18/2022,2022,https://www.formex.se/,DM,Yvelis of Sweden AB,,,www.yvelis.se,kontakt@yvelis.se,073 690 37 09,,"Nysättra skogsväg 22
761 76 Norrtälje, 761 76, Norrtälje",Sverige,Bath and spa products | Organic & Fairtrade | Miscellaneous,,Yvelis - Sverige,
FORMEX,01/18/2022,2022,https://www.formex.se/,DM,Västanvinden i Landskrona AB,,,https://vastanvinden.se,info@vastanvinden.se,+46 418 752 52,,"Eskatorpsvägen 139, 261 92, Härslöv",Sverige,Floral Accessories | Table Decorations | Storage | Glass & porcelain | Interior | Ceramics | Pots | Miscellaneous | Seasonal Products | Garden Decor | General gifts,,,
FORMEX,01/18/2022,2022,https://www.formex.se/,DM,Xacta AB,,,www.xacta.eu,info@@xacta.eu,+46 73 261 7654,,"Lodbrinken 4 A, 172 37, Sundbyberg",Sverige,,,,
FORMEX,01/18/2022,2022,https://www.formex.se/,DM,Vikingsun,,,www.vikingsun.se,info@vikingsun.se,+46 8 545 118 80,,"Karduansmakargatan 2 C, 111 52, Stockholm",Sverige,Kitchen Accessories,,KITCHENWARE BY TAREQ TAYLOR - Sverige | KYOCERA - Sverige | MCUSTA ZANMAI - Sverige | MINGLE - Sverige | SATAKE - Sverige | SUNCRAFT - Sverige | VULKANUS - Sverige,
FORMEX,01/18/2022,2022,https://www.formex.se/,DM,Watt & Veke AB,,,www.wattveke.se,info@wattveke.se,+46 8 34 23 33,,"Gredbyvägen 18, 632 21, Eskilstuna",Sverige,,,,
FORMEX,01/18/2022,2022,https://www.formex.se/,DM,Vinding et Co A/S,,,www.vindingetco.dk,pvc@vindingetco.dk,+45 75 31 02 11,,"Odinsvej 9-11, 7200, GRINDSTED",Danmark,,,,
FORMEX,01/18/2022,2022,https://www.formex.se/,DM,Wasa Ecotextil AB,,,classictextiles.se recycledbywille.se,jan.franck@wasaecotextil.se,+46 8 121 340 00,,"Hertig Karls Allé 8, 647 32, Mariefred",Sverige,,,Classic textiles of Sweden - Sverige | Recycled by wille - Sverige,
FORMEX,01/18/2022,2022,https://www.formex.se/,DM,Väskvhila,,,diniedesign.se/vaskvhila,emelie@diniedesign.se,+46 0734 42 85 21,,"Högbergsplan 4, 891 32, Örnsköldsvik",Sverige,,,,
FORMEX,01/18/2022,2022,https://www.formex.se/,DM,Wikholm Form AB,,,www.wikholmform.se,,+46 33 41 71 00,,"Björkhemsgatan 20, 506 46, Borås",Sverige,,,,
FORMEX,01/18/2022,2022,https://www.formex.se/,DM,Washologi AB,,,www.washologi.se,info@washologi.se,+46 708 341 116,,"Spånga torg 3, 163 52, Spånga",Sverige,,,,
FORMEX,01/18/2022,2022,https://www.formex.se/,DM,Unik Design & Interiör i Göteborg AB,,,www.unikdesign.nu,maria@unikdesign.nu,+46 703 02 20 03,,"Björnabergsgatan 1A, 432 32, Varberg",Sverige,,,,
FORMEX,01/18/2022,2022,https://www.formex.se/,DM,WAP dog care products AB,,,wapdogcare.com,carolinanilsson@wapdogcare.com,+46 73 33 20 948,,"Magnarpsvägen 101, 266 55, Vejbystrand",Sverige,,,,
FORMEX,01/18/2022,2022,https://www.formex.se/,DM,The Shoelace Brand,,,theshoelacebrand.com,jannike@theshoelacebrand.com,+46 730 63 43 15,,"Fleminggatan 26, 112 32, Stockholm",Sverige,,,,
FORMEX,01/18/2022,2022,https://www.formex.se/,DM,THE GIFT LABEL,,,www.amuseagency.se,sales@amuseagenct.se,,,"Klevbergsvägen 4A, 179 60, Stenhamra",Sverige,,,,
FORMEX,01/18/2022,2022,https://www.formex.se/,DM,The Moshi AB,,,www.themoshi.se,philip@themoshi.se,+46 418 432 573,,"Vadensjövägen 302, 261 91, Landskrona",Sverige,,,,
FORMEX,01/18/2022,2022,https://www.formex.se/,DM,T. Herman AB,,,thermaninterior.com,info@thermaninterior.com,070 173 08 61,,"Strandängsvägen 22B, 184 44, Åkersberga",Sverige,,,,
FORMEX,01/18/2022,2022,https://www.formex.se/,DM,TecTeam Scandinavia AB,,,www.tecteam.se,arne@tecteam.se,+46 8 590 757 80,,"Gribbylundsvägen 15, 187 62, Täby",Sverige,,,,
FORMEX,01/18/2022,2022,https://www.formex.se/,DM,Tell Me More Interiors AB,,,www.tellmemore.nu,marcus@tellmemore.se,+46 31 711 09 39,,"Vasagatan 5A, 411 24, Göteborg",Sverige,,,,
FORMEX,01/18/2022,2022,https://www.formex.se/,DM,The Friendly Home,,,www.thefriendlyhome.se,info@thefriendlyhome.se,+46 70 493 02 12,,"Box 69, 139 22, Värmdö",Sverige,,,,
FORMEX,01/18/2022,2022,https://www.formex.se/,DM,Terra Midi,,,www.terramidi.com,info@terramidi.com,+46 431 109 99,,"Klippanvägen 278, 262 73, Ängelholm",Sverige,,,,
FORMEX,01/18/2022,2022,https://www.formex.se/,DM,Tactic,,,www.tactic.net,info.swe@tactic.net,+46 8 643 98 20,,"Uppköparvägen 7
3tr, 12044, Stockholm",Sverige,,,,
FORMEX,01/18/2022,2022,https://www.formex.se/,DM,Svadia,,,www.svadia.se,suresh.tripathy@svadia.com,+46 722 529 341,,"Grepvägen 1, 135 43, Tyresö",Sverige,,,,
FORMEX,01/18/2022,2022,https://www.formex.se/,DM,Sveilis Design AB,,,www.swedishlighthouse.com,info@swedishlighthouse.com,+46 73 543 77 66,,"Trozelligatan 48, 603 55, Norrköping",Sverige,,,,
FORMEX,01/18/2022,2022,https://www.formex.se/,DM,Sufraco Savon de Marseille AB,,,www.sufraco.se,info@sufraco.se,+46 44 24 13 50,,"Pråmdragaregatan 4 B, 296 35, Åhus",Sverige,,,,
FORMEX,01/18/2022,2022,https://www.formex.se/,DM,Tallskogen AB,,,www.tallskogenab.se,order@tallskogenab.se,+46 79 31 13 120,,"Eriksbo Byväg 51, 725 90, Västerås",Sverige,,,Lovi - Finland,
FORMEX,01/18/2022,2022,https://www.formex.se/,DM,STRONG Home,,,,thomas@strongdesignandproduction.com,,,"C/o Thomas Hedkvist
Ormbergsvägen 11, 117 67, Stockholm",Sverige,,,,
FORMEX,01/18/2022,2022,https://www.formex.se/,DM,Sturehofs Krukmakeri,,,www.sturehofskrukmakeri.com,tinahellman@sturehofskrukmakeri.com,+46 8 530 280 60,,"Sjövillan, Sturehofs slott, 145 90, Norsborg",Sverige,,,,
FORMEX,01/18/2022,2022,https://www.formex.se/,DM,Studio Sterner AB,,,studiosterner.com,hej@studiosterner.com,+46731071848,,"Åloppevägen 48, 168 56, Bromma",Sverige,,,,
FORMEX,01/18/2022,2022,https://www.formex.se/,DM,Strömshaga AB,,,www.stromshaga.se,info@stromshaga.se,+46 302 419 50,,"Skallsjövägen 36, 448 32, Floda",Sverige,,,,
FORMEX,01/18/2022,2022,https://www.formex.se/,DM,Stikkan Design AB,,,www.stikkandesign.se,maria@stikkandesign.se,+46 708 681 766,,"Åkervägen 79, 121 33, Enskededalen",Sverige,,,Plupp - Sverige | Stikkan Design - Sverige,
FORMEX,01/18/2022,2022,https://www.formex.se/,DM,Star Trading,,,www.startrading.com,info@startrading.com,+46 325 120 00,,"Box 94, 512 22, Svenljunga",Sverige,,,,
FORMEX,01/18/2022,2022,https://www.formex.se/,DM,Spira,,,www.spirainredning.se,spira@spirainredning.se,+46 33 22 84 20,,"Bryggaregatan 8, 1 tr., 503 38, Borås",Sverige,,,,
FORMEX,01/18/2022,2022,https://www.formex.se/,DM,Stacking Stories,,,stackingstories.com,fanny@stackingstories.com,+46 0708 55 44 25,,"Ruddammsbacken 28, 114 21, Stockholm",Sverige,,,,
FORMEX,01/18/2022,2022,https://www.formex.se/,DM,Storefactory AB,,,www.storefactory.se,info@storefactory.se,+46 36-121 282,,"Lovsjö 41 ( Gamla Lovsjö Bruk ), 555 92, Jönköping",Sverige,Organic & Fairtrade | Soft Furnishibgs | Interior | Ceramics | Pots,,Storefactory  - Sverige,
FORMEX,01/18/2022,2022,https://www.formex.se/,DM,Soul Image - Photografy Art,,,soulimage.se,info@soulimage.se,+46 0704 32 40 11,,"Malmgårdsvägen 18, 116 38, Stockholm",Sverige,,,,
FORMEX,01/18/2022,2022,https://www.formex.se/,DM,Sköna Ting,,,www.stprodukter.se,info@skonating.com,+46 8 744 00 30,,"Instrumentvägen 21, 126 53, Hägersten",Sverige,,,,
FORMEX,01/18/2022,2022,https://www.formex.se/,DM,Spegels,,,www.spegels.se,info@spegels.se,+46 248 128 40,,"Box 56, 795 21, Rättvik",Sverige,,,,
FORMEX,01/18/2022,2022,https://www.formex.se/,DM,Stajl Agenturer i Hindås AB,,,www.stajlagenturer.se,kundservice@stajlagenturer.se,+733399041,,"Flöjelbergsgatan 3A, 431 35, Mölndal",Sverige,,,Auphoria AB - Sverige | Coconut Milk By Stajl AB - Sverige | JLB By Wild Collection - Sverige,
FORMEX,01/18/2022,2022,https://www.formex.se/,DM,Sofie Berg,,,sofiebrg.se,sofie.brg@gmail.com,,,"Bergsgatan 4A, 211 54, Malmö",Sverige,,,,
FORMEX,01/18/2022,2022,https://www.formex.se/,DM,Solstickan Design/Tradingbox AB,,,www.solstickandesign.se,info@tradingbox.se,+46 707 574 69 22,,"Tumstocksvägen 1, 187 66, Täby",Sverige,,,,
FORMEX,01/18/2022,2022,https://www.formex.se/,DM,Smart Form Sweden,,,www.smartform.se,robert.bengtsson@smartform.se,+46 72 4413445,,"c/o ROBERT BENGTSSON
BACKSIPPEVÄGEN 16 B, 236 35, Höllviken",Sverige,Floral Accessories | Table Decorations | Interior | Kitchen Accessories | Miscellaneous | Garden Decor,,"KONCEPT LEVEL, MANUELL®, Fågelpool, Rullhållare, Snör- garnhållare - Sverige",
FORMEX,01/18/2022,2022,https://www.formex.se/,DM,Skinnwille Home Collection,,,www.skinnwille.se,helene@skinnwille.se,+46 515 836 50,,"Bangatan 10, 521 43, Falköping",Sverige,,,,
FORMEX,01/18/2022,2022,https://www.formex.se/,DM,Saponi AB,,,www.saponi.se,info@saponi.se,+46 8 798 47 72,,"Trädgårdsvägen 51, 135 53, Tyresö",Sverige,,,,
FORMEX,01/18/2022,2022,https://www.formex.se/,DM,Skottens Plast AB,,,www.skottensplast.se,eva@skottensplast.se,018134240,,"Adilsgatan 26, 75333, Uppsala",Sverige,,,,
FORMEX,01/18/2022,2022,https://www.formex.se/,DM,Simple goods / T.G Brands,,,simplegoods.dk,therese.grimberg@gmail.com,0723-103 342,,"Patriks väg 11, 43490, Vallda",Sverige,,,,
FORMEX,01/18/2022,2022,https://www.formex.se/,DM,Själsö Nordic,,,www.sjaelsoenordic.com,info@sjaelsoenordic.com,+45 2648 4212,,"Frydenborgvej 27E, 3400, Hillerød",Danmark,,,,
FORMEX,01/18/2022,2022,https://www.formex.se/,DM,ScandChoco AB,,,www.scandchoco.se,martin@scandchoco.se,+46 42 29 27 90,,"Ängelholmsvägen 34, 254 42, Helsingborg",Sverige,,,,
FORMEX,01/18/2022,2022,https://www.formex.se/,DM,Shepherd of Sweden,,,www.shepherdofsweden.se,info@shepherdofsweden.se,+46 325 66 13 80,,"Nylännesgatan 8, 512 53, Svenljunga",Sverige,,,,
FORMEX,01/18/2022,2022,https://www.formex.se/,DM,Skandinavisk Hemslöjd,,,www.skandinaviskhemslojd.se,info@hantverksboden.se,+46 8 225 023,,"Förrådsvägen 16, 144 40, Rönninge",Sverige,,,,
FORMEX,01/18/2022,2022,https://www.formex.se/,DM,Robetoy AB,,,www.robetoy.se,info@robetoy.se,+46 31 707 14 00,,"Benjaminsväg 4, 433 38, Partille",Sverige,,,,
FORMEX,01/18/2022,2022,https://www.formex.se/,DM,Robert Lidbeck AB,,,www.lidbecks.com,info@lidbecks.com,+46 31 55 00 35,,"Transportgatan 37, 422 46, Hisings Backa",Sverige,,,,
FORMEX,01/18/2022,2022,https://www.formex.se/,DM,Reunion Nordic AB,,,www.reunionhome.se,,+46 414 142 00,,"Österlenvägen 1021, 271 77, Löderup",Sverige,,,,
FORMEX,01/18/2022,2022,https://www.formex.se/,DM,Olsson & Jensen/ Verna AB,,,www.olssonjensen.com,eva@olssonjensen.com,042-131117,,"S:t Jörgens Plats 4, 252 20, Helsingborg",Sverige,,,,
FORMEX,01/18/2022,2022,https://www.formex.se/,DM,OD Profile AB,,,www.odprofile.se,info@odprofile.se,+46 660-433400,,"Gottnevägen 47, 894 31, Själevad",Sverige,,,,
FORMEX,01/18/2022,2022,https://www.formex.se/,DM,New Ways Import AB,,,www.newways.se,team@newways.se,+46 410 255 25,,"Stensoppsvägen 45, 231 75, Beddingestrand",Sverige,,,,
FORMEX,01/18/2022,2022,https://www.formex.se/,DM,Nordic Import,,,www.nordicimport.eu,nordicimport@bahnhof.se,070-569 74 25,,"Skördev 10, 432 54, Varberg",Sverige,,,,
FORMEX,01/18/2022,2022,https://www.formex.se/,DM,Nest Factory Ltd Oy,,,,,+35 85 04863523,,"Korkeavourenkatu 3, 00140, Helsinki",Finland,,,,
FORMEX,01/18/2022,2022,https://www.formex.se/,DM,"Nordahl AB, Åke",,,www.nordahl.se,info@nordahl.se,+46 31 337 09 50,,"Lärjeågatan 8, 415 25, Göteborg",Sverige,,,,
FORMEX,01/18/2022,2022,https://www.formex.se/,DM,Månsing AB,,,www.mansing.nu,malin@mansing.nu,+46 722 355 822,,"Box 8080, 501 18, Borås",Sverige,,,,
FORMEX,01/18/2022,2022,https://www.formex.se/,DM,Noori Objects,,,,pia@noori-objects.com,46 705 955 899,,"Östergatan 22B, 462 33, Vänersborg",Sverige,,,,
FORMEX,01/18/2022,2022,https://www.formex.se/,DM,Multi Brand Nordic,,,www.canadasnow.se,,,,"Birger Svenssons väg 38 A, 432 40, Varberg",Sverige,,,,
FORMEX,01/18/2022,2022,https://www.formex.se/,DM,New-Mags,,,www.new-mags.com,per@schonemann.eu,+45 313 243 32,,"Rugvænget 3, 8700, HORSENS",Danmark,,,,
FORMEX,01/18/2022,2022,https://www.formex.se/,DM,My Clay Journey,,,www.myclayjourney.com,info@myclayjourney.com,070 - 6060 998,,"Beckombergavägen 219, 168 63, Bromma",Sverige,,,,
FORMEX,01/18/2022,2022,https://www.formex.se/,DM,Mr Fredrik,,,www.mrfredrik.se,fredrik@mrfredrik.se,070-660 59 80,,"Veckholmen Ekholmen 28, 745 99, Enköping",Sverige,,,,
FORMEX,01/18/2022,2022,https://www.formex.se/,DM,Nepstad Studio AB,,,,jennyagneslarsson@gmail.com,0730 444 760,,"c/o Screentec / Wennerström
Elektravägen 18, 4 tr, 126 30, Hägersten",Sverige,,,,
FORMEX,01/18/2022,2022,https://www.formex.se/,DM,Multi Agentur,,,www.multiagentur.se,info@multiagentur.se,+46 409 329 04,,"Röllingbyvägen 16, 184 32, Åkersberga",Sverige,,,,
FORMEX,01/18/2022,2022,https://www.formex.se/,DM,Moz Sweden AB,,,,ulrika@mozsweden.com,08-44 77 340,,"Pappersbruksallén 1, 702 15, Örebro",Sverige,,,,
FORMEX,01/18/2022,2022,https://www.formex.se/,DM,MS Qonceptus Group AB,,,,,,,"Varuvägen 9a, 125 30, Älvsjö",Sverige,,,,
FORMEX,01/18/2022,2022,https://www.formex.se/,DM,Movesgood,,,movesgood.com,,,,"Birger Jarlsgatan 57C, 113 56, Stockholm",Sverige,,,,
FORMEX,01/18/2022,2022,https://www.formex.se/,DM,MIX BY HEART,,,,aggenttina.elg@gmail.com,+46 725 85 84 48,,"Huskvarnavägen 164A, 561 32, Huskvarna",Sverige,,,,
FORMEX,01/18/2022,2022,https://www.formex.se/,DM,Mitt & Ditt underbara liv AB,,,mittditt.se,linda@mittditt.se,+46 660- 22 00 25,,"Nätragatan 43, 893 31, Bjästa",Sverige,Floral Accessories | Interior | Ceramics | Pots,,,
FORMEX,01/18/2022,2022,https://www.formex.se/,DM,Modlon AB,,,lottaniemi.com,lotta@lottaniemi.com,0733 98 54 83,,"Christopher Schrödersgatan 12, 374 36, Karlshamn",Sverige,,,,
FORMEX,01/18/2022,2022,https://www.formex.se/,DM,Mellow Design,,,www.mellowdesign.se,info@mellowdesign.se,+46 709-621 804,,"Falkgatan 8, 352 36, Växjö",Sverige,,,,
FORMEX,01/18/2022,2022,https://www.formex.se/,DM,Memoair,,,memoaircandles.com,contact@memoaircandles.com,0768-636967,,"Atles gata 13, 215 35, Malmö",Sverige,,,,
FORMEX,01/18/2022,2022,https://www.formex.se/,DM,Minisa AB,,,www.minisa.se,pia@minisa.se,+46 70 631 70 58,,"Långsjövägen 68, 135 58, Tyresö",Sverige,,,,
FORMEX,01/18/2022,2022,https://www.formex.se/,DM,Markslöjd,,,www.markslöjd.com,,0705-336 697,,"Gränevägen 5, 511 23, Kinna",Sverige,,,,
FORMEX,01/18/2022,2022,https://www.formex.se/,DM,Micci´s House /MK-Trading,,,www.mktrading.se,micci@mktrading.se,+46 35 546 70,,"Skattagårdsvägen 21, 305 76, Getinge",Sverige,,,,
FORMEX,01/18/2022,2022,https://www.formex.se/,DM,Miljögården,,,www.miljogarden.com,info@miljogarden.com,+46 40 40 86 40,,"Bolagsgatan 2-4, 233 51, Svedala",Sverige,Glass & porcelain | Interior | Ceramics | Garden Decor,,,
FORMEX,01/18/2022,2022,https://www.formex.se/,DM,Martinex AB,,,www.martinex.se,angelo@martinex.se,+46 8 32 81 50,,"c/o Martinex Oy
Box 46, 212 01, Raisio Finland",Finland,,,,
FORMEX,01/18/2022,2022,https://www.formex.se/,DM,Mast Have,,,www.masthave.se,johanna@masthave.se,+46 331 141 010,,"Domherrevägen 2, 51832, Sandared",Sverige,,,,
FORMEX,01/18/2022,2022,https://www.formex.se/,DM,Långlyckan Hantverk,,,langlyckan.se   https://www.instagram.com/langlyckan/,langlyckan@telia.com,+46736561878,,"Norrby Bergsväg 24, 136 74, Norrby",Sverige,Soft Furnishibgs | Interior | Souvenirs | General gifts,,Långlyckan - Sverige,
FORMEX,01/18/2022,2022,https://www.formex.se/,DM,Magnus Papper,,,,,,,"Skallsjö Åsväg 21F, 448 31, Floda",Sverige,,,,
FORMEX,01/18/2022,2022,https://www.formex.se/,DM,Mariedal Design,,,www.mariedaldesign.se,maria@mariedaldesign.se,+46 702 912 657,,"Nitgatan 6, 441 38, Alingsås",Sverige,,,,
FORMEX,01/18/2022,2022,https://www.formex.se/,DM,Malmö Chokladfabrik,,,www.malmochokladfabrik.se,info@malmochokladfabrik.se,+46 40 45 95 05,,"Kopparbergsgatan 19, Byggnad 27, 214 44, Malmö",Sverige,,,,
FORMEX,01/18/2022,2022,https://www.formex.se/,DM,Marie Stendahl,,,www.mariestendahl.se             instagram  mariestendahl_ab,marie@mariestendahl.se,076-235 37 83,,"Generalsvägen 98, 184 52, Österskär",Sverige,,,,
FORMEX,01/18/2022,2022,https://www.formex.se/,DM,Lovely Linen,,,www.lovelylinen.se,info@lovelylinen.se,+46 44 10 90 34,,"Mossvägen 12, 291 59, Kristianstad",Sverige,,,,
FORMEX,01/18/2022,2022,https://www.formex.se/,DM,Maria Lindberg Design,,,www.marialindberg.nu,mail@marialindberg.nu,+46 651 417 44,,"Turistvägen 58, 820 40, Järvsö",Sverige,,,,
FORMEX,01/18/2022,2022,https://www.formex.se/,DM,Klinta,,,www.klintaco.se,info@klintaco.se,+46 413 334 39,,"Bruksvägen 13, 243 35, Höör",Sverige,,,,
FORMEX,01/18/2022,2022,https://www.formex.se/,DM,Klara´s Goda Presenter AB,,,www.klarasgodapresenter.se,namn@klarasgodapresenter.se,+46 31 389 80 20,,"Bolshedens industriväg 20, 427 50, Billdal",Sverige,,,,
FORMEX,01/18/2022,2022,https://www.formex.se/,DM,Kazuri Scandinavia,,,www.kazuriscandinavia.dk,kazuri@kazuriscandinavia.dk,+45 56287711,,"Jordbærhaven 7, 7000, FREDERICIA",Danmark,,,,
FORMEX,01/18/2022,2022,https://www.formex.se/,DM,Lumimi,,,lumimi.no,phone@lumimi.no,+47 909 31 955,,"Storgata 5, 3256, Larvik",Norge,,,,
FORMEX,01/18/2022,2022,https://www.formex.se/,DM,Klippan Yllefabrik AB,,,www.klippanyllefabrik.se,info@klippanyllefabrik.se,+46 435 44 88 80,,"Box 3, 264 21, Klippan",Sverige,,,,
FORMEX,01/18/2022,2022,https://www.formex.se/,DM,Kerstin Landström Design Tyg och Otyg,,,www.tyg-otyg.com,kerstin.otyg@telia.com,+46 73 443 93 40,,"Tiundagatan 38, 752 30, Uppsala",Sverige,,,,
FORMEX,01/18/2022,2022,https://www.formex.se/,DM,Kattinatt AB,,,www.kattinatt.se,info@kattinatt.se,+46 31 98 77 91,,"Analysvägen 58, 435 33, Mölnlycke",Sverige,,,,
FORMEX,01/18/2022,2022,https://www.formex.se/,DM,Karlsbergs Gård - Svenska Lammskinn,,,www.karlsbergsgard.se,susanne.flykt@gmail.com,+46 70 296 65 00,,"Karlsbergs Gård, 544 94, HJO",Sverige,,,,
FORMEX,01/18/2022,2022,https://www.formex.se/,DM,Kalikå AB,,,www.kalika.se,info@kalika.se,+46 8 643 33 40,,"Sandsborgsvägen 44, 122 33, Enskede",Sverige,,,,
FORMEX,01/18/2022,2022,https://www.formex.se/,DM,Kidek AB,,,www.kidek.se,mikael.edman@kidek.se,+46 42 16 55 20,,"Box 22084, 250 22, Helsingborg",Sverige,,,,
FORMEX,01/18/2022,2022,https://www.formex.se/,DM,Kajsa Cramer,,,www@kajsacramer.se,kajsa@kajsacramer.se,+46 705 454 826,,"C/O Kajsa Cramer Kyrkogatan 36, 411 15, Göteborg",Sverige,,,,
FORMEX,01/18/2022,2022,https://www.formex.se/,DM,Just d´lux,,,,schackagentur@gmail.com,+45 29284939,,"Skovbakken 50, 7400, Herning",Danmark,,,,
FORMEX,01/18/2022,2022,https://www.formex.se/,DM,Janne K,,,www.janne-k.dk,info@janne-k.dk,+45 536 308 87,,"Sletteskovvej 17, 6000, KOLDING",Danmark,,,,
FORMEX,01/18/2022,2022,https://www.formex.se/,DM,juliusberg Växtservice AB,,,juliusberg.se,info@juliusberg.se,+46 8-687 02 63,,"Industrigatan 7 A, 112 46, Stockholm",Sverige,,,,
FORMEX,01/18/2022,2022,https://www.formex.se/,DM,Jakobsdals,,,www.jakobsdalstextil.se  www.boeljan.se,mailbox@homeoftextile.se,+46 33 10 23 30,,"Stationsvägen 2, 516 31, Dalsjöfors",Sverige,,,Jakobsdals - Sverige,
FORMEX,01/18/2022,2022,https://www.formex.se/,DM,Inter Agenturer AB,,,www.interagenturer.se,daniel@interagenturer.se,+46 13 36 86 70,,"C/o Inter Agenturer AB
Duvkullestigen 4, 587 25, Linköping",Sverige,Bath and spa products | Table Decorations | Storage | Glass & porcelain | Interior | Ceramics | Kitchen Accessories | Pots | Toys | Miscellaneous | Paper & Bags | Seasonal Products | Souvenirs | General gifts,,,
FORMEX,01/18/2022,2022,https://www.formex.se/,DM,Iris Hantverk AB,,,www.irishantverk.se,info@hantverk.se,+46 8 39 90 93,,"Sandsborgsvägen 50, 122 33, Enskede",Sverige,,,,
FORMEX,01/18/2022,2022,https://www.formex.se/,DM,Inkku Tamma,,,www.inkkutamma.se,johan@inkkutamma.se,+46 70 330 94 42,,"Kirunavägen 148, 984 31, Pajala",Sverige,,,,
FORMEX,01/18/2022,2022,https://www.formex.se/,DM,Infinitypuzzles,,,infinitypuzzles.se,leo.vickman@gmail.com,+46 073 59 31 339,,"Bersågränd 8, 121 31, Enskededalen",Sverige,,,,
FORMEX,01/18/2022,2022,https://www.formex.se/,DM,IZIPIZI,,,www.see-concept.com,charlotte@ease-cph.com,+45 3022 0535,,"Blidahpark 7, 2tr, 2900, Hellerup",Danmark,,,,
FORMEX,01/18/2022,2022,https://www.formex.se/,DM,Indigo Market,,,www.indigomarket.se,sales@indigomarket.se,,,", 167 58, Bromma",Sverige,Fashion,,Indigo Market - Sverige | WE TWO Stockholm - Sverige,
FORMEX,01/18/2022,2022,https://www.formex.se/,DM,Idar AB,,,www.idar.se,,,,"Bregårdsgatan 12B, 691 32, Karlskoga",Sverige,,,,
FORMEX,01/18/2022,2022,https://www.formex.se/,DM,I AM interior,,,www.iaminterior.se,info@iaminterior.se,019 18 77 70,,"Esplanaden 100, 694 35, Hallsberg",Sverige,,,,
FORMEX,01/18/2022,2022,https://www.formex.se/,DM,Ib Laursen,,,www.iblaursen.dk,info@iblaursen.dk,+45 75 42 43 00,,"Öster Vedsted vej 12, 6760, RIBE",Danmark,,,,
FORMEX,01/18/2022,2022,https://www.formex.se/,DM,House of Disaster,,,www.disasterdesigns.co.uk,info@disasterdesigns.co.uk,+44 1323 441444,,"Unit 4, Hackhurst Lane, Lower Dicker, BN27 4BW, Hailsham",Storbritannien,,,,
FORMEX,01/18/2022,2022,https://www.formex.se/,DM,Hogia Handelssystem AB/ Hicore Systems AB,,,www.hogia.se,Mette.paulin-persson@hogia.se,+46 303 663 70,,"Hakenäs, 444 28, Stenungsund",Sverige,,,,
FORMEX,01/18/2022,2022,https://www.formex.se/,DM,House of Månsson,,,www.manssons.se,info@manssons.se,+46 35 370 88,,"Box 7089, 300 07, Halmstad",Sverige,,,,
FORMEX,01/18/2022,2022,https://www.formex.se/,DM,Homebrands AS / Magnor,,,www.homebrands.no,fredrik.lennartsson@martinsenco.se,0702727694,,"Industriveien 1, 4344, Bryne",Norge,Table Decorations | Glass & porcelain | Interior | Kitchen Accessories,,AdHoc - Norge | Brusletto - Norge | Chef & Sommelier - Norge | Les Artistes - Frankrike | Magnor - Norge | Modern House - Norge | Pebbly - Norge | Royal Porcelain - Norge | Sabor - Norge | Sistema - Norge | Smeg - Norge | Stanley - Norge | Stiernholm - Norge | Swedish Tonic - Norge | Tenderflame - Norge | Woll - Norge | Zwiesel - Norge,
FORMEX,01/18/2022,2022,https://www.formex.se/,DM,HISAB/JOKER AB,,,www.hisabjoker.se,info@hisabjoker.se,+46 340 646 100,,"Härdgatan 1, 432 32, Varberg",Sverige,,,,
FORMEX,01/18/2022,2022,https://www.formex.se/,DM,HATS Handelsgesellschaft,,,www.hatshats.de,d.herrmann@hatshats.de,+499337851823 999,,"Unter den Eichen 4, 149 74, Ludwigsfelde",Tyskland,,,,
FORMEX,01/18/2022,2022,https://www.formex.se/,DM,Hobbytoys,,,www.hobbytoys.se,info@hobbytoys.se,+46 707 533 827,,"Tuna Industriväg 35, 153 30, Järna",Sverige,,,,
FORMEX,01/18/2022,2022,https://www.formex.se/,DM,Hilke Collection AB,,,www.hilkecollection.se,info@hilkecollection.se,+46-768 949051,,"Box 11031, 58011, Linköping",Sverige,Interior,,Hilke Collection - Sverige,
FORMEX,01/18/2022,2022,https://www.formex.se/,DM,Harmonize Shelf,,,www.harmonizeshelf.com,info@harmonizeshelf.com,+46 708 28 72 73,,"Karosserivägen 16, 59338, Västervik",Sverige,Interior,,Harmonize Shelf - Sverige,
FORMEX,01/18/2022,2022,https://www.formex.se/,DM,Härjedalsbröd/Svenskt Mathantverk,,,www.harjedalsbrod.se,lisa@harjedalsbrod.se,0680 302 55,,"Älvhagsvägen 11, 194 54, Upplands Väsby",Sverige,,,,
FORMEX,01/18/2022,2022,https://www.formex.se/,DM,Harvesttime AB,,,www.harvesttime.se,harvesttime@telia.com,+46 31 15 32 17,,"Folkungagatan 7, 411 02, Göteborg",Sverige,,,,
FORMEX,01/18/2022,2022,https://www.formex.se/,DM,"Hjelm Förlag AB, K.",,,www.hjelms.se,info@hjelms.se,+46 18 12 78 88,,"Box 1405, 751 44, Uppsala",Sverige,Miscellaneous,,- Sverige,
FORMEX,01/18/2022,2022,https://www.formex.se/,DM,Haga Optik AB,,,www.hagaoptik.com,keith.fernandes@hagaoptik.se,+46 8 410 27 420,,"Jakob Westinsgatan 10, 112 20, Stockholm",Sverige,,,,
FORMEX,01/18/2022,2022,https://www.formex.se/,DM,Happynest - JSA Sweden AB,,,www.jsagenturer.se,info@jsagenturer.se,+46 19 10 76 70,,"Salamandervägen 16, 702 36, Örebro",Sverige,,,,
FORMEX,01/18/2022,2022,https://www.formex.se/,DM,Hafi Storkök och Delikatess,,,www.hafi.com,info@hafi.com,+46-(0)35-550 08,,"Brännarp 148, 305 77, Getinge",Sverige,,,,
FORMEX,01/18/2022,2022,https://www.formex.se/,DM,Foekje Fleur,,,foekjefleur.com,foekje@foekjefleur.com,+31 616385104,,"Piet Knopperstraat 9, 3063NV, Rotterdam",Nederländerna,,,,
FORMEX,01/18/2022,2022,https://www.formex.se/,DM,Fogarolli Scandinavia AB,,,,,,,"Brandstadvägen 470-2, 275 67, Vollsjö",Sverige,,,,
FORMEX,01/18/2022,2022,https://www.formex.se/,DM,Euromic,,,euromic.dk,sales@euromic.dk,+45 56 36 34 00,,"Theilgaards Torv 1B, 4600, Køge",Danmark,,,,
FORMEX,01/18/2022,2022,https://www.formex.se/,DM,Fine Little Day,,,www.finelittleday.com,hej@finelittleday.com,+46 31 445 222,,"Spinnmästarevägen 2, 437 34, Lindome",Sverige,,,,
FORMEX,01/18/2022,2022,https://www.formex.se/,DM,"Filipiniana Sweden, AB",,,www.filipiniana.se,info@filipiniana.se,+46 31 701 00 02,,"Drottninggatan 26, 411 14, Göteborg",Sverige,,,,
FORMEX,01/18/2022,2022,https://www.formex.se/,DM,Finsmakeriet,,,www.arbraangbageri.se,petra@finsmakeriet.se,+46 278 400 38,,"Renslyckan 1, 821 50, Bollnäs",Sverige,,,,
FORMEX,01/18/2022,2022,https://www.formex.se/,DM,ESTELLE-MORRIS,,,www.estelleinredning.se,orderestelle@hotmail.se,+46 736 20 39 85,,"Vaktbergsvägen 61, 149 41, Nynäshamn",Sverige,,,,
FORMEX,01/18/2022,2022,https://www.formex.se/,DM,Fairnet,,,www.fairnet.se,info@fairnet.se,+46 431 724 50,,"Ängelholmsvägen 263, 269 42, Båstad",Sverige,,,,
FORMEX,01/18/2022,2022,https://www.formex.se/,DM,Erika Tubbin,,,www.erikatubbin.se,info@erikatubbin.se,+46 70 642 30 28,,"Stohagsgatan 6B, 602 28, Norrköping",Sverige,Glass & porcelain | Kitchen Accessories | Souvenirs | General gifts,,,
FORMEX,01/18/2022,2022,https://www.formex.se/,DM,Dixie AB,,,www.dixie.se,info@dixie.se,+46 31 15 85 90,,"Gamla Riksvägen 4, 428 32, KÅLLERED",Sverige,,,,
FORMEX,01/18/2022,2022,https://www.formex.se/,DM,ERNST / Färg&Form Sweden AB,,,www.fargform.com,mail@fargform.com,+46 19 12 22 75,,"Elementvägen 12, 702 27, Örebro",Sverige,,,,
FORMEX,01/18/2022,2022,https://www.formex.se/,DM,Ensi AB,,,www.ensi.se,ensi@ensi.se,+46 301 34 19 11,,"Fältspatsvägen 1, 511 91, Skene",Sverige,,,,
FORMEX,01/18/2022,2022,https://www.formex.se/,DM,Emma Sjödin Design,,,www.designemmasjodin.se,info@designemmasjodin.se,0702 510573,,"Frövik Södergård 2, 571 97, Forserum",Sverige,,,Emma Sjödin Design - Sverige,
FORMEX,01/18/2022,2022,https://www.formex.se/,DM,Emmas Skafferi AB,,,emmasskafferi.se,info@emmasskafferi.se,+46 621 10106,,"Industrivägen 10, 870 32, Ullånger",Sverige,,,,
FORMEX,01/18/2022,2022,https://www.formex.se/,DM,Envelop AB/Ecofurn AB,,,,michael.norman@envelop.se,08 559 20050,,"Kalmarvägen 1, 746 31, Bålsta",Sverige,,,,
FORMEX,01/18/2022,2022,https://www.formex.se/,DM,ELDgarden,,,www.eldgarden.se,info@eldgarden.se,+46 42 29 80 00,,"Birkagatan 73, 256 55, Helsingborg",Sverige,Floral Accessories | Seasonal Products | Garden Decor,,,
FORMEX,01/18/2022,2022,https://www.formex.se/,DM,Different Design,,,www.differentdesign.se,info@differentdesign.se,+46 346 717 171,,"Mellangårdsvägen 8, 311 50, Falkenberg",Sverige,Floral Accessories | Organic & Fairtrade | Storage | Interior | Kitchen Accessories | Promotinal Merchandise | Seasonal Products | Souvenirs | Bedroom Acessories | Garden Decor | General gifts,,,
FORMEX,01/18/2022,2022,https://www.formex.se/,DM,Den Goda Fen,,,www.robetoy.se,info@robetoy.se,+46 31 707 14 00,,"Benjaminsväg 4, 433 38, Partille",Sverige,,,,
FORMEX,01/18/2022,2022,https://www.formex.se/,DM,Design Lina Johansson,,,www.linajohansson.se,info@linajohansson.se,+46 73 572 96 57,,"Gamla Strängnäsvägen 375, 155 91, Nykvarn",Sverige,,,,
FORMEX,01/18/2022,2022,https://www.formex.se/,DM,Desina,,,www.desina.se,info@desina.se,+46 871 500 15,,"Spikgatan 3, 235 32, Vellinge",Sverige,,,,
FORMEX,01/18/2022,2022,https://www.formex.se/,DM,DBKD Sweden AB,,,www.dbkd.se,info@dbkd.se,0512-10070,,"Vara Lassatorp, 534 95, Vara",Sverige,Floral Accessories,,DBKD Sweden AB - Sverige,
FORMEX,01/18/2022,2022,https://www.formex.se/,DM,DeluxeHomeart ApS,,,www.deluxehomeart.com,tone@kokooo.no,+45 71 99 19 09,,"Niels Bohrs Vej 12 A, th, 6000, Kolding",Danmark,,,,
FORMEX,01/18/2022,2022,https://www.formex.se/,DM,Csaw Jewelry,,,csawjewelry.com,elsa.qingqingzhang@gmail.com,+46 0722 62 56 19,,"Kärrtorpsvägen 26D, 121 55, Johanneshov",Sverige,,,,
FORMEX,01/18/2022,2022,https://www.formex.se/,DM,Cult Design,,,www.cultdesign.se,info@cultdesign.se,+46 31 645 400,,"Box 16030, 412 21, Göteborg",Sverige,Bath and spa products | Table Decorations | Glass & porcelain | Interior | Ceramics | Kitchen Accessories,,CULT DESIGN - Sverige,
FORMEX,01/18/2022,2022,https://www.formex.se/,DM,Coming Copenhagen ApS,,,www.comingcopenhagen.com,info@comingcopenhagen.com,+4528961768,,"Krumningen 1, 2950, Vedbæk",Danmark,,,Coming Copenhagen - Danmark,
FORMEX,01/18/2022,2022,https://www.formex.se/,DM,Dafra AB,,,www.dafra.se,info@dafra.se,+46 8 558 077 30,,"Västberga Allè 36 (Gården), 126 30, Hägersten",Sverige,,,,
FORMEX,01/18/2022,2022,https://www.formex.se/,DM,Citronelles Agenturer,,,www.citronelles.com,info@citronelles.com,+46 8 62 690 40,,"Nyodlingsvägen 31, 191 43, Sollentuna",Sverige,Glass & porcelain | Soft Furnishibgs | Interior | Kitchen Accessories | Seasonal Products | Souvenirs,,Anneko Design  - Sverige | Citronelles - Sverige | Emelie Ek Design - Sverige | I Love Design - Sverige | Underlandet Design  - Sverige,
FORMEX,01/18/2022,2022,https://www.formex.se/,DM,Choconord AB,,,www.choconord.com/#1,info@choconord.com,+46 (0)8-599 06 950,,"Slöjdgatan 9, 111 57, Stockholm",Sverige,,,,
FORMEX,01/18/2022,2022,https://www.formex.se/,DM,Chili Klaus,,,se.chiliklaus.dk,shop@chiliklaus.dk,+45 601 673 67,,"Balticagade 19 st, 8000, Aahus C",Danmark,Edible | Kitchen Accessories | Seasonal Products | General gifts,,Chili Klaus - Danmark,
FORMEX,01/18/2022,2022,https://www.formex.se/,DM,CityTag AB,,,www.robinruth.net,lasse@robinruth.net,+46 70-36 44 443,,"Rotebergsvägen 11, 192 78, Sollentuna",Sverige,,,,
FORMEX,01/18/2022,2022,https://www.formex.se/,DM,Charlotte Nicolin,,,se.charlottenicolin.com,info@charlottenicolin.com,+46 8 21 66 66,,"Köpmangatan 3, 111 31, Stockholm",Sverige,,,,
FORMEX,01/18/2022,2022,https://www.formex.se/,DM,Ceannis Living Accessories,,,www.ceannis.com,info@ceannis.com,+46 8 545 895 84,,"Augustendalsvägen 7, 131 52, NACKA STRAND",Sverige,,,,
FORMEX,01/18/2022,2022,https://www.formex.se/,DM,Cat&Co,,,www.cat-co.dk,catharinakrogh@live.dk,+45 26114780,,"Nøglegårdsvej 10, 3540, LYNGE"," ",,,,
FORMEX,01/18/2022,2022,https://www.formex.se/,DM,Carl Oscar AB,,,www.carl-oscar.se,,,,"Siggebovägen 7, 181 50, Lidingö",Sverige,,,,
FORMEX,01/18/2022,2022,https://www.formex.se/,DM,Cards by Jojo,,,www.cardsbyjojo.se,johanna@cardsbyjojo.se,+46 70 - 44 86 686,,"Blåsutvägen 13 Lgh 1104, 121 36, Johanneshov",Sverige,,,,
FORMEX,01/18/2022,2022,https://www.formex.se/,DM,Chamois,,,www.chamois.se,charlotte@cadetailandtrade.com,+46 431 365609,,"Påarpsvägen 288, 269 95, Båstad",Sverige,,,,
FORMEX,01/18/2022,2022,https://www.formex.se/,DM,Carlobolaget AB,,,www.carlobolaget.se,info@carlobolaget.se,0371-193 90,,"Box 204, 334 24, Anderstorp",Sverige,,,,
FORMEX,01/18/2022,2022,https://www.formex.se/,DM,Capri Collection,,,www.capricollection.com,info@capricollection.com,+46 33 21 15 70,,"Humlegatan 13 A, 504 51, Borås",Sverige,Fashion,,Capri Collection - Sverige | Capri Collection - Sverige,
FORMEX,01/18/2022,2022,https://www.formex.se/,DM,Camilla Andreassen Interiör AB,,,www.andreasseninterior.se,camilla@andreasseninterior.com,+46 734 15 00 30,,"Myra 1, 61194, Nyköping",Sverige,,,,
FORMEX,01/18/2022,2022,https://www.formex.se/,DM,Cai,,,www.cai.se,cai@cai.se,+46 370 418 00,,"Hånger, 331 94, Värnamo",Sverige,,,,
FORMEX,01/18/2022,2022,https://www.formex.se/,DM,Annelie Palmqvist Design,,,www.anneliesdesign.se,palmqvistannelie@hotmail.se,+46 705459007,,"Träslövsvägen 164, 43237, Varberg",Sverige,,,,
FORMEX,01/18/2022,2022,https://www.formex.se/,DM,Anna Bülow,,,www.annabulow.no,anna@annabulow.no,+47 481 94 423,,"Hektnerhagan 94, 2008, FJERDINGBY",Norge,,,,
FORMEX,01/18/2022,2022,https://www.formex.se/,DM,Anni Cernea,,,annicernea.com,anni@annicernea.com,+46 0707 00 0105 105,,"Nina Einhornsgata 9, 113 66, Stockholm",Sverige,,,,
FORMEX,01/18/2022,2022,https://www.formex.se/,DM,Ajlajk AB,,,www.ajlajk.nu,info@ajlajk.nu,+46 707 73 85 00,,"Industrivägen 4, 302 41, Halmstad",Sverige,,,,
FORMEX,01/18/2022,2022,https://www.formex.se/,DM,Annica Vallin,,,www.annicavallin.com,info@plusdesign.se,0702716880,,"PlusDesign AB, Göteborgsv. 89, 431 30, Mölndal",Sverige,,,ANNICAVALLIN - Sverige,
FORMEX,01/18/2022,2022,https://www.formex.se/,DM,Aneta Belysning / Scan Lamps,,,www.aneta.se,info@aneta.se,+46 470 77 84 00,,"Box 3064, 350 33, VÄXJÖ",Sverige,,,,
FORMEX,01/18/2022,2022,https://www.formex.se/,DM,AlterHedens Rabarberi & Delikatesser,,,www.alterhedens.se,alterhedens@gmail.com,+46 911 20 40 93,,"Norra Altervägen 1075, 945 92, Altersbruk",Sverige,,,,
FORMEX,01/18/2022,2022,https://www.formex.se/,DM,Anneko Design Sweden AB,,,www.anneko.se,anneli@anneko.se,0722 509089,,"Grindvägen 32 A, 76162, Norrtälje",Sverige,,,,
FORMEX,01/18/2022,2022,https://www.formex.se/,DM,Aftek Te o Kryddor AB,,,www.aftek.se,info@aftek.se,+46 278 405 20,,"Storgatan 28, 821 61, Arbrå",Sverige,,,AFTEK - Sverige | LANDSKAPSTE - Sverige,
FORMEX,01/18/2022,2022,https://www.formex.se/,DM,A-Grossisten AB,,,www.a-grossisten.se,info@a-grossisten.se,+46 42 38 04 80,,"Stenbrovägen 26, 253 68, Helsingborg",Sverige,,,,
FORMEX,01/18/2022,2022,https://www.formex.se/,DM,Afroart,,,www.afroart.se,info@afroart.se,+46 8 642 50 95,,"Hornsgatan 58, 118 21, Stockholm",Sverige,,,,
FORMEX,01/18/2022,2022,https://www.formex.se/,DM,Adelante i Sverige AB,,,,info@adelanteab.se,0706081159,,"Stenhuggargatan 48, 553 23, Jönköping",Sverige,,,,
FORMEX,01/18/2022,2022,https://www.formex.se/,DM,AddMe,,,,marie.engelberg@gmail.com,+46 70-7735202,,"Brännkyrkagatan 34B, 118 22, Stockholm",Sverige,,,,
FORMEX,01/18/2022,2022,https://www.formex.se/,DM,A3 Present & Inredning AB,,,www.a3profilpromotion.se,ulf@a3presentinredning.se,08-630 09 11,,"Litsbyvägen 60, 187 46, Täby",Sverige,,,,
FORMEX,01/18/2022,2022,https://www.formex.se/,DM,8 Design AB,,,www.8design.se,info@8design.se,+46 706 744 531,,"Örsviksvägen 29, 427 50, Billdal",Sverige,,,,
