ShowName,ShowDate,ShowYear,ShowWebsite,SubmittedBy,ExhibitorName,BoothNumber,HallLocation,Website,Email,Phone,Fax,Address,Country,Categories,Manufacturers,Brands,Description
IBS 2022,"02/08/2022",2022,https://www.buildersshow.com/,DM,.,218,,,,,,"Washington, DC United States",United States,,,,
IBS 2022,"02/08/2022",2022,https://www.buildersshow.com/,DM,American Lighting,6076,,http://www.americanlighting.com,,,,"Denver, CO United States",United States,,,,
IBS 2022,"02/08/2022",2022,https://www.buildersshow.com/,DM,Alsecure Inc,4393,,http://www.easilok.com,,,,"San Gabriel, CA United States",United States,,,,
IBS 2022,"02/08/2022",2022,https://www.buildersshow.com/,DM,"Alpine, an ITW Company",6071,,http://alpineitw.com,,,,"Grand Prairie, TX United States",United States,,,,
IBS 2022,"02/08/2022",2022,https://www.buildersshow.com/,DM,Amantii Electric Fireplaces,4148,,http://www.amantii.com,,,,"Vancouver, BC Canada",Canada,,,,
IBS 2022,"02/08/2022",2022,https://www.buildersshow.com/,DM,Allunox Inc,4352,,http://www.allunox.com,,,,"Laval, QC Canada",Canada,,,,
IBS 2022,"02/08/2022",2022,https://www.buildersshow.com/,DM,"Alpha Protech Engineered Products, Inc.",3083,,http://www.alphaprotech.com,,,,"Valdosta, GA United States",United States,,,,
IBS 2022,"02/08/2022",2022,https://www.buildersshow.com/,DM,American Gas Association,3153,,http://www.aga.org,,,,"Washington, DC United States",United States,,,,
IBS 2022,"02/08/2022",2022,https://www.buildersshow.com/,DM,Alloy SmartHome,5886,,http://smartrent.com,,,,"Scottsdale, AZ United States",United States,,,,
IBS 2022,"02/08/2022",2022,https://www.buildersshow.com/,DM,Allied Air Enterprises- Magic Pak,8371,,http://www.magic-pak.com/,,,,"West Columbia, SC United States",United States,,,,
IBS 2022,"02/08/2022",2022,https://www.buildersshow.com/,DM,ZONEFIRST,5975,,http://www.zonefirst.com,,,,"Randolph, NJ United States",United States,,,,
IBS 2022,"02/08/2022",2022,https://www.buildersshow.com/,DM,"Zone Import, Inc.",8060,,http://zoneimport.com/,,,,"Greenville, SC United States",United States,,,,
IBS 2022,"02/08/2022",2022,https://www.buildersshow.com/,DM,"Zurn Industries, LLC",1010,,http://www.zurn.com,,,,"Milwaukee, WI United States",United States,,,,
IBS 2022,"02/08/2022",2022,https://www.buildersshow.com/,DM,Allegion Schlage Lock Company LLC,4571,,http://www.schlagelock.com,,,,"Carmel, IN United States",United States,,,,
IBS 2022,"02/08/2022",2022,https://www.buildersshow.com/,DM,Zillow Group,6671,,http://www.zillow.com,,,,"Seattle, WA United States",United States,,,,
IBS 2022,"02/08/2022",2022,https://www.buildersshow.com/,DM,"Zhong Shan Jastener International Co., Ltd.",5092,,http://www.internalforcehardware.com,,,,"Zhong Shan, Guang Dong,",,,,,
IBS 2022,"02/08/2022",2022,https://www.buildersshow.com/,DM,Zoeller Pump Company,1220,,http://www.zoellerpumps.com,,,,"Louisville, KY United States",United States,,,,
IBS 2022,"02/08/2022",2022,https://www.buildersshow.com/,DM,Xero,6090,,http://www.xero.com,,,,"Denver, CO United States",United States,,,,
IBS 2022,"02/08/2022",2022,https://www.buildersshow.com/,DM,Zonda,4771,,http://www.zondahome.com,,,,"Washington, DC United States",United States,,,,
IBS 2022,"02/08/2022",2022,https://www.buildersshow.com/,DM,WoodTrac by Sauder,7261,,http://www.woodtrac.com,,,,"Archbold, OH United States",United States,,,,
IBS 2022,"02/08/2022",2022,https://www.buildersshow.com/,DM,American Ground Screw,2527,,https://www.americangroundscrew.com,,,,"Des Moines, IA United States",United States,,,,
IBS 2022,"02/08/2022",2022,https://www.buildersshow.com/,DM,Wolf Steel Ltd. ( Napoleon),3610,,http://www.napoleon.com,,,,"Barrie, ON Canada",Canada,,,,
IBS 2022,"02/08/2022",2022,https://www.buildersshow.com/,DM,Wizard Industries Inc.,3152,,http://www.wizardscreens.com,,,,"Burnaby, BC Canada",Canada,,,,
IBS 2022,"02/08/2022",2022,https://www.buildersshow.com/,DM,Woodland Direct,3231,,http://www.woodlanddirect.com,,,,"Auburn Hills, MI United States",United States,,,,
IBS 2022,"02/08/2022",2022,https://www.buildersshow.com/,DM,American Structures & Design,2240,,http://www.americanstructures.com,,,,"Pacific, WA United States",United States,,,,
IBS 2022,"02/08/2022",2022,https://www.buildersshow.com/,DM,"Wineracks.com ,Inc.",7447,,http://wineracks.com,,,,"Tillson, NY United States",United States,,,,
IBS 2022,"02/08/2022",2022,https://www.buildersshow.com/,DM,American Express,5983,,http://www.americanexpress.com/business,,,,"New York, NY United States",United States,,,,
IBS 2022,"02/08/2022",2022,https://www.buildersshow.com/,DM,Whitehall Products,3314,,http://www.whitehallproducts.com,,,,"Whitehall, MI United States",United States,,,,
IBS 2022,"02/08/2022",2022,https://www.buildersshow.com/,DM,"Working Concept, Inc.",2722,,http://www.softknees.com,,,,"Gresham, OR United States",United States,,,,
IBS 2022,"02/08/2022",2022,https://www.buildersshow.com/,DM,Americana by Bingaman,2213,,http://www.americanarealwood.com,,,,"Kreamer, PA United States",United States,,,,
IBS 2022,"02/08/2022",2022,https://www.buildersshow.com/,DM,Whirlpool Corporation,2554,,http://www.whirlpoolcorp.com,,,,"Benton Harbor, MI United States",United States,,,,
IBS 2022,"02/08/2022",2022,https://www.buildersshow.com/,DM,Winslyn Industries,2546,,http://www.winslyn.com,,,,"Batavia, IL United States",United States,,,,
IBS 2022,"02/08/2022",2022,https://www.buildersshow.com/,DM,Weston Wood Solutions Inc.,3162,,http://www.westonwoodsolutions.com,,,,"Brampton, ON Canada",Canada,,,,
IBS 2022,"02/08/2022",2022,https://www.buildersshow.com/,DM,West Fraser,3747,,http://www.westfraser.com,,,,"Toronto, ON Canada",Canada,,,,
IBS 2022,"02/08/2022",2022,https://www.buildersshow.com/,DM,Winia Electric,3183,,http://winia-usa.com,,,,"Ridgefield Park, NJ United States",United States,,,,
IBS 2022,"02/08/2022",2022,https://www.buildersshow.com/,DM,Weber Technologies/MasterGrain,3149,,http://www.mastergrain.com,,,,"Concord, ON Canada",Canada,,,,
IBS 2022,"02/08/2022",2022,https://www.buildersshow.com/,DM,"Weld-On Adhesives, Inc.",507,,http://www.weldon.com,,,,"Compton, CA United States",United States,,,,
IBS 2022,"02/08/2022",2022,https://www.buildersshow.com/,DM,Welcome Homes,5389,,http://welcomehomes.com,,,,"New York, NY United States",United States,,,,
IBS 2022,"02/08/2022",2022,https://www.buildersshow.com/,DM,Americast Architectural Stone,7661,,http://www.americangaslog.com,,,,"Norcross, GA United States",United States,,,,
IBS 2022,"02/08/2022",2022,https://www.buildersshow.com/,DM,Weatherables by USA Vinyl LLC,307,,http://weatherables.com,,,,"Groveport, OH United States",United States,,,,
IBS 2022,"02/08/2022",2022,https://www.buildersshow.com/,DM,WearDeck Reinforced Polymeric Lumber,7988,,http://www.weardeck.com,,,,"Ocala, FL United States",United States,,,,
IBS 2022,"02/08/2022",2022,https://www.buildersshow.com/,DM,Wine Cellar Innovations,4205,,http://www.winecellarinnovations.com,,,,"Cincinnati, OH United States",United States,,,,
IBS 2022,"02/08/2022",2022,https://www.buildersshow.com/,DM,Warming Trends,3033,,http://www.warming-trends.com,,,,"Englewood, CO United States",United States,,,,
IBS 2022,"02/08/2022",2022,https://www.buildersshow.com/,DM,Washington Penn,703,,http://www.washingtonpenn.com,,,,"Washington, PA United States",United States,,,,
IBS 2022,"02/08/2022",2022,https://www.buildersshow.com/,DM,"Xiamen Intop Exhibition Co., Ltd",8471,,http://www.eintop.com,,,,"Xiamen, China",China,,,,
IBS 2022,"02/08/2022",2022,https://www.buildersshow.com/,DM,Walpole Outdoors,1020,,http://www.walpoleoutdoors.com,,,,"Norwood, MA United States",United States,,,,
IBS 2022,"02/08/2022",2022,https://www.buildersshow.com/,DM,Waupaca Elevator Co Inc.,8255,,http://www.waupacaelevator.com,,,,"Appleton, WI United States",United States,,,,
IBS 2022,"02/08/2022",2022,https://www.buildersshow.com/,DM,Wayne Dalton Garage Doors and Genie Garage Door Openers,7479,,http://www.wayne-dalton.com,,,,"Lewisville, TX United States",United States,,,,
IBS 2022,"02/08/2022",2022,https://www.buildersshow.com/,DM,Wall Smart,5779,,http://wall-smart.com,,,,"Petach-Tikva, Israel",Israel,,,,
IBS 2022,"02/08/2022",2022,https://www.buildersshow.com/,DM,Wausau Supply Co,4453,,http://www.wausausupply.com,,,,"Schofield, WI United States",United States,,,,
IBS 2022,"02/08/2022",2022,https://www.buildersshow.com/,DM,Warmboard Inc.,7482,,http://www.warmboard.com,,,,"Scotts Valley, CA United States",United States,,,,
IBS 2022,"02/08/2022",2022,https://www.buildersshow.com/,DM,Wells Fargo Home Mortgage,6571,,http://www.wellsfargo.com/mortgage,,,,"Des Moines, IA United States",United States,,,,
IBS 2022,"02/08/2022",2022,https://www.buildersshow.com/,DM,VISTA D'ORO BY SAHINOGLU,3303,,http://www.sahinoglu.com.tr,,,,"Istanbul, Turkey",Turkey,,,,
IBS 2022,"02/08/2022",2022,https://www.buildersshow.com/,DM,Vipeq America,3310,,https://vipeqamerica.com/en/,,,,"Mississauga, ON Canada",Canada,,,,
IBS 2022,"02/08/2022",2022,https://www.buildersshow.com/,DM,Wacker Chemical Corporation,7443,,http://www.wacker.com,,,,"Adrian, MI United States",United States,,,,
IBS 2022,"02/08/2022",2022,https://www.buildersshow.com/,DM,"VTC Industry (Wuxi) Co., Ltd.",2320,,http://www.vtcprojects.com,,,,"Wuxi, Jiangsu,",,,,,
IBS 2022,"02/08/2022",2022,https://www.buildersshow.com/,DM,VintageView Wine Storage Systems,7343,,http://www.vintageview.com,,,,"Denver, CO United States",United States,,,,
IBS 2022,"02/08/2022",2022,https://www.buildersshow.com/,DM,Viewrail,2606,,http://viewrail.com,,,,"Goshen, IN United States",United States,,,,
IBS 2022,"02/08/2022",2022,https://www.buildersshow.com/,DM,Versa-Lok Retaining Wall Systems,1312,,http://www.versa-lok.com,,,,"Rosemount, MN United States",United States,,,,
IBS 2022,"02/08/2022",2022,https://www.buildersshow.com/,DM,Venture Circle International LLC / Creative Images,1102,,http://www.venturecirclellc.com,,,,"Sanford, FL United States",United States,,,,
IBS 2022,"02/08/2022",2022,https://www.buildersshow.com/,DM,Versi-Foam,2533,,http://www.rhhfoamsystems.com,,,,"New Berlin, WI United States",United States,,,,
IBS 2022,"02/08/2022",2022,https://www.buildersshow.com/,DM,"UTour Home Tours, LLC",5790,,http://www.utourhomes.com/,,,,"LaPlata, MD United States",United States,,,,
IBS 2022,"02/08/2022",2022,https://www.buildersshow.com/,DM,Utone Steel Windows and Doors,4389,,http://www.steelwindowsanddoors.cn,,,,"Nan'an, Fujian,",,,,,
IBS 2022,"02/08/2022",2022,https://www.buildersshow.com/,DM,US Door & More Inc,8271,,http://www.doornmore.com,,,,"Tampa, FL United States",United States,,,,
IBS 2022,"02/08/2022",2022,https://www.buildersshow.com/,DM,"Versatex Building Products, LLC",7489,,http://www.versatex.com,,,,"Aliquippa, PA United States",United States,,,,
IBS 2022,"02/08/2022",2022,https://www.buildersshow.com/,DM,Waltzing Waters Inc,1431,,http://www.liquidfireworks.com,,,,"Cape Coral, FL United States",United States,,,,
IBS 2022,"02/08/2022",2022,https://www.buildersshow.com/,DM,Urban Surfaces,8355,,http://www.urbansurfaces.com,,,,"Corona, CA United States",United States,,,,
IBS 2022,"02/08/2022",2022,https://www.buildersshow.com/,DM,US BANK,8160,,http://usbank.com,,,,"Palm Desert, CA United States",United States,,,,
IBS 2022,"02/08/2022",2022,https://www.buildersshow.com/,DM,United Soybean Board,1418,,http://www.soynewuses.org,,,,"Midland, MI United States",United States,,,,
IBS 2022,"02/08/2022",2022,https://www.buildersshow.com/,DM,UNILUX GmbH,2027,,http://www.unilux-windows.com,,,,"Salmtal, Germany",Germany,,,,
IBS 2022,"02/08/2022",2022,https://www.buildersshow.com/,DM,Unilock,3240,,http://unilock.com,,,,"Toronto, ON Canada",Canada,,,,
IBS 2022,"02/08/2022",2022,https://www.buildersshow.com/,DM,ULTRALOX,7389,,http://www.timbertech.com,,,,"Wilmington, OH United States",United States,,,,
IBS 2022,"02/08/2022",2022,https://www.buildersshow.com/,DM,U2 fasteners,5543,,http://www.u2fasteners.com,,,,"Thunder Bay, ON Canada",Canada,,,,
IBS 2022,"02/08/2022",2022,https://www.buildersshow.com/,DM,UFP Retail Solutions,4842,,http://www.ufpretailsolutions.com,,,,"Grand Rapids, MI United States",United States,,,,
IBS 2022,"02/08/2022",2022,https://www.buildersshow.com/,DM,TT3 LLC Tommy Toilet Tray,1012,,,,,,"Naples, FL United States",United States,,,,
IBS 2022,"02/08/2022",2022,https://www.buildersshow.com/,DM,UDA Technologies,6543,,http://www.udatechnologies.com,,,,"Auburn, AL United States",United States,,,,
IBS 2022,"02/08/2022",2022,https://www.buildersshow.com/,DM,Weyerhaeuser,4015,,http://www.weyerhaeuser.com,,,,"Seattle, WA United States",United States,,,,
IBS 2022,"02/08/2022",2022,https://www.buildersshow.com/,DM,True North Log Homes Inc.,3164,,http://www.truenorthloghomes.com,,,,"Bracebridge, ON Canada",Canada,,,,
IBS 2022,"02/08/2022",2022,https://www.buildersshow.com/,DM,VB Synthetics,602,,http://www.vbsynthetics.com,,,,"Naperville, IL United States",United States,,,,
IBS 2022,"02/08/2022",2022,https://www.buildersshow.com/,DM,Wahoo Decks,3236,,http://www.wahoodecks.com,,,,"Dahlonega, GA United States",United States,,,,
IBS 2022,"02/08/2022",2022,https://www.buildersshow.com/,DM,Tremco Construction Products Group,7664,,http://www.tremcocpg.com,,,,"Beachwood, OH United States",United States,,,,
IBS 2022,"02/08/2022",2022,https://www.buildersshow.com/,DM,Trusscore,606,,http://www.trusscore.com,,,,"Palmerston, ON Canada",Canada,,,,
IBS 2022,"02/08/2022",2022,https://www.buildersshow.com/,DM,"Uncommon USA, Inc.",1423,,http://www.uncommonflagpoles.com,,,,"Lombard, IL United States",United States,,,,
IBS 2022,"02/08/2022",2022,https://www.buildersshow.com/,DM,Trane,8045,,https://www.trane.com/builders,,,,"Tyler, TX United States",United States,,,,
IBS 2022,"02/08/2022",2022,https://www.buildersshow.com/,DM,TopBuilder,6683,,http://www.topbuildersolutions.com,,,,"Houston, TX United States",United States,,,,
IBS 2022,"02/08/2022",2022,https://www.buildersshow.com/,DM,"Town of Firestone, Colorado",8447,,http://www.firestoneco.gov,,,,"Firestone, CO United States",United States,,,,
IBS 2022,"02/08/2022",2022,https://www.buildersshow.com/,DM,Trojan,5746,,http://www.trojanpowder.com,,,,"Longboat Key, FL United States",United States,,,,
IBS 2022,"02/08/2022",2022,https://www.buildersshow.com/,DM,Tong's Hardware and Plastic Products LLC,3612,,http://www.tongshardware.com,,,,"San Francisco, CA United States",United States,,,,
IBS 2022,"02/08/2022",2022,https://www.buildersshow.com/,DM,TotalHousehold Pro,7688,,http://www.totalhousehold.com,,,,"Bethel, CT United States",United States,,,,
IBS 2022,"02/08/2022",2022,https://www.buildersshow.com/,DM,Titanium Technologie,2529,,http://www.titaniumtechnologie.com,,,,QC Canada,Canada,,,,
IBS 2022,"02/08/2022",2022,https://www.buildersshow.com/,DM,Thermory USA,5343,,http://www.thermory.com,,,,"Wilmette, IL United States",United States,,,,
IBS 2022,"02/08/2022",2022,https://www.buildersshow.com/,DM,Thermo Manufacturing,608,,http://www.thermopan.com,,,,"Canton, OH United States",United States,,,,
IBS 2022,"02/08/2022",2022,https://www.buildersshow.com/,DM,Thermastor,1003,,http://www.santa-fe-products.com,,,,"Madison, WI United States",United States,,,,
IBS 2022,"02/08/2022",2022,https://www.buildersshow.com/,DM,Trex Company,2954,,http://www.trex.com,,,,"Winchester, VA United States",United States,,,,
IBS 2022,"02/08/2022",2022,https://www.buildersshow.com/,DM,The Sherwin-Williams Company,3333,,http://www.sherwin-williams.com,,,,"Cleveland, OH United States",United States,,,,
IBS 2022,"02/08/2022",2022,https://www.buildersshow.com/,DM,The Wood Cellar,8088,,http://woodcellar.com,,,,"Melbourne, FL United States",United States,,,,
IBS 2022,"02/08/2022",2022,https://www.buildersshow.com/,DM,"The Martin Architectural Group, P.C.",3728,,http://www.martinaia.com,,,,"Philadelphia, PA United States",United States,,,,
IBS 2022,"02/08/2022",2022,https://www.buildersshow.com/,DM,The French Steel Company,7945,,http://www.frenchsteel.com,,,,"Atlanta, GA United States",United States,,,,
IBS 2022,"02/08/2022",2022,https://www.buildersshow.com/,DM,Upside Innovations,8243,,http://www.upsideinnovations.com,,,,"Andrews, SC United States",United States,,,,
IBS 2022,"02/08/2022",2022,https://www.buildersshow.com/,DM,TracPipeCounterStrike,4790,,http://www.tracpipe.com,,,,"Middletown, CT United States",United States,,,,
IBS 2022,"02/08/2022",2022,https://www.buildersshow.com/,DM,The Bilco Company,5453,,http://www.bilco.com,,,,"New Haven, CT United States",United States,,,,
IBS 2022,"02/08/2022",2022,https://www.buildersshow.com/,DM,The Dent Guys. Inc.,7083,,http://sublink.com,,,,"Byron, GA United States",United States,,,,
IBS 2022,"02/08/2022",2022,https://www.buildersshow.com/,DM,The Outdoor Plus,1631,,http://www.theoutdoorplus.com,,,,"Ontario, CA United States",United States,,,,
IBS 2022,"02/08/2022",2022,https://www.buildersshow.com/,DM,The Aluminum Shingle Company,628,,http://www.aluminumshingle.com,,,,"Layton, UT United States",United States,,,,
IBS 2022,"02/08/2022",2022,https://www.buildersshow.com/,DM,The Container Store,9,,https://www.containerstore.com/welcome.htm,,,,"Coppell, TX United States",United States,,,,
IBS 2022,"02/08/2022",2022,https://www.buildersshow.com/,DM,Technologies Boralife Inc.,3061,,http://www.boralife.ca,,,,"Quebec, QC Canada",Canada,,,,
IBS 2022,"02/08/2022",2022,https://www.buildersshow.com/,DM,Taunton Press/Fine Homebuilding,4209,,http://www.finehomebuilding.com,,,,"Newtown, CT United States",United States,,,,
IBS 2022,"02/08/2022",2022,https://www.buildersshow.com/,DM,Task Tag,5987,,http://www.tasktag.com,,,,"Houston, TX United States",United States,,,,
IBS 2022,"02/08/2022",2022,https://www.buildersshow.com/,DM,TANTIMBER,3933,,,,,,"Istanbul, Turkey",Turkey,,,,
IBS 2022,"02/08/2022",2022,https://www.buildersshow.com/,DM,Tecnoglass Inc.,7960,,http://www.tecnoglass.com,,,,"Miami, FL United States",United States,,,,
IBS 2022,"02/08/2022",2022,https://www.buildersshow.com/,DM,"Triple Crown Products, Inc.",7848,,http://www.triplecrownproducts.com,,,,"Mukwonago, WI United States",United States,,,,
IBS 2022,"02/08/2022",2022,https://www.buildersshow.com/,DM,Tamlyn,3359,,http://www.tamlyn.com,,,,"Stafford, TX United States",United States,,,,
IBS 2022,"02/08/2022",2022,https://www.buildersshow.com/,DM,Sylka Inc,1523,,http://www.sylkafurniture.com,,,,"LaSalle, QC Canada",Canada,,,,
IBS 2022,"02/08/2022",2022,https://www.buildersshow.com/,DM,Swidget Corp.,6362,,http://www.swidget.com,,,,"Kingston, ON Canada",Canada,,,,
IBS 2022,"02/08/2022",2022,https://www.buildersshow.com/,DM,SZKILNIK DESIGN,1634,,http://www.szkilnik.design,,,,"Zdunska Wola, Poland",Poland,,,,
IBS 2022,"02/08/2022",2022,https://www.buildersshow.com/,DM,Surfacing Solution,5547,,http://www.surfacingsolution.com,,,,"Chaska, MN United States",United States,,,,
IBS 2022,"02/08/2022",2022,https://www.buildersshow.com/,DM,"Sure-Loc Hardware, Inc.",1440,,http://www.surelochardware.com,,,,"Salt lake City, UT United States",United States,,,,
IBS 2022,"02/08/2022",2022,https://www.buildersshow.com/,DM,Super Anchor Safety,2822,,http://www.superanchor.com,,,,"Monroe, WA United States",United States,,,,
IBS 2022,"02/08/2022",2022,https://www.buildersshow.com/,DM,Sunspace Sunrooms,3238,,http://www.sunspacesunrooms.com,,,,"Newcastle, ON Canada",Canada,,,,
IBS 2022,"02/08/2022",2022,https://www.buildersshow.com/,DM,Taco Comfort Solutions,2231,,http://www.tacocomfort.com,,,,"Cranston, RI United States",United States,,,,
IBS 2022,"02/08/2022",2022,https://www.buildersshow.com/,DM,SunPower,6691,,http://www.sunpowercorp.com,,,,"Richmond, CA United States",United States,,,,
IBS 2022,"02/08/2022",2022,https://www.buildersshow.com/,DM,Sunlighten Saunas,600,,http://sunlighten.com,,,,"Overland Park, KS United States",United States,,,,
IBS 2022,"02/08/2022",2022,https://www.buildersshow.com/,DM,Sunfire Defense,3313,,http://www.sunfiredefense.com,,,,"Marina Del Ray, CA United States",United States,,,,
IBS 2022,"02/08/2022",2022,https://www.buildersshow.com/,DM,Suncourt Inc.,1237,,http://www.suncourt.com,,,,"Bettendorf, IA United States",United States,,,,
IBS 2022,"02/08/2022",2022,https://www.buildersshow.com/,DM,The Olde Mill,1212,,http://www.theoldemill.com,,,,"Baton Rouge, LA United States",United States,,,,
IBS 2022,"02/08/2022",2022,https://www.buildersshow.com/,DM,Superior Walls,1333,,http://www.superiorwalls.com,,,,"New Holland, PA United States",United States,,,,
IBS 2022,"02/08/2022",2022,https://www.buildersshow.com/,DM,Stud Shower System LLC,402,,http://studshowersystem.com,,,,"West Palm Beach, FL United States",United States,,,,
IBS 2022,"02/08/2022",2022,https://www.buildersshow.com/,DM,Structureworks,2433,,http://www.structureworksbrands.com,,,,"Fredericksburg, VA United States",United States,,,,
IBS 2022,"02/08/2022",2022,https://www.buildersshow.com/,DM,"Sunny Glass Hardware Co., Ltd.",7993,,http://www.sunnyglasshardware.com,,,,"Jiangmen, Guangdong,",,,,,
IBS 2022,"02/08/2022",2022,https://www.buildersshow.com/,DM,Summit Broadband,5459,,http://www.summit-broadband.com,,,,"Orlando, FL United States",United States,,,,
IBS 2022,"02/08/2022",2022,https://www.buildersshow.com/,DM,StrucSoft Solutions Ltd.,6843,,http://www.strucsoftsolutions.com,,,,"Dorval, QC Canada",Canada,,,,
IBS 2022,"02/08/2022",2022,https://www.buildersshow.com/,DM,STOVER'S LLC,300,,http://www.stoversliquidation.com,,,,"Cookeville, TN United States",United States,,,,
IBS 2022,"02/08/2022",2022,https://www.buildersshow.com/,DM,Stonepile - Base4,1838,,http://www.base-4.com,,,,"Boca Raton, FL United States",United States,,,,
IBS 2022,"02/08/2022",2022,https://www.buildersshow.com/,DM,Stone-Mart,1813,,http://www.stone-mart.com,,,,"Tampa, FL United States",United States,,,,
IBS 2022,"02/08/2022",2022,https://www.buildersshow.com/,DM,Sunair Awnings & Solar Screens,3040,,http://www.sunairawnings.com,,,,"Jessup, MD United States",United States,,,,
IBS 2022,"02/08/2022",2022,https://www.buildersshow.com/,DM,Sun 3D Corporation,4271,,http://www.sun3dcorporation.com,,,,"Pompano Beach, FL United States",United States,,,,
IBS 2022,"02/08/2022",2022,https://www.buildersshow.com/,DM,Stoll Industries,3400,,http://www.stollindustries.com,,,,"Abbeville, SC United States",United States,,,,
IBS 2022,"02/08/2022",2022,https://www.buildersshow.com/,DM,Steves & Sons,2733,,http://www.stevesdoors.com,,,,"Lebanon, TN United States",United States,,,,
IBS 2022,"02/08/2022",2022,https://www.buildersshow.com/,DM,Stifel,8465,,http://www.stifelib.com,,,,"Baltimore, MD United States",United States,,,,
IBS 2022,"02/08/2022",2022,https://www.buildersshow.com/,DM,Stone Harbor Hardware,1400,,http://www.stoneharborhardware.com,,,,"Appleton, WI United States",United States,,,,
IBS 2022,"02/08/2022",2022,https://www.buildersshow.com/,DM,STUC-O-FLEX INTERNATIONAL INC,7442,,http://www.stucoflex.com,,,,"Redmond, WA United States",United States,,,,
IBS 2022,"02/08/2022",2022,https://www.buildersshow.com/,DM,"Stone Edge Surfaces A Division of Turley International Resources, LLC",2437,,http://www.stoneedgesurfaces.com,,,,"Mesa, AZ United States",United States,,,,
IBS 2022,"02/08/2022",2022,https://www.buildersshow.com/,DM,Stiebel Eltron,3200,,http://www.stiebel-eltron-usa.com,,,,"West Hatfield, MA United States",United States,,,,
IBS 2022,"02/08/2022",2022,https://www.buildersshow.com/,DM,Star Expo Int’l Fair Organization,815,,,,,,"Sisli-Istanbul, Turkey",Turkey,,,,
IBS 2022,"02/08/2022",2022,https://www.buildersshow.com/,DM,Spears Manufacturing Company,308,,http://www.spearsmfg.com,,,,"Sylmar, CA United States",United States,,,,
IBS 2022,"02/08/2022",2022,https://www.buildersshow.com/,DM,SPAN,7251,,http://www.span.io,,,,"San Francisco, CA United States",United States,,,,
IBS 2022,"02/08/2022",2022,https://www.buildersshow.com/,DM,Stegmeier LLC,7583,,http://www.stegmeier.com,,,,"Arlington, TX United States",United States,,,,
IBS 2022,"02/08/2022",2022,https://www.buildersshow.com/,DM,Soloway Designs and Celaya / Soloway Interiors,1028,,http://www.soloway-designs.com,,,,"Tucson, AZ United States",United States,,,,
IBS 2022,"02/08/2022",2022,https://www.buildersshow.com/,DM,Sol-Lux by Carefree of Colorado,5977,,http://www.sol-lux.com,,,,"Broomfield, CO United States",United States,,,,
IBS 2022,"02/08/2022",2022,https://www.buildersshow.com/,DM,"Starborn Industries, Inc.",7865,,http://www.starbornindustries.com,,,,"Edison, NJ United States",United States,,,,
IBS 2022,"02/08/2022",2022,https://www.buildersshow.com/,DM,Solar Innovations Inc,5359,,http://www.solarinnovations.com,,,,"Pine Grove, PA United States",United States,,,,
IBS 2022,"02/08/2022",2022,https://www.buildersshow.com/,DM,SnapPower,3508,,http://www.snappower.com,,,,"Vineyard, UT United States",United States,,,,
IBS 2022,"02/08/2022",2022,https://www.buildersshow.com/,DM,The RTA Store,603,,http://www.thertastore.com,,,,"Hopewell Junction, NY United States",United States,,,,
IBS 2022,"02/08/2022",2022,https://www.buildersshow.com/,DM,"SpiderLath, Inc.",2429,,http://www.spiderlath.com,,,,"Smackover, AR United States",United States,,,,
IBS 2022,"02/08/2022",2022,https://www.buildersshow.com/,DM,"Smart Vent Products, Inc.",2613,,http://www.smartvent.com,,,,"Pitman, NJ United States",United States,,,,
IBS 2022,"02/08/2022",2022,https://www.buildersshow.com/,DM,Southern Forest Products Assn,7361,,http://www.thinkwood.com,,,,"Metairie, LA United States",United States,,,,
IBS 2022,"02/08/2022",2022,https://www.buildersshow.com/,DM,Skytech Control Systems,728,,http://www.skytechpg.com,,,,"Fort Wayne, IN United States",United States,,,,
IBS 2022,"02/08/2022",2022,https://www.buildersshow.com/,DM,"Tjernlund Products, Inc.",912,,http://www.tjernlund.com,,,,"White Bear Lake, MN United States",United States,,,,
IBS 2022,"02/08/2022",2022,https://www.buildersshow.com/,DM,Sol-Ark,6891,,http://www.sol-ark.com,,,,"Parker, TX United States",United States,,,,
IBS 2022,"02/08/2022",2022,https://www.buildersshow.com/,DM,SIPAR S.r.l,3436,,http://www.siparonline.com,,,,"Pian Camuno (BS),",,,,,
IBS 2022,"02/08/2022",2022,https://www.buildersshow.com/,DM,Slate-Lite North America,1738,,http://www.slate-lite.com,,,,"Orlando, FL United States",United States,,,,
IBS 2022,"02/08/2022",2022,https://www.buildersshow.com/,DM,SIMSEK Ins. Nak. Elk. Oto. Plas. Tic. San. A.S.,3110,,http://www.simsekaluminyum.com,,,,"Diyarbakir, Turkey",Turkey,,,,
IBS 2022,"02/08/2022",2022,https://www.buildersshow.com/,DM,Simpson Strong-Tie,6342,,http://www.strongtie.com,,,,"Pleasanton, CA United States",United States,,,,
IBS 2022,"02/08/2022",2022,https://www.buildersshow.com/,DM,Simpson Door Company,5043,,http://www.simpsondoor.com,,,,"McCleary, WA United States",United States,,,,
IBS 2022,"02/08/2022",2022,https://www.buildersshow.com/,DM,SIMONSWERK North America,1200,,http://www.simonswerk-usa.com,,,,"Whitewater, WI United States",United States,,,,
IBS 2022,"02/08/2022",2022,https://www.buildersshow.com/,DM,SISTEM ALUMINYUM SAN. VE TIC. A.S.,3016,,http://www.sistemaluminyum.com.tr,,,,"Istanbul, Turkey",Turkey,,,,
IBS 2022,"02/08/2022",2022,https://www.buildersshow.com/,DM,Snap One,5890,,http://www.snapone.com,,,,"Charlotte, NC United States",United States,,,,
IBS 2022,"02/08/2022",2022,https://www.buildersshow.com/,DM,Smarter Remodeling,1437,,http://www.smaerterremodeling.com,,,,"Jacksonville, FL United States",United States,,,,
IBS 2022,"02/08/2022",2022,https://www.buildersshow.com/,DM,Sigma Moduler Yapi Teknolojileri San. Ve Tic. A.S.,1125,,http://www.sigmamodules.com,,,,"Istanbul,",,,,,
IBS 2022,"02/08/2022",2022,https://www.buildersshow.com/,DM,Signature Streetscapes,2537,,http://www.signaturestreetscapes.com,,,,"Muskegon, MI United States",United States,,,,
IBS 2022,"02/08/2022",2022,https://www.buildersshow.com/,DM,Siemens,7045,,http://www.siemens.com,,,,"Nolensville, TN United States",United States,,,,
IBS 2022,"02/08/2022",2022,https://www.buildersshow.com/,DM,SIPA (Structural Insulated Panel Association),4953,,http://www.sips.org,,,,"Fort Lauderdale, FL United States",United States,,,,
IBS 2022,"02/08/2022",2022,https://www.buildersshow.com/,DM,SES Foam,1420,,http://sesfoam.com,,,,"Spring, TX United States",United States,,,,
IBS 2022,"02/08/2022",2022,https://www.buildersshow.com/,DM,Sierra Pacific Windows,3733,,http://www.sierrapacificwindows.com,,,,"Medford, WI United States",United States,,,,
IBS 2022,"02/08/2022",2022,https://www.buildersshow.com/,DM,"Simlab, Inc.",5587,,https://simlabinc.com/,,,,"San Francisco, CA United States",United States,,,,
IBS 2022,"02/08/2022",2022,https://www.buildersshow.com/,DM,SCREENEZE,3434,,http://www.screeneze.com,,,,"Cincinnati, OH United States",United States,,,,
IBS 2022,"02/08/2022",2022,https://www.buildersshow.com/,DM,Screen Tight,5271,,http://www.screentight.com,,,,"Georgetown, SC United States",United States,,,,
IBS 2022,"02/08/2022",2022,https://www.buildersshow.com/,DM,Schneider Electric,5671,,http://www.se.com/us,,,,"Franklin, TN United States",United States,,,,
IBS 2022,"02/08/2022",2022,https://www.buildersshow.com/,DM,Schnell Home Srl Unipersonale,2220,,http://www.schnell.it,,,,"Colli al Metauro,",,,,,
IBS 2022,"02/08/2022",2022,https://www.buildersshow.com/,DM,Schonox HPS North America,2235,,http://www.hpsubfloors.com,,,,"Florence, AL United States",United States,,,,
IBS 2022,"02/08/2022",2022,https://www.buildersshow.com/,DM,Schell Brothers,5891,,http://www.schellbrothers.com,,,,"Rehoboth Beach, DE United States",United States,,,,
IBS 2022,"02/08/2022",2022,https://www.buildersshow.com/,DM,Savaria Concord Lifts,3947,,http://www.savaria.com,,,,"Brampton, ON Canada",Canada,,,,
IBS 2022,"02/08/2022",2022,https://www.buildersshow.com/,DM,Savant,5871,,http://www.savant.com,,,,"Hyannis, MA United States",United States,,,,
IBS 2022,"02/08/2022",2022,https://www.buildersshow.com/,DM,Schluter Systems,4971,,http://www.schluter.com,,,,"Plattsburgh, NY United States",United States,,,,
IBS 2022,"02/08/2022",2022,https://www.buildersshow.com/,DM,SillDry Industries,1036,,http://www.silldry.com,,,,"Hatfield, PA United States",United States,,,,
IBS 2022,"02/08/2022",2022,https://www.buildersshow.com/,DM,Sky Glass Inc.,7747,,http://www.skyglass.com,,,,"Dallas, TX United States",United States,,,,
IBS 2022,"02/08/2022",2022,https://www.buildersshow.com/,DM,Schlegel Polyfab,2637,,https://www.schlegelemi.com/polyfab/,,,,"Rochester, NY United States",United States,,,,
IBS 2022,"02/08/2022",2022,https://www.buildersshow.com/,DM,San Deco Paint Manufacturing & Distribution,3000,,http://www.dekaboya.com.tr,,,,"Istanbul, United States",United States,,,,
IBS 2022,"02/08/2022",2022,https://www.buildersshow.com/,DM,"Shepherd's Finance, LLC",6791,,http://www.shepherdsfinance.com,,,,"Jacksonville, FL United States",United States,,,,
IBS 2022,"02/08/2022",2022,https://www.buildersshow.com/,DM,Saint-Gobain ADFORS,7565,,http://www.adfors.com,,,,"Grand Island, NY United States",United States,,,,
IBS 2022,"02/08/2022",2022,https://www.buildersshow.com/,DM,Sage,6741,,http://sage.com,,,,"Atlanta, GA United States",United States,,,,
IBS 2022,"02/08/2022",2022,https://www.buildersshow.com/,DM,Saunacore,3246,,http://www.saunacore.com,,,,"Bolton, ON Canada",Canada,,,,
IBS 2022,"02/08/2022",2022,https://www.buildersshow.com/,DM,Saniflo SFA Group,2023,,http://www.saniflo.com,,,,"Edison, NJ United States",United States,,,,
IBS 2022,"02/08/2022",2022,https://www.buildersshow.com/,DM,Sashco Sealants,7788,,http://www.sashco.com,,,,"Brighton, CO United States",United States,,,,
IBS 2022,"02/08/2022",2022,https://www.buildersshow.com/,DM,"Safety Maker, Inc.",2820,,http://www.safetyboot.com,,,,"Cypress, TX United States",United States,,,,
IBS 2022,"02/08/2022",2022,https://www.buildersshow.com/,DM,RSG 3-D,1610,,http://www.rsg3d.com,,,,"Old Westbury, NY United States",United States,,,,
IBS 2022,"02/08/2022",2022,https://www.buildersshow.com/,DM,Sagiper North America,3147,,http://www.sagipernorthamerica.com,,,,"Edmnoton, AB Canada",Canada,,,,
IBS 2022,"02/08/2022",2022,https://www.buildersshow.com/,DM,Saray Dokum Madeni Aksam Sanayi Turizm A.S.,2423,,http://www.saray.com,,,,"Istanbul,",,,,,
IBS 2022,"02/08/2022",2022,https://www.buildersshow.com/,DM,Rohden Doors and Windows Corp,5852,,http://www.rohden.com.br,,,,"Hallandale Beach, FL United States",United States,,,,
IBS 2022,"02/08/2022",2022,https://www.buildersshow.com/,DM,ROCKWOOL,3921,,http://www.rockwool.com,,,,"Milton, ON Canada",Canada,,,,
IBS 2022,"02/08/2022",2022,https://www.buildersshow.com/,DM,RockWell LLC,7582,,http://www.rockwellinc.com,,,,"Springville, UT United States",United States,,,,
IBS 2022,"02/08/2022",2022,https://www.buildersshow.com/,DM,Safety Hoist Company,2620,,http://www.safetyhoistcompany.com,,,,"Exton, PA United States",United States,,,,
IBS 2022,"02/08/2022",2022,https://www.buildersshow.com/,DM,SA-FE Windows Inc.,1306,,http://www.sa-fe.net,,,,"Willow Street, PA United States",United States,,,,
IBS 2022,"02/08/2022",2022,https://www.buildersshow.com/,DM,Rmax,5090,,http://www.rmax.com,,,,"Dallas, TX United States",United States,,,,
IBS 2022,"02/08/2022",2022,https://www.buildersshow.com/,DM,RK Doors Inc.,1829,,http://www.rkdoors.ca,,,,"Vaughan, ON Canada",Canada,,,,
IBS 2022,"02/08/2022",2022,https://www.buildersshow.com/,DM,Rinnai America Corporation,2570,,http://www.aga.org,,,,"Washington, DC United States",United States,,,,
IBS 2022,"02/08/2022",2022,https://www.buildersshow.com/,DM,Rhineland Cutlery,1035,,http://www.rhinelandcutlery.com,,,,"Melbourne, FL United States",United States,,,,
IBS 2022,"02/08/2022",2022,https://www.buildersshow.com/,DM,Roca Tile USA,7379,,http://www.rocatileusa.com,,,,"Miami, FL United States",United States,,,,
IBS 2022,"02/08/2022",2022,https://www.buildersshow.com/,DM,Rewoodd,702,,http://www.rewoodd.com,,,,"San Ramon, CA United States",United States,,,,
IBS 2022,"02/08/2022",2022,https://www.buildersshow.com/,DM,Retrotec,2636,,http://www.retrotec.com,,,,"Everson, WA United States",United States,,,,
IBS 2022,"02/08/2022",2022,https://www.buildersshow.com/,DM,Resideo,5791,,https://www.resideo.com/,,,,"Melville, NY United States",United States,,,,
IBS 2022,"02/08/2022",2022,https://www.buildersshow.com/,DM,"Residential Warranty Company, LLC",6643,,http://www.rwcwarranty.com,,,,"Harrisburg, PA United States",United States,,,,
IBS 2022,"02/08/2022",2022,https://www.buildersshow.com/,DM,"Residential Elevators, Inc.",3516,,http://www.residentialelevators.com,,,,"Tallahassee, FL United States",United States,,,,
IBS 2022,"02/08/2022",2022,https://www.buildersshow.com/,DM,Reprographic Services Association,2918,,http://www.rsacorporation.com,,,,"Westminster, CO United States",United States,,,,
IBS 2022,"02/08/2022",2022,https://www.buildersshow.com/,DM,Remodel Fence,6493,,http://www.rcsg.org,,,,"Boulder, CO United States",United States,,,,
IBS 2022,"02/08/2022",2022,https://www.buildersshow.com/,DM,Relax In Comfort - Luxury Massage Chairs,1403,,https://relaxincomfort.com,,,,"Winter Park, FL United States",United States,,,,
IBS 2022,"02/08/2022",2022,https://www.buildersshow.com/,DM,Regal Ideas Inc.,1613,,http://www.regalideas.com,,,,"Seattle, WA United States",United States,,,,
IBS 2022,"02/08/2022",2022,https://www.buildersshow.com/,DM,Regal Brands,3610,,https://regal-brands.com/,,,,"Denver, CO United States",United States,,,,
IBS 2022,"02/08/2022",2022,https://www.buildersshow.com/,DM,Reflectix,4207,,http://www.reflectixinc.com,,,,"Markleville, IN United States",United States,,,,
IBS 2022,"02/08/2022",2022,https://www.buildersshow.com/,DM,Reef Industries Inc.,310,,http://www.reefindustries.com,,,,"Houston, TX United States",United States,,,,
IBS 2022,"02/08/2022",2022,https://www.buildersshow.com/,DM,Reda Home Team,1527,,http://redahometeam.com,,,,"Clarksville, MD United States",United States,,,,
IBS 2022,"02/08/2022",2022,https://www.buildersshow.com/,DM,Realtor.com,6991,,http://www.realtor.com,,,,"Santa Clara, CA United States",United States,,,,
IBS 2022,"02/08/2022",2022,https://www.buildersshow.com/,DM,Road Sprinkler Fitters Local 669,7679,,http://www.sprinklerfitters669.org,,,,"Columbia, MD United States",United States,,,,
IBS 2022,"02/08/2022",2022,https://www.buildersshow.com/,DM,Raptor Synthetic Underlayment,7241,,http://raptorunderlayment.com/,,,,"Indianapolis, IN United States",United States,,,,
IBS 2022,"02/08/2022",2022,https://www.buildersshow.com/,DM,Rates Yapi Mimarlik Mobilya Ins. San. Ve Tic. Ltd. Sti.,3225,,http://www.ratesyapimimarlik.com.tr,,,,"Istanbul,",,,,,
IBS 2022,"02/08/2022",2022,https://www.buildersshow.com/,DM,RainHarvest Systems,2237,,http://www.rainharvest.com/shop/,,,,"Cumming, GA United States",United States,,,,
IBS 2022,"02/08/2022",2022,https://www.buildersshow.com/,DM,Ram Commercial,3721,,http://www.ramtrucks.com/commercial,,,,"Auburn Hills, MI United States",United States,,,,
IBS 2022,"02/08/2022",2022,https://www.buildersshow.com/,DM,Quorum International,3103,,http://www.quoruminternational.com,,,,"Fort Worth, TX United States",United States,,,,
IBS 2022,"02/08/2022",2022,https://www.buildersshow.com/,DM,Quoizel Lighting,215,,http://www.quoizel.com,,,,"Goose Creek, SC United States",United States,,,,
IBS 2022,"02/08/2022",2022,https://www.buildersshow.com/,DM,RailFX,1810,,http://www.railfx.net,,,,"Carson City, NV United States",United States,,,,
IBS 2022,"02/08/2022",2022,https://www.buildersshow.com/,DM,RadonAway/Spruce,7842,,http://www.spruce.com,,,,"Ward Hill, MA United States",United States,,,,
IBS 2022,"02/08/2022",2022,https://www.buildersshow.com/,DM,QuietRock by PABCO Gypsum,7647,,http://www.pabcogypsum.com,,,,"North Las Vegas, NV United States",United States,,,,
IBS 2022,"02/08/2022",2022,https://www.buildersshow.com/,DM,Royal Building Products,2520,,http://www.royalbuildingproducts.com,,,,"Columbus, OH United States",United States,,,,
IBS 2022,"02/08/2022",2022,https://www.buildersshow.com/,DM,Quebec Wood Export Bureau (QWEB),3158,,http://www.quebecwoodexport.com,,,,"Quebec, QC Canada",Canada,,,,
IBS 2022,"02/08/2022",2022,https://www.buildersshow.com/,DM,Quickflash WeatherProofing Products Inc,1015,,http://www.quickflashproducts.com,,,,"Las Vegas, NV United States",United States,,,,
IBS 2022,"02/08/2022",2022,https://www.buildersshow.com/,DM,Radon Environmental Management Corp,2634,,http://www.radoncorp.com,,,,"Maple Ridge, BC Canada",Canada,,,,
IBS 2022,"02/08/2022",2022,https://www.buildersshow.com/,DM,Roseburg Forest Products,3420,,http://www.roseburg.com,,,,"Springfield, OR United States",United States,,,,
IBS 2022,"02/08/2022",2022,https://www.buildersshow.com/,DM,Quaker Window Products,5743,,http://www.quakerwindows.com,,,,"Freeburg, MO United States",United States,,,,
IBS 2022,"02/08/2022",2022,https://www.buildersshow.com/,DM,Quality Builders Warranty Corp,7057,,http://www.qbwc.com,,,,"Wormleysburg, PA United States",United States,,,,
IBS 2022,"02/08/2022",2022,https://www.buildersshow.com/,DM,Protecto Wrap Company,5553,,http://www.protectowrap.com,,,,"Denver, CO United States",United States,,,,
IBS 2022,"02/08/2022",2022,https://www.buildersshow.com/,DM,Punchlist Manager,7743,,http://punchlistmanager.net,,,,"Lehi, UT United States",United States,,,,
IBS 2022,"02/08/2022",2022,https://www.buildersshow.com/,DM,Rheem Manufacturing,2970,,http://www.rheem.com,,,,"Fort Smith, AR United States",United States,,,,
IBS 2022,"02/08/2022",2022,https://www.buildersshow.com/,DM,QC Manufacturing Inc. - QuietCool,5783,,http://www.quietcoolsystems.com,,,,"Temecula, CA United States",United States,,,,
IBS 2022,"02/08/2022",2022,https://www.buildersshow.com/,DM,Quickfitting Holding Company Inc,8343,,http://quickfitting.com,,,,"East Providence, NJ United States",United States,,,,
IBS 2022,"02/08/2022",2022,https://www.buildersshow.com/,DM,Puertas Sanrafael S.A.,3141,,http://www.puertassanrafael.com,,,,"Villacañas (Toledo),",,,,,
IBS 2022,"02/08/2022",2022,https://www.buildersshow.com/,DM,Proflex Products Inc.,7446,,http://www.proflex.us,,,,"Haines City, FL United States",United States,,,,
IBS 2022,"02/08/2022",2022,https://www.buildersshow.com/,DM,Progress Lighting,3121,,http://progresslighting.com,,,,"Greenville, SC United States",United States,,,,
IBS 2022,"02/08/2022",2022,https://www.buildersshow.com/,DM,Professional Warranty Service Corporation,6783,,http://www.pwsc.com,,,,"Chantilly, VA United States",United States,,,,
IBS 2022,"02/08/2022",2022,https://www.buildersshow.com/,DM,Privacy Glass Solutions,7764,,http://www.privacyglasssolutions.com,,,,"Coral Springs, FL United States",United States,,,,
IBS 2022,"02/08/2022",2022,https://www.buildersshow.com/,DM,"Quick House USA, LLC",1115,,http://www.quickhouse.com.br,,,,"Miami, FL United States",United States,,,,
IBS 2022,"02/08/2022",2022,https://www.buildersshow.com/,DM,Pro1 IAQ,5692,,http://pro1iaq.com,,,,"Boulder, CO United States",United States,,,,
IBS 2022,"02/08/2022",2022,https://www.buildersshow.com/,DM,Protective Products Int'l Inc,4959,,http://www.protectiveproducts.com,,,,"Wauconda, IL United States",United States,,,,
IBS 2022,"02/08/2022",2022,https://www.buildersshow.com/,DM,Rubio Monocoat USA,2618,,http://www.rubiomonocoatusa.com,,,,"Spicewood, TX United States",United States,,,,
IBS 2022,"02/08/2022",2022,https://www.buildersshow.com/,DM,Prime Hadrware Inc,506,,http://www.primehardware.com,,,,"Clearwater, FL United States",United States,,,,
IBS 2022,"02/08/2022",2022,https://www.buildersshow.com/,DM,"PrimeLending, A PlainsCapital Company",6443,,http://www.primelending.com,,,,"Dallas, TX United States",United States,,,,
IBS 2022,"02/08/2022",2022,https://www.buildersshow.com/,DM,Precision Frameworks,7641,,http://www.precisionframeworks.com,,,,"Avondale Estates, GA United States",United States,,,,
IBS 2022,"02/08/2022",2022,https://www.buildersshow.com/,DM,"Power Tool Safe, Inc.",6360,,http://www.powertoolsafe.com,,,,"Colorado Springs, CO United States",United States,,,,
IBS 2022,"02/08/2022",2022,https://www.buildersshow.com/,DM,Polysols Inc.,7280,,http://www.polysols.com,,,,"Spartanburg, SC United States",United States,,,,
IBS 2022,"02/08/2022",2022,https://www.buildersshow.com/,DM,Prest-On,3211,,http://www.prest-on.com,,,,"Hot Springs, AR United States",United States,,,,
IBS 2022,"02/08/2022",2022,https://www.buildersshow.com/,DM,"Pneumatic Vacuum Elevators, LLC",5291,,http://www.vacuumelevators.com,,,,"Medley, FL United States",United States,,,,
IBS 2022,"02/08/2022",2022,https://www.buildersshow.com/,DM,Plus Closets,1233,,http://www.plusclosets.com,,,,"Elmhurst, IL United States",United States,,,,
IBS 2022,"02/08/2022",2022,https://www.buildersshow.com/,DM,PLOTT,6091,,http://www.letsplott.com,,,,"Dover, NJ United States",United States,,,,
IBS 2022,"02/08/2022",2022,https://www.buildersshow.com/,DM,PlexiDor Performance Dog Doors,1934,,http://www.plexidors.com,,,,"Bradenton, FL United States",United States,,,,
IBS 2022,"02/08/2022",2022,https://www.buildersshow.com/,DM,Pol-Kres Edwood Daniel Tomaszuk,2440,,http://www.edwood.pl,,,,"Biala Podlaska, Poland",Poland,,,,
IBS 2022,"02/08/2022",2022,https://www.buildersshow.com/,DM,Piva Windows,3071,,http://www.pivawindowsna.com,,,,"Ste. Genevieve, MO United States",United States,,,,
IBS 2022,"02/08/2022",2022,https://www.buildersshow.com/,DM,PipeBreakUSA,3223,,http://www.pipebreakusa.com,,,,"Middlefield, CT United States",United States,,,,
IBS 2022,"02/08/2022",2022,https://www.buildersshow.com/,DM,Pro-Flash Building Products Inc.,3053,,http://www.pro-flash.com,,,,"Edmonton, AB Canada",Canada,,,,
IBS 2022,"02/08/2022",2022,https://www.buildersshow.com/,DM,Pinnaclelgs Inc.,7043,,http://www.pinnaclelgs.com,,,,"Harbor City, CA United States",United States,,,,
IBS 2022,"02/08/2022",2022,https://www.buildersshow.com/,DM,"Pinnacle Infotech, Inc.",6089,,http://www.pinnaclecad.com,,,,"Sugar Land, TX United States",United States,,,,
IBS 2022,"02/08/2022",2022,https://www.buildersshow.com/,DM,"PIN Genie Inc, DBA Lockly",6553,,https://lockly.com/,,,,"St. Paul, MN United States",United States,,,,
IBS 2022,"02/08/2022",2022,https://www.buildersshow.com/,DM,Pioneer Millworks,2029,,http://pioneermillworks.com/,,,,"Farmington, NY United States",United States,,,,
IBS 2022,"02/08/2022",2022,https://www.buildersshow.com/,DM,Permalatt Products,7341,,http://www.permalatt.com,,,,"Bremen, IN United States",United States,,,,
IBS 2022,"02/08/2022",2022,https://www.buildersshow.com/,DM,Plastpro Inc.,3753,,http://www.plastproinc.com,,,,"Los Angeles, CA United States",United States,,,,
IBS 2022,"02/08/2022",2022,https://www.buildersshow.com/,DM,Paymerang,1427,,http://www.paymerang.com,,,,"Richmond, VA United States",United States,,,,
IBS 2022,"02/08/2022",2022,https://www.buildersshow.com/,DM,Parlos Group Inc.,400,,http://www.parlos.com,,,,"Alhambra, CA United States",United States,,,,
IBS 2022,"02/08/2022",2022,https://www.buildersshow.com/,DM,Pressure Sensitive Tape Council,1002,,https://www.pstc.org,,,,"Chicago, IL United States",United States,,,,
IBS 2022,"02/08/2022",2022,https://www.buildersshow.com/,DM,Panasonic Life Solutions Company of America,7143,,http://reinventingventing.com,,,,"Newark, NJ United States",United States,,,,
IBS 2022,"02/08/2022",2022,https://www.buildersshow.com/,DM,Paralux Cable Systems,808,,http://www.paraluxcable.com,,,,"Drifting, PA United States",United States,,,,
IBS 2022,"02/08/2022",2022,https://www.buildersshow.com/,DM,PANORAMIC DOORS,5283,,http://www.panoramicdoors.com,,,,"Fort Worth, TX United States",United States,,,,
IBS 2022,"02/08/2022",2022,https://www.buildersshow.com/,DM,Pan American Screw,3513,,http://www.suredrive.com,,,,"Conover, NC United States",United States,,,,
IBS 2022,"02/08/2022",2022,https://www.buildersshow.com/,DM,Philadelphia Hardware Group,806,,http://www.philihardware.com,,,,"San Diego, CA United States",United States,,,,
IBS 2022,"02/08/2022",2022,https://www.buildersshow.com/,DM,Palm City Ironworks,1840,,http://www.palmcityironworks.com,,,,"Ft. Myers, FL United States",United States,,,,
IBS 2022,"02/08/2022",2022,https://www.buildersshow.com/,DM,PacificCrest,4689,,http://pacificpridedoors.com,,,,"Graham, WA United States",United States,,,,
IBS 2022,"02/08/2022",2022,https://www.buildersshow.com/,DM,Promenaid,4147,,http://www.promenaid.com,,,,"Dorval, QC Canada",Canada,,,,
IBS 2022,"02/08/2022",2022,https://www.buildersshow.com/,DM,Pamex,3091,,http://www.pamexinc.com,,,,"Chino, CA United States",United States,,,,
IBS 2022,"02/08/2022",2022,https://www.buildersshow.com/,DM,PAC-CLAD - Petersen Aluminum,2229,,http://www.pac-clad.com,,,,"Elk Grove Village, IL United States",United States,,,,
IBS 2022,"02/08/2022",2022,https://www.buildersshow.com/,DM,Oy Lunawood Ltd,5643,,http://www.lunawood.com,,,,"Lahti, Finland",Finland,,,,
IBS 2022,"02/08/2022",2022,https://www.buildersshow.com/,DM,Professional Builder/SGC Horizon LLC,10,,http://www.probuilder.com,,,,"Arlington Heights, IL United States",United States,,,,
IBS 2022,"02/08/2022",2022,https://www.buildersshow.com/,DM,Owens Corning,4247,,http://www.owenscorning.com,,,,"Toledo, OH United States",United States,,,,
IBS 2022,"02/08/2022",2022,https://www.buildersshow.com/,DM,"Oser Communications Group, Inc.",8449,,http://www.oser.com,,,,"Tucson, AZ United States",United States,,,,
IBS 2022,"02/08/2022",2022,https://www.buildersshow.com/,DM,Organized Living,5089,,http://organizedliving.com,,,,"Cincinnati, OH United States",United States,,,,
IBS 2022,"02/08/2022",2022,https://www.buildersshow.com/,DM,Orro,5787,,http://www.getorro.com,,,,"San Mateo, CA United States",United States,,,,
IBS 2022,"02/08/2022",2022,https://www.buildersshow.com/,DM,Ortal USA,3391,,http://www.ortalheat.com,,,,"Canoga Park, CA United States",United States,,,,
IBS 2022,"02/08/2022",2022,https://www.buildersshow.com/,DM,OMG Inc/ FastenMaster,4943,,http://www.fastenmaster.com,,,,"Agawam, MA United States",United States,,,,
IBS 2022,"02/08/2022",2022,https://www.buildersshow.com/,DM,Ox Engineered Products,8361,,http://www.oxep.com,,,,"Northville, MI United States",United States,,,,
IBS 2022,"02/08/2022",2022,https://www.buildersshow.com/,DM,Okyanus Aluminyum San. Tic. A.S.,3218,,http://www.okyanusaluminyum.com,,,,"Tekirdag, Turkey",Turkey,,,,
IBS 2022,"02/08/2022",2022,https://www.buildersshow.com/,DM,Olimpia Splendid USA,1208,,http://www.olimpiasplendidusa.com,,,,"Flower Mound, TX United States",United States,,,,
IBS 2022,"02/08/2022",2022,https://www.buildersshow.com/,DM,Oliveri Millworks,7761,,http://www.oliveriwindowsanddoors.com,,,,"West Palm Beach, FL United States",United States,,,,
IBS 2022,"02/08/2022",2022,https://www.buildersshow.com/,DM,Pearl Mantels Corporation,1128,,http://www.pearlmantels.com,,,,"Collierville, TN United States",United States,,,,
IBS 2022,"02/08/2022",2022,https://www.buildersshow.com/,DM,Parkay Floors,7889,,http://www.parkayfloors.com,,,,"Sunrise, FL United States",United States,,,,
IBS 2022,"02/08/2022",2022,https://www.buildersshow.com/,DM,ODL Inc,4021,,http://www.odl.com,,,,"Zeeland, MI United States",United States,,,,
IBS 2022,"02/08/2022",2022,https://www.buildersshow.com/,DM,Oelo Lighting Solutions LLC,5693,,http://oelo.com,,,,"Fort Collins, CO United States",United States,,,,
IBS 2022,"02/08/2022",2022,https://www.buildersshow.com/,DM,O'Hagin LLC,4221,,http://www.ohagin.com,,,,"Rohnert Park, CA United States",United States,,,,
IBS 2022,"02/08/2022",2022,https://www.buildersshow.com/,DM,Old Mill Brick,1637,,http://www.oldmillbrick.com,,,,"Bluffdale, UT United States",United States,,,,
IBS 2022,"02/08/2022",2022,https://www.buildersshow.com/,DM,NoviHome,6455,,http://www.novihome.com,,,,"Cedar City, UT United States",United States,,,,
IBS 2022,"02/08/2022",2022,https://www.buildersshow.com/,DM,Novoform by Schauenburg,1534,,http://www.novoform.us,,,,"Fairmont, WV United States",United States,,,,
IBS 2022,"02/08/2022",2022,https://www.buildersshow.com/,DM,NRMCA - Build With Strength,2800,,http://www.nrmca.org,,,,"Alexandria, VA United States",United States,,,,
IBS 2022,"02/08/2022",2022,https://www.buildersshow.com/,DM,NOVAWOOD,2831,,http://www.novawood.com,,,,"Istanbul, Turkey",Turkey,,,,
IBS 2022,"02/08/2022",2022,https://www.buildersshow.com/,DM,OpenHouse.AI,6986,,http://www.openhouse.ai,,,,"Calgary, AB Canada",Canada,,,,
IBS 2022,"02/08/2022",2022,https://www.buildersshow.com/,DM,Nortek Control,5571,,http://www.nortekcontrol.com,,,,"Carlsbad, CA United States",United States,,,,
IBS 2022,"02/08/2022",2022,https://www.buildersshow.com/,DM,Nordic Structures,3160,,http://www.nordic.ca,,,,"Montreal, QC Canada",Canada,,,,
IBS 2022,"02/08/2022",2022,https://www.buildersshow.com/,DM,Nisus Corporation,4848,,http://www.nisuscorp.com,,,,"Rockford, TN United States",United States,,,,
IBS 2022,"02/08/2022",2022,https://www.buildersshow.com/,DM,Nova Plastech Inc.,3552,,http://www.novaplastech.com,,,,"Brossard, QC Canada",Canada,,,,
IBS 2022,"02/08/2022",2022,https://www.buildersshow.com/,DM,Nova USA Wood Products LLC,926,,http://www.novausawood.com,,,,"Forest Grove, OR United States",United States,,,,
IBS 2022,"02/08/2022",2022,https://www.buildersshow.com/,DM,Nissan Commercial Vehicles,5,,http://www.nissanusa.com,,,,"Franklin, TN United States",United States,,,,
IBS 2022,"02/08/2022",2022,https://www.buildersshow.com/,DM,Next Wave CNC,7689,,http://www.nextwavecnc.com,,,,"Perrysburg, OH United States",United States,,,,
IBS 2022,"02/08/2022",2022,https://www.buildersshow.com/,DM,Orenco Systems Inc.,1314,,http://www.orenco.com,,,,"Sutherlin, OR United States",United States,,,,
IBS 2022,"02/08/2022",2022,https://www.buildersshow.com/,DM,"New Dawn Products, Inc.",4792,,http://www.vitamix.com,,,,"Cody, WY United States",United States,,,,
IBS 2022,"02/08/2022",2022,https://www.buildersshow.com/,DM,Nicks Building Supply,1600,,http://www.nicksbuilding.com/,,,,"Crown Point, IN United States",United States,,,,
IBS 2022,"02/08/2022",2022,https://www.buildersshow.com/,DM,Nichiha USA Inc.,5843,,http://www.nichiha.com/,,,,"Duluth, GA United States",United States,,,,
IBS 2022,"02/08/2022",2022,https://www.buildersshow.com/,DM,Novagard,7546,,http://www.novagard.com/,,,,"Cleveland, OH United States",United States,,,,
IBS 2022,"02/08/2022",2022,https://www.buildersshow.com/,DM,National Prefinish,4747,,http://www.nationalprefinish.com,,,,"Lancaster, PA United States",United States,,,,
IBS 2022,"02/08/2022",2022,https://www.buildersshow.com/,DM,"Navien, Inc.",3783,,http://www.navieninc.com,,,,"Irvine, CA United States",United States,,,,
IBS 2022,"02/08/2022",2022,https://www.buildersshow.com/,DM,National Shelter Products/System Components Corporation,7955,,http://www.nationalshelter.com,,,,"Hudson, OH United States",United States,,,,
IBS 2022,"02/08/2022",2022,https://www.buildersshow.com/,DM,National Fireplace Institute,312,,http://nficertified.org,,,,"Arlington, VA United States",United States,,,,
IBS 2022,"02/08/2022",2022,https://www.buildersshow.com/,DM,Occipital,6941,,http://canvas.io,,,,"Boulder, CO United States",United States,,,,
IBS 2022,"02/08/2022",2022,https://www.buildersshow.com/,DM,Neuma Doors,3632,,http://www.neumadoors.com,,,,"Houston, TX United States",United States,,,,
IBS 2022,"02/08/2022",2022,https://www.buildersshow.com/,DM,"Nana Wall Systems, Inc.",4847,,https://www.nanawall.com/,,,,"Corte Madera, CA United States",United States,,,,
IBS 2022,"02/08/2022",2022,https://www.buildersshow.com/,DM,National Fire Sprinkler Association,2216,,http://www.nfsa.org,,,,"Linthicum Heights, MD United States",United States,,,,
IBS 2022,"02/08/2022",2022,https://www.buildersshow.com/,DM,National Gypsum,500,,http://www.nationalgypsum.com,,,,"Charlotte, NC United States",United States,,,,
IBS 2022,"02/08/2022",2022,https://www.buildersshow.com/,DM,National Construction Rentals,1004,,http://www.rentnational.com,,,,"Mission Hills, CA United States",United States,,,,
IBS 2022,"02/08/2022",2022,https://www.buildersshow.com/,DM,National Association Elevator Contractors (NAEC),7846,,http://www.naec.org,,,,"Conyers, GA United States",United States,,,,
IBS 2022,"02/08/2022",2022,https://www.buildersshow.com/,DM,N.A. Structures Inc,3156,,http://www.nastructures.com,,,,"Levis, QC Canada",Canada,,,,
IBS 2022,"02/08/2022",2022,https://www.buildersshow.com/,DM,MYGOFLIGHT,6641,,http:///www.buildersourcing.com,,,,"Denver, CO United States",United States,,,,
IBS 2022,"02/08/2022",2022,https://www.buildersshow.com/,DM,Murphy Door Inc.,4261,,http://www.murphydoor.com/,,,,"West Haven, UT United States",United States,,,,
IBS 2022,"02/08/2022",2022,https://www.buildersshow.com/,DM,Nassco Products LLC-dba Hide-A-Trim,5877,,http://www.hideatrim.com,,,,"Pompano Beach, FL United States",United States,,,,
IBS 2022,"02/08/2022",2022,https://www.buildersshow.com/,DM,"Net Zero Building Systems, Inc",6191,,http://www.sprayrock.com,,,,"Stuart, FL United States",United States,,,,
IBS 2022,"02/08/2022",2022,https://www.buildersshow.com/,DM,Multi-Panels Corporation,303,,http://www.multi-panels.com,,,,"La Jolla, CA United States",United States,,,,
IBS 2022,"02/08/2022",2022,https://www.buildersshow.com/,DM,Namtas Beton Makinalari Beton Urunleri San. Tic. Ltd. Sti.,2417,,http://www.namtas.com,,,,"Izmir, Turkey",Turkey,,,,
IBS 2022,"02/08/2022",2022,https://www.buildersshow.com/,DM,Muro North America Inc,7542,,http://www.muro.com,,,,"Brampton, ON Canada",Canada,,,,
IBS 2022,"02/08/2022",2022,https://www.buildersshow.com/,DM,Monkey Wrench Solutions Inc.,3512,,http://www.monketwrenchsol.com,,,,"Tampa, FL United States",United States,,,,
IBS 2022,"02/08/2022",2022,https://www.buildersshow.com/,DM,"Mr. Cool, LLC",5646,,http://www.mrcool.com,,,,"Hickory, KY United States",United States,,,,
IBS 2022,"02/08/2022",2022,https://www.buildersshow.com/,DM,"Moisture Intrusion Solutions, Inc.",7082,,http://www.moisturesolutions.net,,,,"Daytona Beach, FL United States",United States,,,,
IBS 2022,"02/08/2022",2022,https://www.buildersshow.com/,DM,Mohawk Flooring North America,2633,,http://www.mohawkbuild.com,,,,"Calhoun, GA United States",United States,,,,
IBS 2022,"02/08/2022",2022,https://www.buildersshow.com/,DM,National Fenestration Rating Council,626,,http://www.nfrc.org,,,,"Greenbelt, MD United States",United States,,,,
IBS 2022,"02/08/2022",2022,https://www.buildersshow.com/,DM,MStone Stone & Tile,800,,http://www.mstone.us.com/,,,,"Dallas, TX United States",United States,,,,
IBS 2022,"02/08/2022",2022,https://www.buildersshow.com/,DM,Modsy,5993,,http://www.modsy.com,,,,"Clovis, CA United States",United States,,,,
IBS 2022,"02/08/2022",2022,https://www.buildersshow.com/,DM,Modern Mill,4347,,http://www.modern-mill.com,,,,"Fernwood, MS United States",United States,,,,
IBS 2022,"02/08/2022",2022,https://www.buildersshow.com/,DM,Modern Flames/ Grand Canyon Gas Logs,3690,,http://www.modernflames.com,,,,"Phoenix, AZ United States",United States,,,,
IBS 2022,"02/08/2022",2022,https://www.buildersshow.com/,DM,MotorCity Floors and Coatings,1335,,http://motorcityfloorsandcoatings.com,,,,"Novi, MI United States",United States,,,,
IBS 2022,"02/08/2022",2022,https://www.buildersshow.com/,DM,Miyanaga America Corp,407,,http://www.miyanagaamerica.com,,,,"Addison, IL United States",United States,,,,
IBS 2022,"02/08/2022",2022,https://www.buildersshow.com/,DM,Mitsubishi Electric Trane HVAC US,11,,http://www.mehvac.com,,,,"Suwanee, GA United States",United States,,,,
IBS 2022,"02/08/2022",2022,https://www.buildersshow.com/,DM,Millner-Haufen Tool Co.,404,,http://www.millnertools.com,,,,"Nashville, TN United States",United States,,,,
IBS 2022,"02/08/2022",2022,https://www.buildersshow.com/,DM,"Modular Construction Systems, LLC",1112,,http://modcosystems.com,,,,"Fort Lupton, CO United States",United States,,,,
IBS 2022,"02/08/2022",2022,https://www.buildersshow.com/,DM,Mitrex,5463,,https://www.mitrex.com/,,,,"Toronto, ON Canada",Canada,,,,
IBS 2022,"02/08/2022",2022,https://www.buildersshow.com/,DM,Millennium Group,5744,,http://thenailer.com,,,,"Loveland, CO United States",United States,,,,
IBS 2022,"02/08/2022",2022,https://www.buildersshow.com/,DM,MODULO,803,,http://www.modulo.fr,,,,"Turda, Turkey",Turkey,,,,
IBS 2022,"02/08/2022",2022,https://www.buildersshow.com/,DM,Mighty Buildings,32,,http://www.mightybuildings.com,,,,"Oakland, CA United States",United States,,,,
IBS 2022,"02/08/2022",2022,https://www.buildersshow.com/,DM,"MMC Building & Industrial Products, Powered by Toolbelt Data",7792,,https://www.mmcgrowth.com/,,,,"Binghamton, NY United States",United States,,,,
IBS 2022,"02/08/2022",2022,https://www.buildersshow.com/,DM,Miles Industries Ltd,3247,,http://www.valorfireplaces.com,,,,"North Vancouver, BC Canada",Canada,,,,
IBS 2022,"02/08/2022",2022,https://www.buildersshow.com/,DM,Moistureshield Composite Decking,4443,,https://www.moistureshield.com/,,,,"Atlanta, GA United States",United States,,,,
IBS 2022,"02/08/2022",2022,https://www.buildersshow.com/,DM,Mono Slab EZ Form,7861,,https://monoslabezform.com/,,,,"Island Park, ID United States",United States,,,,
IBS 2022,"02/08/2022",2022,https://www.buildersshow.com/,DM,Mendota Hearth Products,2946,,http://www.mendotahearth.com,,,,"Cedar Rapids, IA United States",United States,,,,
IBS 2022,"02/08/2022",2022,https://www.buildersshow.com/,DM,Mel Northey Co. Inc.,4223,,http://www.melnorthey.com,,,,"Houston, TX United States",United States,,,,
IBS 2022,"02/08/2022",2022,https://www.buildersshow.com/,DM,Mercedes-Benz USA LLC,2900,,http://www.mbvans.com,,,,"Sandy Springs, GA United States",United States,,,,
IBS 2022,"02/08/2022",2022,https://www.buildersshow.com/,DM,Metwood Building Solutions,5390,,http://www.metwood.com,,,,"Boones Mill, VA United States",United States,,,,
IBS 2022,"02/08/2022",2022,https://www.buildersshow.com/,DM,MFM Building Products Corp.,8451,,http://www.mfmbp.com,,,,"Coshocton, OH United States",United States,,,,
IBS 2022,"02/08/2022",2022,https://www.buildersshow.com/,DM,Maze Nails,4219,,http://www.mazenails.com,,,,"Peru, IL United States",United States,,,,
IBS 2022,"02/08/2022",2022,https://www.buildersshow.com/,DM,Maxim Group Co.,7979,,http://www.maximlighting.com,,,,"City of Industry, CA United States",United States,,,,
IBS 2022,"02/08/2022",2022,https://www.buildersshow.com/,DM,MiTek,5153,,http://www.mitek-us.com,,,,"Chesterfield, MO United States",United States,,,,
IBS 2022,"02/08/2022",2022,https://www.buildersshow.com/,DM,Masonite International Corporation,3101,,http://www.masonite.com,,,,"Tampa, FL United States",United States,,,,
IBS 2022,"02/08/2022",2022,https://www.buildersshow.com/,DM,MASISA S.A.,1033,,http://www.masisa.com/eng/,,,,"Santiago, Chile",Chile,,,,
IBS 2022,"02/08/2022",2022,https://www.buildersshow.com/,DM,Marwin,4235,,http://www.marwincompany.com,,,,"West Columbia, SC United States",United States,,,,
IBS 2022,"02/08/2022",2022,https://www.buildersshow.com/,DM,"Massey Services, Inc.",1325,,http://www.masseyservices.com,,,,"Orlando, FL United States",United States,,,,
IBS 2022,"02/08/2022",2022,https://www.buildersshow.com/,DM,Microfiltration Gutter Products/MGP Manufacturing,7660,,http://www.micromeshgutterguards.com,,,,"Paterson, NJ United States",United States,,,,
IBS 2022,"02/08/2022",2022,https://www.buildersshow.com/,DM,Mail America,3118,,http://www.mailamerica.com,,,,"Wheeling, WV United States",United States,,,,
IBS 2022,"02/08/2022",2022,https://www.buildersshow.com/,DM,M.T. Copeland,5984,,http://www.mtcopeland.com,,,,"New York, NY United States",United States,,,,
IBS 2022,"02/08/2022",2022,https://www.buildersshow.com/,DM,Mactac,1235,,http://www.mactac.com/industrialtapes,,,,"Stow, OH United States",United States,,,,
IBS 2022,"02/08/2022",2022,https://www.buildersshow.com/,DM,ManoByte,6290,,http://www.manobyte.com,,,,"Grand Rapids, MI United States",United States,,,,
IBS 2022,"02/08/2022",2022,https://www.buildersshow.com/,DM,Lowe's Pro,4053,,http://www.lowesforpros.com,,,,"Mooresville, NC United States",United States,,,,
IBS 2022,"02/08/2022",2022,https://www.buildersshow.com/,DM,LP Building Solutions,3321,,http://www.lpcorp.com,,,,"Nashville, TN United States",United States,,,,
IBS 2022,"02/08/2022",2022,https://www.buildersshow.com/,DM,LYNK Capital,6356,,http://www.lynkcapital.com,,,,"Raleigh, NC United States",United States,,,,
IBS 2022,"02/08/2022",2022,https://www.buildersshow.com/,DM,Lok-N-Blok,1603,,http://www.lok-n-blok.com,,,,"Paducah, KY United States",United States,,,,
IBS 2022,"02/08/2022",2022,https://www.buildersshow.com/,DM,Littler,2720,,http://www.littler.com,,,,"McLean, VA United States",United States,,,,
IBS 2022,"02/08/2022",2022,https://www.buildersshow.com/,DM,LJP Construction Services,306,,http://www.ljpltd.com,,,,"Irvine, CA United States",United States,,,,
IBS 2022,"02/08/2022",2022,https://www.buildersshow.com/,DM,Livable House Plans a Division of MJS Designers Group,7283,,http://www.mjsdesignersgroup.com,,,,"Altamonte Springs, FL United States",United States,,,,
IBS 2022,"02/08/2022",2022,https://www.buildersshow.com/,DM,Manoel Marchetti Ind E Com Ltda,7845,,http://www.marchetti.ind.br/,,,,"Ibirama, Brazil",Brazil,,,,
IBS 2022,"02/08/2022",2022,https://www.buildersshow.com/,DM,Little Giant Ladder Systems,3020,,http://www.littlegiantladders.com,,,,"Springville, UT United States",United States,,,,
IBS 2022,"02/08/2022",2022,https://www.buildersshow.com/,DM,LL Flooring,8164,,http://www.llflooring.com,,,,"Richmond, VA United States",United States,,,,
IBS 2022,"02/08/2022",2022,https://www.buildersshow.com/,DM,LiftMaster,6943,,http://www.liftmaster.com,,,,"Oak Brook, IL United States",United States,,,,
IBS 2022,"02/08/2022",2022,https://www.buildersshow.com/,DM,Lima One Captial,7441,,http://www.limaone.com,,,,"Greenville, SC United States",United States,,,,
IBS 2022,"02/08/2022",2022,https://www.buildersshow.com/,DM,Linear Slot Diffusers,1538,,http://linearslotdiffusers.com,,,,"Mcallen, TX United States",United States,,,,
IBS 2022,"02/08/2022",2022,https://www.buildersshow.com/,DM,Lift & Shift Inc.,4149,,http://www.lift-and-shift.com,,,,"Toronto, ON Canada",Canada,,,,
IBS 2022,"02/08/2022",2022,https://www.buildersshow.com/,DM,Lifetime Coatings LLC,7541,,http://www.lifetimegreencoatings.com,,,,"Denver, CO United States",United States,,,,
IBS 2022,"02/08/2022",2022,https://www.buildersshow.com/,DM,LGCY Power,8064,,http://www.lgcypower.com,,,,"Lehi, UT United States",United States,,,,
IBS 2022,"02/08/2022",2022,https://www.buildersshow.com/,DM,LEVOLOR,5353,,http://levolor.com/commercial,,,,"McKinney, TX United States",United States,,,,
IBS 2022,"02/08/2022",2022,https://www.buildersshow.com/,DM,Lennox,3771,,http://www.lennox.com,,,,"Richardson, TX United States",United States,,,,
IBS 2022,"02/08/2022",2022,https://www.buildersshow.com/,DM,Lepage Millwork,3963,,http://www.lepagemillwork.com,,,,"Riviere du Loup, QC Canada",Canada,,,,
IBS 2022,"02/08/2022",2022,https://www.buildersshow.com/,DM,LiteForm Technologies,1623,,http://www.liteform.com,,,,"South Sioux City, NE United States",United States,,,,
IBS 2022,"02/08/2022",2022,https://www.buildersshow.com/,DM,Lincoln Windows,3133,,http://www.lincolnwindows.com,,,,"Merrill, WI United States",United States,,,,
IBS 2022,"02/08/2022",2022,https://www.buildersshow.com/,DM,"Lawson Industries, Inc.",3491,,http://www.lawsonwindows.com,,,,"Medley, FL United States",United States,,,,
IBS 2022,"02/08/2022",2022,https://www.buildersshow.com/,DM,Lanai Doors,7983,,http://www.lanaidoors.com,,,,"Orange, CA United States",United States,,,,
IBS 2022,"02/08/2022",2022,https://www.buildersshow.com/,DM,LAI Design Group,6687,,http://www.laidesigngroup.com,,,,"Englewood, CO United States",United States,,,,
IBS 2022,"02/08/2022",2022,https://www.buildersshow.com/,DM,Legrand,5971,,http://www.legrand.us,,,,"West Hartford, CT United States",United States,,,,
IBS 2022,"02/08/2022",2022,https://www.buildersshow.com/,DM,Mbrico Tile Decks,7951,,http://www.mbricotiledecks.com,,,,"Bettendorf, IA United States",United States,,,,
IBS 2022,"02/08/2022",2022,https://www.buildersshow.com/,DM,Kuberit USA  LLC,2234,,https://kuberitusa.com/,,,,"Florence, AL United States",United States,,,,
IBS 2022,"02/08/2022",2022,https://www.buildersshow.com/,DM,Kurtoglu Bakir Kursun San Tic A.S.,2210,,http://www.kurtogluas.com,,,,"Tekirdag,",,,,,
IBS 2022,"02/08/2022",2022,https://www.buildersshow.com/,DM,Labor Finders,2836,,http://www.laborfinders.com,,,,"Palm Beach Gardens, FL United States",United States,,,,
IBS 2022,"02/08/2022",2022,https://www.buildersshow.com/,DM,L&W Supply,3132,,,,,,"Chicago, IL United States",United States,,,,
IBS 2022,"02/08/2022",2022,https://www.buildersshow.com/,DM,KVAL Inc,1337,,https://www.kvalinc.com,,,,"Petaluma, CA United States",United States,,,,
IBS 2022,"02/08/2022",2022,https://www.buildersshow.com/,DM,Litecon Corp.,1734,,http://www.aircreteaac.com,,,,"Cuidad de Mexico, United States",United States,,,,
IBS 2022,"02/08/2022",2022,https://www.buildersshow.com/,DM,Key-Link Fencing & Railing,1416,,http://www.superiorplasticproducts.com,,,,"New Holland, PA United States",United States,,,,
IBS 2022,"02/08/2022",2022,https://www.buildersshow.com/,DM,King Architectural Metals,1225,,http://www.kingmetals.com,,,,"Dallas, TX United States",United States,,,,
IBS 2022,"02/08/2022",2022,https://www.buildersshow.com/,DM,Kevin's Worldwide,1218,,https://www.kevinsww.com,,,,"Scranton, PA United States",United States,,,,
IBS 2022,"02/08/2022",2022,https://www.buildersshow.com/,DM,KEFOR,4047,,http://www.kefor.com,,,,"Saint-Isidore-de-Laprairie, QC Canada",Canada,,,,
IBS 2022,"02/08/2022",2022,https://www.buildersshow.com/,DM,Keene Building Products Dependable LLC,623,,http://www.keenebuilding.com,,,,"Cleveland, OH United States",United States,,,,
IBS 2022,"02/08/2022",2022,https://www.buildersshow.com/,DM,Kolbe Windows and Doors,3600,,http://www.kolbewindows.com,,,,"Wausau, WI United States",United States,,,,
IBS 2022,"02/08/2022",2022,https://www.buildersshow.com/,DM,Magnum Board Products,8092,,http://www.magnumbp.com/index.html,,,,"Wellesley Island, FL United States",United States,,,,
IBS 2022,"02/08/2022",2022,https://www.buildersshow.com/,DM,"Kasco Marine, Inc",3432,,http://www.kascomarine.com,,,,"Prescott, WI United States",United States,,,,
IBS 2022,"02/08/2022",2022,https://www.buildersshow.com/,DM,Kronos USA,3537,,http://www.kronos-usa.com,,,,"Clarksville, TN United States",United States,,,,
IBS 2022,"02/08/2022",2022,https://www.buildersshow.com/,DM,Jura Films North America. LLC,5588,,http://www.jurafilms.com,,,,"Addison, IL United States",United States,,,,
IBS 2022,"02/08/2022",2022,https://www.buildersshow.com/,DM,Joseph A. Thomas Ltd. / Bad Dog Tools,7272,,http://www.baddogtools.com,,,,"Bristol, RI United States",United States,,,,
IBS 2022,"02/08/2022",2022,https://www.buildersshow.com/,DM,Johnson Controls Inc.,4283,,http://www.johnsoncontrols.com,,,,"Norman, OK United States",United States,,,,
IBS 2022,"02/08/2022",2022,https://www.buildersshow.com/,DM,Jutesan Aluminyum Profil Imalay San. Ve Tic. A.S.,3606,,http://www.jutesan.com.tr,,,,"ISTANBUL, Turkey",Turkey,,,,
IBS 2022,"02/08/2022",2022,https://www.buildersshow.com/,DM,JobTread Software,6652,,https://www.jobtread.com/,,,,"Richardson, TX United States",United States,,,,
IBS 2022,"02/08/2022",2022,https://www.buildersshow.com/,DM,Leviton,6782,,http://www.leviton.com,,,,"Melville, NY United States",United States,,,,
IBS 2022,"02/08/2022",2022,https://www.buildersshow.com/,DM,Johns Manville,3983,,http://www.jm.com,,,,"Denver, CO United States",United States,,,,
IBS 2022,"02/08/2022",2022,https://www.buildersshow.com/,DM,"JB Cables, LLC",5793,,http://jbcables.com,,,,"Crofton, MD United States",United States,,,,
IBS 2022,"02/08/2022",2022,https://www.buildersshow.com/,DM,Istanbul Ferrous and Non-Ferrous Metals Exporters’ Association,2616,,http://www.turkishmetals.org,,,,"Istanbul,",,,,,
IBS 2022,"02/08/2022",2022,https://www.buildersshow.com/,DM,James Hardie Building Products,3701,,http://www.jameshardie.com,,,,"Mission Viejo, CA United States",United States,,,,
IBS 2022,"02/08/2022",2022,https://www.buildersshow.com/,DM,Kew Labs,6074,,http://www.kewlabstech.com,,,,"Twinsburg, OH United States",United States,,,,
IBS 2022,"02/08/2022",2022,https://www.buildersshow.com/,DM,Intuit QuickBooks,6183,,https://quickbooks.intuit.com/desktop/enterprise/industry-solutions/manufacturing/,,,,"Mountain View, CA United States",United States,,,,
IBS 2022,"02/08/2022",2022,https://www.buildersshow.com/,DM,"Jiaxing Gold Lion Decoration Material Co., Ltd.",4391,,http://www.spcfloors.cn,,,,"Jiaxing, Zhejiang,",,,,,
IBS 2022,"02/08/2022",2022,https://www.buildersshow.com/,DM,Jain America Holdings Inc.,1428,,http://www.jainbuildingproducts.com,,,,"Chicopee, MA United States",United States,,,,
IBS 2022,"02/08/2022",2022,https://www.buildersshow.com/,DM,Jasco Products Company,6957,,https://byjasco.com/,,,,"Oklahoma City, OK United States",United States,,,,
IBS 2022,"02/08/2022",2022,https://www.buildersshow.com/,DM,iQ Power Tools,1831,,http://www.iqpowertools.com,,,,"Moreno Valley, CA United States",United States,,,,
IBS 2022,"02/08/2022",2022,https://www.buildersshow.com/,DM,Kafka Granite LLC,5191,,http://www.kafkagranite.com,,,,"Mosinee, WI United States",United States,,,,
IBS 2022,"02/08/2022",2022,https://www.buildersshow.com/,DM,ISI Building Products,1310,,http://www.isibp.com,,,,"East Peoria, IL United States",United States,,,,
IBS 2022,"02/08/2022",2022,https://www.buildersshow.com/,DM,Insearch Interactive,6182,,http://insearchinteractive.com,,,,"Reno, NV United States",United States,,,,
IBS 2022,"02/08/2022",2022,https://www.buildersshow.com/,DM,Insulspan® Structural Insulating Panels,826,,http://www.insulspan.com,,,,"Blissfield, MI United States",United States,,,,
IBS 2022,"02/08/2022",2022,https://www.buildersshow.com/,DM,Inteplast Building Products,7553,,http://www.inteplastbuild.com,,,,"Livingston, NJ United States",United States,,,,
IBS 2022,"02/08/2022",2022,https://www.buildersshow.com/,DM,K10 European Collection,1618,,http://www.uniquesurface.com,,,,"Elkhorn, WI United States",United States,,,,
IBS 2022,"02/08/2022",2022,https://www.buildersshow.com/,DM,Indital US,5647,,http://www.indital.com,,,,"Houston, TX United States",United States,,,,
IBS 2022,"02/08/2022",2022,https://www.buildersshow.com/,DM,Innovative Insulation Inc.,1223,,http://www.radiantbarrier.com,,,,"Arlington, TX United States",United States,,,,
IBS 2022,"02/08/2022",2022,https://www.buildersshow.com/,DM,Impresa Modular,6983,,http://expressmodularfranchising.com,,,,"Mount Juliet, TN United States",United States,,,,
IBS 2022,"02/08/2022",2022,https://www.buildersshow.com/,DM,International Wholesale Tile - Tesoro,3311,,http://www.internationalwholesaletile.com,,,,"Palm City, FL United States",United States,,,,
IBS 2022,"02/08/2022",2022,https://www.buildersshow.com/,DM,Infratech,3336,,http://infratech-usa.com,,,,"Gardena, CA United States",United States,,,,
IBS 2022,"02/08/2022",2022,https://www.buildersshow.com/,DM,Inclinator Co. Of America,7883,,http://www.inclinator.com,,,,"Harrisburg, PA United States",United States,,,,
IBS 2022,"02/08/2022",2022,https://www.buildersshow.com/,DM,Interior Logic Group,6971,,http://www.interiorlogicgroup.com,,,,"Irvine, CA United States",United States,,,,
IBS 2022,"02/08/2022",2022,https://www.buildersshow.com/,DM,IC COMPLEX Sp. z o.o.,7086,,https://iccomplex.cloud/,,,,"Rzeszów, Poland",Poland,,,,
IBS 2022,"02/08/2022",2022,https://www.buildersshow.com/,DM,iDevices,5771,,http://idevicesinc.com,,,,"Avon, CT United States",United States,,,,
IBS 2022,"02/08/2022",2022,https://www.buildersshow.com/,DM,IAPMO Uniform Evaluation Services,6083,,http://www.uniform-es.org,,,,"Ontario, CA United States",United States,,,,
IBS 2022,"02/08/2022",2022,https://www.buildersshow.com/,DM,Hyphen Solutions LLC,6771,,http://www.hyphensolutions.com,,,,"Dallas, TX United States",United States,,,,
IBS 2022,"02/08/2022",2022,https://www.buildersshow.com/,DM,Hurst Hardwoods LLC,2937,,http://hursthardwoods.com,,,,"Tampa, FL United States",United States,,,,
IBS 2022,"02/08/2022",2022,https://www.buildersshow.com/,DM,Imperial Mailbox Systems,4693,,http://www.imperialmailboxsystems.com,,,,"Millbrook, AL United States",United States,,,,
IBS 2022,"02/08/2022",2022,https://www.buildersshow.com/,DM,Infinity Massage Chairs - I.C.E,1031,,http://www.infinitymassagechairs.com,,,,"Seabrook, NH United States",United States,,,,
IBS 2022,"02/08/2022",2022,https://www.buildersshow.com/,DM,Human Touch,2221,,http://www.humantouch.com,,,,"Long Beach, CA United States",United States,,,,
IBS 2022,"02/08/2022",2022,https://www.buildersshow.com/,DM,H-P Products Central Vacuums,6886,,http://www.smartcentralvac.com,,,,"Louisville, OH United States",United States,,,,
IBS 2022,"02/08/2022",2022,https://www.buildersshow.com/,DM,Hydro Shield,1228,,http://www.hydroshield.com,,,,"South Jordan, UT United States",United States,,,,
IBS 2022,"02/08/2022",2022,https://www.buildersshow.com/,DM,Hotwire Communications,7893,,http://www.hotwirecommunications.com,,,,"Fort Lauderdale, FL United States",United States,,,,
IBS 2022,"02/08/2022",2022,https://www.buildersshow.com/,DM,hydroPAVERS INC.,3437,,http://www.hydropavers.ca,,,,"Pickering, ON Canada",Canada,,,,
IBS 2022,"02/08/2022",2022,https://www.buildersshow.com/,DM,HomeTeam Pest Defense,5443,,http://www.pestdefense.com,,,,"Spring, TX United States",United States,,,,
IBS 2022,"02/08/2022",2022,https://www.buildersshow.com/,DM,Huber Engineered Woods,3652,,http://www.huberwood.com,,,,"Charlotte, NC United States",United States,,,,
IBS 2022,"02/08/2022",2022,https://www.buildersshow.com/,DM,Icon Best,3347,,http://www.iconbest.com,,,,"Mississauga, ON Canada",Canada,,,,
IBS 2022,"02/08/2022",2022,https://www.buildersshow.com/,DM,Houzz,3971,,http://www.houzz.com,,,,"Palo Alto, CA United States",United States,,,,
IBS 2022,"02/08/2022",2022,https://www.buildersshow.com/,DM,ICC-ES,5143,,http://www.icc-es.org,,,,"Brea, CA United States",United States,,,,
IBS 2022,"02/08/2022",2022,https://www.buildersshow.com/,DM,High Tech Pet Products,5589,,http://www.hitecpet.com,,,,"Ventura, CA United States",United States,,,,
IBS 2022,"02/08/2022",2022,https://www.buildersshow.com/,DM,Hearth & Home Technologies,2920,,http://www.fireplaces.com,,,,"Lakeville, MN United States",United States,,,,
IBS 2022,"02/08/2022",2022,https://www.buildersshow.com/,DM,HomeEasy Ltd,2837,,http://www.homeeasy.net,,,,"Fairfield, NJ United States",United States,,,,
IBS 2022,"02/08/2022",2022,https://www.buildersshow.com/,DM,Home Builders Financial Partners,5989,,http://www.hbfpllc.com,,,,"Charleston, SC United States",United States,,,,
IBS 2022,"02/08/2022",2022,https://www.buildersshow.com/,DM,HB&G Building Products Inc.,1000,,http://www.hbgcolumns.com,,,,"Troy, AL United States",United States,,,,
IBS 2022,"02/08/2022",2022,https://www.buildersshow.com/,DM,Health and Beauty Connection,2631,,http://hnbconnection.com,,,,"Jacksonville, FL United States",United States,,,,
IBS 2022,"02/08/2022",2022,https://www.buildersshow.com/,DM,Huntsman Building Solutions,1,,https://huntsmanbuildingsolutions.com/en-us/,,,,"Arlington, TX United States",United States,,,,
IBS 2022,"02/08/2022",2022,https://www.buildersshow.com/,DM,Hardie Boys Inc.,3353,,http://www.hardieboysinc.com,,,,"Pompano, FL United States",United States,,,,
IBS 2022,"02/08/2022",2022,https://www.buildersshow.com/,DM,HBI,632,,http://www.hbi.org,,,,"Washington, DC United States",United States,,,,
IBS 2022,"02/08/2022",2022,https://www.buildersshow.com/,DM,Hans Building Material Technology Co. Inc,4377,,,,,,"Houston, TX United States",United States,,,,
IBS 2022,"02/08/2022",2022,https://www.buildersshow.com/,DM,"Hangzhou Oushukang Sanitary Ware Co., Ltd",2313,,http://www.osk.cn,,,,"Hangzhou, Zhejiang,",,,,,
IBS 2022,"02/08/2022",2022,https://www.buildersshow.com/,DM,"Hands-On Safety Training, LLC",2821,,http://hands-onsafetytraining.com,,,,"Kennesaw, GA United States",United States,,,,
IBS 2022,"02/08/2022",2022,https://www.buildersshow.com/,DM,"Gutterglove, Inc.",508,,http://www.gutterglove.com,,,,"Roseville, CA United States",United States,,,,
IBS 2022,"02/08/2022",2022,https://www.buildersshow.com/,DM,Gunkem Gunduz Kimyevi Mad. Ith. San. ve Tic. A.S.,2314,,http://www.gunkem.com.tr,,,,"Istanbul,",,,,,
IBS 2022,"02/08/2022",2022,https://www.buildersshow.com/,DM,Helix Steel,3210,,https://www.helixsteel.com/,,,,"Ann Arbor, MI United States",United States,,,,
IBS 2022,"02/08/2022",2022,https://www.buildersshow.com/,DM,"Hans Intech Co., LTD",2438,,http://www.hanschem.co.kr,,,,"Daegu, Dong-GU,",,,,,
IBS 2022,"02/08/2022",2022,https://www.buildersshow.com/,DM,Grad Concept Inc.,3531,,https://us.gradconcept.com,,,,"Liepvre, France",France,,,,
IBS 2022,"02/08/2022",2022,https://www.buildersshow.com/,DM,Greenstone Slate Company,5748,,http://www.greenstoneslate.com,,,,"Poultney, VT United States",United States,,,,
IBS 2022,"02/08/2022",2022,https://www.buildersshow.com/,DM,GTR Technologies Inc.,3315,,http://www.reventfans.com,,,,"Gig Harbor, WA United States",United States,,,,
IBS 2022,"02/08/2022",2022,https://www.buildersshow.com/,DM,GPI Group,2037,,http://www.gpigroup.us,,,,"Tucker, GA United States",United States,,,,
IBS 2022,"02/08/2022",2022,https://www.buildersshow.com/,DM,IBS Oasis,6,,,,,,"Washington, DC United States",United States,,,,
IBS 2022,"02/08/2022",2022,https://www.buildersshow.com/,DM,"Hope's Windows, Inc.",828,,http://www.hopeswindows.com,,,,"Jamestown, NY United States",United States,,,,
IBS 2022,"02/08/2022",2022,https://www.buildersshow.com/,DM,Glazelock Inc.,1625,,http://www.glazelockshims.com,,,,"Kankakee, IL United States",United States,,,,
IBS 2022,"02/08/2022",2022,https://www.buildersshow.com/,DM,Glasshouse Technologies LLC,6357,,https://glasshouse.build/,,,,"Lancaster, PA United States",United States,,,,
IBS 2022,"02/08/2022",2022,https://www.buildersshow.com/,DM,GlassCraft Door Company,7653,,http://www.glasscraft.com,,,,"Houston, TX United States",United States,,,,
IBS 2022,"02/08/2022",2022,https://www.buildersshow.com/,DM,Gold Heat,3027,,http://www.goldheat.com,,,,"Hillsboro, OR United States",United States,,,,
IBS 2022,"02/08/2022",2022,https://www.buildersshow.com/,DM,"Hearthstone, Inc.",2133,,http://www.hearthstonehomes.com,,,,"Newport, TN United States",United States,,,,
IBS 2022,"02/08/2022",2022,https://www.buildersshow.com/,DM,"GetTheReferral.com, Inc.",5982,,http://www.getthereferral.com,,,,"San Diego, CA United States",United States,,,,
IBS 2022,"02/08/2022",2022,https://www.buildersshow.com/,DM,"GreenSky, LLC",6077,,http://www.greensky.com,,,,"Atlanta, GA United States",United States,,,,
IBS 2022,"02/08/2022",2022,https://www.buildersshow.com/,DM,Genstone Products,1938,,http://www.genstone.com,,,,"Littleton, CO United States",United States,,,,
IBS 2022,"02/08/2022",2022,https://www.buildersshow.com/,DM,Glasrail,3536,,http://www.glasrail.com,,,,"Deerfield Beach, FL United States",United States,,,,
IBS 2022,"02/08/2022",2022,https://www.buildersshow.com/,DM,"Genesis Studios, Inc.",6088,,http://www.genesisstudios.com,,,,"Maitland, FL United States",United States,,,,
IBS 2022,"02/08/2022",2022,https://www.buildersshow.com/,DM,GuildQuality,6743,,http://www.guildquality.com,,,,"Atlanta, GA United States",United States,,,,
IBS 2022,"02/08/2022",2022,https://www.buildersshow.com/,DM,General Finishes,1236,,https://generalfinishes.com/,,,,"East Troy, WI United States",United States,,,,
IBS 2022,"02/08/2022",2022,https://www.buildersshow.com/,DM,Gen Steel de Mexico S.A. de C.V.,1410,,http://www.gensteel.com.mx,,,,"Juarez, Nuevo Leon, United States",United States,,,,
IBS 2022,"02/08/2022",2022,https://www.buildersshow.com/,DM,GE Appliances,2500,,http://www.geappliances.com,,,,"Louisville, KY United States",United States,,,,
IBS 2022,"02/08/2022",2022,https://www.buildersshow.com/,DM,Garaventa Lift and Elevator,2810,,http://www.garaventalift.com,,,,"Surrey, BC Canada",Canada,,,,
IBS 2022,"02/08/2022",2022,https://www.buildersshow.com/,DM,Garage Royalty Products Inc.,2818,,http://www.garageroyalty.com,,,,"North York, ON Canada",Canada,,,,
IBS 2022,"02/08/2022",2022,https://www.buildersshow.com/,DM,GAF MATERIALS CORPORATION,4033,,http://www.gaf.com,,,,"Parsippany, NJ United States",United States,,,,
IBS 2022,"02/08/2022",2022,https://www.buildersshow.com/,DM,Gaco,1023,,http://www.gaco.com,,,,"Nashville, TN United States",United States,,,,
IBS 2022,"02/08/2022",2022,https://www.buildersshow.com/,DM,GL LED LLC,7382,,http://www.glledus.com,,,,"Chicago, IL United States",United States,,,,
IBS 2022,"02/08/2022",2022,https://www.buildersshow.com/,DM,Fusion Bowling,812,,http://www.fusionbowling.com,,,,"Ponte Vedra, FL United States",United States,,,,
IBS 2022,"02/08/2022",2022,https://www.buildersshow.com/,DM,Fusion Flatworks,3613,,http://www.fusionflatworks.com,,,,"Grants Pass, OR United States",United States,,,,
IBS 2022,"02/08/2022",2022,https://www.buildersshow.com/,DM,Genuwine Cellars Inc.,5953,,http://www.genuwinecellars.com,,,,"Winnipeg, MB Canada",Canada,,,,
IBS 2022,"02/08/2022",2022,https://www.buildersshow.com/,DM,Global DEC-K-ING Systems,4049,,http://www.globaldecking.com/,,,,"Surrey, BC Canada",Canada,,,,
IBS 2022,"02/08/2022",2022,https://www.buildersshow.com/,DM,"Fujimi, Inc",2640,,http://www.fujimi.us,,,,"Santa Fe Springs, CA United States",United States,,,,
IBS 2022,"02/08/2022",2022,https://www.buildersshow.com/,DM,FrameCAD America Inc.,6961,,http://www.framecad.com,,,,"Las Vegas, NV United States",United States,,,,
IBS 2022,"02/08/2022",2022,https://www.buildersshow.com/,DM,Generation Lighting,2584,,http://www.generationlighting.com,,,,"Skokie, IL United States",United States,,,,
IBS 2022,"02/08/2022",2022,https://www.buildersshow.com/,DM,"Forest Products Distributors, Inc",8170,,http://www.forpd.com,,,,"Rapid City, SD United States",United States,,,,
IBS 2022,"02/08/2022",2022,https://www.buildersshow.com/,DM,Foundation Building Materials,7746,,http://www.fbmsales.com,,,,"Santa Ana, CA United States",United States,,,,
IBS 2022,"02/08/2022",2022,https://www.buildersshow.com/,DM,G.E.M. Inc./Euroshield,3953,,http://www.euroshieldroofing.com,,,,"Calgary, AB Canada",Canada,,,,
IBS 2022,"02/08/2022",2022,https://www.buildersshow.com/,DM,Ford Commercial Vehicles,3371,,http://www.fleet.ford.com,,,,"Dearborn, MI United States",United States,,,,
IBS 2022,"02/08/2022",2022,https://www.buildersshow.com/,DM,Franklin International,8,,http://www.titbond.com,,,,"Columbus, OH United States",United States,,,,
IBS 2022,"02/08/2022",2022,https://www.buildersshow.com/,DM,Fresh Portal,5691,,http://www.freshportal.us,,,,"Pacific Grove, CA United States",United States,,,,
IBS 2022,"02/08/2022",2022,https://www.buildersshow.com/,DM,Florida Power Management,5889,,http://floridapowermanagement.com,,,,"Winter Garden, FL United States",United States,,,,
IBS 2022,"02/08/2022",2022,https://www.buildersshow.com/,DM,FODS Reusable Construction Exit Mats,408,,http://www.getfods.com,,,,"Englewood, CO United States",United States,,,,
IBS 2022,"02/08/2022",2022,https://www.buildersshow.com/,DM,FlowGuard Gold Plumbing Systems,2420,,http://www.flowguardgold.com,,,,"Brecksville, OH United States",United States,,,,
IBS 2022,"02/08/2022",2022,https://www.buildersshow.com/,DM,FLOORMAX DIRECT,3018,,http://www.floormaxdirect.com,,,,"Dalton, GA United States",United States,,,,
IBS 2022,"02/08/2022",2022,https://www.buildersshow.com/,DM,Fireplace Xtrordinair,3383,,http://www.travisproducts.com,,,,"Mukilteo, WA United States",United States,,,,
IBS 2022,"02/08/2022",2022,https://www.buildersshow.com/,DM,Finance of America Commercial,7063,,http://www.foacommercial.com,,,,"Indian Trail, NC United States",United States,,,,
IBS 2022,"02/08/2022",2022,https://www.buildersshow.com/,DM,Fuji Cyber Relax,7989,,http://www.drfuji.com,,,,"Fremont, CA United States",United States,,,,
IBS 2022,"02/08/2022",2022,https://www.buildersshow.com/,DM,Fibo AS,1820,,http://www.fibosystemusa.com,,,,"Lyngdal, Norway",Norway,,,,
IBS 2022,"02/08/2022",2022,https://www.buildersshow.com/,DM,Fleetwood Windows and Doors,6143,,http://www.fleetwoodusa.com,,,,"Corona, CA United States",United States,,,,
IBS 2022,"02/08/2022",2022,https://www.buildersshow.com/,DM,Gensa Aluminyum Sanayi ve Ticaret A.S.,1008,,http://www.gensaaluminyum.com.tr,,,,"Kocaeli, Turkey",Turkey,,,,
IBS 2022,"02/08/2022",2022,https://www.buildersshow.com/,DM,Floor & Decor,3171,,http://www.flooranddecor.com,,,,"Atlanta, GA United States",United States,,,,
IBS 2022,"02/08/2022",2022,https://www.buildersshow.com/,DM,"Fiber Fast Homes, LLC",5888,,http://www.fiberfasthomes.com,,,,"Centennial, CO United States",United States,,,,
IBS 2022,"02/08/2022",2022,https://www.buildersshow.com/,DM,"Foresite Technology Solutions, LLC",625,,http://www.foresite.tech,,,,"Ft. Lauderdale, FL United States",United States,,,,
IBS 2022,"02/08/2022",2022,https://www.buildersshow.com/,DM,"Feeney, Inc.",3440,,http://www.feeneyinc.com,,,,"Oakland, CA United States",United States,,,,
IBS 2022,"02/08/2022",2022,https://www.buildersshow.com/,DM,Florida Paints,3013,,http://www.floridapaints.com,,,,"Winter Garden, FL United States",United States,,,,
IBS 2022,"02/08/2022",2022,https://www.buildersshow.com/,DM,First Impressions International,2841,,http://www.firstimpressionsint.com,,,,"Deerfield Beach, FL United States",United States,,,,
IBS 2022,"02/08/2022",2022,https://www.buildersshow.com/,DM,EZ Taping System,1324,,http://www.e-ztape.com,,,,"Green Bay, WI United States",United States,,,,
IBS 2022,"02/08/2022",2022,https://www.buildersshow.com/,DM,Exults,6491,,http://www.exults.com,,,,"Fort Lauderdale, FL United States",United States,,,,
IBS 2022,"02/08/2022",2022,https://www.buildersshow.com/,DM,FEMA,6977,,http://www.fema.gov,,,,"Washington, DC United States",United States,,,,
IBS 2022,"02/08/2022",2022,https://www.buildersshow.com/,DM,EvoCharge (Phillips & Temro),5892,,http://www.phillipsandtemro.com,,,,"Eden Prairie, MN United States",United States,,,,
IBS 2022,"02/08/2022",2022,https://www.buildersshow.com/,DM,Fabal Aluminyum San. Ve Tic. A.S.,2022,,http://www.fabal.com.tr,,,,"Istanbul, AL United States",United States,,,,
IBS 2022,"02/08/2022",2022,https://www.buildersshow.com/,DM,"Fi-Foil Company, Inc.",2425,,http://www.fifoil.com,,,,"Auburndale, FL United States",United States,,,,
IBS 2022,"02/08/2022",2022,https://www.buildersshow.com/,DM,Estwing Mfg. Co.,1013,,http://www.estwing.com,,,,"Rockford, IL United States",United States,,,,
IBS 2022,"02/08/2022",2022,https://www.buildersshow.com/,DM,Euclid Chemical,3133,,http://www.euclidchemical.com,,,,"Cleveland, OH United States",United States,,,,
IBS 2022,"02/08/2022",2022,https://www.buildersshow.com/,DM,EZ-Flo International,2223,,http://www.ez-flo.net,,,,"Ontario, CA United States",United States,,,,
IBS 2022,"02/08/2022",2022,https://www.buildersshow.com/,DM,FEI Group,7561,,http://feigroup.net,,,,"Marietta, GA United States",United States,,,,
IBS 2022,"02/08/2022",2022,https://www.buildersshow.com/,DM,Epilay Inc.,2040,,http://www.epilay.com,,,,"Carson, CA United States",United States,,,,
IBS 2022,"02/08/2022",2022,https://www.buildersshow.com/,DM,Fakro America LLC,3047,,http://www.fakrousa.com,,,,"Addison, IL United States",United States,,,,
IBS 2022,"02/08/2022",2022,https://www.buildersshow.com/,DM,Environmental Lights,5686,,https://www.environmentallights.com,,,,"San Diego, CA United States",United States,,,,
IBS 2022,"02/08/2022",2022,https://www.buildersshow.com/,DM,Evolve Stone,7789,,http://www.evolvestone.com,,,,"Winchester, VA United States",United States,,,,
IBS 2022,"02/08/2022",2022,https://www.buildersshow.com/,DM,Enginuity Power Systems,2331,,http://www.enginuitypowersystems.com,,,,"Alexandria, VA United States",United States,,,,
IBS 2022,"02/08/2022",2022,https://www.buildersshow.com/,DM,"Equipter,  LLC",3022,,http://www.equipter.com,,,,"Leola, PA United States",United States,,,,
IBS 2022,"02/08/2022",2022,https://www.buildersshow.com/,DM,Environment One Corporation,4643,,http://www.eone.com,,,,"Niskayuna, NY United States",United States,,,,
IBS 2022,"02/08/2022",2022,https://www.buildersshow.com/,DM,Emser Tile,4083,,http://www.emsertile.com,,,,"Los Angeles, CA United States",United States,,,,
IBS 2022,"02/08/2022",2022,https://www.buildersshow.com/,DM,Energy Saving Products Ltd.,3057,,http://www.hi-velocity.com,,,,"Edmonton, AB Canada",Canada,,,,
IBS 2022,"02/08/2022",2022,https://www.buildersshow.com/,DM,Endura Products,3670,,http://www.enduraproducts.com,,,,"Colfax, NC United States",United States,,,,
IBS 2022,"02/08/2022",2022,https://www.buildersshow.com/,DM,"Electro Plastics, Inc.",4788,,http://www.warmfloor.com,,,,"Maryland Heights, MO United States",United States,,,,
IBS 2022,"02/08/2022",2022,https://www.buildersshow.com/,DM,Ekstek Aluminyum Profil Kal. San. Tic. Ltd. Sti.,1918,,http://www.ekstek.com.tr,,,,"Kocaeli, Turkey",Turkey,,,,
IBS 2022,"02/08/2022",2022,https://www.buildersshow.com/,DM,EDCO Products Inc.,1616,,http://www.edcoproducts.com,,,,"Hopkins, MN United States",United States,,,,
IBS 2022,"02/08/2022",2022,https://www.buildersshow.com/,DM,Eko-Okna S.A.,7771,,https://ekookna.us/usa/,,,,"Pietrowice Wielkie,",,,,,
IBS 2022,"02/08/2022",2022,https://www.buildersshow.com/,DM,ETi Solid State Lighting Inc.,8265,,http://www.etissl.com,,,,"Wheeling, IL United States",United States,,,,
IBS 2022,"02/08/2022",2022,https://www.buildersshow.com/,DM,Enviroshake,3063,,http://www.enviroshake.com,,,,"Chatham, ON Canada",Canada,,,,
IBS 2022,"02/08/2022",2022,https://www.buildersshow.com/,DM,EcoStar LLC,4201,,http://www.ecostarllc.com,,,,"Holland, NY United States",United States,,,,
IBS 2022,"02/08/2022",2022,https://www.buildersshow.com/,DM,Federal Brace,1135,,http://www.federalbrace.com,,,,"Belmont, NC United States",United States,,,,
IBS 2022,"02/08/2022",2022,https://www.buildersshow.com/,DM,ECI Software Solutions,6161,,http://www.ecisolutions.com,,,,"Fort Worth, TX United States",United States,,,,
IBS 2022,"02/08/2022",2022,https://www.buildersshow.com/,DM,Eaton,6583,,http://www.eaton.com,,,,"Peachtree City, GA United States",United States,,,,
IBS 2022,"02/08/2022",2022,https://www.buildersshow.com/,DM,DXC Technology,7051,,http://www.dxc.technology,,,,"Tysons, VA United States",United States,,,,
IBS 2022,"02/08/2022",2022,https://www.buildersshow.com/,DM,Duradek US Inc,2629,,http://www.duradek.com,,,,"Surrey, BC Canada",Canada,,,,
IBS 2022,"02/08/2022",2022,https://www.buildersshow.com/,DM,Eden-Valders Stone,7589,,http://www.evstone.net,,,,"Eden, WI United States",United States,,,,
IBS 2022,"02/08/2022",2022,https://www.buildersshow.com/,DM,EMMEDUE SPA,1434,,http://www.mdue.it,,,,"Fano,",,,,,
IBS 2022,"02/08/2022",2022,https://www.buildersshow.com/,DM,Duct-EZ,3417,,https;//ductez.com,,,,"Westerville, OH United States",United States,,,,
IBS 2022,"02/08/2022",2022,https://www.buildersshow.com/,DM,Empire Comfort Systems Inc.,5171,,http://www.empirecomfort.com,,,,"Belleville, IL United States",United States,,,,
IBS 2022,"02/08/2022",2022,https://www.buildersshow.com/,DM,DuPont Performance Building Solutions,4001,,http://building.dupont.com,,,,"Midland, MI United States",United States,,,,
IBS 2022,"02/08/2022",2022,https://www.buildersshow.com/,DM,DRC Kapi Pencere Sistemleri San ve Tic. Ltd. Sti.,7383,,http://www.drcwindowdoor.com,,,,"Kocaeli, Turkey",Turkey,,,,
IBS 2022,"02/08/2022",2022,https://www.buildersshow.com/,DM,Dryer Vent Made Easy LLC,1737,,http://www.hy-c.com,,,,"Saint Louis, MI United States",United States,,,,
IBS 2022,"02/08/2022",2022,https://www.buildersshow.com/,DM,"Doyle Vacuum Sysems, LLC",7262,,http://www.garageairvac.com,,,,"Kentwood, MI United States",United States,,,,
IBS 2022,"02/08/2022",2022,https://www.buildersshow.com/,DM,ECHOtape,4052,,http://www.echotape.com,,,,"Montreal, QC Canada",Canada,,,,
IBS 2022,"02/08/2022",2022,https://www.buildersshow.com/,DM,DoorSaver / Perfect Products,2927,,http://www.doorsaver.com,,,,"Tulsa, OK United States",United States,,,,
IBS 2022,"02/08/2022",2022,https://www.buildersshow.com/,DM,DoorKing Inc,4215,,http://www.doorking.com,,,,"Inglewood, CA United States",United States,,,,
IBS 2022,"02/08/2022",2022,https://www.buildersshow.com/,DM,Doug Mockett & Co Inc.,1640,,http://www.mockett.com,,,,"Torrance, CA United States",United States,,,,
IBS 2022,"02/08/2022",2022,https://www.buildersshow.com/,DM,Dryerbox by InOVate Technologies,2134,,http://www.dryerbox.com,,,,"Jupiter, FL United States",United States,,,,
IBS 2022,"02/08/2022",2022,https://www.buildersshow.com/,DM,DRUTEX SA,2982,,http://www.drutex.eu,,,,"Bytow, Poland",Poland,,,,
IBS 2022,"02/08/2022",2022,https://www.buildersshow.com/,DM,Door & Window Market (DWM) Magazine,1837,,https://www.dwmmag.com/,,,,"Stafford, VA United States",United States,,,,
IBS 2022,"02/08/2022",2022,https://www.buildersshow.com/,DM,Discovery Dream Homes Ltd.,4060,,http://www.discoverydreamhomes.com,,,,"Keene, ON Canada",Canada,,,,
IBS 2022,"02/08/2022",2022,https://www.buildersshow.com/,DM,Duckshin Housing,4371,,,,,,"Seoul,",,,,,
IBS 2022,"02/08/2022",2022,https://www.buildersshow.com/,DM,Digger Specialties Inc.,8055,,http://www.diggerspecialties.com,,,,"Bremen, IN United States",United States,,,,
IBS 2022,"02/08/2022",2022,https://www.buildersshow.com/,DM,Designer House Plans,6592,,http://www.designerhouseplans.com,,,,"belvedere, SC United States",United States,,,,
IBS 2022,"02/08/2022",2022,https://www.buildersshow.com/,DM,"ECi Software Solutions, Inc.",6153,,http://www.ecisolutions.com,,,,"Fort Worth, TX United States",United States,,,,
IBS 2022,"02/08/2022",2022,https://www.buildersshow.com/,DM,DoorBird,5577,,http://www.doorbird.com,,,,"Berlin, United States",United States,,,,
IBS 2022,"02/08/2022",2022,https://www.buildersshow.com/,DM,Design Tile and Flooring (Ventiques),3416,,http://www.ventiques.com,,,,"Waite Park, MN United States",United States,,,,
IBS 2022,"02/08/2022",2022,https://www.buildersshow.com/,DM,DIG Corporation,3431,,http://www.digcorp.com,,,,"Vista, CA United States",United States,,,,
IBS 2022,"02/08/2022",2022,https://www.buildersshow.com/,DM,Delta Insaat Turizm Elektronik Semsiye San. Ve Tic. Ltd. Sti.,1816,,http://www.deltaparasol.com,,,,"Istanbul,",,,,,
IBS 2022,"02/08/2022",2022,https://www.buildersshow.com/,DM,Dell,6847,,http://www.dell.com/nahb,,,,"Round Rock, TX United States",United States,,,,
IBS 2022,"02/08/2022",2022,https://www.buildersshow.com/,DM,Dial Manufacturing Inc,4683,,http://www.dialmfg.com,,,,"Phoenix, AZ United States",United States,,,,
IBS 2022,"02/08/2022",2022,https://www.buildersshow.com/,DM,"Delta Electronics (Americas), Ltd.",4291,,http://www.delta-americas.com,,,,"Fremont, CA United States",United States,,,,
IBS 2022,"02/08/2022",2022,https://www.buildersshow.com/,DM,Defender Screens International DBA Progressive Screens,4843,,http://www.progressivescreens.com,,,,"Sarasota, FL United States",United States,,,,
IBS 2022,"02/08/2022",2022,https://www.buildersshow.com/,DM,DECOLUX Interior Mouldings,1725,,http://www.dortdivan.com,,,,"Ankara, Turkey",Turkey,,,,
IBS 2022,"02/08/2022",2022,https://www.buildersshow.com/,DM,Deck Rite LLC,3533,,http://www.deckrite.com,,,,"North Little Rock, AR United States",United States,,,,
IBS 2022,"02/08/2022",2022,https://www.buildersshow.com/,DM,Deako Lighting,5683,,http://www.deako.com,,,,"Seattle, WA United States",United States,,,,
IBS 2022,"02/08/2022",2022,https://www.buildersshow.com/,DM,Delaney Hardware,7970,,http://www.delaneyhardware.com,,,,"Cumming, GA United States",United States,,,,
IBS 2022,"02/08/2022",2022,https://www.buildersshow.com/,DM,dassoXTR,3031,,http://www.dassoxtr.com,,,,"Atlanta, GA United States",United States,,,,
IBS 2022,"02/08/2022",2022,https://www.buildersshow.com/,DM,"DAVE Air International Co., Ltd.",8151,,http://www.dave-air.com,,,,"Springs, CO United States",United States,,,,
IBS 2022,"02/08/2022",2022,https://www.buildersshow.com/,DM,Design Basics,7065,,http://www.designbasics.com,,,,"Omaha, NE United States",United States,,,,
IBS 2022,"02/08/2022",2022,https://www.buildersshow.com/,DM,Danver Outdoor Kitchens,2610,,http://danver.com,,,,"Wallingford, CT United States",United States,,,,
IBS 2022,"02/08/2022",2022,https://www.buildersshow.com/,DM,Daltile,2532,,http://www.daltile.com,,,,"Dallas, TX United States",United States,,,,
IBS 2022,"02/08/2022",2022,https://www.buildersshow.com/,DM,"Daiwa by US Jaclean, Inc.",1823,,http://www.daiwamassage.com,,,,"Gardena, CA United States",United States,,,,
IBS 2022,"02/08/2022",2022,https://www.buildersshow.com/,DM,CUTCO Closing Gifts,5393,,http://www.cutco.com,,,,"Olean, NY United States",United States,,,,
IBS 2022,"02/08/2022",2022,https://www.buildersshow.com/,DM,CWS,7353,,http://www.cws.cc,,,,"Ocala, FL United States",United States,,,,
IBS 2022,"02/08/2022",2022,https://www.buildersshow.com/,DM,Deacero USA,3233,,http://www.deacero.com,,,,"Houston, TX United States",United States,,,,
IBS 2022,"02/08/2022",2022,https://www.buildersshow.com/,DM,"DOORFRAMER, inc.",2736,,http://www.doorframer.com,,,,"Elk Grove, CA United States",United States,,,,
IBS 2022,"02/08/2022",2022,https://www.buildersshow.com/,DM,Create Flooring,8461,,http://www.createflooring.com,,,,"Calhoun, GA United States",United States,,,,
IBS 2022,"02/08/2022",2022,https://www.buildersshow.com/,DM,Dayton Superior Corporation,302,,http://www.daytonsuperior.com,,,,"Miamisburg, OH United States",United States,,,,
IBS 2022,"02/08/2022",2022,https://www.buildersshow.com/,DM,Coronado Stone Products,3021,,http://www.coronado.com,,,,"Fontana, CA United States",United States,,,,
IBS 2022,"02/08/2022",2022,https://www.buildersshow.com/,DM,Custom Home Accessories,2929,,http://www.customhomex.com,,,,"Rancho Cordova, CA United States",United States,,,,
IBS 2022,"02/08/2022",2022,https://www.buildersshow.com/,DM,Copperfield,510,,http://www.copperfield.com,,,,"Scranton, PA United States",United States,,,,
IBS 2022,"02/08/2022",2022,https://www.buildersshow.com/,DM,Corexall Aluminyum A.S.,2020,,http://www.alucorex.com,,,,"Istanbul,",,,,,
IBS 2022,"02/08/2022",2022,https://www.buildersshow.com/,DM,Cooper Lighting Solutions,5945,,http://cooperlighting.com,,,,"Peachtree City, GA United States",United States,,,,
IBS 2022,"02/08/2022",2022,https://www.buildersshow.com/,DM,Contemporary Closet Concepts,3608,,http://www.contemporaryclosetconcepts.com,,,,"Sarasota, FL United States",United States,,,,
IBS 2022,"02/08/2022",2022,https://www.buildersshow.com/,DM,DMSi Software,6786,,http://www.dmsi.com,,,,"Omaha, NE United States",United States,,,,
IBS 2022,"02/08/2022",2022,https://www.buildersshow.com/,DM,Construction Monitor,6857,,http://www.constructionmonitor.com,,,,"Cedar City, UT United States",United States,,,,
IBS 2022,"02/08/2022",2022,https://www.buildersshow.com/,DM,Deleth USA,1937,,http://www.delethusa.com,,,,"Aventura, FL United States",United States,,,,
IBS 2022,"02/08/2022",2022,https://www.buildersshow.com/,DM,Condair HumiLife,5976,,http://wwwcondairhumilife.com.,,,,"Sturtevant, WI United States",United States,,,,
IBS 2022,"02/08/2022",2022,https://www.buildersshow.com/,DM,Concept SGA Inc.,4659,,http://www.sga.ca,,,,"Terrebonne, QC Canada",Canada,,,,
IBS 2022,"02/08/2022",2022,https://www.buildersshow.com/,DM,Computer Presentation Systems,6653,,http://www.cpsusa.com,,,,"Rancho Cordova, CA United States",United States,,,,
IBS 2022,"02/08/2022",2022,https://www.buildersshow.com/,DM,Cyclone Range Hoods Inc,3957,,http://www.cyclonerangehoods.com,,,,"Scarborough, ON Canada",Canada,,,,
IBS 2022,"02/08/2022",2022,https://www.buildersshow.com/,DM,Combilift,2517,,http://www.combilift.com/us,,,,"Greensboro, NC United States",United States,,,,
IBS 2022,"02/08/2022",2022,https://www.buildersshow.com/,DM,Copper Creek Hardware Inc,3216,,http://www.coppercreekhardware.com,,,,"Murietta, CA United States",United States,,,,
IBS 2022,"02/08/2022",2022,https://www.buildersshow.com/,DM,Construction Solutions,700,,http://www.newconstructionsolutions.com,,,,"Phoenix, AZ United States",United States,,,,
IBS 2022,"02/08/2022",2022,https://www.buildersshow.com/,DM,CoConstruct LLC,6171,,http://www.co-construct.com,,,,"Charlottesville, VA United States",United States,,,,
IBS 2022,"02/08/2022",2022,https://www.buildersshow.com/,DM,CoFair Products Inc,3720,,http://www.cofair.com,,,,"Morton Grove, IL United States",United States,,,,
IBS 2022,"02/08/2022",2022,https://www.buildersshow.com/,DM,Clever Polimer Yapi Kimyasallar A.S.,3203,,http://www.cleverpolymers.com,,,,"Kocaeli,",,,,,
IBS 2022,"02/08/2022",2022,https://www.buildersshow.com/,DM,CoFi,6490,,http://www.cofisoftware.com,,,,"Lindon, UT United States",United States,,,,
IBS 2022,"02/08/2022",2022,https://www.buildersshow.com/,DM,Clopay Corporation,3682,,http://www.clopaydoor.com,,,,"Mason, OH United States",United States,,,,
IBS 2022,"02/08/2022",2022,https://www.buildersshow.com/,DM,ClosetMaid,4753,,http://www.closetmaidpro.com,,,,"Orlando, FL United States",United States,,,,
IBS 2022,"02/08/2022",2022,https://www.buildersshow.com/,DM,CITY Furniture,5277,,https://www.cityfurniture.com/,,,,"Tamarac, FL United States",United States,,,,
IBS 2022,"02/08/2022",2022,https://www.buildersshow.com/,DM,"CJT Industry, Inc.",403,,https://cjtusa.com,,,,"Birmingham, MI United States",United States,,,,
IBS 2022,"02/08/2022",2022,https://www.buildersshow.com/,DM,Chelsea Building Products,17,,http://www.chelseabuildingproducts.com,,,,"Oakmont, PA United States",United States,,,,
IBS 2022,"02/08/2022",2022,https://www.buildersshow.com/,DM,Chase,6647,,http://www.chase.com,,,,"Columbus, OH United States",United States,,,,
IBS 2022,"02/08/2022",2022,https://www.buildersshow.com/,DM,CompanyCam,311,,http://www.companycam.com,,,,"Lincoln, NE United States",United States,,,,
IBS 2022,"02/08/2022",2022,https://www.buildersshow.com/,DM,Constellation HomeBuilder Systems,6661,,http://www.constellationhb.com,,,,"Markham, ON Canada",Canada,,,,
IBS 2022,"02/08/2022",2022,https://www.buildersshow.com/,DM,"Chameleon Power, Inc.",6382,,http://www.chameleonpower.com,,,,"Novi, MI United States",United States,,,,
IBS 2022,"02/08/2022",2022,https://www.buildersshow.com/,DM,Cox Communications,5583,,http://cox.com/communities,,,,"Atlanta, GA United States",United States,,,,
IBS 2022,"02/08/2022",2022,https://www.buildersshow.com/,DM,Chevrolet Commercial Vehicles,4483,,http://www.chevycommercial.com,,,,"Farmington Hills, MI United States",United States,,,,
IBS 2022,"02/08/2022",2022,https://www.buildersshow.com/,DM,Clubhouse Decking/TruNorth Composites,4056,,http://www.trunorthdeck.com,,,,"Brantford, ON Canada",Canada,,,,
IBS 2022,"02/08/2022",2022,https://www.buildersshow.com/,DM,Clean&Safe,1323,,http://www.dropcloth.com,,,,"Greenville, SC United States",United States,,,,
IBS 2022,"02/08/2022",2022,https://www.buildersshow.com/,DM,CBUSA,6370,,http://www.cbusa.us,,,,"Austin, TX United States",United States,,,,
IBS 2022,"02/08/2022",2022,https://www.buildersshow.com/,DM,Carrier Corporation,5957,,http://carrier.com,,,,"Indianapolis, IN United States",United States,,,,
IBS 2022,"02/08/2022",2022,https://www.buildersshow.com/,DM,Carpet Express Inc.,1029,,http://www.carpetexpress.com,,,,"Dalton, GA United States",United States,,,,
IBS 2022,"02/08/2022",2022,https://www.buildersshow.com/,DM,Century Aluminum Railings,2933,,http://www.centuryrailings.com,,,,"Summerland, BC Canada",Canada,,,,
IBS 2022,"02/08/2022",2022,https://www.buildersshow.com/,DM,Centricity,6757,,http://www.centricity.com,,,,"St. Petersburg, FL United States",United States,,,,
IBS 2022,"02/08/2022",2022,https://www.buildersshow.com/,DM,CartoBlue,6987,,http://www.cartoblue.com,,,,"Miramar Beach, FL United States",United States,,,,
IBS 2022,"02/08/2022",2022,https://www.buildersshow.com/,DM,Caribou Creek Log Homes Inc,406,,http://www.cariboucreek.com,,,,"Bonners Ferry, ID United States",United States,,,,
IBS 2022,"02/08/2022",2022,https://www.buildersshow.com/,DM,CAMO Fasteners (National Nail Corp),5758,,http://www.nationalnail.com,,,,"Grand Rapids, MI United States",United States,,,,
IBS 2022,"02/08/2022",2022,https://www.buildersshow.com/,DM,Carlisle Construction Materials,7779,,http://www.carlisleconstructionmaterials.com,,,,"Carlisle, PA United States",United States,,,,
IBS 2022,"02/08/2022",2022,https://www.buildersshow.com/,DM,Cadsoft,6761,,http://www.cadsoft.com,,,,"Guelph, ON Canada",Canada,,,,
IBS 2022,"02/08/2022",2022,https://www.buildersshow.com/,DM,Cavity Sliders USA,1210,,http://www.cavitysliders.com,,,,"Gardena, CA United States",United States,,,,
IBS 2022,"02/08/2022",2022,https://www.buildersshow.com/,DM,Canary Closets & Cabinetry,2214,,http://www.canarycc.com,,,,"Union, NJ United States",United States,,,,
IBS 2022,"02/08/2022",2022,https://www.buildersshow.com/,DM,Canadian Export Development,3248,,http://canbuild.org,,,,"Ottawa, ON Canada",Canada,,,,
IBS 2022,"02/08/2022",2022,https://www.buildersshow.com/,DM,Byers Products Group dba Versa Lift,223,,http://www.bpghome.com,,,,"Oklahoma City, OK United States",United States,,,,
IBS 2022,"02/08/2022",2022,https://www.buildersshow.com/,DM,"citypost & rail, LLC",2833,,http://www.citypost.com,,,,"Liberty Lake, WA United States",United States,,,,
IBS 2022,"02/08/2022",2022,https://www.buildersshow.com/,DM,CertainTeed,4783,,http://www.certainteed.com,,,,"Malvern, PA United States",United States,,,,
IBS 2022,"02/08/2022",2022,https://www.buildersshow.com/,DM,"Burgess Construction Consultants, Inc.",8475,,http://www.burgess-inc.com,,,,"Plano, TX United States",United States,,,,
IBS 2022,"02/08/2022",2022,https://www.buildersshow.com/,DM,C.H.I. Overhead Doors,1103,,http://www.chiohd.com,,,,"Arthur, IL United States",United States,,,,
IBS 2022,"02/08/2022",2022,https://www.buildersshow.com/,DM,Caliber Home Loans - National Builder Division,6853,,http://caliberhomeloans.com,,,,"Anaheim, CA United States",United States,,,,
IBS 2022,"02/08/2022",2022,https://www.buildersshow.com/,DM,busybusy The Leader In Time Tracking Software for Crews & Equipment,6453,,http://www.busybusy.com,,,,"St. George, UT United States",United States,,,,
IBS 2022,"02/08/2022",2022,https://www.buildersshow.com/,DM,Buildxact,6871,,http://www.buildxact.com,,,,"Melbourne, Australia",Australia,,,,
IBS 2022,"02/08/2022",2022,https://www.buildersshow.com/,DM,BuildOn Technologies,6390,,http://www.buildontechnologies.com,,,,"Houston, TX United States",United States,,,,
IBS 2022,"02/08/2022",2022,https://www.buildersshow.com/,DM,BuildersLighting.com,2813,,http://www.builderslighting.com,,,,"Portland, OR United States",United States,,,,
IBS 2022,"02/08/2022",2022,https://www.buildersshow.com/,DM,ChamClad,3059,,http://www.chamclad.com,,,,"Edmonton, AB Canada",Canada,,,,
IBS 2022,"02/08/2022",2022,https://www.buildersshow.com/,DM,"BuildersMark, LLC",2427,,http://www.buildersmark.com,,,,"Louisville, KY United States",United States,,,,
IBS 2022,"02/08/2022",2022,https://www.buildersshow.com/,DM,Builders Mutual,3220,,http://www.buildersmutual.com,,,,"Raleigh, NC United States",United States,,,,
IBS 2022,"02/08/2022",2022,https://www.buildersshow.com/,DM,BuyRailings,2829,,http://www.buyrailings.com,,,,"Brookfield, CT United States",United States,,,,
IBS 2022,"02/08/2022",2022,https://www.buildersshow.com/,DM,Built Technologies,6361,,http://getbuilt.com,,,,"Nashville, TN United States",United States,,,,
IBS 2022,"02/08/2022",2022,https://www.buildersshow.com/,DM,"Builders Adventure, Inc.",2033,,http://www.megabai.com,,,,"Buffalo Grove, IL United States",United States,,,,
IBS 2022,"02/08/2022",2022,https://www.buildersshow.com/,DM,BuilderEase LLC,1438,,http://www.builderease.com,,,,"Coral Springs, FL United States",United States,,,,
IBS 2022,"02/08/2022",2022,https://www.buildersshow.com/,DM,Builder Partnerships,6753,,http://www.builderpartnerships.com,,,,"Littleton, CO United States",United States,,,,
IBS 2022,"02/08/2022",2022,https://www.buildersshow.com/,DM,Builder Nuggets Podcast,6188,,http://www.buildernuggets.com,,,,"Charlotte, NC United States",United States,,,,
IBS 2022,"02/08/2022",2022,https://www.buildersshow.com/,DM,Builder Lynx,6642,,http://www.builderlynx.com,,,,"Toronto, ON Canada",Canada,,,,
IBS 2022,"02/08/2022",2022,https://www.buildersshow.com/,DM,Builders Publishing Group,6590,,http://www.builderspublishinggroup.com,,,,"Maitland, FL United States",United States,,,,
IBS 2022,"02/08/2022",2022,https://www.buildersshow.com/,DM,BuildBook Inc.,6657,,https://buildbook.co,,,,"Fairfield, CT United States",United States,,,,
IBS 2022,"02/08/2022",2022,https://www.buildersshow.com/,DM,BuildBlock Building Systems,1213,,http://buildblock.com,,,,"Oklahoma City, OK United States",United States,,,,
IBS 2022,"02/08/2022",2022,https://www.buildersshow.com/,DM,Builders Digital Experience (BDX),6557,,http://thebdx.com,,,,"Austin, TX United States",United States,,,,
IBS 2022,"02/08/2022",2022,https://www.buildersshow.com/,DM,Breck Ironworks,3029,,http://www.breckironworks.com,,,,"Breckenridge, CO United States",United States,,,,
IBS 2022,"02/08/2022",2022,https://www.buildersshow.com/,DM,Builder Finance Inc.,6541,,http://www.builderfinance.com,,,,"New York, NY United States",United States,,,,
IBS 2022,"02/08/2022",2022,https://www.buildersshow.com/,DM,BTS Aluminium,1206,,,,,,"Istanbul, Turkey",Turkey,,,,
IBS 2022,"02/08/2022",2022,https://www.buildersshow.com/,DM,Brilliant,5679,,http://www.brilliant.tech,,,,"San Mateo, CA United States",United States,,,,
IBS 2022,"02/08/2022",2022,https://www.buildersshow.com/,DM,Brazilian Lumber,7483,,https://brazilianlumber.com/,,,,"Miami, FL United States",United States,,,,
IBS 2022,"02/08/2022",2022,https://www.buildersshow.com/,DM,Box Brownie .com,1834,,http://boxbrownie.com,,,,"Maroochydore, QLD Australia",Australia,,,,
IBS 2022,"02/08/2022",2022,https://www.buildersshow.com/,DM,"Boral North America, a Westlake Company",2771,,http://www.boralamerica.com,,,,"Roswell, GA United States",United States,,,,
IBS 2022,"02/08/2022",2022,https://www.buildersshow.com/,DM,Boman Kemp,1518,,http://www.boman-kemp.com,,,,"Ogden, UT United States",United States,,,,
IBS 2022,"02/08/2022",2022,https://www.buildersshow.com/,DM,Boise Cascade Engineered Wood Products,5859,,http://www.bc.com,,,,"Boise, ID United States",United States,,,,
IBS 2022,"02/08/2022",2022,https://www.buildersshow.com/,DM,Bor Billet Aluminyum San. Ve Tic. LTD. STI.,1413,,http://www.boraluminyum.com,,,,"Tekirdag, Turkey",Turkey,,,,
IBS 2022,"02/08/2022",2022,https://www.buildersshow.com/,DM,Builders FirstSource,3301,,http://www.bldr.com,,,,"Dallas, TX United States",United States,,,,
IBS 2022,"02/08/2022",2022,https://www.buildersshow.com/,DM,BRAYN Consulting,5991,,http://www.brayn.com,,,,"Las Vegas, NV United States",United States,,,,
IBS 2022,"02/08/2022",2022,https://www.buildersshow.com/,DM,Blueprint Corp,6883,,http://www.blueprintcorp.com,,,,"Calgary, AB Canada",Canada,,,,
IBS 2022,"02/08/2022",2022,https://www.buildersshow.com/,DM,BlueTape,5887,,http://bluetape.com,,,,"San Francosco, CA United States",United States,,,,
IBS 2022,"02/08/2022",2022,https://www.buildersshow.com/,DM,Blue Tangerine,6787,,https://www.bluetangerine.com,,,,"Melbourne, FL United States",United States,,,,
IBS 2022,"02/08/2022",2022,https://www.buildersshow.com/,DM,"Blue Ridge Fiberboard, Inc.",2334,,http://www.blueridgefiberboard.com,,,,"Hampshire, IL United States",United States,,,,
IBS 2022,"02/08/2022",2022,https://www.buildersshow.com/,DM,Builders Capital,6253,,https://builders-capital.com/,,,,"Puyallup, WA United States",United States,,,,
IBS 2022,"02/08/2022",2022,https://www.buildersshow.com/,DM,"Blackwater Technical Services, Inc.",7548,,http://www.blackwatertesting.com,,,,"West Palm Beach, FL United States",United States,,,,
IBS 2022,"02/08/2022",2022,https://www.buildersshow.com/,DM,Black Mountain Lumber Company (d.b.a. Carolina Colortones),304,,http://www.finished-wood.com,,,,"Arden, NC United States",United States,,,,
IBS 2022,"02/08/2022",2022,https://www.buildersshow.com/,DM,Black Mamba Gloves,2920,,http://www.blackmambagloves.com,,,,"Alpharetta, GA United States",United States,,,,
IBS 2022,"02/08/2022",2022,https://www.buildersshow.com/,DM,Better Home Products,7347,,http://www.betterhomeproducts.com,,,,"Southlake, TX United States",United States,,,,
IBS 2022,"02/08/2022",2022,https://www.buildersshow.com/,DM,Broan-NuTone,3620,,http://www.broan-nutone.com,,,,"Hartford, WI United States",United States,,,,
IBS 2022,"02/08/2022",2022,https://www.buildersshow.com/,DM,"Biorev, LLC",6082,,http://biorev.us,,,,"Irving, TX United States",United States,,,,
IBS 2022,"02/08/2022",2022,https://www.buildersshow.com/,DM,Blue Fetch,5988,,http://www.thefetchapp.com,,,,"Clearwater, FL United States",United States,,,,
IBS 2022,"02/08/2022",2022,https://www.buildersshow.com/,DM,Best Orman Urunleri San. ve Tic. Ltd. Sti.,1226,,http://www.bestdoor.com.tr,,,,"Tekirdag,",,,,,
IBS 2022,"02/08/2022",2022,https://www.buildersshow.com/,DM,Beta Kimya San. ve Tic. A.S.,1927,,http://www.betakimya.com.tr,,,,"Istanbul,",,,,,
IBS 2022,"02/08/2022",2022,https://www.buildersshow.com/,DM,BILT Incorporated,7851,,http://www.biltapp.com,,,,"Grapevine, TX United States",United States,,,,
IBS 2022,"02/08/2022",2022,https://www.buildersshow.com/,DM,Bayhavuz Insaat San. Ic ve Dis Tic. Ltd. Sti,3433,,http://www.bayhavuz.com,,,,"Istanbul,",,,,,
IBS 2022,"02/08/2022",2022,https://www.buildersshow.com/,DM,Berry Global,5559,,http://www.typar.com,,,,"Mooresville, NC United States",United States,,,,
IBS 2022,"02/08/2022",2022,https://www.buildersshow.com/,DM,BERTRAND SP. ZO.O. SP. K,4983,,http://www.windowsbertrand.com,,,,"Luzino, Poland",Poland,,,,
IBS 2022,"02/08/2022",2022,https://www.buildersshow.com/,DM,Bevolo Gas & Electric Lights,610,,http://www.bevolo.com,,,,"New Orleans, LA United States",United States,,,,
IBS 2022,"02/08/2022",2022,https://www.buildersshow.com/,DM,Barricade Building Products,8349,,http://www.barricadebp.com,,,,"Doswell, VA United States",United States,,,,
IBS 2022,"02/08/2022",2022,https://www.buildersshow.com/,DM,Barrette Outdoor Living,2784,,http://www.barretteoutdoorliving.com,,,,"Egg Harbor City, NJ United States",United States,,,,
IBS 2022,"02/08/2022",2022,https://www.buildersshow.com/,DM,Bank Of America,5053,,http://www.bankofamerica.com,,,,"Santa Clarita, CA United States",United States,,,,
IBS 2022,"02/08/2022",2022,https://www.buildersshow.com/,DM,Baird Brothers Fine Hardwoods,725,,http://www.bairdbrothers.com,,,,"Canfield, OH United States",United States,,,,
IBS 2022,"02/08/2022",2022,https://www.buildersshow.com/,DM,"BioMicrobics, Inc.",5083,,http://www.biomicrobics.com,,,,"Lenexa, KS United States",United States,,,,
IBS 2022,"02/08/2022",2022,https://www.buildersshow.com/,DM,AZENCO US CORP,2600,,http://www.azenco-outdoor.com,,,,"Hialeah, FL United States",United States,,,,
IBS 2022,"02/08/2022",2022,https://www.buildersshow.com/,DM,Buildertrend,6370,,http://www.buildertrend.com,,,,"Omaha, NE United States",United States,,,,
IBS 2022,"02/08/2022",2022,https://www.buildersshow.com/,DM,Authentic Surfaces LLC,3010,,http://www.authenticreclaimed.com,,,,"Locust Grove, GA United States",United States,,,,
IBS 2022,"02/08/2022",2022,https://www.buildersshow.com/,DM,AtlasRTX,6982,,http://www.atlasrtx.com,,,,"Park City, UT United States",United States,,,,
IBS 2022,"02/08/2022",2022,https://www.buildersshow.com/,DM,Atlantis Rail Systems,1620,,http://www.atlantisrail.com,,,,"Plymouth, MA United States",United States,,,,
IBS 2022,"02/08/2022",2022,https://www.buildersshow.com/,DM,Bath Fitter,2225,,http://www.bathfittercommercial.com,,,,"St-Eustache, QC Canada",Canada,,,,
IBS 2022,"02/08/2022",2022,https://www.buildersshow.com/,DM,Bailey Metal Products Limited – Comslab,3961,,http://www.comslab.com,,,,"Concord, ON Canada",Canada,,,,
IBS 2022,"02/08/2022",2022,https://www.buildersshow.com/,DM,AxisPointe,6747,,http://www.axispointe.com,,,,"Santee, CA United States",United States,,,,
IBS 2022,"02/08/2022",2022,https://www.buildersshow.com/,DM,Astro Plastics,7690,,http://www.astroplastics.com,,,,"Covington, GA United States",United States,,,,
IBS 2022,"02/08/2022",2022,https://www.buildersshow.com/,DM,Atlantic Canada Pavilion,4045,,http://www.onbcanada.ca,,,,"St. John, NB Canada",Canada,,,,
IBS 2022,"02/08/2022",2022,https://www.buildersshow.com/,DM,BC Wood,4661,,http://www.bcwood.com,,,,"Langley, BC Canada",Canada,,,,
IBS 2022,"02/08/2022",2022,https://www.buildersshow.com/,DM,Asinox (Sink Malaysia) Kitchenware SDN.BHD,3129,,http://www.asinox.my,,,,"Penang, Malaysia",Malaysia,,,,
IBS 2022,"02/08/2022",2022,https://www.buildersshow.com/,DM,Asist Aluminyum San. Ve Tic. A.S.,1006,,http://www.asistal.com,,,,"kirklareli,",,,,,
IBS 2022,"02/08/2022",2022,https://www.buildersshow.com/,DM,Asteknik Muhendislik Yapi ve Yalitim Malz. Aluminyum ve Plastik San. Tic. A.S.,1825,,http://www.asprodesign.com,,,,"Istanbul, Turkey",Turkey,,,,
IBS 2022,"02/08/2022",2022,https://www.buildersshow.com/,DM,Ashland Pump,2827,,http://ashlandpump.com,,,,"Ashland, OH United States",United States,,,,
IBS 2022,"02/08/2022",2022,https://www.buildersshow.com/,DM,Artistic Visions LLC,6586,,http://www.artisticvisions.com,,,,"Stuart, FL United States",United States,,,,
IBS 2022,"02/08/2022",2022,https://www.buildersshow.com/,DM,ARFEN,1203,,http://www.arfen.com,,,,"Istanbul,",,,,,
IBS 2022,"02/08/2022",2022,https://www.buildersshow.com/,DM,Arizona Tile,5183,,http://www.arizonatile.com,,,,"Tempe, AZ United States",United States,,,,
IBS 2022,"02/08/2022",2022,https://www.buildersshow.com/,DM,"Beijing Northtech glass Co., Ltd",4991,,http://www.chinanorthglass.com,,,,"China, ON Canada",Canada,,,,
IBS 2022,"02/08/2022",2022,https://www.buildersshow.com/,DM,Artistic Paver Mfg.,1406,,http://www.artisticpavers.com,,,,"North Miami Beach, FL United States",United States,,,,
IBS 2022,"02/08/2022",2022,https://www.buildersshow.com/,DM,Arfen Insaat Taahhut Sanayi ve Ticaret Anonim Sirketi,1203,,http://www.arfen.com,,,,"Istanbul, Turkey",Turkey,,,,
IBS 2022,"02/08/2022",2022,https://www.buildersshow.com/,DM,Arcadia Custom,7271,,http://www.arcadia-custom.com,,,,"Tucson, AZ United States",United States,,,,
IBS 2022,"02/08/2022",2022,https://www.buildersshow.com/,DM,"Arcitell, LLC",2,,http://www.arcitell.com,,,,"Sugarcreek, OH United States",United States,,,,
IBS 2022,"02/08/2022",2022,https://www.buildersshow.com/,DM,"Arcways, Inc.",1328,,http://www.arcways.com,,,,"Neenah, WI United States",United States,,,,
IBS 2022,"02/08/2022",2022,https://www.buildersshow.com/,DM,Arrow Fastener Co. LLC,8261,,http://www.arrowfastener.com,,,,"Saddle Brook, NJ United States",United States,,,,
IBS 2022,"02/08/2022",2022,https://www.buildersshow.com/,DM,"AR Franchising, Inc. (AR Homes by Arthur Rutenberg)",7071,,http://arthurrutenberghomes.com,,,,"Clearwater, FL United States",United States,,,,
IBS 2022,"02/08/2022",2022,https://www.buildersshow.com/,DM,Architectural Grille,3029,,http://www.archgrille.com,,,,"Brooklyn, NY United States",United States,,,,
IBS 2022,"02/08/2022",2022,https://www.buildersshow.com/,DM,Angi,6861,,http://www.homeadvisor.com,,,,"Denver, CO United States",United States,,,,
IBS 2022,"02/08/2022",2022,https://www.buildersshow.com/,DM,Aquor Water Systems,5742,,http://www.aquorwatersystems.com,,,,"Port Townsend, WA United States",United States,,,,
IBS 2022,"02/08/2022",2022,https://www.buildersshow.com/,DM,AquaMaster Fountains and Aerators,3333,,http://www.aquamasterfountains.com,,,,"Kiel, WI United States",United States,,,,
IBS 2022,"02/08/2022",2022,https://www.buildersshow.com/,DM,Argos Systems Inc.,6882,,http://www.argos.com,,,,"Nashua, NH United States",United States,,,,
IBS 2022,"02/08/2022",2022,https://www.buildersshow.com/,DM,Allegheny Mountain Hardwood Flooring,2232,,http://www.hickmanwoods.com,,,,"Emlenton, PA United States",United States,,,,
IBS 2022,"02/08/2022",2022,https://www.buildersshow.com/,DM,AMVIC Building System,4253,,http://www.amvicsystem.com,,,,"Toronto, ON Canada",Canada,,,,
IBS 2022,"02/08/2022",2022,https://www.buildersshow.com/,DM,"Ames Research Laboratories, Inc.",2627,,http://www.amesresearch.com,,,,"Salem, OR United States",United States,,,,
IBS 2022,"02/08/2022",2022,https://www.buildersshow.com/,DM,ALKOR Aluminyum Enerji Insaat San. ve Tic. A.S.,1818,,http://www.alkoraluminyum.com.tr,,,,"Izmir,",,,,,
IBS 2022,"02/08/2022",2022,https://www.buildersshow.com/,DM,"ANCI, Inc.",706,,http://www.anciglobal.com,,,,"Kennesaw, GA United States",United States,,,,
IBS 2022,"02/08/2022",2022,https://www.buildersshow.com/,DM,All American Bowling Equipment Co.,1113,,http://allamericanbowlingequipment.com,,,,"Imperial, PA United States",United States,,,,
IBS 2022,"02/08/2022",2022,https://www.buildersshow.com/,DM,Airscoot,4383,,http://www.airscoot.co,,,,"Halifax, NS Canada",Canada,,,,
IBS 2022,"02/08/2022",2022,https://www.buildersshow.com/,DM,Arclin,7371,,http://arclin.com,,,,"Roswell, GA United States",United States,,,,
IBS 2022,"02/08/2022",2022,https://www.buildersshow.com/,DM,Akcali Boya veKimya Sanayi Tic. A.S.,5642,,http://www.akcaliboya.com.tr,,,,"Istanbul, Turkey",Turkey,,,,
IBS 2022,"02/08/2022",2022,https://www.buildersshow.com/,DM,Agora,1537,,http://agoratap.com,,,,"Powell, OH United States",United States,,,,
IBS 2022,"02/08/2022",2022,https://www.buildersshow.com/,DM,Allan Michael Inc./Advanced House Plans,6483,,http://www.advancedhouseplans.com,,,,"Elkhorn, NE United States",United States,,,,
IBS 2022,"02/08/2022",2022,https://www.buildersshow.com/,DM,Arktek 3D,6487,,http://www.arktek3d.com,,,,"St. Johns, FL United States",United States,,,,
IBS 2022,"02/08/2022",2022,https://www.buildersshow.com/,DM,ANB Metal San. ve Tic. A.S.,3506,,http://www.anbmetal.com,,,,"Tekirdag, AL United States",United States,,,,
IBS 2022,"02/08/2022",2022,https://www.buildersshow.com/,DM,Albayrak Grup Ic Ve Dis Ticaret A.S.,2016,,http://www.albayrak.com,,,,"Istanbul, Turkey",Turkey,,,,
IBS 2022,"02/08/2022",2022,https://www.buildersshow.com/,DM,AGS Stainless Inc,2733,,http://www.agsstainless.com,,,,"Bainbridge Island, WA United States",United States,,,,
IBS 2022,"02/08/2022",2022,https://www.buildersshow.com/,DM,"Aerus, LLC",313,,http://www.aerusoforlando.com,,,,"Orlando, FL United States",United States,,,,
IBS 2022,"02/08/2022",2022,https://www.buildersshow.com/,DM,Aprilaire,3006,,http://www.aprilaire.com,,,,"Madison, WI United States",United States,,,,
IBS 2022,"02/08/2022",2022,https://www.buildersshow.com/,DM,Acumatica,6461,,http://www.acumatica.com/construction,,,,"Bellevue, WA United States",United States,,,,
IBS 2022,"02/08/2022",2022,https://www.buildersshow.com/,DM,Acuity Brands,7543,,http://www.acuitybrands.com,,,,"Brookhaven, GA United States",United States,,,,
IBS 2022,"02/08/2022",2022,https://www.buildersshow.com/,DM,ACP,2025,,http://www.acpideas.com,,,,"Neenah, WI United States",United States,,,,
IBS 2022,"02/08/2022",2022,https://www.buildersshow.com/,DM,Acoustiblok Inc,810,,http://www.acoustiblok.com,,,,"Tampa, FL United States",United States,,,,
IBS 2022,"02/08/2022",2022,https://www.buildersshow.com/,DM,Acme Brick Co,918,,http://building.dupont.com,,,,"Ft. worth, TX United States",United States,,,,
IBS 2022,"02/08/2022",2022,https://www.buildersshow.com/,DM,ABC Supply Co. Inc.,2932,,http://abcsupply.com,,,,"Beloit, WI United States",United States,,,,
IBS 2022,"02/08/2022",2022,https://www.buildersshow.com/,DM,"abcd, jr. enterprises, LLC",5593,,http://millennials4life.com,,,,"Knoxville, TN United States",United States,,,,
IBS 2022,"02/08/2022",2022,https://www.buildersshow.com/,DM,Aeratis Porch Products,8264,,http://www.aeratis.com,,,,"Tempe, AZ United States",United States,,,,
IBS 2022,"02/08/2022",2022,https://www.buildersshow.com/,DM,Abatron Inc.,503,,http://www.abatron.com,,,,"Kenosha, WI United States",United States,,,,
IBS 2022,"02/08/2022",2022,https://www.buildersshow.com/,DM,Aareas Interactive Inc.,6352,,http://www.aareas.com,,,,"Toronto, ON Canada",Canada,,,,
IBS 2022,"02/08/2022",2022,https://www.buildersshow.com/,DM,Acemar Wood Products FL LLC,1638,,http://www.acemar.us,,,,"Largo, FL United States",United States,,,,
IBS 2022,"02/08/2022",2022,https://www.buildersshow.com/,DM,3D CityScapes,6591,,https://www.3dcityscapes.ca/,,,,"North York, ON Canada",Canada,,,,
IBS 2022,"02/08/2022",2022,https://www.buildersshow.com/,DM,3A Composites USA,3510,,http://www.3acomposites.com,,,,"Davidson, NC United States",United States,,,,
IBS 2022,"02/08/2022",2022,https://www.buildersshow.com/,DM,Aeroseal & AeroBarrier,615,,http://www.aerobarrier.net,,,,"Miamisburg, OH United States",United States,,,,
IBS 2022,"02/08/2022",2022,https://www.buildersshow.com/,DM,84 Lumber,4471,,http://www.84lumber.com,,,,"Eighty Four, PA United States",United States,,,,
IBS 2022,"02/08/2022",2022,https://www.buildersshow.com/,DM,Adako USA,1136,,http://www.adakousa.com,,,,"Santa Ana, CA United States",United States,,,,
IBS 2022,"02/08/2022",2022,https://www.buildersshow.com/,DM,.,5371,,http://www.buildersshow.com,,,,"Washington, DC United States",United States,,,,
IBS 2022,"02/08/2022",2022,https://www.buildersshow.com/,DM,.,435,,,,,,"Washington, DC United States",United States,,,,
IBS 2022,"02/08/2022",2022,https://www.buildersshow.com/,DM,24x7 AEC,6887,,http://www.24x7aec.com,,,,"Canton, MI United States",United States,,,,
IBS 2022,"02/08/2022",2022,https://www.buildersshow.com/,DM,Advantage Alliance,1326,,https://www.advantageallianceprogram.com/,,,,"Anna, TX United States",United States,,,,
IBS 2022,"02/08/2022",2022,https://www.buildersshow.com/,DM,3 Euro Windows Ltd,5752,,http://www.3eurowindows.com,,,,"Waterloo, ON Canada",Canada,,,,
IBS 2022,"02/08/2022",2022,https://www.buildersshow.com/,DM,2-10 Home Buyers Warranty,5883,,http://www.2-10.com,,,,"Denver, CO United States",United States,,,,
IBS 2022,"02/08/2022",2022,https://www.buildersshow.com/,DM,AIA Contract Documents,6190,,http://www.aia.org/contractdocs,,,,"Washington, DC United States",United States,,,,
